{
"type": "FeatureCollection",
"name": "boletin_mineria_20260610",
"crs": { "type": "name", "properties": { "name": "urn:ogc:def:crs:OGC:1.3:CRS84" } },
"features": [
{ "type": "Feature", "properties": { "cve": "2820816", "nombre": "BOMBONERA V, DEL 1 AL 9", "solicitante": "Pringles Cristián Daniel", "region": "REGIÓN DE ANTOFAGASTA", "provincia": "Provincia de Antofagasta", "comuna": null, "superficie_ha": 45.0, "datum_original": "PSAD56", "huso": 19, "epsg_origen": 24879, "tipo_publicacion": "manifestacion", "fuente_pdf": "http://www.diariooficial.interior.gob.cl/publicaciones/2026/06/10/44471/07/2820816.pdf", "archivo": "gm_manifestacion_2820816.pdf", "fecha": "10-06-2026", "edicion": "44471" }, "geometry": { "type": "Polygon", "coordinates": [ [ [ -70.54029727041862, -24.348459928031634 ], [ -70.535369845611299, -24.348509887270804 ], [ -70.535467867097296, -24.356635569724713 ], [ -70.540395606179843, -24.356585591691108 ], [ -70.54029727041862, -24.348459928031634 ] ] ] } },
{ "type": "Feature", "properties": { "cve": "2821152", "nombre": "SAN SEBASTIÁN DEL 1 AL 90", "solicitante": "Campusano Silva Óscar Eduardo", "region": "REGIÓN DE ANTOFAGASTA", "provincia": "Provincia de Antofagasta", "comuna": null, "superficie_ha": 900.0, "datum_original": "PSAD56", "huso": 19, "epsg_origen": 24879, "tipo_publicacion": "manifestacion", "fuente_pdf": "http://www.diariooficial.interior.gob.cl/publicaciones/2026/06/10/44471/07/2821152.pdf", "archivo": "gm_manifestacion_2821152.pdf", "fecha": "10-06-2026", "edicion": "44471" }, "geometry": { "type": "Polygon", "coordinates": [ [ [ -70.456034367511208, -23.131073029551128 ], [ -70.438458954669528, -23.131234330723792 ], [ -70.438941087914017, -23.176386057768454 ], [ -70.456522386522536, -23.176224405816246 ], [ -70.456034367511208, -23.131073029551128 ] ] ] } },
{ "type": "Feature", "properties": { "cve": "2821146", "nombre": "LA LEO 1/10", "solicitante": "Cepeda Alfaro Diego Alonso", "region": "REGIÓN DE ATACAMA", "provincia": "Provincia de Copiapó", "comuna": "Copiapó", "superficie_ha": 100.0, "datum_original": "PSAD56", "huso": 19, "epsg_origen": 24879, "tipo_publicacion": "manifestacion", "fuente_pdf": "http://www.diariooficial.interior.gob.cl/publicaciones/2026/06/10/44471/07/2821146.pdf", "archivo": "gm_manifestacion_2821146.pdf", "fecha": "10-06-2026", "edicion": "44471" }, "geometry": { "type": "Polygon", "coordinates": [ [ [ -70.900363677093367, -27.932476956791305 ], [ -70.890204974050008, -27.932616795634637 ], [ -70.890362039072713, -27.941639242082093 ], [ -70.900521585009798, -27.941499350268099 ], [ -70.900363677093367, -27.932476956791305 ] ] ] } },
{ "type": "Feature", "properties": { "cve": "2821285", "nombre": "MAMELUCO I  1-10", "solicitante": "Fuentealba Muñoz Ernesto Fernando", "region": "REGIÓN DE ATACAMA", "provincia": "Provincia de Copiapó", "comuna": null, "superficie_ha": 90.0, "datum_original": "PSAD56", "huso": 19, "epsg_origen": 24879, "tipo_publicacion": "manifestacion", "fuente_pdf": "http://www.diariooficial.interior.gob.cl/publicaciones/2026/06/10/44471/07/2821285.pdf", "archivo": "gm_manifestacion_2821285.pdf", "fecha": "10-06-2026", "edicion": "44471" }, "geometry": { "type": "Polygon", "coordinates": [ [ [ -70.700134493452055, -27.43314528185887 ], [ -70.684963887276055, -27.433329536394446 ], [ -70.685046130259153, -27.438744006858755 ], [ -70.700217476045879, -27.438559709927667 ], [ -70.700134493452055, -27.43314528185887 ] ] ] } },
{ "type": "Feature", "properties": { "cve": "2821252", "nombre": "AGUSTINA 3 DEL 1-30", "solicitante": "Molina Donoso Arturo", "region": "REGIÓN DE ATACAMA", "provincia": "Provincia de Chañaral", "comuna": null, "superficie_ha": 30.0, "datum_original": "WGS84", "huso": 19, "epsg_origen": 32719, "tipo_publicacion": "manifestacion", "fuente_pdf": "http://www.diariooficial.interior.gob.cl/publicaciones/2026/06/10/44471/07/2821252.pdf", "archivo": "gm_manifestacion_2821252.pdf", "fecha": "10-06-2026", "edicion": "44471" }, "geometry": { "type": "Polygon", "coordinates": [ [ [ -69.949621425196653, -26.806713275385846 ], [ -69.944591136746979, -26.806746927955011 ], [ -69.944636027479945, -26.812163492066048 ], [ -69.949666554901626, -26.812129831627072 ], [ -69.949621425196653, -26.806713275385846 ] ] ] } },
{ "type": "Feature", "properties": { "cve": "2821253", "nombre": "AGUSTINA 4 del 1-54", "solicitante": "Molina Donoso Arturo", "region": "REGIÓN DE ATACAMA", "provincia": "Provincia de Chañaral", "comuna": null, "superficie_ha": 54.0, "datum_original": "WGS84", "huso": 19, "epsg_origen": 32719, "tipo_publicacion": "manifestacion", "fuente_pdf": "http://www.diariooficial.interior.gob.cl/publicaciones/2026/06/10/44471/07/2821253.pdf", "archivo": "gm_manifestacion_2821253.pdf", "fecha": "10-06-2026", "edicion": "44471" }, "geometry": { "type": "Polygon", "coordinates": [ [ [ -69.959664377014278, -26.816504216784693 ], [ -69.950609100040225, -26.816565325574185 ], [ -69.950654295957861, -26.821981872720492 ], [ -69.959710003297232, -26.821920749644093 ], [ -69.959664377014278, -26.816504216784693 ] ] ] } },
{ "type": "Feature", "properties": { "cve": "2821254", "nombre": "AGUSTINA 5 DEL 1-40", "solicitante": "Molina Donoso Arturo", "region": "REGIÓN DE ATACAMA", "provincia": "Provincia de Chañaral", "comuna": null, "superficie_ha": 40.0, "datum_original": "WGS84", "huso": 19, "epsg_origen": 32719, "tipo_publicacion": "manifestacion", "fuente_pdf": "http://www.diariooficial.interior.gob.cl/publicaciones/2026/06/10/44471/07/2821254.pdf", "archivo": "gm_manifestacion_2821254.pdf", "fecha": "10-06-2026", "edicion": "44471" }, "geometry": { "type": "Polygon", "coordinates": [ [ [ -69.975893424259198, -26.834015975451809 ], [ -69.970861969040484, -26.834050593889451 ], [ -69.970923563517232, -26.841272594969904 ], [ -69.975955337823791, -26.841237965745602 ], [ -69.975893424259198, -26.834015975451809 ] ] ] } },
{ "type": "Feature", "properties": { "cve": "2821255", "nombre": "AGUSTINA 6 DEL 1-40", "solicitante": "Donoso Arturo Molina", "region": "REGIÓN DE ATACAMA", "provincia": "Provincia de Chañaral", "comuna": null, "superficie_ha": 40.0, "datum_original": "WGS84", "huso": 19, "epsg_origen": 32719, "tipo_publicacion": "manifestacion", "fuente_pdf": "http://www.diariooficial.interior.gob.cl/publicaciones/2026/06/10/44471/07/2821255.pdf", "archivo": "gm_manifestacion_2821255.pdf", "fecha": "10-06-2026", "edicion": "44471" }, "geometry": { "type": "Polygon", "coordinates": [ [ [ -69.98602800713897, -26.825955908888854 ], [ -69.982003140763211, -26.825983898523869 ], [ -69.982080993784606, -26.835011378947293 ], [ -69.986106179125215, -26.834983378408335 ], [ -69.98602800713897, -26.825955908888854 ] ] ] } },
{ "type": "Feature", "properties": { "cve": "2821269", "nombre": "CARLITA 1 AL 10", "solicitante": "Ghiglino Zaro Mario Antonio", "region": "REGIÓN DE ATACAMA", "provincia": "Provincia de Chañaral", "comuna": null, "superficie_ha": 50.0, "datum_original": "PSAD56", "huso": 19, "epsg_origen": 24879, "tipo_publicacion": "manifestacion", "fuente_pdf": "http://www.diariooficial.interior.gob.cl/publicaciones/2026/06/10/44471/07/2821269.pdf", "archivo": "gm_manifestacion_2821269.pdf", "fecha": "10-06-2026", "edicion": "44471" }, "geometry": { "type": "Polygon", "coordinates": [ [ [ -70.384593019555041, -26.748920971893359 ], [ -70.37956604996036, -26.748969973488901 ], [ -70.379675038136, -26.757996266576466 ], [ -70.384702404561509, -26.757947245854453 ], [ -70.384593019555041, -26.748920971893359 ] ] ] } },
{ "type": "Feature", "properties": { "cve": "2821218", "nombre": "MARCELA II 1 AL 20", "solicitante": "Campillay Espinoza Mauricio Domingo y otro", "region": "REGIÓN DE ATACAMA", "provincia": "Provincia de Huasco", "comuna": null, "superficie_ha": 100.0, "datum_original": "PSAD56", "huso": 19, "epsg_origen": 24879, "tipo_publicacion": "manifestacion", "fuente_pdf": "http://www.diariooficial.interior.gob.cl/publicaciones/2026/06/10/44471/07/2821218.pdf", "archivo": "gm_manifestacion_2821218.pdf", "fecha": "10-06-2026", "edicion": "44471" }, "geometry": { "type": "Polygon", "coordinates": [ [ [ -71.156505505394264, -29.09178215647599 ], [ -71.146236745007059, -29.091946878779417 ], [ -71.146423879597108, -29.100966347790862 ], [ -71.156693533649772, -29.10080156474358 ], [ -71.156505505394264, -29.09178215647599 ] ] ] } },
{ "type": "Feature", "properties": { "cve": "2821219", "nombre": "MARCELA III 1 AL 20", "solicitante": "Campillay Espinoza Mauricio Domingo y otro", "region": "REGIÓN DE ATACAMA", "provincia": "Provincia de Huasco", "comuna": null, "superficie_ha": 100.0, "datum_original": "PSAD56", "huso": 19, "epsg_origen": 24879, "tipo_publicacion": "manifestacion", "fuente_pdf": "http://www.diariooficial.interior.gob.cl/publicaciones/2026/06/10/44471/07/2821219.pdf", "archivo": "gm_manifestacion_2821219.pdf", "fecha": "10-06-2026", "edicion": "44471" }, "geometry": { "type": "Polygon", "coordinates": [ [ [ -71.172487614383499, -29.079975556761156 ], [ -71.162220133216778, -29.080141441056163 ], [ -71.162408569470003, -29.089160831039884 ], [ -71.172676943729854, -29.088994885557248 ], [ -71.172487614383499, -29.079975556761156 ] ] ] } },
{ "type": "Feature", "properties": { "cve": "2821220", "nombre": "MARCELA IV 1 AL 20", "solicitante": "Campillay Espinoza Mauricio Domingo y otro", "region": "REGIÓN DE ATACAMA", "provincia": "Provincia de Huasco", "comuna": null, "superficie_ha": 100.0, "datum_original": "WGS84", "huso": 19, "epsg_origen": 32719, "tipo_publicacion": "manifestacion", "fuente_pdf": "http://www.diariooficial.interior.gob.cl/publicaciones/2026/06/10/44471/07/2821220.pdf", "archivo": "gm_manifestacion_2821220.pdf", "fecha": "10-06-2026", "edicion": "44471" }, "geometry": { "type": "Polygon", "coordinates": [ [ [ -71.167680990559745, -29.09272631690424 ], [ -71.157412197555118, -29.092891919330377 ], [ -71.157600336106881, -29.10191133373587 ], [ -71.167870022902576, -29.101745670245936 ], [ -71.167680990559745, -29.09272631690424 ] ] ] } },
{ "type": "Feature", "properties": { "cve": "2820810", "nombre": "CORDILLERA DOS, DEL 1 AL 14", "solicitante": "Díaz Díaz Nelson Cristián", "region": "REGIÓN DE COQUIMBO", "provincia": "Provincia de Limarí", "comuna": null, "superficie_ha": 84.0, "datum_original": "PSAD56", "huso": 19, "epsg_origen": 24879, "tipo_publicacion": "manifestacion", "fuente_pdf": "http://www.diariooficial.interior.gob.cl/publicaciones/2026/06/10/44471/07/2820810.pdf", "archivo": "gm_manifestacion_2820810.pdf", "fecha": "10-06-2026", "edicion": "44471" }, "geometry": { "type": "Polygon", "coordinates": [ [ [ -70.507010113637961, -30.660307083401911 ], [ -70.494488726118377, -30.660451686631163 ], [ -70.494585908384892, -30.666766095263483 ], [ -70.507108109385882, -30.666621455888514 ], [ -70.507010113637961, -30.660307083401911 ] ] ] } },
{ "type": "Feature", "properties": { "cve": "2820809", "nombre": "CORDILLERA UNO, DEL 1 AL 8", "solicitante": "Díaz Díaz Nelson Cristián", "region": "REGIÓN DE COQUIMBO", "provincia": "Provincia de Limarí", "comuna": null, "superficie_ha": 80.0, "datum_original": "PSAD56", "huso": 19, "epsg_origen": 24879, "tipo_publicacion": "manifestacion", "fuente_pdf": "http://www.diariooficial.interior.gob.cl/publicaciones/2026/06/10/44471/07/2820809.pdf", "archivo": "gm_manifestacion_2820809.pdf", "fecha": "10-06-2026", "edicion": "44471" }, "geometry": { "type": "Polygon", "coordinates": [ [ [ -70.515350617584517, -30.659758986356987 ], [ -70.507003115126281, -30.659856056548122 ], [ -70.507143115370695, -30.668876587351122 ], [ -70.515491392588572, -30.668779482495783 ], [ -70.515350617584517, -30.659758986356987 ] ] ] } },
{ "type": "Feature", "properties": { "cve": "2821102", "nombre": "MARÍA JOSÉ 2, 1 al 20", "solicitante": "Arica Solar Generación 2 SpA", "region": "REGIÓN DE ARICA Y PARINACOTA", "provincia": "Provincia de Arica", "comuna": null, "superficie_ha": 100.0, "datum_original": "PSAD56", "huso": 19, "epsg_origen": 24879, "tipo_publicacion": "mensura", "fuente_pdf": "http://www.diariooficial.interior.gob.cl/publicaciones/2026/06/10/44471/07/2821102.pdf", "archivo": "gm_mensura_2821102.pdf", "fecha": "10-06-2026", "edicion": "44471" }, "geometry": { "type": "Polygon", "coordinates": [ [ [ -70.169960068764851, -18.517690370867534 ], [ -70.160487968541659, -18.517748732534166 ], [ -70.160548915140893, -18.526784855338747 ], [ -70.170021512545091, -18.526726463177198 ], [ -70.169960068764851, -18.517690370867534 ] ] ] } },
{ "type": "Feature", "properties": { "cve": "2821104", "nombre": "MARIA JOSE 4, 1 al 40", "solicitante": "Arica Solar Generación 2 SpA", "region": "REGIÓN DE ARICA Y PARINACOTA", "provincia": "Provincia de Arica", "comuna": null, "superficie_ha": 200.0, "datum_original": "PSAD56", "huso": 19, "epsg_origen": 24879, "tipo_publicacion": "mensura", "fuente_pdf": "http://www.diariooficial.interior.gob.cl/publicaciones/2026/06/10/44471/07/2821104.pdf", "archivo": "gm_mensura_2821104.pdf", "fecha": "10-06-2026", "edicion": "44471" }, "geometry": { "type": "Polygon", "coordinates": [ [ [ -70.150461837782416, -18.576547237800067 ], [ -70.131510982242844, -18.576661883511761 ], [ -70.13157061006018, -18.585698041360601 ], [ -70.150522463730255, -18.585583335908005 ], [ -70.150461837782416, -18.576547237800067 ] ] ] } },
{ "type": "Feature", "properties": { "cve": "2821105", "nombre": "MARÍA JOSÉ 5, 1 al 40", "solicitante": "Arica Solar Generación 2 SpA", "region": "REGIÓN DE ARICA Y PARINACOTA", "provincia": "Provincia de Arica", "comuna": null, "superficie_ha": 200.0, "datum_original": "PSAD56", "huso": 19, "epsg_origen": 24879, "tipo_publicacion": "mensura", "fuente_pdf": "http://www.diariooficial.interior.gob.cl/publicaciones/2026/06/10/44471/07/2821105.pdf", "archivo": "gm_mensura_2821105.pdf", "fecha": "10-06-2026", "edicion": "44471" }, "geometry": { "type": "Polygon", "coordinates": [ [ [ -70.131540791868645, -18.581179963551438 ], [ -70.112589300285123, -18.581292735364578 ], [ -70.112647946784378, -18.590328947504098 ], [ -70.131600436818474, -18.590216116938766 ], [ -70.131540791868645, -18.581179963551438 ] ] ] } },
{ "type": "Feature", "properties": { "cve": "2821106", "nombre": "MARÍA JOSÉ 6, 1 al 40", "solicitante": "Arica Solar Generación 2 SpA", "region": "REGIÓN DE ARICA Y PARINACOTA", "provincia": "Provincia de Arica", "comuna": null, "superficie_ha": 200.0, "datum_original": "PSAD56", "huso": 19, "epsg_origen": 24879, "tipo_publicacion": "mensura", "fuente_pdf": "http://www.diariooficial.interior.gob.cl/publicaciones/2026/06/10/44471/07/2821106.pdf", "archivo": "gm_mensura_2821106.pdf", "fecha": "10-06-2026", "edicion": "44471" }, "geometry": { "type": "Polygon", "coordinates": [ [ [ -70.112624484141421, -18.586714463718458 ], [ -70.093672258780259, -18.586825366359719 ], [ -70.093729926669582, -18.595861630911703 ], [ -70.112683150858246, -18.595750670506511 ], [ -70.112624484141421, -18.586714463718458 ] ] ] } },
{ "type": "Feature", "properties": { "cve": "2821107", "nombre": "MARÍA JOSÉ 7, 1 al 40", "solicitante": "Arica Solar Generación 2 SpA", "region": "REGIÓN DE ARICA Y PARINACOTA", "provincia": "Provincia de Arica", "comuna": null, "superficie_ha": 200.0, "datum_original": "PSAD56", "huso": 19, "epsg_origen": 24879, "tipo_publicacion": "mensura", "fuente_pdf": "http://www.diariooficial.interior.gob.cl/publicaciones/2026/06/10/44471/07/2821107.pdf", "archivo": "gm_mensura_2821107.pdf", "fecha": "10-06-2026", "edicion": "44471" }, "geometry": { "type": "Polygon", "coordinates": [ [ [ -70.112683150858246, -18.595750670506511 ], [ -70.093729926669582, -18.595861630911703 ], [ -70.093787627687689, -18.604897886547509 ], [ -70.112741851277605, -18.604786868372518 ], [ -70.112683150858246, -18.595750670506511 ] ] ] } },
{ "type": "Feature", "properties": { "cve": "2821108", "nombre": "MARIA JOSE 8, 1 al 40", "solicitante": "Arica Solar Generación 2 SpA", "region": "REGIÓN DE ARICA Y PARINACOTA", "provincia": "Provincia de Arica", "comuna": null, "superficie_ha": 200.0, "datum_original": "PSAD56", "huso": 19, "epsg_origen": 24879, "tipo_publicacion": "mensura", "fuente_pdf": "http://www.diariooficial.interior.gob.cl/publicaciones/2026/06/10/44471/07/2821108.pdf", "archivo": "gm_mensura_2821108.pdf", "fecha": "10-06-2026", "edicion": "44471" }, "geometry": { "type": "Polygon", "coordinates": [ [ [ -70.112741851277605, -18.604786868372518 ], [ -70.093787627687689, -18.604897886547509 ], [ -70.093845361842668, -18.613934133263442 ], [ -70.112800585407641, -18.613823057312757 ], [ -70.112741851277605, -18.604786868372518 ] ] ] } },
{ "type": "Feature", "properties": { "cve": "2821184", "nombre": "ALEGRIA 10A, 1 AL 60", "solicitante": "Solaris Copper SpA", "region": "REGIÓN DE ATACAMA", "provincia": "Provincia de Chañaral", "comuna": null, "superficie_ha": 300.0, "datum_original": "PSAD56", "huso": 19, "epsg_origen": 24879, "tipo_publicacion": "mensura", "fuente_pdf": "http://www.diariooficial.interior.gob.cl/publicaciones/2026/06/10/44471/07/2821184.pdf", "archivo": "gm_mensura_2821184.pdf", "fecha": "10-06-2026", "edicion": "44471" }, "geometry": { "type": "Polygon", "coordinates": [ [ [ -69.655209871476046, -26.690967359656995 ], [ -69.645158735515153, -26.691013375448197 ], [ -69.645311340601737, -26.718098603521149 ], [ -69.655364853634993, -26.718052533744217 ], [ -69.655209871476046, -26.690967359656995 ] ] ] } },
{ "type": "Feature", "properties": { "cve": "2821185", "nombre": "ALEGRIA 11A, 1 AL 60", "solicitante": "Solaris Copper SpA", "region": "REGIÓN DE ATACAMA", "provincia": "Provincia de Chañaral", "comuna": null, "superficie_ha": 300.0, "datum_original": "PSAD56", "huso": 19, "epsg_origen": 24879, "tipo_publicacion": "mensura", "fuente_pdf": "http://www.diariooficial.interior.gob.cl/publicaciones/2026/06/10/44471/07/2821185.pdf", "archivo": "gm_mensura_2821185.pdf", "fecha": "10-06-2026", "edicion": "44471" }, "geometry": { "type": "Polygon", "coordinates": [ [ [ -69.645158735515153, -26.691013375448197 ], [ -69.63510757561005, -26.691058679986128 ], [ -69.635257803599856, -26.718143961210426 ], [ -69.645311340601737, -26.718098603521149 ], [ -69.645158735515153, -26.691013375448197 ] ] ] } },
{ "type": "Feature", "properties": { "cve": "2821186", "nombre": "ALEGRIA 12A, 1 AL 60", "solicitante": "Solaris Copper SpA", "region": "REGIÓN DE ATACAMA", "provincia": "Provincia de Chañaral", "comuna": null, "superficie_ha": 300.0, "datum_original": "PSAD56", "huso": 19, "epsg_origen": 24879, "tipo_publicacion": "mensura", "fuente_pdf": "http://www.diariooficial.interior.gob.cl/publicaciones/2026/06/10/44471/07/2821186.pdf", "archivo": "gm_mensura_2821186.pdf", "fecha": "10-06-2026", "edicion": "44471" }, "geometry": { "type": "Polygon", "coordinates": [ [ [ -69.63510757561005, -26.691058679986128 ], [ -69.625056392133729, -26.691103273264421 ], [ -69.625204243002628, -26.718188606805647 ], [ -69.635257803599856, -26.718143961210426 ], [ -69.63510757561005, -26.691058679986128 ] ] ] } },
{ "type": "Feature", "properties": { "cve": "2821187", "nombre": "ALEGRIA 13A, 1 AL 60", "solicitante": "Solaris Copper SpA", "region": "REGIÓN DE ATACAMA", "provincia": "Provincia de Chañaral", "comuna": null, "superficie_ha": 300.0, "datum_original": "PSAD56", "huso": 19, "epsg_origen": 24879, "tipo_publicacion": "mensura", "fuente_pdf": "http://www.diariooficial.interior.gob.cl/publicaciones/2026/06/10/44471/07/2821187.pdf", "archivo": "gm_mensura_2821187.pdf", "fecha": "10-06-2026", "edicion": "44471" }, "geometry": { "type": "Polygon", "coordinates": [ [ [ -69.625056392133729, -26.691103273264421 ], [ -69.615005185459111, -26.691147155276756 ], [ -69.61515065918347, -26.718232540300484 ], [ -69.625204243002628, -26.718188606805647 ], [ -69.625056392133729, -26.691103273264421 ] ] ] } },
{ "type": "Feature", "properties": { "cve": "2821188", "nombre": "ALEGRIA 14A, 1 AL 40", "solicitante": "Solaris Copper SpA", "region": "REGIÓN DE ATACAMA", "provincia": "Provincia de Chañaral", "comuna": null, "superficie_ha": 200.0, "datum_original": "PSAD56", "huso": 19, "epsg_origen": 24879, "tipo_publicacion": "mensura", "fuente_pdf": "http://www.diariooficial.interior.gob.cl/publicaciones/2026/06/10/44471/07/2821188.pdf", "archivo": "gm_mensura_2821188.pdf", "fecha": "10-06-2026", "edicion": "44471" }, "geometry": { "type": "Polygon", "coordinates": [ [ [ -69.615053653864635, -26.700175628611696 ], [ -69.605001632348532, -26.700218816231967 ], [ -69.605097052515646, -26.718275761688744 ], [ -69.61515065918347, -26.718232540300484 ], [ -69.615053653864635, -26.700175628611696 ] ] ] } },
{ "type": "Feature", "properties": { "cve": "2821189", "nombre": "ALEGRIA 15A, 1 AL 60", "solicitante": "Solaris Copper SpA", "region": "REGIÓN DE ATACAMA", "provincia": "Provincia de Chañaral", "comuna": null, "superficie_ha": 300.0, "datum_original": "PSAD56", "huso": 19, "epsg_origen": 24879, "tipo_publicacion": "mensura", "fuente_pdf": "http://www.diariooficial.interior.gob.cl/publicaciones/2026/06/10/44471/07/2821189.pdf", "archivo": "gm_mensura_2821189.pdf", "fecha": "10-06-2026", "edicion": "44471" }, "geometry": { "type": "Polygon", "coordinates": [ [ [ -69.604953955959175, -26.691190326016937 ], [ -69.59490270400687, -26.691232785478864 ], [ -69.595043423372545, -26.718318270964321 ], [ -69.605097052515646, -26.718275761688744 ], [ -69.604953955959175, -26.691190326016937 ] ] ] } },
{ "type": "Feature", "properties": { "cve": "2821190", "nombre": "ALEGRIA 16A, 1 AL 20", "solicitante": "Solaris Copper SpA", "region": "REGIÓN DE ATACAMA", "provincia": "Provincia de Chañaral", "comuna": null, "superficie_ha": 100.0, "datum_original": "PSAD56", "huso": 19, "epsg_origen": 24879, "tipo_publicacion": "mensura", "fuente_pdf": "http://www.diariooficial.interior.gob.cl/publicaciones/2026/06/10/44471/07/2821190.pdf", "archivo": "gm_mensura_2821190.pdf", "fecha": "10-06-2026", "edicion": "44471" }, "geometry": { "type": "Polygon", "coordinates": [ [ [ -69.635257803599856, -26.718143961210426 ], [ -69.625204243002628, -26.718188606805647 ], [ -69.625253573059538, -26.727217027987965 ], [ -69.635307926776861, -26.727172364948419 ], [ -69.635257803599856, -26.718143961210426 ] ] ] } },
{ "type": "Feature", "properties": { "cve": "2821191", "nombre": "ALEGRÍA 17A, 1 AL 20", "solicitante": "Solaris Copper SpA", "region": "REGIÓN DE ATACAMA", "provincia": "Provincia de Chañaral", "comuna": null, "superficie_ha": 100.0, "datum_original": "PSAD56", "huso": 19, "epsg_origen": 24879, "tipo_publicacion": "mensura", "fuente_pdf": "http://www.diariooficial.interior.gob.cl/publicaciones/2026/06/10/44471/07/2821191.pdf", "archivo": "gm_mensura_2821191.pdf", "fecha": "10-06-2026", "edicion": "44471" }, "geometry": { "type": "Polygon", "coordinates": [ [ [ -69.625204243002628, -26.718188606805647 ], [ -69.61515065918347, -26.718232540300484 ], [ -69.615199196112329, -26.727260978648914 ], [ -69.625253573059538, -26.727217027987965 ], [ -69.625204243002628, -26.718188606805647 ] ] ] } },
{ "type": "Feature", "properties": { "cve": "2821192", "nombre": "ALEGRÍA 18A, 1 AL 20", "solicitante": "Solaris Copper SpA", "region": "REGIÓN DE ATACAMA", "provincia": "Provincia de Chañaral", "comuna": null, "superficie_ha": 100.0, "datum_original": "PSAD56", "huso": 19, "epsg_origen": 24879, "tipo_publicacion": "mensura", "fuente_pdf": "http://www.diariooficial.interior.gob.cl/publicaciones/2026/06/10/44471/07/2821192.pdf", "archivo": "gm_mensura_2821192.pdf", "fecha": "10-06-2026", "edicion": "44471" }, "geometry": { "type": "Polygon", "coordinates": [ [ [ -69.61515065918347, -26.718232540300484 ], [ -69.605097052515646, -26.718275761688744 ], [ -69.605144796308707, -26.727304216925049 ], [ -69.615199196112329, -26.727260978648914 ], [ -69.61515065918347, -26.718232540300484 ] ] ] } },
{ "type": "Feature", "properties": { "cve": "2821193", "nombre": "ALEGRIA 19A, 1 AL 20", "solicitante": "Solaris Copper SpA", "region": "REGIÓN DE ATACAMA", "provincia": "Provincia de Chañaral", "comuna": null, "superficie_ha": 100.0, "datum_original": "PSAD56", "huso": 19, "epsg_origen": 24879, "tipo_publicacion": "mensura", "fuente_pdf": "http://www.diariooficial.interior.gob.cl/publicaciones/2026/06/10/44471/07/2821193.pdf", "archivo": "gm_mensura_2821193.pdf", "fecha": "10-06-2026", "edicion": "44471" }, "geometry": { "type": "Polygon", "coordinates": [ [ [ -69.605097052515646, -26.718275761688744 ], [ -69.595043423372545, -26.718318270964321 ], [ -69.595090374022121, -26.727346742810266 ], [ -69.605144796308707, -26.727304216925049 ], [ -69.605097052515646, -26.718275761688744 ] ] ] } },
{ "type": "Feature", "properties": { "cve": "2821175", "nombre": "ALEGRIA 1A, 7 AL 60", "solicitante": "Solaris Copper SpA", "region": "REGIÓN DE ATACAMA", "provincia": "Provincia de Chañaral", "comuna": null, "superficie_ha": 294.0, "datum_original": "PSAD56", "huso": 19, "epsg_origen": 24879, "tipo_publicacion": "mensura", "fuente_pdf": "http://www.diariooficial.interior.gob.cl/publicaciones/2026/06/10/44471/07/2821175.pdf", "archivo": "gm_mensura_2821175.pdf", "fecha": "10-06-2026", "edicion": "44471" }, "geometry": { "type": "Polygon", "coordinates": [ [ [ -69.674094648119876, -26.65476438114602 ], [ -69.644955597250458, -26.654899574723661 ], [ -69.645006345928451, -26.663928042392392 ], [ -69.675152559413974, -26.663788025669863 ], [ -69.675131308356654, -26.660176661913262 ], [ -69.674126469771821, -26.660181431399739 ], [ -69.674094648119876, -26.65476438114602 ] ] ] } },
{ "type": "Feature", "properties": { "cve": "2821194", "nombre": "ALEGRIA 20A, 1 AL 20", "solicitante": "Solaris Copper SpA", "region": "REGIÓN DE ATACAMA", "provincia": "Provincia de Chañaral", "comuna": null, "superficie_ha": 100.0, "datum_original": "PSAD56", "huso": 19, "epsg_origen": 24879, "tipo_publicacion": "mensura", "fuente_pdf": "http://www.diariooficial.interior.gob.cl/publicaciones/2026/06/10/44471/07/2821194.pdf", "archivo": "gm_mensura_2821194.pdf", "fecha": "10-06-2026", "edicion": "44471" }, "geometry": { "type": "Polygon", "coordinates": [ [ [ -69.595043423372545, -26.718318270964321 ], [ -69.584989772127457, -26.718360068121186 ], [ -69.585035929626059, -26.727388556298543 ], [ -69.595090374022121, -26.727346742810266 ], [ -69.595043423372545, -26.718318270964321 ] ] ] } },
{ "type": "Feature", "properties": { "cve": "2821195", "nombre": "ALEGRIA 21A, 1 AL 60", "solicitante": "Solaris Copper SpA", "region": "REGIÓN DE ATACAMA", "provincia": "Provincia de Chañaral", "comuna": null, "superficie_ha": 300.0, "datum_original": "PSAD56", "huso": 19, "epsg_origen": 24879, "tipo_publicacion": "mensura", "fuente_pdf": "http://www.diariooficial.interior.gob.cl/publicaciones/2026/06/10/44471/07/2821195.pdf", "archivo": "gm_mensura_2821195.pdf", "fecha": "10-06-2026", "edicion": "44471" }, "geometry": { "type": "Polygon", "coordinates": [ [ [ -69.695606096247573, -26.722375281967434 ], [ -69.685552286333703, -26.72242420958532 ], [ -69.685714666934402, -26.749509094017398 ], [ -69.695770857738978, -26.749460109045444 ], [ -69.695606096247573, -26.722375281967434 ] ] ] } },
{ "type": "Feature", "properties": { "cve": "2821196", "nombre": "ALEGRIA 22A, 1 AL 60", "solicitante": "Solaris Copper SpA", "region": "REGIÓN DE ATACAMA", "provincia": "Provincia de Chañaral", "comuna": null, "superficie_ha": 300.0, "datum_original": "PSAD56", "huso": 19, "epsg_origen": 24879, "tipo_publicacion": "mensura", "fuente_pdf": "http://www.diariooficial.interior.gob.cl/publicaciones/2026/06/10/44471/07/2821196.pdf", "archivo": "gm_mensura_2821196.pdf", "fecha": "10-06-2026", "edicion": "44471" }, "geometry": { "type": "Polygon", "coordinates": [ [ [ -69.685552286333703, -26.72242420958532 ], [ -69.675498450953597, -26.722472425003087 ], [ -69.675658450637556, -26.749557365954427 ], [ -69.685714666934402, -26.749509094017398 ], [ -69.685552286333703, -26.72242420958532 ] ] ] } },
{ "type": "Feature", "properties": { "cve": "2821197", "nombre": "ALEGRIA 23A, 1 AL 40", "solicitante": "Solaris Copper SpA", "region": "REGIÓN DE ATACAMA", "provincia": "Provincia de Chañaral", "comuna": null, "superficie_ha": 200.0, "datum_original": "PSAD56", "huso": 19, "epsg_origen": 24879, "tipo_publicacion": "mensura", "fuente_pdf": "http://www.diariooficial.interior.gob.cl/publicaciones/2026/06/10/44471/07/2821197.pdf", "archivo": "gm_mensura_2821197.pdf", "fecha": "10-06-2026", "edicion": "44471" }, "geometry": { "type": "Polygon", "coordinates": [ [ [ -69.71585489088389, -26.744845889025886 ], [ -69.705799149224802, -26.744896290207624 ], [ -69.705910682400315, -26.762952756008204 ], [ -69.71596801277903, -26.762902315465244 ], [ -69.71585489088389, -26.744845889025886 ] ] ] } },
{ "type": "Feature", "properties": { "cve": "2821198", "nombre": "ALEGRIA 24A, 1 AL 40", "solicitante": "Solaris Copper SpA", "region": "REGIÓN DE ATACAMA", "provincia": "Provincia de Chañaral", "comuna": null, "superficie_ha": 200.0, "datum_original": "PSAD56", "huso": 19, "epsg_origen": 24879, "tipo_publicacion": "mensura", "fuente_pdf": "http://www.diariooficial.interior.gob.cl/publicaciones/2026/06/10/44471/07/2821198.pdf", "archivo": "gm_mensura_2821198.pdf", "fecha": "10-06-2026", "edicion": "44471" }, "geometry": { "type": "Polygon", "coordinates": [ [ [ -69.705799149224802, -26.744896290207624 ], [ -69.695743381330445, -26.744945978507555 ], [ -69.695853325768439, -26.763002483112647 ], [ -69.705910682400315, -26.762952756008204 ], [ -69.705799149224802, -26.744896290207624 ] ] ] } },
{ "type": "Feature", "properties": { "cve": "2821199", "nombre": "ALEGRIA 25A, 1 AL 30", "solicitante": "Solaris Copper SpA", "region": "REGIÓN DE ATACAMA", "provincia": "Provincia de Chañaral", "comuna": null, "superficie_ha": 150.0, "datum_original": "PSAD56", "huso": 19, "epsg_origen": 24879, "tipo_publicacion": "mensura", "fuente_pdf": "http://www.diariooficial.interior.gob.cl/publicaciones/2026/06/10/44471/07/2821199.pdf", "archivo": "gm_mensura_2821199.pdf", "fecha": "10-06-2026", "edicion": "44471" }, "geometry": { "type": "Polygon", "coordinates": [ [ [ -69.695770857738978, -26.749460109045444 ], [ -69.685714666934402, -26.749509094017398 ], [ -69.685795943257318, -26.763051496771556 ], [ -69.695853325768439, -26.763002483112647 ], [ -69.695770857738978, -26.749460109045444 ] ] ] } },
{ "type": "Feature", "properties": { "cve": "2821200", "nombre": "ALEGRIA 26A, 1 AL 28", "solicitante": "Solaris Copper SpA", "region": "REGIÓN DE ATACAMA", "provincia": "Provincia de Chañaral", "comuna": null, "superficie_ha": 140.0, "datum_original": "PSAD56", "huso": 19, "epsg_origen": 24879, "tipo_publicacion": "mensura", "fuente_pdf": "http://www.diariooficial.interior.gob.cl/publicaciones/2026/06/10/44471/07/2821200.pdf", "archivo": "gm_mensura_2821200.pdf", "fecha": "10-06-2026", "edicion": "44471" }, "geometry": { "type": "Polygon", "coordinates": [ [ [ -69.685714666934402, -26.749509094017398 ], [ -69.675658450637556, -26.749557365954427 ], [ -69.675733194508467, -26.762196969061648 ], [ -69.685790523050741, -26.762148670740029 ], [ -69.685714666934402, -26.749509094017398 ] ] ] } },
{ "type": "Feature", "properties": { "cve": "2821176", "nombre": "ALEGRIA 2A, 1 AL 60", "solicitante": "Solaris Copper SpA", "region": "REGIÓN DE ATACAMA", "provincia": "Provincia de Chañaral", "comuna": null, "superficie_ha": 300.0, "datum_original": "PSAD56", "huso": 19, "epsg_origen": 24879, "tipo_publicacion": "mensura", "fuente_pdf": "http://www.diariooficial.interior.gob.cl/publicaciones/2026/06/10/44471/07/2821176.pdf", "archivo": "gm_mensura_2821176.pdf", "fecha": "10-06-2026", "edicion": "44471" }, "geometry": { "type": "Polygon", "coordinates": [ [ [ -69.644955597250458, -26.654899574723661 ], [ -69.614811540015211, -26.655033145396835 ], [ -69.614859917164978, -26.664061665342395 ], [ -69.645006345928451, -26.663928042392392 ], [ -69.644955597250458, -26.654899574723661 ] ] ] } },
{ "type": "Feature", "properties": { "cve": "2821177", "nombre": "ALEGRIA 3A, 1 AL 60", "solicitante": "Solaris Copper SpA", "region": "REGIÓN DE ATACAMA", "provincia": "Provincia de Chañaral", "comuna": null, "superficie_ha": 300.0, "datum_original": "PSAD56", "huso": 19, "epsg_origen": 24879, "tipo_publicacion": "mensura", "fuente_pdf": "http://www.diariooficial.interior.gob.cl/publicaciones/2026/06/10/44471/07/2821177.pdf", "archivo": "gm_mensura_2821177.pdf", "fecha": "10-06-2026", "edicion": "44471" }, "geometry": { "type": "Polygon", "coordinates": [ [ [ -69.675152559413974, -26.663788025669863 ], [ -69.665103846126172, -26.663835408319059 ], [ -69.665260983119822, -26.690920632619047 ], [ -69.675312070073545, -26.690873194340938 ], [ -69.675152559413974, -26.663788025669863 ] ] ] } },
{ "type": "Feature", "properties": { "cve": "2821178", "nombre": "ALEGRIA 4A, 1 AL 60", "solicitante": "Solaris Copper SpA", "region": "REGIÓN DE ATACAMA", "provincia": "Provincia de Chañaral", "comuna": null, "superficie_ha": 300.0, "datum_original": "PSAD56", "huso": 19, "epsg_origen": 24879, "tipo_publicacion": "mensura", "fuente_pdf": "http://www.diariooficial.interior.gob.cl/publicaciones/2026/06/10/44471/07/2821178.pdf", "archivo": "gm_mensura_2821178.pdf", "fecha": "10-06-2026", "edicion": "44471" }, "geometry": { "type": "Polygon", "coordinates": [ [ [ -69.665103846126172, -26.663835408319059 ], [ -69.655055108173485, -26.663882080562097 ], [ -69.655209871476046, -26.690967359656995 ], [ -69.665260983119822, -26.690920632619047 ], [ -69.665103846126172, -26.663835408319059 ] ] ] } },
{ "type": "Feature", "properties": { "cve": "2821179", "nombre": "ALEGRIA 5A, 1 AL 60", "solicitante": "Solaris Copper SpA", "region": "REGIÓN DE ATACAMA", "provincia": "Provincia de Chañaral", "comuna": null, "superficie_ha": 300.0, "datum_original": "PSAD56", "huso": 19, "epsg_origen": 24879, "tipo_publicacion": "mensura", "fuente_pdf": "http://www.diariooficial.interior.gob.cl/publicaciones/2026/06/10/44471/07/2821179.pdf", "archivo": "gm_mensura_2821179.pdf", "fecha": "10-06-2026", "edicion": "44471" }, "geometry": { "type": "Polygon", "coordinates": [ [ [ -69.655055108173485, -26.663882080562097 ], [ -69.645006345928451, -26.663928042392392 ], [ -69.645158735515153, -26.691013375448197 ], [ -69.655209871476046, -26.690967359656995 ], [ -69.655055108173485, -26.663882080562097 ] ] ] } },
{ "type": "Feature", "properties": { "cve": "2821180", "nombre": "ALEGRIA 6A, 1 AL 60", "solicitante": "Solaris Copper SpA", "region": "REGIÓN DE ATACAMA", "provincia": "Provincia de Chañaral", "comuna": null, "superficie_ha": 300.0, "datum_original": "PSAD56", "huso": 19, "epsg_origen": 24879, "tipo_publicacion": "mensura", "fuente_pdf": "http://www.diariooficial.interior.gob.cl/publicaciones/2026/06/10/44471/07/2821180.pdf", "archivo": "gm_mensura_2821180.pdf", "fecha": "10-06-2026", "edicion": "44471" }, "geometry": { "type": "Polygon", "coordinates": [ [ [ -69.645006345928451, -26.663928042392392 ], [ -69.634957559763649, -26.663973293803448 ], [ -69.63510757561005, -26.691058679986128 ], [ -69.645158735515153, -26.691013375448197 ], [ -69.645006345928451, -26.663928042392392 ] ] ] } },
{ "type": "Feature", "properties": { "cve": "2821181", "nombre": "ALEGRIA 7A, 1 AL 60", "solicitante": "Solaris Copper SpA", "region": "REGIÓN DE ATACAMA", "provincia": "Provincia de Chañaral", "comuna": null, "superficie_ha": 300.0, "datum_original": "PSAD56", "huso": 19, "epsg_origen": 24879, "tipo_publicacion": "mensura", "fuente_pdf": "http://www.diariooficial.interior.gob.cl/publicaciones/2026/06/10/44471/07/2821181.pdf", "archivo": "gm_mensura_2821181.pdf", "fecha": "10-06-2026", "edicion": "44471" }, "geometry": { "type": "Polygon", "coordinates": [ [ [ -69.634957559763649, -26.663973293803448 ], [ -69.624908750051617, -26.66401783478889 ], [ -69.625056392133729, -26.691103273264421 ], [ -69.63510757561005, -26.691058679986128 ], [ -69.634957559763649, -26.663973293803448 ] ] ] } },
{ "type": "Feature", "properties": { "cve": "2821182", "nombre": "ALEGRIA 8A, 1 AL 60", "solicitante": "Solaris Copper SpA", "region": "REGIÓN DE ATACAMA", "provincia": "Provincia de Chañaral", "comuna": null, "superficie_ha": 300.0, "datum_original": "PSAD56", "huso": 19, "epsg_origen": 24879, "tipo_publicacion": "mensura", "fuente_pdf": "http://www.diariooficial.interior.gob.cl/publicaciones/2026/06/10/44471/07/2821182.pdf", "archivo": "gm_mensura_2821182.pdf", "fecha": "10-06-2026", "edicion": "44471" }, "geometry": { "type": "Polygon", "coordinates": [ [ [ -69.624908750051617, -26.66401783478889 ], [ -69.614859917164978, -26.664061665342395 ], [ -69.615005185459111, -26.691147155276756 ], [ -69.625056392133729, -26.691103273264421 ], [ -69.624908750051617, -26.66401783478889 ] ] ] } },
{ "type": "Feature", "properties": { "cve": "2821183", "nombre": "ALEGRIA 9A, 1 AL 60", "solicitante": "Solaris Copper SpA", "region": "REGIÓN DE ATACAMA", "provincia": "Provincia de Chañaral", "comuna": null, "superficie_ha": 300.0, "datum_original": "PSAD56", "huso": 19, "epsg_origen": 24879, "tipo_publicacion": "mensura", "fuente_pdf": "http://www.diariooficial.interior.gob.cl/publicaciones/2026/06/10/44471/07/2821183.pdf", "archivo": "gm_mensura_2821183.pdf", "fecha": "10-06-2026", "edicion": "44471" }, "geometry": { "type": "Polygon", "coordinates": [ [ [ -69.665260983119822, -26.690920632619047 ], [ -69.655209871476046, -26.690967359656995 ], [ -69.655364853634993, -26.718052533744217 ], [ -69.665418342326291, -26.718005751886132 ], [ -69.665260983119822, -26.690920632619047 ] ] ] } },
{ "type": "Feature", "properties": { "cve": "2820847", "nombre": "IMPERIO I", "solicitante": "Asesorías Mineras ABS SpA", "region": "REGIÓN DE ANTOFAGASTA", "provincia": "Provincia de Antofagasta", "comuna": null, "superficie_ha": 200.0, "datum_original": "PSAD56", "huso": 19, "epsg_origen": 24879, "tipo_publicacion": "pedimento", "fuente_pdf": "http://www.diariooficial.interior.gob.cl/publicaciones/2026/06/10/44471/07/2820847.pdf", "archivo": "gm_pedimento_2820847.pdf", "fecha": "10-06-2026", "edicion": "44471" }, "geometry": { "type": "Polygon", "coordinates": [ [ [ -70.286203251857302, -23.343887510032278 ], [ -70.266642634212474, -23.344046952060925 ], [ -70.266728332594127, -23.353077715003074 ], [ -70.286290272786673, -23.352918204133083 ], [ -70.286203251857302, -23.343887510032278 ] ] ] } },
{ "type": "Feature", "properties": { "cve": "2820735", "nombre": "ELIANA A 1", "solicitante": "Agrícola El Garfio Limitada", "region": "REGIÓN DE VALPARAÍSO", "provincia": "Provincia de San Felipe de Aconcagua", "comuna": null, "superficie_ha": 300.0, "datum_original": "PSAD56", "huso": 19, "epsg_origen": 24879, "tipo_publicacion": "pedimento", "fuente_pdf": "http://www.diariooficial.interior.gob.cl/publicaciones/2026/06/10/44471/07/2820735.pdf", "archivo": "gm_pedimento_2820735.pdf", "fecha": "10-06-2026", "edicion": "44471" }, "geometry": { "type": "Polygon", "coordinates": [ [ [ -70.987680358829991, -32.862761490530247 ], [ -70.976998521962273, -32.862930791601805 ], [ -70.97759910995903, -32.889976136570461 ], [ -70.988284186641351, -32.889806661087064 ], [ -70.987680358829991, -32.862761490530247 ] ] ] } },
{ "type": "Feature", "properties": { "cve": "2820742", "nombre": "ELIANA A 10", "solicitante": "Agrícola El Garfio Limitada", "region": "REGIÓN DE VALPARAÍSO", "provincia": "Provincia de San Felipe de Aconcagua", "comuna": null, "superficie_ha": 300.0, "datum_original": "PSAD56", "huso": 19, "epsg_origen": 24879, "tipo_publicacion": "pedimento", "fuente_pdf": "http://www.diariooficial.interior.gob.cl/publicaciones/2026/06/10/44471/07/2820742.pdf", "archivo": "gm_pedimento_2820742.pdf", "fecha": "10-06-2026", "edicion": "44471" }, "geometry": { "type": "Polygon", "coordinates": [ [ [ -70.980338173160561, -32.916987496818294 ], [ -70.969649780749904, -32.917156416388963 ], [ -70.970249378615947, -32.9442016447857 ], [ -70.980941019598774, -32.944032551346652 ], [ -70.980338173160561, -32.916987496818294 ] ] ] } },
{ "type": "Feature", "properties": { "cve": "2820743", "nombre": "ELIANA A 11", "solicitante": "Agrícola El Garfio Limitada", "region": "REGIÓN DE VALPARAÍSO", "provincia": "Provincia de San Felipe de Aconcagua", "comuna": null, "superficie_ha": 300.0, "datum_original": "PSAD56", "huso": 19, "epsg_origen": 24879, "tipo_publicacion": "pedimento", "fuente_pdf": "http://www.diariooficial.interior.gob.cl/publicaciones/2026/06/10/44471/07/2820743.pdf", "archivo": "gm_pedimento_2820743.pdf", "fecha": "10-06-2026", "edicion": "44471" }, "geometry": { "type": "Polygon", "coordinates": [ [ [ -70.969649780749904, -32.917156416388963 ], [ -70.95896129929541, -32.917324422900855 ], [ -70.959557648478722, -32.944369824226804 ], [ -70.970249378615947, -32.9442016447857 ], [ -70.969649780749904, -32.917156416388963 ] ] ] } },
{ "type": "Feature", "properties": { "cve": "2820745", "nombre": "ELIANA A 12", "solicitante": "Agrícola El Garfio Limitada", "region": "REGIÓN DE VALPARAÍSO", "provincia": "Provincia de San Felipe de Aconcagua", "comuna": null, "superficie_ha": 300.0, "datum_original": "PSAD56", "huso": 19, "epsg_origen": 24879, "tipo_publicacion": "pedimento", "fuente_pdf": "http://www.diariooficial.interior.gob.cl/publicaciones/2026/06/10/44471/07/2820745.pdf", "archivo": "gm_pedimento_2820745.pdf", "fecha": "10-06-2026", "edicion": "44471" }, "geometry": { "type": "Polygon", "coordinates": [ [ [ -70.95896129929541, -32.917324422900855 ], [ -70.94827272927904, -32.917491516328234 ], [ -70.948865829669643, -32.944537089644193 ], [ -70.959557648478722, -32.944369824226804 ], [ -70.95896129929541, -32.917324422900855 ] ] ] } },
{ "type": "Feature", "properties": { "cve": "2820746", "nombre": "ELIANA A 13", "solicitante": "Agrícola El Garfio Limitada", "region": "REGIÓN DE VALPARAÍSO", "provincia": "Provincia de San Felipe de Aconcagua", "comuna": null, "superficie_ha": 300.0, "datum_original": "PSAD56", "huso": 19, "epsg_origen": 24879, "tipo_publicacion": "pedimento", "fuente_pdf": "http://www.diariooficial.interior.gob.cl/publicaciones/2026/06/10/44471/07/2820746.pdf", "archivo": "gm_pedimento_2820746.pdf", "fecha": "10-06-2026", "edicion": "44471" }, "geometry": { "type": "Polygon", "coordinates": [ [ [ -70.94827272927904, -32.917491516328234 ], [ -70.937584071182712, -32.917657696645506 ], [ -70.938173922671254, -32.94470344101228 ], [ -70.948865829669643, -32.944537089644193 ], [ -70.94827272927904, -32.917491516328234 ] ] ] } },
{ "type": "Feature", "properties": { "cve": "2820736", "nombre": "ELIANA A 2", "solicitante": "Agrícola El Garfio Limitada", "region": "REGIÓN DE VALPARAÍSO", "provincia": "Provincia de San Felipe de Aconcagua", "comuna": null, "superficie_ha": 300.0, "datum_original": "PSAD56", "huso": 19, "epsg_origen": 24879, "tipo_publicacion": "pedimento", "fuente_pdf": "http://www.diariooficial.interior.gob.cl/publicaciones/2026/06/10/44471/07/2820736.pdf", "archivo": "gm_pedimento_2820736.pdf", "fecha": "10-06-2026", "edicion": "44471" }, "geometry": { "type": "Polygon", "coordinates": [ [ [ -70.976998521962273, -32.862930791601805 ], [ -70.966316595886624, -32.863099181511828 ], [ -70.966913943958161, -32.890144699954334 ], [ -70.97759910995903, -32.889976136570461 ], [ -70.976998521962273, -32.862930791601805 ] ] ] } },
{ "type": "Feature", "properties": { "cve": "2820737", "nombre": "ELIANA A 4", "solicitante": "Agrícola El Garfio Limitada", "region": "REGIÓN DE VALPARAÍSO", "provincia": "Provincia de San Felipe de Aconcagua", "comuna": null, "superficie_ha": 300.0, "datum_original": "PSAD56", "huso": 19, "epsg_origen": 24879, "tipo_publicacion": "pedimento", "fuente_pdf": "http://www.diariooficial.interior.gob.cl/publicaciones/2026/06/10/44471/07/2820737.pdf", "archivo": "gm_pedimento_2820737.pdf", "fecha": "10-06-2026", "edicion": "44471" }, "geometry": { "type": "Polygon", "coordinates": [ [ [ -70.990421191217251, -32.889772656540721 ], [ -70.979736132456381, -32.889942314440916 ], [ -70.980338173160561, -32.916987496818294 ], [ -70.991026476045477, -32.916817664214719 ], [ -70.990421191217251, -32.889772656540721 ] ] ] } },
{ "type": "Feature", "properties": { "cve": "2820738", "nombre": "ELIANA A 5", "solicitante": "Agrícola El Garfio Limitada", "region": "REGIÓN DE VALPARAÍSO", "provincia": "Provincia de San Felipe de Aconcagua", "comuna": null, "superficie_ha": 300.0, "datum_original": "PSAD56", "huso": 19, "epsg_origen": 24879, "tipo_publicacion": "pedimento", "fuente_pdf": "http://www.diariooficial.interior.gob.cl/publicaciones/2026/06/10/44471/07/2820738.pdf", "archivo": "gm_pedimento_2820738.pdf", "fecha": "10-06-2026", "edicion": "44471" }, "geometry": { "type": "Polygon", "coordinates": [ [ [ -70.979736132456381, -32.889942314440916 ], [ -70.969050984280713, -32.890111060246753 ], [ -70.969649780749904, -32.917156416388963 ], [ -70.980338173160561, -32.916987496818294 ], [ -70.979736132456381, -32.889942314440916 ] ] ] } },
{ "type": "Feature", "properties": { "cve": "2820739", "nombre": "ELIANA A 6", "solicitante": "Agrícola El Garfio Limitada", "region": "REGIÓN DE VALPARAÍSO", "provincia": "Provincia de San Felipe de Aconcagua", "comuna": null, "superficie_ha": 300.0, "datum_original": "PSAD56", "huso": 19, "epsg_origen": 24879, "tipo_publicacion": "pedimento", "fuente_pdf": "http://www.diariooficial.interior.gob.cl/publicaciones/2026/06/10/44471/07/2820739.pdf", "archivo": "gm_pedimento_2820739.pdf", "fecha": "10-06-2026", "edicion": "44471" }, "geometry": { "type": "Polygon", "coordinates": [ [ [ -70.969050984280713, -32.890111060246753 ], [ -70.958365747171555, -32.890278893932411 ], [ -70.95896129929541, -32.917324422900855 ], [ -70.969649780749904, -32.917156416388963 ], [ -70.969050984280713, -32.890111060246753 ] ] ] } },
{ "type": "Feature", "properties": { "cve": "2820740", "nombre": "ELIANA A 7", "solicitante": "Agrícola El Garfio Limitada", "region": "REGIÓN DE VALPARAÍSO", "provincia": "Provincia de San Felipe de Aconcagua", "comuna": null, "superficie_ha": 300.0, "datum_original": "PSAD56", "huso": 19, "epsg_origen": 24879, "tipo_publicacion": "pedimento", "fuente_pdf": "http://www.diariooficial.interior.gob.cl/publicaciones/2026/06/10/44471/07/2820740.pdf", "archivo": "gm_pedimento_2820740.pdf", "fecha": "10-06-2026", "edicion": "44471" }, "geometry": { "type": "Polygon", "coordinates": [ [ [ -70.958365747171555, -32.890278893932411 ], [ -70.947680421610215, -32.890445815472233 ], [ -70.94827272927904, -32.917491516328234 ], [ -70.95896129929541, -32.917324422900855 ], [ -70.958365747171555, -32.890278893932411 ] ] ] } },
{ "type": "Feature", "properties": { "cve": "2820741", "nombre": "ELIANA A 9", "solicitante": "Agrícola El Garfio Limitada", "region": "REGIÓN DE VALPARAÍSO", "provincia": "Provincia de San Felipe de Aconcagua", "comuna": null, "superficie_ha": 300.0, "datum_original": "PSAD56", "huso": 19, "epsg_origen": 24879, "tipo_publicacion": "pedimento", "fuente_pdf": "http://www.diariooficial.interior.gob.cl/publicaciones/2026/06/10/44471/07/2820741.pdf", "archivo": "gm_pedimento_2820741.pdf", "fecha": "10-06-2026", "edicion": "44471" }, "geometry": { "type": "Polygon", "coordinates": [ [ [ -70.991026476045477, -32.916817664214719 ], [ -70.980338173160561, -32.916987496818294 ], [ -70.980941019598774, -32.944032551346652 ], [ -70.991632570944702, -32.943862543935573 ], [ -70.991026476045477, -32.916817664214719 ] ] ] } }
]
}
