{
"type": "FeatureCollection",
"name": "boletin_mineria_20260811",
"crs": { "type": "name", "properties": { "name": "urn:ogc:def:crs:OGC:1.3:CRS84" } },
"features": [
{ "type": "Feature", "properties": { "cve": "2851526", "nombre": "MICHAEL DOS 1 AL 135", "solicitante": "Pastén Rodríguez Juvenal Enrique", "region": "REGIÓN DE ANTOFAGASTA", "provincia": "Provincia de Antofagasta", "comuna": "Antofagasta", "superficie_ha": 135.0, "datum_original": "PSAD56", "huso": 19, "epsg_origen": 24879, "tipo_publicacion": "manifestacion", "fuente_pdf": "http://www.diariooficial.interior.gob.cl/publicaciones/2026/08/11/44522/07/2851526.pdf", "archivo": "gm_manifestacion_2851526.pdf", "fecha": "11-08-2026", "edicion": "44522" }, "geometry": { "type": "Polygon", "coordinates": [ [ [ -70.536450221993235, -24.494777798404357 ], [ -70.532010416146335, -24.494822908543419 ], [ -70.532338825129258, -24.521907995861692 ], [ -70.536779581802278, -24.521862829401957 ], [ -70.536450221993235, -24.494777798404357 ] ] ] } },
{ "type": "Feature", "properties": { "cve": "2851570", "nombre": "CF 1, 1 AL 60", "solicitante": "Sociedad Minera La Frontera SpA", "region": "REGIÓN DE ATACAMA", "provincia": "Provincia de Huasco", "comuna": "Vallenar", "superficie_ha": 300.0, "datum_original": "PSAD56", "huso": 19, "epsg_origen": 24879, "tipo_publicacion": "manifestacion", "fuente_pdf": "http://www.diariooficial.interior.gob.cl/publicaciones/2026/08/11/44522/07/2851570.pdf", "archivo": "gm_manifestacion_2851570.pdf", "fecha": "11-08-2026", "edicion": "44522" }, "geometry": { "type": "Polygon", "coordinates": [ [ [ -70.763626755521557, -28.761839983641547 ], [ -70.753388048168858, -28.761973246752095 ], [ -70.753840744845405, -28.789039294218846 ], [ -70.764082092336466, -28.788905882531267 ], [ -70.763626755521557, -28.761839983641547 ] ] ] } },
{ "type": "Feature", "properties": { "cve": "2851571", "nombre": "CF 2, 1 AL 60", "solicitante": "Sociedad Minera La Frontera SpA", "region": "REGIÓN DE ATACAMA", "provincia": "Provincia de Huasco", "comuna": "Vallenar", "superficie_ha": 300.0, "datum_original": "PSAD56", "huso": 19, "epsg_origen": 24879, "tipo_publicacion": "manifestacion", "fuente_pdf": "http://www.diariooficial.interior.gob.cl/publicaciones/2026/08/11/44522/07/2851571.pdf", "archivo": "gm_manifestacion_2851571.pdf", "fecha": "11-08-2026", "edicion": "44522" }, "geometry": { "type": "Polygon", "coordinates": [ [ [ -70.753388048168858, -28.761973246752095 ], [ -70.743149271621576, -28.7621057347468 ], [ -70.743599328084116, -28.789171929926781 ], [ -70.753840744845405, -28.789039294218846 ], [ -70.753388048168858, -28.761973246752095 ] ] ] } },
{ "type": "Feature", "properties": { "cve": "2851573", "nombre": "CF 4, 1 AL 60", "solicitante": "Sociedad Minera La Frontera SpA", "region": "REGIÓN DE ATACAMA", "provincia": "Provincia de Huasco", "comuna": "Vallenar", "superficie_ha": 300.0, "datum_original": "PSAD56", "huso": 19, "epsg_origen": 24879, "tipo_publicacion": "manifestacion", "fuente_pdf": "http://www.diariooficial.interior.gob.cl/publicaciones/2026/08/11/44522/07/2851573.pdf", "archivo": "gm_manifestacion_2851573.pdf", "fecha": "11-08-2026", "edicion": "44522" }, "geometry": { "type": "Polygon", "coordinates": [ [ [ -70.774170641150647, -28.779749791293028 ], [ -70.743449240429939, -28.780149877734527 ], [ -70.743599328084116, -28.789171929926781 ], [ -70.774323370153525, -28.788771694883323 ], [ -70.774170641150647, -28.779749791293028 ] ] ] } },
{ "type": "Feature", "properties": { "cve": "2851589", "nombre": "JULI 19, 1 AL 60", "solicitante": "Sociedad Minera El Águila SpA", "region": "REGIÓN DE ATACAMA", "provincia": "Provincia de Huasco", "comuna": "Vallenar", "superficie_ha": 300.0, "datum_original": "PSAD56", "huso": 19, "epsg_origen": 24879, "tipo_publicacion": "manifestacion", "fuente_pdf": "http://www.diariooficial.interior.gob.cl/publicaciones/2026/08/11/44522/07/2851589.pdf", "archivo": "gm_manifestacion_2851589.pdf", "fecha": "11-08-2026", "edicion": "44522" }, "geometry": { "type": "Polygon", "coordinates": [ [ [ -70.794188181105852, -28.752413702002684 ], [ -70.783950562919287, -28.752549239972133 ], [ -70.784410968491386, -28.779614877814076 ], [ -70.794651225376512, -28.779479188701686 ], [ -70.794188181105852, -28.752413702002684 ] ] ] } },
{ "type": "Feature", "properties": { "cve": "2851590", "nombre": "JULI 20, 1 AL 60", "solicitante": "Sociedad Minera El Águila SpA", "region": "REGIÓN DE ATACAMA", "provincia": "Provincia de Huasco", "comuna": "Vallenar", "superficie_ha": 300.0, "datum_original": "PSAD56", "huso": 19, "epsg_origen": 24879, "tipo_publicacion": "manifestacion", "fuente_pdf": "http://www.diariooficial.interior.gob.cl/publicaciones/2026/08/11/44522/07/2851590.pdf", "archivo": "gm_manifestacion_2851590.pdf", "fecha": "11-08-2026", "edicion": "44522" }, "geometry": { "type": "Polygon", "coordinates": [ [ [ -70.784103961030226, -28.761571132150127 ], [ -70.773865393276424, -28.761705945434425 ], [ -70.774323370153525, -28.788771694883323 ], [ -70.784564577892965, -28.788636731294439 ], [ -70.784103961030226, -28.761571132150127 ] ] ] } },
{ "type": "Feature", "properties": { "cve": "2851591", "nombre": "JULI 22 1 AL 60", "solicitante": "Sociedad Minera El Águila SpA", "region": "REGIÓN DE ATACAMA", "provincia": "Provincia de Huasco", "comuna": "Vallenar", "superficie_ha": 300.0, "datum_original": "PSAD56", "huso": 19, "epsg_origen": 24879, "tipo_publicacion": "manifestacion", "fuente_pdf": "http://www.diariooficial.interior.gob.cl/publicaciones/2026/08/11/44522/07/2851591.pdf", "archivo": "gm_manifestacion_2851591.pdf", "fecha": "11-08-2026", "edicion": "44522" }, "geometry": { "type": "Polygon", "coordinates": [ [ [ -70.783643977808595, -28.734505416938166 ], [ -70.773408046411404, -28.734640079993476 ], [ -70.773865393276424, -28.761705945434425 ], [ -70.784103961030226, -28.761571132150127 ], [ -70.783643977808595, -28.734505416938166 ] ] ] } },
{ "type": "Feature", "properties": { "cve": "2851592", "nombre": "JULI 25 1 AL 60", "solicitante": "Sociedad Minera El Águila SpA", "region": "REGIÓN DE ATACAMA", "provincia": "Provincia de Huasco", "comuna": "Vallenar", "superficie_ha": 300.0, "datum_original": "PSAD56", "huso": 19, "epsg_origen": 24879, "tipo_publicacion": "manifestacion", "fuente_pdf": "http://www.diariooficial.interior.gob.cl/publicaciones/2026/08/11/44522/07/2851592.pdf", "archivo": "gm_manifestacion_2851592.pdf", "fecha": "11-08-2026", "edicion": "44522" }, "geometry": { "type": "Polygon", "coordinates": [ [ [ -70.772951328870704, -28.707574098636147 ], [ -70.762717960356653, -28.707707838186977 ], [ -70.763172045089561, -28.734773968834936 ], [ -70.773408046411404, -28.734640079993476 ], [ -70.772951328870704, -28.707574098636147 ] ] ] } },
{ "type": "Feature", "properties": { "cve": "2851596", "nombre": "JULIETA 11 1 AL 60", "solicitante": "Sociedad Minera El Águila SpA", "region": "REGIÓN DE ATACAMA", "provincia": "Provincia de Huasco", "comuna": "Vallenar", "superficie_ha": 300.0, "datum_original": "PSAD56", "huso": 19, "epsg_origen": 24879, "tipo_publicacion": "manifestacion", "fuente_pdf": "http://www.diariooficial.interior.gob.cl/publicaciones/2026/08/11/44522/07/2851596.pdf", "archivo": "gm_manifestacion_2851596.pdf", "fecha": "11-08-2026", "edicion": "44522" }, "geometry": { "type": "Polygon", "coordinates": [ [ [ -70.906797220902007, -28.750871655213782 ], [ -70.896560403479199, -28.751015714333445 ], [ -70.897049830406232, -28.778079642111649 ], [ -70.90728928565207, -28.777935422351433 ], [ -70.906797220902007, -28.750871655213782 ] ] ] } },
{ "type": "Feature", "properties": { "cve": "2851597", "nombre": "JULIETA 12, 1 AL 60", "solicitante": "Sociedad Minera El Águila SpA", "region": "REGIÓN DE ATACAMA", "provincia": "Provincia de Huasco", "comuna": "Vallenar", "superficie_ha": 300.0, "datum_original": "PSAD56", "huso": 19, "epsg_origen": 24879, "tipo_publicacion": "manifestacion", "fuente_pdf": "http://www.diariooficial.interior.gob.cl/publicaciones/2026/08/11/44522/07/2851597.pdf", "archivo": "gm_manifestacion_2851597.pdf", "fecha": "11-08-2026", "edicion": "44522" }, "geometry": { "type": "Polygon", "coordinates": [ [ [ -70.896560403479199, -28.751015714333445 ], [ -70.886323511244981, -28.751158998904987 ], [ -70.8868103002672, -28.778223086460486 ], [ -70.897049830406232, -28.778079642111649 ], [ -70.896560403479199, -28.751015714333445 ] ] ] } },
{ "type": "Feature", "properties": { "cve": "2851598", "nombre": "JULIETA 16, 1 AL 40", "solicitante": "Sociedad Minera El Águila SpA", "region": "REGIÓN DE ATACAMA", "provincia": "Provincia de Huasco", "comuna": "Vallenar", "superficie_ha": 200.0, "datum_original": "PSAD56", "huso": 19, "epsg_origen": 24879, "tipo_publicacion": "manifestacion", "fuente_pdf": "http://www.diariooficial.interior.gob.cl/publicaciones/2026/08/11/44522/07/2851598.pdf", "archivo": "gm_manifestacion_2851598.pdf", "fecha": "11-08-2026", "edicion": "44522" }, "geometry": { "type": "Polygon", "coordinates": [ [ [ -70.90720722781991, -28.773424802622241 ], [ -70.896968212463207, -28.773568995603419 ], [ -70.897294796589179, -28.791611562138371 ], [ -70.907535572107449, -28.79146726202757 ], [ -70.90720722781991, -28.773424802622241 ] ] ] } },
{ "type": "Feature", "properties": { "cve": "2851599", "nombre": "JULIETA 17 1 AL 40", "solicitante": "Sociedad Minera El Aguila SpA", "region": "REGIÓN DE ATACAMA", "provincia": "Provincia de Huasco", "comuna": "Vallenar", "superficie_ha": 200.0, "datum_original": "PSAD56", "huso": 19, "epsg_origen": 24879, "tipo_publicacion": "manifestacion", "fuente_pdf": "http://www.diariooficial.interior.gob.cl/publicaciones/2026/08/11/44522/07/2851599.pdf", "archivo": "gm_manifestacion_2851599.pdf", "fecha": "11-08-2026", "edicion": "44522" }, "geometry": { "type": "Polygon", "coordinates": [ [ [ -70.896968212463207, -28.773568995603419 ], [ -70.886729122226939, -28.773712413317106 ], [ -70.887053946136717, -28.791755086406003 ], [ -70.897294796589179, -28.791611562138371 ], [ -70.896968212463207, -28.773568995603419 ] ] ] } },
{ "type": "Feature", "properties": { "cve": "2851593", "nombre": "JULIETA 5 1 AL 40", "solicitante": "Sociedad Minera El Águila SpA", "region": "REGIÓN DE ATACAMA", "provincia": "Provincia de Huasco", "comuna": "Vallenar", "superficie_ha": 200.0, "datum_original": "PSAD56", "huso": 19, "epsg_origen": 24879, "tipo_publicacion": "manifestacion", "fuente_pdf": "http://www.diariooficial.interior.gob.cl/publicaciones/2026/08/11/44522/07/2851593.pdf", "archivo": "gm_manifestacion_2851593.pdf", "fecha": "11-08-2026", "edicion": "44522" }, "geometry": { "type": "Polygon", "coordinates": [ [ [ -70.916622230936028, -28.72817372744483 ], [ -70.906387684075071, -28.728318426567277 ], [ -70.906715275943029, -28.746361015982103 ], [ -70.916951578880685, -28.746216209244576 ], [ -70.916622230936028, -28.72817372744483 ] ] ] } },
{ "type": "Feature", "properties": { "cve": "2851594", "nombre": "JULIETA 6, 1 AL 40", "solicitante": "Sociedad Minera El Águila SpA", "region": "REGIÓN DE ATACAMA", "provincia": "Provincia de Huasco", "comuna": "Vallenar", "superficie_ha": 200.0, "datum_original": "PSAD56", "huso": 19, "epsg_origen": 24879, "tipo_publicacion": "manifestacion", "fuente_pdf": "http://www.diariooficial.interior.gob.cl/publicaciones/2026/08/11/44522/07/2851594.pdf", "archivo": "gm_manifestacion_2851594.pdf", "fecha": "11-08-2026", "edicion": "44522" }, "geometry": { "type": "Polygon", "coordinates": [ [ [ -70.906387684075071, -28.728318426567277 ], [ -70.896153062068223, -28.728462351881493 ], [ -70.896478897804798, -28.746505048336179 ], [ -70.906715275943029, -28.746361015982103 ], [ -70.906387684075071, -28.728318426567277 ] ] ] } },
{ "type": "Feature", "properties": { "cve": "2851595", "nombre": "JULIETA 7, 1 AL 60", "solicitante": "Sociedad Minera El Águila SpA", "region": "REGIÓN DE ATACAMA", "provincia": "Provincia de Huasco", "comuna": "Vallenar", "superficie_ha": 300.0, "datum_original": "PSAD56", "huso": 19, "epsg_origen": 24879, "tipo_publicacion": "manifestacion", "fuente_pdf": "http://www.diariooficial.interior.gob.cl/publicaciones/2026/08/11/44522/07/2851595.pdf", "archivo": "gm_manifestacion_2851595.pdf", "fecha": "11-08-2026", "edicion": "44522" }, "geometry": { "type": "Polygon", "coordinates": [ [ [ -70.896234492964993, -28.732973030864294 ], [ -70.865528863367373, -28.733400243157117 ], [ -70.865689146872555, -28.742421750218906 ], [ -70.896397410829891, -28.741994379092002 ], [ -70.896234492964993, -28.732973030864294 ] ] ] } },
{ "type": "Feature", "properties": { "cve": "2851297", "nombre": "BRISAS DEL NORTE 1 AL 20", "solicitante": "Guerra Guerra Raimundo Enrique", "region": "REGIÓN DE COQUIMBO", "provincia": "Provincia de Elqui", "comuna": "Vicuña", "superficie_ha": 100.0, "datum_original": "PSAD56", "huso": 19, "epsg_origen": 24879, "tipo_publicacion": "manifestacion", "fuente_pdf": "http://www.diariooficial.interior.gob.cl/publicaciones/2026/08/11/44522/07/2851297.pdf", "archivo": "gm_manifestacion_2851297.pdf", "fecha": "11-08-2026", "edicion": "44522" }, "geometry": { "type": "Polygon", "coordinates": [ [ [ -70.820031544128867, -29.81138948580465 ], [ -70.809687969655442, -29.811531562685477 ], [ -70.809850462317314, -29.820551885983352 ], [ -70.820194964298338, -29.820409757500244 ], [ -70.820031544128867, -29.81138948580465 ] ] ] } },
{ "type": "Feature", "properties": { "cve": "2851044", "nombre": "IGNACIA 1/6", "solicitante": "Retamales Zúñiga Fabricio Alexander Daysuke y otro", "region": "REGIÓN DE COQUIMBO", "provincia": "Provincia de Elqui", "comuna": "Vicuña", "superficie_ha": 60.0, "datum_original": "PSAD56", "huso": 19, "epsg_origen": 24879, "tipo_publicacion": "manifestacion", "fuente_pdf": "http://www.diariooficial.interior.gob.cl/publicaciones/2026/08/11/44522/07/2851044.pdf", "archivo": "gm_manifestacion_2851044.pdf", "fecha": "11-08-2026", "edicion": "44522" }, "geometry": { "type": "Polygon", "coordinates": [ [ [ -70.613225596936303, -30.075739178295166 ], [ -70.607002355888383, -30.075815415061555 ], [ -70.607148199545691, -30.084836329085146 ], [ -70.613372004788445, -30.084760064777043 ], [ -70.613225596936303, -30.075739178295166 ] ] ] } },
{ "type": "Feature", "properties": { "cve": "2851264", "nombre": "REFUGIO 1/9", "solicitante": "Retamales Zúñiga Fabricio Alexander Daysuke", "region": "REGIÓN DE COQUIMBO", "provincia": "Provincia de Elqui", "comuna": "Vicuña", "superficie_ha": 9.0, "datum_original": "PSAD56", "huso": 19, "epsg_origen": 24879, "tipo_publicacion": "manifestacion", "fuente_pdf": "http://www.diariooficial.interior.gob.cl/publicaciones/2026/08/11/44522/07/2851264.pdf", "archivo": "gm_manifestacion_2851264.pdf", "fecha": "11-08-2026", "edicion": "44522" }, "geometry": { "type": "Polygon", "coordinates": [ [ [ -70.589804850855543, -30.122671974367652 ], [ -70.586691727414248, -30.122709628113338 ], [ -70.586735002268227, -30.125415911069815 ], [ -70.589848210528643, -30.12537825324732 ], [ -70.589804850855543, -30.122671974367652 ] ] ] } },
{ "type": "Feature", "properties": { "cve": "2851533", "nombre": "AMELIA 1 AL 40", "solicitante": "Minera El Águila SpA", "region": "REGIÓN METROPOLITANA DE SANTIAGO", "provincia": "Provincia de Santiago", "comuna": null, "superficie_ha": 40.0, "datum_original": "PSAD56", "huso": 19, "epsg_origen": 24879, "tipo_publicacion": "manifestacion", "fuente_pdf": "http://www.diariooficial.interior.gob.cl/publicaciones/2026/08/11/44522/07/2851533.pdf", "archivo": "gm_manifestacion_2851533.pdf", "fecha": "11-08-2026", "edicion": "44522" }, "geometry": { "type": "Polygon", "coordinates": [ [ [ -70.896986799626859, -33.515724001154908 ], [ -70.886224842508895, -33.515888378423092 ], [ -70.886303121987794, -33.519494243689969 ], [ -70.897065525082411, -33.519329844076658 ], [ -70.896986799626859, -33.515724001154908 ] ] ] } },
{ "type": "Feature", "properties": { "cve": "2851485", "nombre": "EL YESO 5 1 AL 30", "solicitante": "Sociedad Industrial Romeral S.A.", "region": "REGIÓN DEL LIBERTADOR GENERAL BERNARDO O’HIGGINS", "provincia": "Provincia de Cachapoal", "comuna": null, "superficie_ha": 300.0, "datum_original": "PSAD56", "huso": 19, "epsg_origen": 24879, "tipo_publicacion": "mensura", "fuente_pdf": "http://www.diariooficial.interior.gob.cl/publicaciones/2026/08/11/44522/07/2851485.pdf", "archivo": "gm_mensura_2851485.pdf", "fecha": "11-08-2026", "edicion": "44522" }, "geometry": { "type": "Polygon", "coordinates": [ [ [ -70.242689109015686, -34.428531458452291 ], [ -70.210046053244753, -34.428858802758612 ], [ -70.21017601431204, -34.437874997488933 ], [ -70.24282257383382, -34.437547543354754 ], [ -70.242689109015686, -34.428531458452291 ] ] ] } },
{ "type": "Feature", "properties": { "cve": "2851561", "nombre": "La Escondida 1 al 96", "solicitante": "Morales Muñoz María Adela", "region": "REGIÓN DE LOS RÍOS", "provincia": "Provincia de Valdivia", "comuna": null, "superficie_ha": 96.0, "datum_original": "PSAD56", "huso": 18, "epsg_origen": 24878, "tipo_publicacion": "mensura", "fuente_pdf": "http://www.diariooficial.interior.gob.cl/publicaciones/2026/08/11/44522/07/2851561.pdf", "archivo": "gm_mensura_2851561.pdf", "fecha": "11-08-2026", "edicion": "44522" }, "geometry": { "type": "Polygon", "coordinates": [ [ [ -72.582168903729212, -39.615958583591897 ], [ -72.563545591163717, -39.615569320992066 ], [ -72.563356105311797, -39.620970637586382 ], [ -72.581980862779602, -39.621359974416379 ], [ -72.582168903729212, -39.615958583591897 ] ] ] } },
{ "type": "Feature", "properties": { "cve": "2851621", "nombre": "PEDRO 1", "solicitante": "Río Tinto Mining and Exploration Limited Agencia en Chile", "region": "REGIÓN DE ATACAMA", "provincia": "Provincia de Copiapó", "comuna": "Copiapó", "superficie_ha": 100.0, "datum_original": "PSAD56", "huso": 19, "epsg_origen": 24879, "tipo_publicacion": "pedimento", "fuente_pdf": "http://www.diariooficial.interior.gob.cl/publicaciones/2026/08/11/44522/07/2851621.pdf", "archivo": "gm_pedimento_2851621.pdf", "fecha": "11-08-2026", "edicion": "44522" }, "geometry": { "type": "Polygon", "coordinates": [ [ [ -69.599260554593513, -27.512778854790142 ], [ -69.589135662228614, -27.512822098871862 ], [ -69.589183761397209, -27.521849550730312 ], [ -69.599309480275409, -27.521806290090943 ], [ -69.599260554593513, -27.512778854790142 ] ] ] } },
{ "type": "Feature", "properties": { "cve": "2851627", "nombre": "PEDRO 11", "solicitante": "Río Tinto Mining and Exploration Limited Agencia en Chile", "region": "REGIÓN DE ATACAMA", "provincia": "Provincia de Copiapó", "comuna": "Copiapó", "superficie_ha": 100.0, "datum_original": "PSAD56", "huso": 19, "epsg_origen": 24879, "tipo_publicacion": "pedimento", "fuente_pdf": "http://www.diariooficial.interior.gob.cl/publicaciones/2026/08/11/44522/07/2851627.pdf", "archivo": "gm_pedimento_2851627.pdf", "fecha": "11-08-2026", "edicion": "44522" }, "geometry": { "type": "Polygon", "coordinates": [ [ [ -69.569071725012563, -27.549016241868749 ], [ -69.558943458150267, -27.549057338465719 ], [ -69.558989162783675, -27.558084790743749 ], [ -69.569118257723247, -27.558043678425399 ], [ -69.569071725012563, -27.549016241868749 ] ] ] } },
{ "type": "Feature", "properties": { "cve": "2851628", "nombre": "PEDRO 13", "solicitante": "Río Tinto Mining and Exploration Limited Agencia en Chile", "region": "REGIÓN DE ATACAMA", "provincia": "Provincia de Copiapó", "comuna": "Copiapó", "superficie_ha": 300.0, "datum_original": "PSAD56", "huso": 19, "epsg_origen": 24879, "tipo_publicacion": "pedimento", "fuente_pdf": "http://www.diariooficial.interior.gob.cl/publicaciones/2026/08/11/44522/07/2851628.pdf", "archivo": "gm_pedimento_2851628.pdf", "fecha": "11-08-2026", "edicion": "44522" }, "geometry": { "type": "Polygon", "coordinates": [ [ [ -69.589376382216628, -27.557959239198674 ], [ -69.558989162783675, -27.558084790743749 ], [ -69.559034888698477, -27.567112231125073 ], [ -69.589424593497, -27.56698663156137 ], [ -69.589376382216628, -27.557959239198674 ] ] ] } },
{ "type": "Feature", "properties": { "cve": "2851629", "nombre": "PEDRO 14", "solicitante": "Río Tinto Mining and Exploration Limited Agencia en Chile", "region": "REGIÓN DE ATACAMA", "provincia": "Provincia de Copiapó", "comuna": "Copiapó", "superficie_ha": 300.0, "datum_original": "PSAD56", "huso": 19, "epsg_origen": 24879, "tipo_publicacion": "pedimento", "fuente_pdf": "http://www.diariooficial.interior.gob.cl/publicaciones/2026/08/11/44522/07/2851629.pdf", "archivo": "gm_pedimento_2851629.pdf", "fecha": "11-08-2026", "edicion": "44522" }, "geometry": { "type": "Polygon", "coordinates": [ [ [ -69.55889777479085, -27.540029874293573 ], [ -69.54877031435413, -27.540070217531635 ], [ -69.548904944007447, -27.567152620680453 ], [ -69.559034888698477, -27.567112231125073 ], [ -69.55889777479085, -27.540029874293573 ] ] ] } },
{ "type": "Feature", "properties": { "cve": "2851622", "nombre": "PEDRO 3", "solicitante": "Río Tinto Mining and Exploration Limited Agencia en Chile", "region": "REGIÓN DE ATACAMA", "provincia": "Provincia de Copiapó", "comuna": "Copiapó", "superficie_ha": 200.0, "datum_original": "PSAD56", "huso": 19, "epsg_origen": 24879, "tipo_publicacion": "pedimento", "fuente_pdf": "http://www.diariooficial.interior.gob.cl/publicaciones/2026/08/11/44522/07/2851622.pdf", "archivo": "gm_pedimento_2851622.pdf", "fecha": "11-08-2026", "edicion": "44522" }, "geometry": { "type": "Polygon", "coordinates": [ [ [ -69.558760852281949, -27.512947410438532 ], [ -69.548635872631948, -27.512987707381409 ], [ -69.548725479575253, -27.531042726033803 ], [ -69.558852112697949, -27.531002398229923 ], [ -69.558760852281949, -27.512947410438532 ] ] ] } },
{ "type": "Feature", "properties": { "cve": "2851623", "nombre": "PEDRO 5", "solicitante": "Río Tinto Mining and Exploration Limited Agencia en Chile", "region": "REGIÓN DE ATACAMA", "provincia": "Provincia de Copiapó", "comuna": "Copiapó", "superficie_ha": 300.0, "datum_original": "PSAD56", "huso": 19, "epsg_origen": 24879, "tipo_publicacion": "pedimento", "fuente_pdf": "http://www.diariooficial.interior.gob.cl/publicaciones/2026/08/11/44522/07/2851623.pdf", "archivo": "gm_pedimento_2851623.pdf", "fecha": "11-08-2026", "edicion": "44522" }, "geometry": { "type": "Polygon", "coordinates": [ [ [ -69.589183761397209, -27.521849550730312 ], [ -69.558806471864131, -27.521974910277379 ], [ -69.558852112697949, -27.531002398229923 ], [ -69.58923188297247, -27.530876990694811 ], [ -69.589183761397209, -27.521849550730312 ] ] ] } },
{ "type": "Feature", "properties": { "cve": "2851624", "nombre": "PEDRO 6", "solicitante": "Río Tinto Mining and Exploration Limited Agencia en Chile", "region": "REGIÓN DE ATACAMA", "provincia": "Provincia de Copiapó", "comuna": "Copiapó", "superficie_ha": 200.0, "datum_original": "PSAD56", "huso": 19, "epsg_origen": 24879, "tipo_publicacion": "pedimento", "fuente_pdf": "http://www.diariooficial.interior.gob.cl/publicaciones/2026/08/11/44522/07/2851624.pdf", "archivo": "gm_pedimento_2851624.pdf", "fecha": "11-08-2026", "edicion": "44522" }, "geometry": { "type": "Polygon", "coordinates": [ [ [ -69.609484951726103, -27.530789698961716 ], [ -69.58923188297247, -27.530876990694811 ], [ -69.589280026962228, -27.539904418762774 ], [ -69.609534750274761, -27.539817093621654 ], [ -69.609484951726103, -27.530789698961716 ] ] ] } },
{ "type": "Feature", "properties": { "cve": "2851625", "nombre": "PEDRO 7", "solicitante": "Río Tinto Mining and Exploration Limited Agencia en Chile", "region": "REGIÓN DE ATACAMA", "provincia": "Provincia de Copiapó", "comuna": "Copiapó", "superficie_ha": 300.0, "datum_original": "PSAD56", "huso": 19, "epsg_origen": 24879, "tipo_publicacion": "pedimento", "fuente_pdf": "http://www.diariooficial.interior.gob.cl/publicaciones/2026/08/11/44522/07/2851625.pdf", "archivo": "gm_pedimento_2851625.pdf", "fecha": "11-08-2026", "edicion": "44522" }, "geometry": { "type": "Polygon", "coordinates": [ [ [ -69.58923188297247, -27.530876990694811 ], [ -69.558852112697949, -27.531002398229923 ], [ -69.55889777479085, -27.540029874293573 ], [ -69.589280026962228, -27.539904418762774 ], [ -69.58923188297247, -27.530876990694811 ] ] ] } },
{ "type": "Feature", "properties": { "cve": "2851626", "nombre": "PEDRO 9", "solicitante": "Río Tinto Mining and Exploration Limited Agencia en Chile", "region": "REGIÓN DE ATACAMA", "provincia": "Provincia de Copiapó", "comuna": "Copiapó", "superficie_ha": 300.0, "datum_original": "PSAD56", "huso": 19, "epsg_origen": 24879, "tipo_publicacion": "pedimento", "fuente_pdf": "http://www.diariooficial.interior.gob.cl/publicaciones/2026/08/11/44522/07/2851626.pdf", "archivo": "gm_pedimento_2851626.pdf", "fecha": "11-08-2026", "edicion": "44522" }, "geometry": { "type": "Polygon", "coordinates": [ [ [ -69.589280026962228, -27.539904418762774 ], [ -69.55889777479085, -27.540029874293573 ], [ -69.558943458150267, -27.549057338465719 ], [ -69.589328193374342, -27.548931834931601 ], [ -69.589280026962228, -27.539904418762774 ] ] ] } },
{ "type": "Feature", "properties": { "cve": "2851429", "nombre": "JARILLA 1", "solicitante": "Ghiglino Zaro Mario Antonio", "region": "REGIÓN DE ATACAMA", "provincia": "Provincia de Huasco", "comuna": null, "superficie_ha": 200.0, "datum_original": "PSAD56", "huso": 19, "epsg_origen": 24879, "tipo_publicacion": "pedimento", "fuente_pdf": "http://www.diariooficial.interior.gob.cl/publicaciones/2026/08/11/44522/07/2851429.pdf", "archivo": "gm_pedimento_2851429.pdf", "fecha": "11-08-2026", "edicion": "44522" }, "geometry": { "type": "Polygon", "coordinates": [ [ [ -70.308641956804891, -28.41051656637682 ], [ -70.298435049246876, -28.410614257391753 ], [ -70.298655269778081, -28.428663077333749 ], [ -70.308863907274556, -28.428565313111825 ], [ -70.308641956804891, -28.41051656637682 ] ] ] } },
{ "type": "Feature", "properties": { "cve": "2851430", "nombre": "JARILLA 2", "solicitante": "Ghiglino Zaro Mario Antonio", "region": "REGIÓN DE ATACAMA", "provincia": "Provincia de Huasco", "comuna": null, "superficie_ha": 200.0, "datum_original": "PSAD56", "huso": 19, "epsg_origen": 24879, "tipo_publicacion": "pedimento", "fuente_pdf": "http://www.diariooficial.interior.gob.cl/publicaciones/2026/08/11/44522/07/2851430.pdf", "archivo": "gm_pedimento_2851430.pdf", "fecha": "11-08-2026", "edicion": "44522" }, "geometry": { "type": "Polygon", "coordinates": [ [ [ -70.298314014416917, -28.400687385195848 ], [ -70.288108006960968, -28.400784271766508 ], [ -70.288326386823115, -28.418833191721124 ], [ -70.298534123377962, -28.418736232529444 ], [ -70.298314014416917, -28.400687385195848 ] ] ] } },
{ "type": "Feature", "properties": { "cve": "2851609", "nombre": "SANTA MARTA 3", "solicitante": "Consorcio Santa Marta S.A.", "region": "REGIÓN METROPOLITANA DE SANTIAGO", "provincia": "Provincia de Talagante", "comuna": null, "superficie_ha": 300.0, "datum_original": "PSAD56", "huso": 19, "epsg_origen": 24879, "tipo_publicacion": "pedimento", "fuente_pdf": "http://www.diariooficial.interior.gob.cl/publicaciones/2026/08/11/44522/07/2851609.pdf", "archivo": "gm_pedimento_2851609.pdf", "fecha": "11-08-2026", "edicion": "44522" }, "geometry": { "type": "Polygon", "coordinates": [ [ [ -70.801269515954175, -33.675864811684349 ], [ -70.790487072402627, -33.676021527147682 ], [ -70.791048088941466, -33.703066210562667 ], [ -70.801833906533631, -33.70290933565493 ], [ -70.801269515954175, -33.675864811684349 ] ] ] } },
{ "type": "Feature", "properties": { "cve": "2851013", "nombre": "Isabel 55", "solicitante": "Piro Vergara Alejandra Carolina", "region": "REGIÓN DE ÑUBLE", "provincia": "Provincia de Itata", "comuna": null, "superficie_ha": 200.0, "datum_original": "PSAD56", "huso": 18, "epsg_origen": 24878, "tipo_publicacion": "pedimento", "fuente_pdf": "http://www.diariooficial.interior.gob.cl/publicaciones/2026/08/11/44522/07/2851013.pdf", "archivo": "gm_pedimento_2851013.pdf", "fecha": "11-08-2026", "edicion": "44522" }, "geometry": { "type": "Polygon", "coordinates": [ [ [ -72.635901111404323, -36.562699135077601 ], [ -72.613569832902471, -36.562254039481601 ], [ -72.613292603202495, -36.571261280876527 ], [ -72.635626469991152, -36.571706521833875 ], [ -72.635901111404323, -36.562699135077601 ] ] ] } },
{ "type": "Feature", "properties": { "cve": "2851014", "nombre": "Isabel 57", "solicitante": "Piro Vergara Alejandra Carolina", "region": "REGIÓN DE ÑUBLE", "provincia": "Provincia de Itata", "comuna": null, "superficie_ha": 200.0, "datum_original": "PSAD56", "huso": 18, "epsg_origen": 24878, "tipo_publicacion": "pedimento", "fuente_pdf": "http://www.diariooficial.interior.gob.cl/publicaciones/2026/08/11/44522/07/2851014.pdf", "archivo": "gm_pedimento_2851014.pdf", "fecha": "11-08-2026", "edicion": "44522" }, "geometry": { "type": "Polygon", "coordinates": [ [ [ -72.635626469991152, -36.571706521833875 ], [ -72.613292603202495, -36.571261280876527 ], [ -72.613015250343039, -36.580268506723975 ], [ -72.635351706566297, -36.580713893075831 ], [ -72.635626469991152, -36.571706521833875 ] ] ] } },
{ "type": "Feature", "properties": { "cve": "2851015", "nombre": "Isabel 59", "solicitante": "Piro Vergara Alejandra Carolina", "region": "REGIÓN DE ÑUBLE", "provincia": "Provincia de Itata", "comuna": null, "superficie_ha": 200.0, "datum_original": "PSAD56", "huso": 18, "epsg_origen": 24878, "tipo_publicacion": "pedimento", "fuente_pdf": "http://www.diariooficial.interior.gob.cl/publicaciones/2026/08/11/44522/07/2851015.pdf", "archivo": "gm_pedimento_2851015.pdf", "fecha": "11-08-2026", "edicion": "44522" }, "geometry": { "type": "Polygon", "coordinates": [ [ [ -72.635351706566297, -36.580713893075831 ], [ -72.613015250343039, -36.580268506723975 ], [ -72.6127377742677, -36.589275717021621 ], [ -72.635076821073881, -36.589721248801219 ], [ -72.635351706566297, -36.580713893075831 ] ] ] } },
{ "type": "Feature", "properties": { "cve": "2851016", "nombre": "Isabel 61", "solicitante": "Piro Vergara Alejandra Carolina", "region": "REGIÓN DE ÑUBLE", "provincia": "Provincia de Itata", "comuna": null, "superficie_ha": 200.0, "datum_original": "PSAD56", "huso": 18, "epsg_origen": 24878, "tipo_publicacion": "pedimento", "fuente_pdf": "http://www.diariooficial.interior.gob.cl/publicaciones/2026/08/11/44522/07/2851016.pdf", "archivo": "gm_pedimento_2851016.pdf", "fecha": "11-08-2026", "edicion": "44522" }, "geometry": { "type": "Polygon", "coordinates": [ [ [ -72.635076821073881, -36.589721248801219 ], [ -72.6127377742677, -36.589275717021621 ], [ -72.612460174919974, -36.598282911767214 ], [ -72.634801813457884, -36.598728589007749 ], [ -72.635076821073881, -36.589721248801219 ] ] ] } },
{ "type": "Feature", "properties": { "cve": "2851017", "nombre": "Isabel 62", "solicitante": "Piro Vergara Alejandra Carolina", "region": "REGIÓN DE ÑUBLE", "provincia": "Provincia de Itata", "comuna": null, "superficie_ha": 300.0, "datum_original": "PSAD56", "huso": 18, "epsg_origen": 24878, "tipo_publicacion": "pedimento", "fuente_pdf": "http://www.diariooficial.interior.gob.cl/publicaciones/2026/08/11/44522/07/2851017.pdf", "archivo": "gm_pedimento_2851017.pdf", "fecha": "11-08-2026", "edicion": "44522" }, "geometry": { "type": "Polygon", "coordinates": [ [ [ -72.66831518617596, -36.59938926127797 ], [ -72.634801813457884, -36.598728589007749 ], [ -72.634526683662415, -36.607735913693197 ], [ -72.6680439461216, -36.608396801647181 ], [ -72.66831518617596, -36.59938926127797 ] ] ] } },
{ "type": "Feature", "properties": { "cve": "2851018", "nombre": "Isabel 63", "solicitante": "Piro Vergara Alejandra Carolina", "region": "REGIÓN DE ÑUBLE", "provincia": "Provincia de Itata", "comuna": null, "superficie_ha": 200.0, "datum_original": "PSAD56", "huso": 18, "epsg_origen": 24878, "tipo_publicacion": "pedimento", "fuente_pdf": "http://www.diariooficial.interior.gob.cl/publicaciones/2026/08/11/44522/07/2851018.pdf", "archivo": "gm_pedimento_2851018.pdf", "fecha": "11-08-2026", "edicion": "44522" }, "geometry": { "type": "Polygon", "coordinates": [ [ [ -72.634801813457884, -36.598728589007749 ], [ -72.612460174919974, -36.598282911767214 ], [ -72.612182452243403, -36.60729009095845 ], [ -72.634526683662415, -36.607735913693197 ], [ -72.634801813457884, -36.598728589007749 ] ] ] } },
{ "type": "Feature", "properties": { "cve": "2851019", "nombre": "Isabel 64", "solicitante": "Piro Vergara Alejandra Carolina", "region": "REGIÓN DE ÑUBLE", "provincia": "Provincia de Itata", "comuna": null, "superficie_ha": 300.0, "datum_original": "PSAD56", "huso": 18, "epsg_origen": 24878, "tipo_publicacion": "pedimento", "fuente_pdf": "http://www.diariooficial.interior.gob.cl/publicaciones/2026/08/11/44522/07/2851019.pdf", "archivo": "gm_pedimento_2851019.pdf", "fecha": "11-08-2026", "edicion": "44522" }, "geometry": { "type": "Polygon", "coordinates": [ [ [ -72.670278469020715, -36.608440526055219 ], [ -72.636761133772083, -36.607780265820402 ], [ -72.636486141156524, -36.616787589460202 ], [ -72.670007367904788, -36.617448065223464 ], [ -72.670278469020715, -36.608440526055219 ] ] ] } },
{ "type": "Feature", "properties": { "cve": "2851020", "nombre": "Isabel 65", "solicitante": "Piro Vergara Alejandra Carolina", "region": "REGIÓN DE ÑUBLE", "provincia": "Provincia de Itata", "comuna": null, "superficie_ha": 200.0, "datum_original": "PSAD56", "huso": 18, "epsg_origen": 24878, "tipo_publicacion": "pedimento", "fuente_pdf": "http://www.diariooficial.interior.gob.cl/publicaciones/2026/08/11/44522/07/2851020.pdf", "archivo": "gm_pedimento_2851020.pdf", "fecha": "11-08-2026", "edicion": "44522" }, "geometry": { "type": "Polygon", "coordinates": [ [ [ -72.636761133772083, -36.607780265820402 ], [ -72.614416853251768, -36.607334861529075 ], [ -72.61413926658274, -36.616342039777834 ], [ -72.636486141156524, -36.616787589460202 ], [ -72.636761133772083, -36.607780265820402 ] ] ] } },
{ "type": "Feature", "properties": { "cve": "2851021", "nombre": "Isabel 66", "solicitante": "Piro Vergara Alejandra Carolina", "region": "REGIÓN DE ÑUBLE", "provincia": "Provincia de Itata", "comuna": null, "superficie_ha": 300.0, "datum_original": "PSAD56", "huso": 18, "epsg_origen": 24878, "tipo_publicacion": "pedimento", "fuente_pdf": "http://www.diariooficial.interior.gob.cl/publicaciones/2026/08/11/44522/07/2851021.pdf", "archivo": "gm_pedimento_2851021.pdf", "fecha": "11-08-2026", "edicion": "44522" }, "geometry": { "type": "Polygon", "coordinates": [ [ [ -72.692516573832989, -36.612478542638094 ], [ -72.681343248507702, -36.612261566322424 ], [ -72.680533333414772, -36.639284332386417 ], [ -72.691710553154209, -36.639501521228382 ], [ -72.692516573832989, -36.612478542638094 ] ] ] } },
{ "type": "Feature", "properties": { "cve": "2851022", "nombre": "Isabel 67", "solicitante": "Piro Vergara Alejandra Carolina", "region": "REGIÓN DE ÑUBLE", "provincia": "Provincia de Itata", "comuna": null, "superficie_ha": 300.0, "datum_original": "PSAD56", "huso": 18, "epsg_origen": 24878, "tipo_publicacion": "pedimento", "fuente_pdf": "http://www.diariooficial.interior.gob.cl/publicaciones/2026/08/11/44522/07/2851022.pdf", "archivo": "gm_pedimento_2851022.pdf", "fecha": "11-08-2026", "edicion": "44522" }, "geometry": { "type": "Polygon", "coordinates": [ [ [ -72.681343248507702, -36.612261566322424 ], [ -72.670170043024868, -36.612043543579126 ], [ -72.669356233682862, -36.639066096093018 ], [ -72.680533333414772, -36.639284332386417 ], [ -72.681343248507702, -36.612261566322424 ] ] ] } },
{ "type": "Feature", "properties": { "cve": "2851023", "nombre": "Isabel 68", "solicitante": "Piro Vergara Alejandra Carolina", "region": "REGIÓN DE ÑUBLE", "provincia": "Provincia de Itata", "comuna": null, "superficie_ha": 300.0, "datum_original": "PSAD56", "huso": 18, "epsg_origen": 24878, "tipo_publicacion": "pedimento", "fuente_pdf": "http://www.diariooficial.interior.gob.cl/publicaciones/2026/08/11/44522/07/2851023.pdf", "archivo": "gm_pedimento_2851023.pdf", "fecha": "11-08-2026", "edicion": "44522" }, "geometry": { "type": "Polygon", "coordinates": [ [ [ -72.670007367904788, -36.617448065223464 ], [ -72.636486141156524, -36.616787589460202 ], [ -72.636211026364435, -36.625794897577684 ], [ -72.669736146338252, -36.62645558891866 ], [ -72.670007367904788, -36.617448065223464 ] ] ] } },
{ "type": "Feature", "properties": { "cve": "2851024", "nombre": "Isabel 69", "solicitante": "Piro Vergara Alejandra Carolina", "region": "REGIÓN DE ÑUBLE", "provincia": "Provincia de Itata", "comuna": null, "superficie_ha": 200.0, "datum_original": "PSAD56", "huso": 18, "epsg_origen": 24878, "tipo_publicacion": "pedimento", "fuente_pdf": "http://www.diariooficial.interior.gob.cl/publicaciones/2026/08/11/44522/07/2851024.pdf", "archivo": "gm_pedimento_2851024.pdf", "fecha": "11-08-2026", "edicion": "44522" }, "geometry": { "type": "Polygon", "coordinates": [ [ [ -72.636486141156524, -36.616787589460202 ], [ -72.61413926658274, -36.616342039777834 ], [ -72.613861556586727, -36.625349202471014 ], [ -72.636211026364435, -36.625794897577684 ], [ -72.636486141156524, -36.616787589460202 ] ] ] } },
{ "type": "Feature", "properties": { "cve": "2851025", "nombre": "Isabel 70", "solicitante": "Piro Vergara Alejandra Carolina", "region": "REGIÓN DE ÑUBLE", "provincia": "Provincia de Itata", "comuna": null, "superficie_ha": 300.0, "datum_original": "PSAD56", "huso": 18, "epsg_origen": 24878, "tipo_publicacion": "pedimento", "fuente_pdf": "http://www.diariooficial.interior.gob.cl/publicaciones/2026/08/11/44522/07/2851025.pdf", "archivo": "gm_pedimento_2851025.pdf", "fecha": "11-08-2026", "edicion": "44522" }, "geometry": { "type": "Polygon", "coordinates": [ [ [ -72.669736146338252, -36.62645558891866 ], [ -72.636211026364435, -36.625794897577684 ], [ -72.635935789339769, -36.634802190170582 ], [ -72.669464804265857, -36.635463097138604 ], [ -72.669736146338252, -36.62645558891866 ] ] ] } },
{ "type": "Feature", "properties": { "cve": "2851026", "nombre": "Isabel 71", "solicitante": "Piro Vergara Alejandra Carolina", "region": "REGIÓN DE ÑUBLE", "provincia": "Provincia de Itata", "comuna": null, "superficie_ha": 200.0, "datum_original": "PSAD56", "huso": 18, "epsg_origen": 24878, "tipo_publicacion": "pedimento", "fuente_pdf": "http://www.diariooficial.interior.gob.cl/publicaciones/2026/08/11/44522/07/2851026.pdf", "archivo": "gm_pedimento_2851026.pdf", "fecha": "11-08-2026", "edicion": "44522" }, "geometry": { "type": "Polygon", "coordinates": [ [ [ -72.636211026364435, -36.625794897577684 ], [ -72.613861556586727, -36.625349202471014 ], [ -72.613583723207171, -36.634356349606328 ], [ -72.635935789339769, -36.634802190170582 ], [ -72.636211026364435, -36.625794897577684 ] ] ] } },
{ "type": "Feature", "properties": { "cve": "2851027", "nombre": "Isabel 72", "solicitante": "Piro Vergara Alejandra Carolina", "region": "REGIÓN DE ÑUBLE", "provincia": "Provincia de Itata", "comuna": null, "superficie_ha": 300.0, "datum_original": "PSAD56", "huso": 18, "epsg_origen": 24878, "tipo_publicacion": "pedimento", "fuente_pdf": "http://www.diariooficial.interior.gob.cl/publicaciones/2026/08/11/44522/07/2851027.pdf", "archivo": "gm_pedimento_2851027.pdf", "fecha": "11-08-2026", "edicion": "44522" }, "geometry": { "type": "Polygon", "coordinates": [ [ [ -72.669464804265857, -36.635463097138604 ], [ -72.635935789339769, -36.634802190170582 ], [ -72.635660430026405, -36.643809467236629 ], [ -72.669193341632308, -36.644470589881067 ], [ -72.669464804265857, -36.635463097138604 ] ] ] } },
{ "type": "Feature", "properties": { "cve": "2851028", "nombre": "Isabel 73", "solicitante": "Piro Vergara Alejandra Carolina", "region": "REGIÓN DE ÑUBLE", "provincia": "Provincia de Itata", "comuna": null, "superficie_ha": 200.0, "datum_original": "PSAD56", "huso": 18, "epsg_origen": 24878, "tipo_publicacion": "pedimento", "fuente_pdf": "http://www.diariooficial.interior.gob.cl/publicaciones/2026/08/11/44522/07/2851028.pdf", "archivo": "gm_pedimento_2851028.pdf", "fecha": "11-08-2026", "edicion": "44522" }, "geometry": { "type": "Polygon", "coordinates": [ [ [ -72.635935789339769, -36.634802190170582 ], [ -72.613583723207171, -36.634356349606328 ], [ -72.613305766387498, -36.64336348118151 ], [ -72.635660430026405, -36.643809467236629 ], [ -72.635935789339769, -36.634802190170582 ] ] ] } },
{ "type": "Feature", "properties": { "cve": "2851029", "nombre": "Isabel 74", "solicitante": "Piro Vergara Alejandra Carolina", "region": "REGIÓN DE ÑUBLE", "provincia": "Provincia de Itata", "comuna": null, "superficie_ha": 200.0, "datum_original": "PSAD56", "huso": 18, "epsg_origen": 24878, "tipo_publicacion": "pedimento", "fuente_pdf": "http://www.diariooficial.interior.gob.cl/publicaciones/2026/08/11/44522/07/2851029.pdf", "archivo": "gm_pedimento_2851029.pdf", "fecha": "11-08-2026", "edicion": "44522" }, "geometry": { "type": "Polygon", "coordinates": [ [ [ -72.691710553154209, -36.639501521228382 ], [ -72.680533333414772, -36.639284332386417 ], [ -72.679992790074834, -36.657299432455702 ], [ -72.691172608970206, -36.657516763062965 ], [ -72.691710553154209, -36.639501521228382 ] ] ] } },
{ "type": "Feature", "properties": { "cve": "2851030", "nombre": "Isabel 75", "solicitante": "Piro Vergara Alejandra Carolina", "region": "REGIÓN DE ÑUBLE", "provincia": "Provincia de Itata", "comuna": null, "superficie_ha": 200.0, "datum_original": "PSAD56", "huso": 18, "epsg_origen": 24878, "tipo_publicacion": "pedimento", "fuente_pdf": "http://www.diariooficial.interior.gob.cl/publicaciones/2026/08/11/44522/07/2851030.pdf", "archivo": "gm_pedimento_2851030.pdf", "fecha": "11-08-2026", "edicion": "44522" }, "geometry": { "type": "Polygon", "coordinates": [ [ [ -72.680533333414772, -36.639284332386417 ], [ -72.669356233682862, -36.639066096093018 ], [ -72.668813091297181, -36.657081053714094 ], [ -72.679992790074834, -36.657299432455702 ], [ -72.680533333414772, -36.639284332386417 ] ] ] } },
{ "type": "Feature", "properties": { "cve": "2851031", "nombre": "Isabel 76", "solicitante": "Piro Vergara Alejandra Carolina", "region": "REGIÓN DE ÑUBLE", "provincia": "Provincia de Itata", "comuna": null, "superficie_ha": 300.0, "datum_original": "PSAD56", "huso": 18, "epsg_origen": 24878, "tipo_publicacion": "pedimento", "fuente_pdf": "http://www.diariooficial.interior.gob.cl/publicaciones/2026/08/11/44522/07/2851031.pdf", "archivo": "gm_pedimento_2851031.pdf", "fecha": "11-08-2026", "edicion": "44522" }, "geometry": { "type": "Polygon", "coordinates": [ [ [ -72.669193341632308, -36.644470589881067 ], [ -72.635660430026405, -36.643809467236629 ], [ -72.635384948368269, -36.65281672877358 ], [ -72.66892175838224, -36.653478067143816 ], [ -72.669193341632308, -36.644470589881067 ] ] ] } },
{ "type": "Feature", "properties": { "cve": "2851032", "nombre": "Isabel 77", "solicitante": "Piro Vergara Alejandra Carolina", "region": "REGIÓN DE ÑUBLE", "provincia": "Provincia de Itata", "comuna": null, "superficie_ha": 200.0, "datum_original": "PSAD56", "huso": 18, "epsg_origen": 24878, "tipo_publicacion": "pedimento", "fuente_pdf": "http://www.diariooficial.interior.gob.cl/publicaciones/2026/08/11/44522/07/2851032.pdf", "archivo": "gm_pedimento_2851032.pdf", "fecha": "11-08-2026", "edicion": "44522" }, "geometry": { "type": "Polygon", "coordinates": [ [ [ -72.635660430026405, -36.643809467236629 ], [ -72.613305766387498, -36.64336348118151 ], [ -72.613027686071007, -36.652370597194277 ], [ -72.635384948368269, -36.65281672877358 ], [ -72.635660430026405, -36.643809467236629 ] ] ] } },
{ "type": "Feature", "properties": { "cve": "2851033", "nombre": "Isabel 78", "solicitante": "Piro Vergara Alejandra Carolina", "region": "REGIÓN DE ÑUBLE", "provincia": "Provincia de Itata", "comuna": null, "superficie_ha": 300.0, "datum_original": "PSAD56", "huso": 18, "epsg_origen": 24878, "tipo_publicacion": "pedimento", "fuente_pdf": "http://www.diariooficial.interior.gob.cl/publicaciones/2026/08/11/44522/07/2851033.pdf", "archivo": "gm_pedimento_2851033.pdf", "fecha": "11-08-2026", "edicion": "44522" }, "geometry": { "type": "Polygon", "coordinates": [ [ [ -72.66892175838224, -36.653478067143816 ], [ -72.635384948368269, -36.65281672877358 ], [ -72.635109344309157, -36.661823974779189 ], [ -72.668650054460315, -36.662485528924634 ], [ -72.66892175838224, -36.653478067143816 ] ] ] } },
{ "type": "Feature", "properties": { "cve": "2851034", "nombre": "Isabel 79", "solicitante": "Piro Vergara Alejandra Carolina", "region": "REGIÓN DE ÑUBLE", "provincia": "Provincia de Itata", "comuna": null, "superficie_ha": 300.0, "datum_original": "PSAD56", "huso": 18, "epsg_origen": 24878, "tipo_publicacion": "pedimento", "fuente_pdf": "http://www.diariooficial.interior.gob.cl/publicaciones/2026/08/11/44522/07/2851034.pdf", "archivo": "gm_pedimento_2851034.pdf", "fecha": "11-08-2026", "edicion": "44522" }, "geometry": { "type": "Polygon", "coordinates": [ [ [ -72.668650054460315, -36.662485528924634 ], [ -72.635109344309157, -36.661823974779189 ], [ -72.634833617792907, -36.670831205251169 ], [ -72.668378229811083, -36.671492975221256 ], [ -72.668650054460315, -36.662485528924634 ] ] ] } },
{ "type": "Feature", "properties": { "cve": "2851035", "nombre": "Isabel 80", "solicitante": "Piro Vergara Alejandra Carolina", "region": "REGIÓN DE ÑUBLE", "provincia": "Provincia de Itata", "comuna": null, "superficie_ha": 300.0, "datum_original": "PSAD56", "huso": 18, "epsg_origen": 24878, "tipo_publicacion": "pedimento", "fuente_pdf": "http://www.diariooficial.interior.gob.cl/publicaciones/2026/08/11/44522/07/2851035.pdf", "archivo": "gm_pedimento_2851035.pdf", "fecha": "11-08-2026", "edicion": "44522" }, "geometry": { "type": "Polygon", "coordinates": [ [ [ -72.668650054460315, -36.662485528924634 ], [ -72.635109344309157, -36.661823974779189 ], [ -72.634833617792907, -36.670831205251169 ], [ -72.668378229811083, -36.671492975221256 ], [ -72.668650054460315, -36.662485528924634 ] ] ] } },
{ "type": "Feature", "properties": { "cve": "2851036", "nombre": "Isabel 81", "solicitante": "Piro Vergara Alejandra Carolina", "region": "REGIÓN DE ÑUBLE", "provincia": "Provincia de Itata", "comuna": null, "superficie_ha": 200.0, "datum_original": "PSAD56", "huso": 18, "epsg_origen": 24878, "tipo_publicacion": "pedimento", "fuente_pdf": "http://www.diariooficial.interior.gob.cl/publicaciones/2026/08/11/44522/07/2851036.pdf", "archivo": "gm_pedimento_2851036.pdf", "fecha": "11-08-2026", "edicion": "44522" }, "geometry": { "type": "Polygon", "coordinates": [ [ [ -72.635109344309157, -36.661823974779189 ], [ -72.612749482201039, -36.661377697642379 ], [ -72.612471154720836, -36.670384782523492 ], [ -72.634833617792907, -36.670831205251169 ], [ -72.635109344309157, -36.661823974779189 ] ] ] } },
{ "type": "Feature", "properties": { "cve": "2851037", "nombre": "Isabel 82", "solicitante": "Piro Vergara Alejandra Carolina", "region": "REGIÓN DE ÑUBLE", "provincia": "Provincia de Itata", "comuna": null, "superficie_ha": 200.0, "datum_original": "PSAD56", "huso": 18, "epsg_origen": 24878, "tipo_publicacion": "pedimento", "fuente_pdf": "http://www.diariooficial.interior.gob.cl/publicaciones/2026/08/11/44522/07/2851037.pdf", "archivo": "gm_pedimento_2851037.pdf", "fecha": "11-08-2026", "edicion": "44522" }, "geometry": { "type": "Polygon", "coordinates": [ [ [ -72.634833617792907, -36.670831205251169 ], [ -72.612471154720836, -36.670384782523492 ], [ -72.612192703573669, -36.679391851835376 ], [ -72.63455776876323, -36.679838420187274 ], [ -72.634833617792907, -36.670831205251169 ] ] ] } },
{ "type": "Feature", "properties": { "cve": "2851038", "nombre": "Isabel 83", "solicitante": "Piro Vergara Alejandra Carolina", "region": "REGIÓN DE ÑUBLE", "provincia": "Provincia de Itata", "comuna": null, "superficie_ha": 200.0, "datum_original": "PSAD56", "huso": 18, "epsg_origen": 24878, "tipo_publicacion": "pedimento", "fuente_pdf": "http://www.diariooficial.interior.gob.cl/publicaciones/2026/08/11/44522/07/2851038.pdf", "archivo": "gm_pedimento_2851038.pdf", "fecha": "11-08-2026", "edicion": "44522" }, "geometry": { "type": "Polygon", "coordinates": [ [ [ -72.63455776876323, -36.679838420187274 ], [ -72.612192703573669, -36.679391851835376 ], [ -72.611914128702693, -36.688398905575745 ], [ -72.634281797163865, -36.688845619585251 ], [ -72.63455776876323, -36.679838420187274 ] ] ] } }
]
}
