{
"type": "FeatureCollection",
"name": "boletin_mineria_20260902",
"crs": { "type": "name", "properties": { "name": "urn:ogc:def:crs:OGC:1.3:CRS84" } },
"features": [
{ "type": "Feature", "properties": { "cve": "2863863", "nombre": "TALTAPE 1, 1 AL 30", "solicitante": "Río Tinto Mining and Exploration Limited Agencia en Chile", "region": "REGIÓN DE ARICA Y PARINACOTA", "provincia": "Provincia de Arica", "comuna": "Camarones", "superficie_ha": 300.0, "datum_original": "PSAD56", "huso": 18, "epsg_origen": 24878, "tipo_publicacion": "manifestacion", "fuente_pdf": "http://www.diariooficial.interior.gob.cl/publicaciones/2026/09/02/44540/07/2863863.pdf", "archivo": "gm_manifestacion_2863863.pdf", "fecha": "02-09-2026", "edicion": "44540" }, "geometry": { "type": "Polygon", "coordinates": [ [ [ -76.164130317115152, -64.347660400655357 ], [ -76.102038650483394, -64.348140241710979 ], [ -76.10239768250031, -64.357111589564752 ], [ -76.164509567067469, -64.356631556708152 ], [ -76.164130317115152, -64.347660400655357 ] ] ] } },
{ "type": "Feature", "properties": { "cve": "2863866", "nombre": "TALTAPE 13 1 al 20", "solicitante": "Río Tinto Mining and Exploration Limited Agencia en Chile", "region": "REGIÓN DE ARICA Y PARINACOTA", "provincia": "Provincia de Arica", "comuna": "Camarones", "superficie_ha": 200.0, "datum_original": "PSAD56", "huso": 18, "epsg_origen": 24878, "tipo_publicacion": "manifestacion", "fuente_pdf": "http://www.diariooficial.interior.gob.cl/publicaciones/2026/09/02/44540/07/2863866.pdf", "archivo": "gm_manifestacion_2863866.pdf", "fecha": "02-09-2026", "edicion": "44540" }, "geometry": { "type": "Polygon", "coordinates": [ [ [ -76.102037573779754, -64.348113327649074 ], [ -76.081339843800635, -64.348267432281872 ], [ -76.082044682676951, -64.366210239086186 ], [ -76.102755897249935, -64.366056011213772 ], [ -76.102037573779754, -64.348113327649074 ] ] ] } },
{ "type": "Feature", "properties": { "cve": "2863864", "nombre": "TALTAPE 9 1 al 30", "solicitante": "Río Tinto Mining and Exploration Limited Agencia en Chile", "region": "REGIÓN DE ARICA Y PARINACOTA", "provincia": "Provincia de Arica", "comuna": "Camarones", "superficie_ha": 300.0, "datum_original": "PSAD56", "huso": 18, "epsg_origen": 24878, "tipo_publicacion": "manifestacion", "fuente_pdf": "http://www.diariooficial.interior.gob.cl/publicaciones/2026/09/02/44540/07/2863864.pdf", "archivo": "gm_manifestacion_2863864.pdf", "fecha": "02-09-2026", "edicion": "44540" }, "geometry": { "type": "Polygon", "coordinates": [ [ [ -76.205523000095283, -64.347316930792886 ], [ -76.184826609194701, -64.347485640573993 ], [ -76.185985416485181, -64.374398872816627 ], [ -76.20670203741075, -64.374229960602051 ], [ -76.205523000095283, -64.347316930792886 ] ] ] } },
{ "type": "Feature", "properties": { "cve": "2863833", "nombre": "SUCHE 2, 1 AL 60", "solicitante": "Southern Copper Corporation Agencia en Chile", "region": "REGIÓN DE ARICA Y PARINACOTA", "provincia": "Provincia de Parinacota", "comuna": "Putre", "superficie_ha": 300.0, "datum_original": "PSAD56", "huso": 19, "epsg_origen": 24879, "tipo_publicacion": "manifestacion", "fuente_pdf": "http://www.diariooficial.interior.gob.cl/publicaciones/2026/09/02/44540/07/2863833.pdf", "archivo": "gm_manifestacion_2863833.pdf", "fecha": "02-09-2026", "edicion": "44540" }, "geometry": { "type": "Polygon", "coordinates": [ [ [ -69.390324711800659, -18.525425474373492 ], [ -69.380850432762642, -18.525444795925605 ], [ -69.380910502290448, -18.552558105455699 ], [ -69.390386275565106, -18.552538753618354 ], [ -69.390324711800659, -18.525425474373492 ] ] ] } },
{ "type": "Feature", "properties": { "cve": "2863834", "nombre": "SUCHE 3, 1 AL 60", "solicitante": "Southern Copper Corporation Agencia en Chile", "region": "REGIÓN DE ARICA Y PARINACOTA", "provincia": "Provincia de Parinacota", "comuna": "Putre", "superficie_ha": 300.0, "datum_original": "PSAD56", "huso": 19, "epsg_origen": 24879, "tipo_publicacion": "manifestacion", "fuente_pdf": "http://www.diariooficial.interior.gob.cl/publicaciones/2026/09/02/44540/07/2863834.pdf", "archivo": "gm_manifestacion_2863834.pdf", "fecha": "02-09-2026", "edicion": "44540" }, "geometry": { "type": "Polygon", "coordinates": [ [ [ -69.380850432762642, -18.525444795925605 ], [ -69.371376142203658, -18.525463642753135 ], [ -69.371434717486437, -18.552576981824377 ], [ -69.380910502290448, -18.552558105455699 ], [ -69.380850432762642, -18.525444795925605 ] ] ] } },
{ "type": "Feature", "properties": { "cve": "2863835", "nombre": "SUCHE 4, 1 AL 60", "solicitante": "Southern Copper Corporation Agencia en Chile", "region": "REGIÓN DE ARICA Y PARINACOTA", "provincia": "Provincia de Parinacota", "comuna": "Putre", "superficie_ha": 300.0, "datum_original": "PSAD56", "huso": 19, "epsg_origen": 24879, "tipo_publicacion": "manifestacion", "fuente_pdf": "http://www.diariooficial.interior.gob.cl/publicaciones/2026/09/02/44540/07/2863835.pdf", "archivo": "gm_manifestacion_2863835.pdf", "fecha": "02-09-2026", "edicion": "44540" }, "geometry": { "type": "Polygon", "coordinates": [ [ [ -69.333645743319806, -18.611393270314256 ], [ -69.324166658698431, -18.611409825275373 ], [ -69.324218042409512, -18.638523051343626 ], [ -69.333698629495203, -18.638506470536914 ], [ -69.333645743319806, -18.611393270314256 ] ] ] } },
{ "type": "Feature", "properties": { "cve": "2863836", "nombre": "SUCHE 5, 1 AL 60", "solicitante": "Southern Copper Corporation Agencia en Chile", "region": "REGIÓN DE ARICA Y PARINACOTA", "provincia": "Provincia de Parinacota", "comuna": "Putre", "superficie_ha": 300.0, "datum_original": "PSAD56", "huso": 19, "epsg_origen": 24879, "tipo_publicacion": "manifestacion", "fuente_pdf": "http://www.diariooficial.interior.gob.cl/publicaciones/2026/09/02/44540/07/2863836.pdf", "archivo": "gm_manifestacion_2863836.pdf", "fecha": "02-09-2026", "edicion": "44540" }, "geometry": { "type": "Polygon", "coordinates": [ [ [ -69.324166658698431, -18.611409825275373 ], [ -69.314687564253006, -18.611425903140862 ], [ -69.314737445492611, -18.638539154309861 ], [ -69.324218042409512, -18.638523051343626 ], [ -69.324166658698431, -18.611409825275373 ] ] ] } },
{ "type": "Feature", "properties": { "cve": "2863837", "nombre": "SUCHE 6, 1 AL 60", "solicitante": "Southern Copper Corporation Agencia en Chile", "region": "REGIÓN DE ARICA Y PARINACOTA", "provincia": "Provincia de Parinacota", "comuna": "Putre", "superficie_ha": 300.0, "datum_original": "PSAD56", "huso": 19, "epsg_origen": 24879, "tipo_publicacion": "manifestacion", "fuente_pdf": "http://www.diariooficial.interior.gob.cl/publicaciones/2026/09/02/44540/07/2863837.pdf", "archivo": "gm_manifestacion_2863837.pdf", "fecha": "02-09-2026", "edicion": "44540" }, "geometry": { "type": "Polygon", "coordinates": [ [ [ -69.314687564253006, -18.611425903140862 ], [ -69.305208460270819, -18.61144150390863 ], [ -69.305256839031955, -18.63855477943353 ], [ -69.314737445492611, -18.638539154309861 ], [ -69.314687564253006, -18.611425903140862 ] ] ] } },
{ "type": "Feature", "properties": { "cve": "2863865", "nombre": "TALTAPE 11 1 al 10", "solicitante": "Río Tinto Mining and Exploration Limited Agencia en Chile", "region": "REGIÓN DE ARICA Y PARINACOTA", "provincia": "Provincia de Parinacota", "comuna": "Camarones", "superficie_ha": 100.0, "datum_original": "PSAD56", "huso": 19, "epsg_origen": 24879, "tipo_publicacion": "manifestacion", "fuente_pdf": "http://www.diariooficial.interior.gob.cl/publicaciones/2026/09/02/44540/07/2863865.pdf", "archivo": "gm_manifestacion_2863865.pdf", "fecha": "02-09-2026", "edicion": "44540" }, "geometry": { "type": "Polygon", "coordinates": [ [ [ -69.55281190887311, -18.999612941217471 ], [ -69.543311193629265, -18.999641080324931 ], [ -69.543340527736831, -19.008678330603651 ], [ -69.552841755874041, -19.008650177111658 ], [ -69.55281190887311, -18.999612941217471 ] ] ] } },
{ "type": "Feature", "properties": { "cve": "2863825", "nombre": "VARSOVIA III", "solicitante": "Olivares Estay Erwin Juan Carlos", "region": "REGIÓN DE ATACAMA", "provincia": "Provincia de Copiapó", "comuna": "Copiapó", "superficie_ha": 1.0, "datum_original": "PSAD56", "huso": 19, "epsg_origen": 24879, "tipo_publicacion": "manifestacion", "fuente_pdf": "http://www.diariooficial.interior.gob.cl/publicaciones/2026/09/02/44540/07/2863825.pdf", "archivo": "gm_manifestacion_2863825.pdf", "fecha": "02-09-2026", "edicion": "44540" }, "geometry": { "type": "Polygon", "coordinates": [ [ [ -69.031366719565966, -27.208400422440906 ], [ -69.030356940694304, -27.208400644765547 ], [ -69.030357185290384, -27.209303477973979 ], [ -69.031366972298144, -27.209303255640766 ], [ -69.031366719565966, -27.208400422440906 ] ] ] } },
{ "type": "Feature", "properties": { "cve": "2863826", "nombre": "VARSOVIA IV", "solicitante": "Olivares Estay Erwin Juan Carlos", "region": "REGIÓN DE ATACAMA", "provincia": "Provincia de Copiapó", "comuna": "Copiapó", "superficie_ha": 2.0, "datum_original": "PSAD56", "huso": 19, "epsg_origen": 24879, "tipo_publicacion": "manifestacion", "fuente_pdf": "http://www.diariooficial.interior.gob.cl/publicaciones/2026/09/02/44540/07/2863826.pdf", "archivo": "gm_manifestacion_2863826.pdf", "fecha": "02-09-2026", "edicion": "44540" }, "geometry": { "type": "Polygon", "coordinates": [ [ [ -69.023389473726638, -27.208438093878264 ], [ -69.021369915164058, -27.208438416320472 ], [ -69.021370087348899, -27.209341249588192 ], [ -69.023389662183774, -27.209340927133546 ], [ -69.023389473726638, -27.208438093878264 ] ] ] } },
{ "type": "Feature", "properties": { "cve": "2863459", "nombre": "AGUSTINA 7 del 1-40", "solicitante": "Molina Donoso Arturo", "region": "REGIÓN DE ATACAMA", "provincia": "Provincia de Chañaral", "comuna": null, "superficie_ha": 40.0, "datum_original": "WGS84", "huso": 19, "epsg_origen": 32719, "tipo_publicacion": "manifestacion", "fuente_pdf": "http://www.diariooficial.interior.gob.cl/publicaciones/2026/09/02/44540/07/2863459.pdf", "archivo": "gm_manifestacion_2863459.pdf", "fecha": "02-09-2026", "edicion": "44540" }, "geometry": { "type": "Polygon", "coordinates": [ [ [ -69.985719228363919, -26.815855698321069 ], [ -69.980688590006068, -26.815890644376186 ], [ -69.980750758960795, -26.823112642805562 ], [ -69.985781716101201, -26.823077685856578 ], [ -69.985719228363919, -26.815855698321069 ] ] ] } },
{ "type": "Feature", "properties": { "cve": "2863781", "nombre": "ALFA V A, 1 AL 60", "solicitante": "Atlas Renewable Energy Chile SpA", "region": "REGIÓN DE ANTOFAGASTA", "provincia": "Provincia de Tocopilla", "comuna": null, "superficie_ha": 300.0, "datum_original": "PSAD56", "huso": 19, "epsg_origen": 24879, "tipo_publicacion": "mensura", "fuente_pdf": "http://www.diariooficial.interior.gob.cl/publicaciones/2026/09/02/44540/07/2863781.pdf", "archivo": "gm_mensura_2863781.pdf", "fecha": "02-09-2026", "edicion": "44540" }, "geometry": { "type": "Polygon", "coordinates": [ [ [ -69.564520356719285, -22.211759890933852 ], [ -69.554818443303091, -22.211793245492828 ], [ -69.554925057667276, -22.238894758348099 ], [ -69.56462883517176, -22.238861358844002 ], [ -69.564520356719285, -22.211759890933852 ] ] ] } },
{ "type": "Feature", "properties": { "cve": "2863782", "nombre": "ALFA VII A, 1 AL 20", "solicitante": "Atlas Renewable Energy Chile SpA", "region": "REGIÓN DE ANTOFAGASTA", "provincia": "Provincia de Tocopilla", "comuna": null, "superficie_ha": 100.0, "datum_original": "PSAD56", "huso": 19, "epsg_origen": 24879, "tipo_publicacion": "mensura", "fuente_pdf": "http://www.diariooficial.interior.gob.cl/publicaciones/2026/09/02/44540/07/2863782.pdf", "archivo": "gm_mensura_2863782.pdf", "fecha": "02-09-2026", "edicion": "44540" }, "geometry": { "type": "Polygon", "coordinates": [ [ [ -69.56462883517176, -22.238861358844002 ], [ -69.554925057667276, -22.238894758348099 ], [ -69.554960632332637, -22.24792857561911 ], [ -69.5646650318388, -22.247895161129573 ], [ -69.56462883517176, -22.238861358844002 ] ] ] } },
{ "type": "Feature", "properties": { "cve": "2863639", "nombre": "ISABELA 1 AL 10", "solicitante": "Rojas Sánchez Juan Gastón", "region": "REGIÓN DE ATACAMA", "provincia": "Provincia de Copiapó", "comuna": null, "superficie_ha": 100.0, "datum_original": "PSAD56", "huso": 19, "epsg_origen": 24879, "tipo_publicacion": "mensura", "fuente_pdf": "http://www.diariooficial.interior.gob.cl/publicaciones/2026/09/02/44540/07/2863639.pdf", "archivo": "gm_mensura_2863639.pdf", "fecha": "02-09-2026", "edicion": "44540" }, "geometry": { "type": "Polygon", "coordinates": [ [ [ -70.063518103362156, -27.390909677862403 ], [ -70.053405517588587, -27.390986393398176 ], [ -70.053491072768267, -27.400012951482637 ], [ -70.063604479487296, -27.399936206487602 ], [ -70.063518103362156, -27.390909677862403 ] ] ] } },
{ "type": "Feature", "properties": { "cve": "2863640", "nombre": "LAS ESTACAS 1 AL 10", "solicitante": "Araya Altamirano Ercilia Ernestina", "region": "REGIÓN DE ATACAMA", "provincia": "Provincia de Copiapó", "comuna": null, "superficie_ha": 100.0, "datum_original": "PSAD56", "huso": 19, "epsg_origen": 24879, "tipo_publicacion": "mensura", "fuente_pdf": "http://www.diariooficial.interior.gob.cl/publicaciones/2026/09/02/44540/07/2863640.pdf", "archivo": "gm_mensura_2863640.pdf", "fecha": "02-09-2026", "edicion": "44540" }, "geometry": { "type": "Polygon", "coordinates": [ [ [ -69.61944795937724, -27.519641707365356 ], [ -69.609322476361655, -27.519686430793705 ], [ -69.609372238126213, -27.528713840262377 ], [ -69.619498547935549, -27.528669099712932 ], [ -69.61944795937724, -27.519641707365356 ] ] ] } },
{ "type": "Feature", "properties": { "cve": "2863180", "nombre": "JUTRO 11, 1 AL 60", "solicitante": "ATEX Chile SpA", "region": "REGIÓN DE ATACAMA", "provincia": "Provincia de Huasco", "comuna": null, "superficie_ha": 300.0, "datum_original": "PSAD56", "huso": 19, "epsg_origen": 24879, "tipo_publicacion": "mensura", "fuente_pdf": "http://www.diariooficial.interior.gob.cl/publicaciones/2026/09/02/44540/07/2863180.pdf", "archivo": "gm_mensura_2863180.pdf", "fecha": "02-09-2026", "edicion": "44540" }, "geometry": { "type": "Polygon", "coordinates": [ [ [ -69.947666097068193, -29.135554069954082 ], [ -69.916829042771468, -29.135768539130051 ], [ -69.916909141828455, -29.144793145349023 ], [ -69.947748889247251, -29.144578597114947 ], [ -69.947666097068193, -29.135554069954082 ] ] ] } },
{ "type": "Feature", "properties": { "cve": "2863181", "nombre": "JUTRO 12, 1 AL 430", "solicitante": "ATEX Chile SpA", "region": "REGIÓN DE ATACAMA", "provincia": "Provincia de Huasco", "comuna": null, "superficie_ha": 430.0, "datum_original": "PSAD56", "huso": 19, "epsg_origen": 24879, "tipo_publicacion": "mensura", "fuente_pdf": "http://www.diariooficial.interior.gob.cl/publicaciones/2026/09/02/44540/07/2863181.pdf", "archivo": "gm_mensura_2863181.pdf", "fecha": "02-09-2026", "edicion": "44540" }, "geometry": { "type": "Polygon", "coordinates": [ [ [ -69.916829042771468, -29.135768539130051 ], [ -69.906549950886131, -29.135838452794509 ], [ -69.906890773646737, -29.174644281985838 ], [ -69.917173728704157, -29.174574257471441 ], [ -69.916829042771468, -29.135768539130051 ] ] ] } },
{ "type": "Feature", "properties": { "cve": "2863182", "nombre": "JUTRO 13, 1 AL 280", "solicitante": "ATEX Chile SpA", "region": "REGIÓN DE ATACAMA", "provincia": "Provincia de Huasco", "comuna": null, "superficie_ha": 280.0, "datum_original": "PSAD56", "huso": 19, "epsg_origen": 24879, "tipo_publicacion": "mensura", "fuente_pdf": "http://www.diariooficial.interior.gob.cl/publicaciones/2026/09/02/44540/07/2863182.pdf", "archivo": "gm_mensura_2863182.pdf", "fecha": "02-09-2026", "edicion": "44540" }, "geometry": { "type": "Polygon", "coordinates": [ [ [ -69.906629152208524, -29.144863084785293 ], [ -69.896349126365905, -29.144932235883616 ], [ -69.896568566938555, -29.170201210569665 ], [ -69.906851108659808, -29.17013198810043 ], [ -69.906629152208524, -29.144863084785293 ] ] ] } },
{ "type": "Feature", "properties": { "cve": "2863183", "nombre": "JUTRO 14, 1 AL 150", "solicitante": "ATEX Chile SpA", "region": "REGIÓN DE ATACAMA", "provincia": "Provincia de Huasco", "comuna": null, "superficie_ha": 150.0, "datum_original": "PSAD56", "huso": 19, "epsg_origen": 24879, "tipo_publicacion": "mensura", "fuente_pdf": "http://www.diariooficial.interior.gob.cl/publicaciones/2026/09/02/44540/07/2863183.pdf", "archivo": "gm_mensura_2863183.pdf", "fecha": "02-09-2026", "edicion": "44540" }, "geometry": { "type": "Polygon", "coordinates": [ [ [ -69.896349126365905, -29.144932235883616 ], [ -69.886069064711123, -29.145000598633953 ], [ -69.886185239813685, -29.158537599294085 ], [ -69.896466648879965, -29.158469198749358 ], [ -69.896349126365905, -29.144932235883616 ] ] ] } },
{ "type": "Feature", "properties": { "cve": "2863184", "nombre": "JUTRO 16, 1 AL 80", "solicitante": "ATEX Chile SpA", "region": "REGIÓN DE ATACAMA", "provincia": "Provincia de Huasco", "comuna": null, "superficie_ha": 400.0, "datum_original": "PSAD56", "huso": 19, "epsg_origen": 24879, "tipo_publicacion": "mensura", "fuente_pdf": "http://www.diariooficial.interior.gob.cl/publicaciones/2026/09/02/44540/07/2863184.pdf", "archivo": "gm_mensura_2863184.pdf", "fecha": "02-09-2026", "edicion": "44540" }, "geometry": { "type": "Polygon", "coordinates": [ [ [ -70.04026604248584, -29.143892385572713 ], [ -70.029986519554456, -29.14397178423792 ], [ -70.030346824039285, -29.180068873361911 ], [ -70.040629941325932, -29.179989357619139 ], [ -70.04026604248584, -29.143892385572713 ] ] ] } },
{ "type": "Feature", "properties": { "cve": "2863185", "nombre": "JUTRO 17, 1 AL 80", "solicitante": "ATEX Chile SpA", "region": "REGIÓN DE ATACAMA", "provincia": "Provincia de Huasco", "comuna": null, "superficie_ha": 400.0, "datum_original": "PSAD56", "huso": 19, "epsg_origen": 24879, "tipo_publicacion": "mensura", "fuente_pdf": "http://www.diariooficial.interior.gob.cl/publicaciones/2026/09/02/44540/07/2863185.pdf", "archivo": "gm_mensura_2863185.pdf", "fecha": "02-09-2026", "edicion": "44540" }, "geometry": { "type": "Polygon", "coordinates": [ [ [ -70.029986519554456, -29.14397178423792 ], [ -70.019706955475002, -29.14405039469484 ], [ -70.020063665543759, -29.180147599734308 ], [ -70.030346824039285, -29.180068873361911 ], [ -70.029986519554456, -29.14397178423792 ] ] ] } },
{ "type": "Feature", "properties": { "cve": "2863186", "nombre": "JUTRO 18, 1 AL 80", "solicitante": "ATEX Chile SpA", "region": "REGIÓN DE ATACAMA", "provincia": "Provincia de Huasco", "comuna": null, "superficie_ha": 400.0, "datum_original": "PSAD56", "huso": 19, "epsg_origen": 24879, "tipo_publicacion": "mensura", "fuente_pdf": "http://www.diariooficial.interior.gob.cl/publicaciones/2026/09/02/44540/07/2863186.pdf", "archivo": "gm_mensura_2863186.pdf", "fecha": "02-09-2026", "edicion": "44540" }, "geometry": { "type": "Polygon", "coordinates": [ [ [ -70.019706955475002, -29.14405039469484 ], [ -70.009427350657873, -29.144128216932021 ], [ -70.009780466250348, -29.180225536724866 ], [ -70.020063665543759, -29.180147599734308 ], [ -70.019706955475002, -29.14405039469484 ] ] ] } },
{ "type": "Feature", "properties": { "cve": "2863187", "nombre": "JUTRO 19, 1 AL 80", "solicitante": "ATEX Chile SpA", "region": "REGIÓN DE ATACAMA", "provincia": "Provincia de Huasco", "comuna": null, "superficie_ha": 400.0, "datum_original": "PSAD56", "huso": 19, "epsg_origen": 24879, "tipo_publicacion": "mensura", "fuente_pdf": "http://www.diariooficial.interior.gob.cl/publicaciones/2026/09/02/44540/07/2863187.pdf", "archivo": "gm_mensura_2863187.pdf", "fecha": "02-09-2026", "edicion": "44540" }, "geometry": { "type": "Polygon", "coordinates": [ [ [ -70.009427350657873, -29.144128216932021 ], [ -69.999147705513465, -29.144205250938157 ], [ -69.999497226570099, -29.180302684322264 ], [ -70.009780466250348, -29.180225536724866 ], [ -70.009427350657873, -29.144128216932021 ] ] ] } },
{ "type": "Feature", "properties": { "cve": "2863188", "nombre": "JUTRO 20, 1 AL 80", "solicitante": "ATEX Chile SpA", "region": "REGIÓN DE ATACAMA", "provincia": "Provincia de Huasco", "comuna": null, "superficie_ha": 400.0, "datum_original": "PSAD56", "huso": 19, "epsg_origen": 24879, "tipo_publicacion": "mensura", "fuente_pdf": "http://www.diariooficial.interior.gob.cl/publicaciones/2026/09/02/44540/07/2863188.pdf", "archivo": "gm_mensura_2863188.pdf", "fecha": "02-09-2026", "edicion": "44540" }, "geometry": { "type": "Polygon", "coordinates": [ [ [ -69.999147705513465, -29.144205250938157 ], [ -69.988868020452202, -29.144281496702035 ], [ -69.989213946913992, -29.180379042515227 ], [ -69.999497226570099, -29.180302684322264 ], [ -69.999147705513465, -29.144205250938157 ] ] ] } },
{ "type": "Feature", "properties": { "cve": "2863189", "nombre": "JUTRO 21, 1 AL 80", "solicitante": "ATEX Chile SpA", "region": "REGIÓN DE ATACAMA", "provincia": "Provincia de Huasco", "comuna": null, "superficie_ha": 400.0, "datum_original": "PSAD56", "huso": 19, "epsg_origen": 24879, "tipo_publicacion": "mensura", "fuente_pdf": "http://www.diariooficial.interior.gob.cl/publicaciones/2026/09/02/44540/07/2863189.pdf", "archivo": "gm_mensura_2863189.pdf", "fecha": "02-09-2026", "edicion": "44540" }, "geometry": { "type": "Polygon", "coordinates": [ [ [ -69.988868020452202, -29.144281496702035 ], [ -69.978588295884492, -29.144356954212572 ], [ -69.978930627693074, -29.18045461129271 ], [ -69.989213946913992, -29.180379042515227 ], [ -69.988868020452202, -29.144281496702035 ] ] ] } },
{ "type": "Feature", "properties": { "cve": "2863190", "nombre": "JUTRO 22, 1 AL 60", "solicitante": "ATEX Chile SpA", "region": "REGIÓN DE ATACAMA", "provincia": "Provincia de Huasco", "comuna": null, "superficie_ha": 300.0, "datum_original": "PSAD56", "huso": 19, "epsg_origen": 24879, "tipo_publicacion": "mensura", "fuente_pdf": "http://www.diariooficial.interior.gob.cl/publicaciones/2026/09/02/44540/07/2863190.pdf", "archivo": "gm_mensura_2863190.pdf", "fecha": "02-09-2026", "edicion": "44540" }, "geometry": { "type": "Polygon", "coordinates": [ [ [ -69.978588295884492, -29.144356954212572 ], [ -69.947748889247251, -29.144578597114947 ], [ -69.947831719291187, -29.153603111804706 ], [ -69.978673820156203, -29.153381387216342 ], [ -69.978588295884492, -29.144356954212572 ] ] ] } },
{ "type": "Feature", "properties": { "cve": "2863191", "nombre": "JUTRO 23, 1 AL 60", "solicitante": "ATEX Chile SpA", "region": "REGIÓN DE ATACAMA", "provincia": "Provincia de Huasco", "comuna": null, "superficie_ha": 300.0, "datum_original": "PSAD56", "huso": 19, "epsg_origen": 24879, "tipo_publicacion": "mensura", "fuente_pdf": "http://www.diariooficial.interior.gob.cl/publicaciones/2026/09/02/44540/07/2863191.pdf", "archivo": "gm_mensura_2863191.pdf", "fecha": "02-09-2026", "edicion": "44540" }, "geometry": { "type": "Polygon", "coordinates": [ [ [ -69.947748889247251, -29.144578597114947 ], [ -69.916909141828455, -29.144793145349023 ], [ -69.916989277518852, -29.153817739110366 ], [ -69.947831719291187, -29.153603111804706 ], [ -69.947748889247251, -29.144578597114947 ] ] ] } },
{ "type": "Feature", "properties": { "cve": "2863192", "nombre": "JUTRO 24, 1 AL 60", "solicitante": "ATEX Chile SpA", "region": "REGIÓN DE ATACAMA", "provincia": "Provincia de Huasco", "comuna": null, "superficie_ha": 300.0, "datum_original": "PSAD56", "huso": 19, "epsg_origen": 24879, "tipo_publicacion": "mensura", "fuente_pdf": "http://www.diariooficial.interior.gob.cl/publicaciones/2026/09/02/44540/07/2863192.pdf", "archivo": "gm_mensura_2863192.pdf", "fecha": "02-09-2026", "edicion": "44540" }, "geometry": { "type": "Polygon", "coordinates": [ [ [ -69.978673820156203, -29.153381387216342 ], [ -69.947831719291187, -29.153603111804706 ], [ -69.947914587213972, -29.162627614020895 ], [ -69.978759383538574, -29.162405807732615 ], [ -69.978673820156203, -29.153381387216342 ] ] ] } },
{ "type": "Feature", "properties": { "cve": "2863193", "nombre": "JUTRO 25, 1 AL 60", "solicitante": "ATEX Chile SpA", "region": "REGIÓN DE ATACAMA", "provincia": "Provincia de Huasco", "comuna": null, "superficie_ha": 300.0, "datum_original": "PSAD56", "huso": 19, "epsg_origen": 24879, "tipo_publicacion": "mensura", "fuente_pdf": "http://www.diariooficial.interior.gob.cl/publicaciones/2026/09/02/44540/07/2863193.pdf", "archivo": "gm_mensura_2863193.pdf", "fecha": "02-09-2026", "edicion": "44540" }, "geometry": { "type": "Polygon", "coordinates": [ [ [ -69.947831719291187, -29.153603111804706 ], [ -69.916989277518852, -29.153817739110366 ], [ -69.917069449856186, -29.162842320411645 ], [ -69.947914587213972, -29.162627614020895 ], [ -69.947831719291187, -29.153603111804706 ] ] ] } },
{ "type": "Feature", "properties": { "cve": "2863194", "nombre": "JUTRO 26, 1 AL 60", "solicitante": "ATEX Chile SpA", "region": "REGIÓN DE ATACAMA", "provincia": "Provincia de Huasco", "comuna": null, "superficie_ha": 300.0, "datum_original": "PSAD56", "huso": 19, "epsg_origen": 24879, "tipo_publicacion": "mensura", "fuente_pdf": "http://www.diariooficial.interior.gob.cl/publicaciones/2026/09/02/44540/07/2863194.pdf", "archivo": "gm_mensura_2863194.pdf", "fecha": "02-09-2026", "edicion": "44540" }, "geometry": { "type": "Polygon", "coordinates": [ [ [ -69.978759383538574, -29.162405807732615 ], [ -69.947914587213972, -29.162627614020895 ], [ -69.947997493029575, -29.171652103761048 ], [ -69.97884498604607, -29.171430215758885 ], [ -69.978759383538574, -29.162405807732615 ] ] ] } },
{ "type": "Feature", "properties": { "cve": "2863195", "nombre": "JUTRO 27, 1 AL 60", "solicitante": "ATEX Chile SpA", "region": "REGIÓN DE ATACAMA", "provincia": "Provincia de Huasco", "comuna": null, "superficie_ha": 300.0, "datum_original": "PSAD56", "huso": 19, "epsg_origen": 24879, "tipo_publicacion": "mensura", "fuente_pdf": "http://www.diariooficial.interior.gob.cl/publicaciones/2026/09/02/44540/07/2863195.pdf", "archivo": "gm_mensura_2863195.pdf", "fecha": "02-09-2026", "edicion": "44540" }, "geometry": { "type": "Polygon", "coordinates": [ [ [ -69.947914587213972, -29.162627614020895 ], [ -69.917069449856186, -29.162842320411645 ], [ -69.917149658854001, -29.171866889250378 ], [ -69.947997493029575, -29.171652103761048 ], [ -69.947914587213972, -29.162627614020895 ] ] ] } },
{ "type": "Feature", "properties": { "cve": "2863196", "nombre": "JUTRO 33, 1 AL 60", "solicitante": "ATEX Chile SpA", "region": "REGIÓN DE ATACAMA", "provincia": "Provincia de Huasco", "comuna": null, "superficie_ha": 300.0, "datum_original": "PSAD56", "huso": 19, "epsg_origen": 24879, "tipo_publicacion": "mensura", "fuente_pdf": "http://www.diariooficial.interior.gob.cl/publicaciones/2026/09/02/44540/07/2863196.pdf", "archivo": "gm_mensura_2863196.pdf", "fecha": "02-09-2026", "edicion": "44540" }, "geometry": { "type": "Polygon", "coordinates": [ [ [ -69.97884498604607, -29.171430215758885 ], [ -69.947997493029575, -29.171652103761048 ], [ -69.948080436752022, -29.180676581022684 ], [ -69.978930627693074, -29.18045461129271 ], [ -69.97884498604607, -29.171430215758885 ] ] ] } },
{ "type": "Feature", "properties": { "cve": "2863197", "nombre": "JUTRO 34, 1 AL 320", "solicitante": "ATEX Chile SpA", "region": "REGIÓN DE ATACAMA", "provincia": "Provincia de Huasco", "comuna": null, "superficie_ha": 320.0, "datum_original": "PSAD56", "huso": 19, "epsg_origen": 24879, "tipo_publicacion": "mensura", "fuente_pdf": "http://www.diariooficial.interior.gob.cl/publicaciones/2026/09/02/44540/07/2863197.pdf", "archivo": "gm_mensura_2863197.pdf", "fecha": "02-09-2026", "edicion": "44540" }, "geometry": { "type": "Polygon", "coordinates": [ [ [ -69.947997493029575, -29.171652103761048 ], [ -69.915093124717288, -29.171880955742271 ], [ -69.915173190514665, -29.180905517297131 ], [ -69.948080436752022, -29.180676581022684 ], [ -69.947997493029575, -29.171652103761048 ] ] ] } },
{ "type": "Feature", "properties": { "cve": "2863198", "nombre": "JUTRO 35, 1 AL 60", "solicitante": "ATEX Chile SpA", "region": "REGIÓN DE ATACAMA", "provincia": "Provincia de Huasco", "comuna": null, "superficie_ha": 300.0, "datum_original": "PSAD56", "huso": 19, "epsg_origen": 24879, "tipo_publicacion": "mensura", "fuente_pdf": "http://www.diariooficial.interior.gob.cl/publicaciones/2026/09/02/44540/07/2863198.pdf", "archivo": "gm_mensura_2863198.pdf", "fecha": "02-09-2026", "edicion": "44540" }, "geometry": { "type": "Polygon", "coordinates": [ [ [ -69.978930627693074, -29.18045461129271 ], [ -69.948080436752022, -29.180676581022684 ], [ -69.948163418395254, -29.189701045803375 ], [ -69.97901630849411, -29.189478994331619 ], [ -69.978930627693074, -29.18045461129271 ] ] ] } },
{ "type": "Feature", "properties": { "cve": "2863199", "nombre": "JUTRO 36, 1 AL 300", "solicitante": "ATEX Chile SpA", "region": "REGIÓN DE ATACAMA", "provincia": "Provincia de Huasco", "comuna": null, "superficie_ha": 300.0, "datum_original": "PSAD56", "huso": 19, "epsg_origen": 24879, "tipo_publicacion": "mensura", "fuente_pdf": "http://www.diariooficial.interior.gob.cl/publicaciones/2026/09/02/44540/07/2863199.pdf", "archivo": "gm_mensura_2863199.pdf", "fecha": "02-09-2026", "edicion": "44540" }, "geometry": { "type": "Polygon", "coordinates": [ [ [ -69.948080436752022, -29.180676581022684 ], [ -69.917229904525811, -29.180891445624091 ], [ -69.917310186885175, -29.189915989530405 ], [ -69.948163418395254, -29.189701045803375 ], [ -69.948080436752022, -29.180676581022684 ] ] ] } },
{ "type": "Feature", "properties": { "cve": "2863200", "nombre": "JUTRO 37, 1 AL 250", "solicitante": "ATEX Chile SpA", "region": "REGIÓN DE ATACAMA", "provincia": "Provincia de Huasco", "comuna": null, "superficie_ha": 250.0, "datum_original": "PSAD56", "huso": 19, "epsg_origen": 24879, "tipo_publicacion": "mensura", "fuente_pdf": "http://www.diariooficial.interior.gob.cl/publicaciones/2026/09/02/44540/07/2863200.pdf", "archivo": "gm_mensura_2863200.pdf", "fecha": "02-09-2026", "edicion": "44540" }, "geometry": { "type": "Polygon", "coordinates": [ [ [ -69.97901630849411, -29.189478994331619 ], [ -69.953305590754042, -29.189664530810397 ], [ -69.953389060406224, -29.198688969663408 ], [ -69.979102028463615, -29.198503364873137 ], [ -69.97901630849411, -29.189478994331619 ] ] ] } },
{ "type": "Feature", "properties": { "cve": "2863177", "nombre": "JUTRO 5, 1 AL 40", "solicitante": "ATEX Chile SpA", "region": "REGIÓN DE ATACAMA", "provincia": "Provincia de Huasco", "comuna": null, "superficie_ha": 200.0, "datum_original": "PSAD56", "huso": 19, "epsg_origen": 24879, "tipo_publicacion": "mensura", "fuente_pdf": "http://www.diariooficial.interior.gob.cl/publicaciones/2026/09/02/44540/07/2863177.pdf", "archivo": "gm_mensura_2863177.pdf", "fecha": "02-09-2026", "edicion": "44540" }, "geometry": { "type": "Polygon", "coordinates": [ [ [ -69.916668954503734, -29.117719289329063 ], [ -69.906391656856655, -29.117789151463096 ], [ -69.906549950886131, -29.135838452794509 ], [ -69.916829042771468, -29.135768539130051 ], [ -69.916668954503734, -29.117719289329063 ] ] ] } },
{ "type": "Feature", "properties": { "cve": "2863178", "nombre": "JUTRO 8, 1 AL 60", "solicitante": "ATEX Chile SpA", "region": "REGIÓN DE ATACAMA", "provincia": "Provincia de Huasco", "comuna": null, "superficie_ha": 300.0, "datum_original": "PSAD56", "huso": 19, "epsg_origen": 24879, "tipo_publicacion": "mensura", "fuente_pdf": "http://www.diariooficial.interior.gob.cl/publicaciones/2026/09/02/44540/07/2863178.pdf", "archivo": "gm_mensura_2863178.pdf", "fecha": "02-09-2026", "edicion": "44540" }, "geometry": { "type": "Polygon", "coordinates": [ [ [ -70.040175171710942, -29.134868111269309 ], [ -70.009339172615753, -29.135103855729092 ], [ -70.009427350657873, -29.144128216932021 ], [ -70.04026604248584, -29.143892385572713 ], [ -70.040175171710942, -29.134868111269309 ] ] ] } },
{ "type": "Feature", "properties": { "cve": "2863179", "nombre": "JUTRO 9, 1 AL 20", "solicitante": "ATEX Chile SpA", "region": "REGIÓN DE ATACAMA", "provincia": "Provincia de Huasco", "comuna": null, "superficie_ha": 100.0, "datum_original": "PSAD56", "huso": 19, "epsg_origen": 24879, "tipo_publicacion": "mensura", "fuente_pdf": "http://www.diariooficial.interior.gob.cl/publicaciones/2026/09/02/44540/07/2863179.pdf", "archivo": "gm_mensura_2863179.pdf", "fecha": "02-09-2026", "edicion": "44540" }, "geometry": { "type": "Polygon", "coordinates": [ [ [ -70.009339172615753, -29.135103855729092 ], [ -69.999060425078895, -29.135180861349511 ], [ -69.999147705513465, -29.144205250938157 ], [ -70.009427350657873, -29.144128216932021 ], [ -70.009339172615753, -29.135103855729092 ] ] ] } },
{ "type": "Feature", "properties": { "cve": "2863671", "nombre": "MARTINA", "solicitante": "Imerys Minerales Chile SpA", "region": "REGIÓN METROPOLITANA DE SANTIAGO", "provincia": "Provincia de Santiago", "comuna": null, "superficie_ha": 1.0, "datum_original": "PSAD56", "huso": 19, "epsg_origen": 24879, "tipo_publicacion": "mensura", "fuente_pdf": "http://www.diariooficial.interior.gob.cl/publicaciones/2026/09/02/44540/07/2863671.pdf", "archivo": "gm_mensura_2863671.pdf", "fecha": "02-09-2026", "edicion": "44540" }, "geometry": { "type": "Polygon", "coordinates": [ [ [ -70.822556782942939, -33.404849065096997 ], [ -70.821481914621316, -33.404864852290267 ], [ -70.821500732409078, -33.405766368179016 ], [ -70.822575611820213, -33.405750580448313 ], [ -70.822556782942939, -33.404849065096997 ] ] ] } },
{ "type": "Feature", "properties": { "cve": "2863705", "nombre": "Cantera 1 al 63", "solicitante": "Fernández Riesco Pedro Pablo", "region": "REGIÓN METROPOLITANA DE SANTIAGO", "provincia": "Provincia de Chacabuco", "comuna": null, "superficie_ha": 315.0, "datum_original": "WGS84", "huso": 19, "epsg_origen": 32719, "tipo_publicacion": "mensura", "fuente_pdf": "http://www.diariooficial.interior.gob.cl/publicaciones/2026/09/02/44540/07/2863705.pdf", "archivo": "gm_mensura_2863705.pdf", "fecha": "02-09-2026", "edicion": "44540" }, "geometry": { "type": "Polygon", "coordinates": [ [ [ -70.677852757305217, -33.053777403306874 ], [ -70.655368481185945, -33.05407789241481 ], [ -70.655621721413212, -33.067602661413666 ], [ -70.678109433295347, -33.067302017995871 ], [ -70.677852757305217, -33.053777403306874 ] ] ] } },
{ "type": "Feature", "properties": { "cve": "2863751", "nombre": "ALTO DE VARAS 1", "solicitante": "Solís Portales Cristián Andrés", "region": "REGIÓN DE ANTOFAGASTA", "provincia": "Provincia de Antofagasta", "comuna": "Antofagasta", "superficie_ha": 300.0, "datum_original": "PSAD56", "huso": 19, "epsg_origen": 24879, "tipo_publicacion": "pedimento", "fuente_pdf": "http://www.diariooficial.interior.gob.cl/publicaciones/2026/09/02/44540/07/2863751.pdf", "archivo": "gm_pedimento_2863751.pdf", "fecha": "02-09-2026", "edicion": "44540" }, "geometry": { "type": "Polygon", "coordinates": [ [ [ -69.20533344926173, -24.615348763160373 ], [ -69.195454281613237, -24.615361918427109 ], [ -69.19549641857698, -24.642456141990298 ], [ -69.205377715987822, -24.642442970353695 ], [ -69.20533344926173, -24.615348763160373 ] ] ] } },
{ "type": "Feature", "properties": { "cve": "2863752", "nombre": "ALTO DE VARAS 2", "solicitante": "Solís Portales Cristián Andrés", "region": "REGIÓN DE ANTOFAGASTA", "provincia": "Provincia de Antofagasta", "comuna": "Antofagasta", "superficie_ha": 300.0, "datum_original": "PSAD56", "huso": 19, "epsg_origen": 24879, "tipo_publicacion": "pedimento", "fuente_pdf": "http://www.diariooficial.interior.gob.cl/publicaciones/2026/09/02/44540/07/2863752.pdf", "archivo": "gm_pedimento_2863752.pdf", "fecha": "02-09-2026", "edicion": "44540" }, "geometry": { "type": "Polygon", "coordinates": [ [ [ -69.195454281613237, -24.615361918427109 ], [ -69.185575107119703, -24.615374425164699 ], [ -69.185615114314615, -24.64246866429076 ], [ -69.19549641857698, -24.642456141990298 ], [ -69.195454281613237, -24.615361918427109 ] ] ] } },
{ "type": "Feature", "properties": { "cve": "2863753", "nombre": "ALTO DE VARAS 3", "solicitante": "Solís Portales Cristián Andrés", "region": "REGIÓN DE ANTOFAGASTA", "provincia": "Provincia de Antofagasta", "comuna": "Antofagasta", "superficie_ha": 300.0, "datum_original": "PSAD56", "huso": 19, "epsg_origen": 24879, "tipo_publicacion": "pedimento", "fuente_pdf": "http://www.diariooficial.interior.gob.cl/publicaciones/2026/09/02/44540/07/2863753.pdf", "archivo": "gm_pedimento_2863753.pdf", "fecha": "02-09-2026", "edicion": "44540" }, "geometry": { "type": "Polygon", "coordinates": [ [ [ -69.185575107119703, -24.615374425164699 ], [ -69.175695926127062, -24.615386283371446 ], [ -69.175733803546976, -24.642480537253363 ], [ -69.185615114314615, -24.64246866429076 ], [ -69.185575107119703, -24.615374425164699 ] ] ] } },
{ "type": "Feature", "properties": { "cve": "2863754", "nombre": "ALTO DE VARAS 4", "solicitante": "Solís Portales Cristián Andrés", "region": "REGIÓN DE ANTOFAGASTA", "provincia": "Provincia de Antofagasta", "comuna": "Antofagasta", "superficie_ha": 300.0, "datum_original": "PSAD56", "huso": 19, "epsg_origen": 24879, "tipo_publicacion": "pedimento", "fuente_pdf": "http://www.diariooficial.interior.gob.cl/publicaciones/2026/09/02/44540/07/2863754.pdf", "archivo": "gm_pedimento_2863754.pdf", "fecha": "02-09-2026", "edicion": "44540" }, "geometry": { "type": "Polygon", "coordinates": [ [ [ -69.205377715987822, -24.642442970353695 ], [ -69.19549641857698, -24.642456141990298 ], [ -69.195538617207035, -24.669550267030484 ], [ -69.205422047497009, -24.669537079017164 ], [ -69.205377715987822, -24.642442970353695 ] ] ] } },
{ "type": "Feature", "properties": { "cve": "2863755", "nombre": "ALTO DE VARAS 5", "solicitante": "Solís Portales Cristián Andrés", "region": "REGIÓN DE ANTOFAGASTA", "provincia": "Provincia de Antofagasta", "comuna": "Antofagasta", "superficie_ha": 300.0, "datum_original": "PSAD56", "huso": 19, "epsg_origen": 24879, "tipo_publicacion": "pedimento", "fuente_pdf": "http://www.diariooficial.interior.gob.cl/publicaciones/2026/09/02/44540/07/2863755.pdf", "archivo": "gm_pedimento_2863755.pdf", "fecha": "02-09-2026", "edicion": "44540" }, "geometry": { "type": "Polygon", "coordinates": [ [ [ -69.19549641857698, -24.642456141990298 ], [ -69.185615114314615, -24.64246866429076 ], [ -69.185655180058959, -24.669562804900337 ], [ -69.195538617207035, -24.669550267030484 ], [ -69.19549641857698, -24.642456141990298 ] ] ] } },
{ "type": "Feature", "properties": { "cve": "2863756", "nombre": "ALTO DE VARAS 6", "solicitante": "Solís Portales Cristián Andrés", "region": "REGIÓN DE ANTOFAGASTA", "provincia": "Provincia de Antofagasta", "comuna": "Antofagasta", "superficie_ha": 300.0, "datum_original": "PSAD56", "huso": 19, "epsg_origen": 24879, "tipo_publicacion": "pedimento", "fuente_pdf": "http://www.diariooficial.interior.gob.cl/publicaciones/2026/09/02/44540/07/2863756.pdf", "archivo": "gm_pedimento_2863756.pdf", "fecha": "02-09-2026", "edicion": "44540" }, "geometry": { "type": "Polygon", "coordinates": [ [ [ -69.185615114314615, -24.64246866429076 ], [ -69.175733803546976, -24.642480537253363 ], [ -69.175771736399483, -24.669574692624991 ], [ -69.185655180058959, -24.669562804900337 ], [ -69.185615114314615, -24.64246866429076 ] ] ] } },
{ "type": "Feature", "properties": { "cve": "2863757", "nombre": "Gorbea 1", "solicitante": "Solís Portales Cristián Andrés", "region": "REGIÓN DE ANTOFAGASTA", "provincia": "Provincia de Antofagasta", "comuna": "Antofagasta", "superficie_ha": 300.0, "datum_original": "PSAD56", "huso": 19, "epsg_origen": 24879, "tipo_publicacion": "pedimento", "fuente_pdf": "http://www.diariooficial.interior.gob.cl/publicaciones/2026/09/02/44540/07/2863757.pdf", "archivo": "gm_pedimento_2863757.pdf", "fecha": "02-09-2026", "edicion": "44540" }, "geometry": { "type": "Polygon", "coordinates": [ [ [ -68.643374897849981, -25.245428690202559 ], [ -68.61358682389411, -25.245353777788949 ], [ -68.61355826010417, -25.254384273387583 ], [ -68.643348535885835, -25.254459216291057 ], [ -68.643374897849981, -25.245428690202559 ] ] ] } },
{ "type": "Feature", "properties": { "cve": "2863758", "nombre": "Gorbea 2", "solicitante": "Solís Portales Cristián Andrés", "region": "REGIÓN DE ANTOFAGASTA", "provincia": "Provincia de Antofagasta", "comuna": "Antofagasta", "superficie_ha": 300.0, "datum_original": "PSAD56", "huso": 19, "epsg_origen": 24879, "tipo_publicacion": "pedimento", "fuente_pdf": "http://www.diariooficial.interior.gob.cl/publicaciones/2026/09/02/44540/07/2863758.pdf", "archivo": "gm_pedimento_2863758.pdf", "fecha": "02-09-2026", "edicion": "44540" }, "geometry": { "type": "Polygon", "coordinates": [ [ [ -68.643348535885835, -25.254459216291057 ], [ -68.61355826010417, -25.254384273387583 ], [ -68.613529682542193, -25.263414757821078 ], [ -68.643322161211231, -25.263489731218808 ], [ -68.643348535885835, -25.254459216291057 ] ] ] } },
{ "type": "Feature", "properties": { "cve": "2863791", "nombre": "RUJAMACA", "solicitante": "Jara Restovic Rubén", "region": "REGIÓN DE ANTOFAGASTA", "provincia": "Provincia de Antofagasta", "comuna": null, "superficie_ha": 200.0, "datum_original": "PSAD56", "huso": 19, "epsg_origen": 24879, "tipo_publicacion": "pedimento", "fuente_pdf": "http://www.diariooficial.interior.gob.cl/publicaciones/2026/09/02/44540/07/2863791.pdf", "archivo": "gm_pedimento_2863791.pdf", "fecha": "02-09-2026", "edicion": "44540" }, "geometry": { "type": "Polygon", "coordinates": [ [ [ -69.442616647007924, -23.521971910866288 ], [ -69.432821079941306, -23.521999447363747 ], [ -69.432880166605003, -23.540064465194494 ], [ -69.442677070810348, -23.540036905051309 ], [ -69.442616647007924, -23.521971910866288 ] ] ] } },
{ "type": "Feature", "properties": { "cve": "2863759", "nombre": "Salar 1", "solicitante": "Solís Portales Cristián Andrés", "region": "REGIÓN DE ANTOFAGASTA", "provincia": "Provincia de Antofagasta", "comuna": "Antofagasta", "superficie_ha": 200.0, "datum_original": "PSAD56", "huso": 19, "epsg_origen": 24879, "tipo_publicacion": "pedimento", "fuente_pdf": "http://www.diariooficial.interior.gob.cl/publicaciones/2026/09/02/44540/07/2863759.pdf", "archivo": "gm_pedimento_2863759.pdf", "fecha": "02-09-2026", "edicion": "44540" }, "geometry": { "type": "Polygon", "coordinates": [ [ [ -68.671128578071603, -25.263554283080268 ], [ -68.651266841910754, -25.263508708927393 ], [ -68.651241042247747, -25.272539220411534 ], [ -68.671104247735229, -25.27258481310367 ], [ -68.671128578071603, -25.263554283080268 ] ] ] } },
{ "type": "Feature", "properties": { "cve": "2863760", "nombre": "Salar 2", "solicitante": "Solís Portales Cristián Andrés", "region": "REGIÓN DE ANTOFAGASTA", "provincia": "Provincia de Antofagasta", "comuna": "Antofagasta", "superficie_ha": 200.0, "datum_original": "PSAD56", "huso": 19, "epsg_origen": 24879, "tipo_publicacion": "pedimento", "fuente_pdf": "http://www.diariooficial.interior.gob.cl/publicaciones/2026/09/02/44540/07/2863760.pdf", "archivo": "gm_pedimento_2863760.pdf", "fecha": "02-09-2026", "edicion": "44540" }, "geometry": { "type": "Polygon", "coordinates": [ [ [ -68.671104247735229, -25.27258481310367 ], [ -68.651241042247747, -25.272539220411534 ], [ -68.651215230149347, -25.281569720730285 ], [ -68.671079905671647, -25.281615331964364 ], [ -68.671104247735229, -25.27258481310367 ] ] ] } },
{ "type": "Feature", "properties": { "cve": "2863761", "nombre": "Tuyajto 1", "solicitante": "Solís Portales Cristián Andrés", "region": "REGIÓN DE ANTOFAGASTA", "provincia": "Provincia de El Loa", "comuna": "San Pedro de Atacama", "superficie_ha": 200.0, "datum_original": "PSAD56", "huso": 19, "epsg_origen": 24879, "tipo_publicacion": "pedimento", "fuente_pdf": "http://www.diariooficial.interior.gob.cl/publicaciones/2026/09/02/44540/07/2863761.pdf", "archivo": "gm_pedimento_2863761.pdf", "fecha": "02-09-2026", "edicion": "44540" }, "geometry": { "type": "Polygon", "coordinates": [ [ [ -67.622135608527543, -23.850644575657608 ], [ -67.602500623350338, -23.850467705307093 ], [ -67.602403769317633, -23.859497392704707 ], [ -67.622040114245252, -23.85967433816349 ], [ -67.622135608527543, -23.850644575657608 ] ] ] } },
{ "type": "Feature", "properties": { "cve": "2863762", "nombre": "Tuyajto 2", "solicitante": "Solís Portales Cristián Andrés", "region": "REGIÓN DE ANTOFAGASTA", "provincia": "Provincia de El Loa", "comuna": "San Pedro de Atacama", "superficie_ha": 300.0, "datum_original": "PSAD56", "huso": 19, "epsg_origen": 24879, "tipo_publicacion": "pedimento", "fuente_pdf": "http://www.diariooficial.interior.gob.cl/publicaciones/2026/09/02/44540/07/2863762.pdf", "archivo": "gm_pedimento_2863762.pdf", "fecha": "02-09-2026", "edicion": "44540" }, "geometry": { "type": "Polygon", "coordinates": [ [ [ -67.602597429444572, -23.841438006866632 ], [ -67.592780688112654, -23.841348671808905 ], [ -67.592488086440127, -23.868437620141567 ], [ -67.602306867331762, -23.868527069056231 ], [ -67.602597429444572, -23.841438006866632 ] ] ] } },
{ "type": "Feature", "properties": { "cve": "2863763", "nombre": "Tuyajto 3", "solicitante": "Solís Portales Cristián Andrés", "region": "REGIÓN DE ANTOFAGASTA", "provincia": "Provincia de El Loa", "comuna": "San Pedro de Atacama", "superficie_ha": 200.0, "datum_original": "PSAD56", "huso": 19, "epsg_origen": 24879, "tipo_publicacion": "pedimento", "fuente_pdf": "http://www.diariooficial.interior.gob.cl/publicaciones/2026/09/02/44540/07/2863763.pdf", "archivo": "gm_pedimento_2863763.pdf", "fecha": "02-09-2026", "edicion": "44540" }, "geometry": { "type": "Polygon", "coordinates": [ [ [ -67.622040114245252, -23.85967433816349 ], [ -67.602403769317633, -23.859497392704707 ], [ -67.602306867331762, -23.868527069056231 ], [ -67.621944572682793, -23.868704089633404 ], [ -67.622040114245252, -23.85967433816349 ] ] ] } },
{ "type": "Feature", "properties": { "cve": "2863764", "nombre": "Tuyajto 4", "solicitante": "Solís Portales Cristián Andrés", "region": "REGIÓN DE ANTOFAGASTA", "provincia": "Provincia de El Loa", "comuna": "San Pedro de Atacama", "superficie_ha": 200.0, "datum_original": "PSAD56", "huso": 19, "epsg_origen": 24879, "tipo_publicacion": "pedimento", "fuente_pdf": "http://www.diariooficial.interior.gob.cl/publicaciones/2026/09/02/44540/07/2863764.pdf", "archivo": "gm_pedimento_2863764.pdf", "fecha": "02-09-2026", "edicion": "44540" }, "geometry": { "type": "Polygon", "coordinates": [ [ [ -67.582865829927982, -23.85028833409373 ], [ -67.573048505965787, -23.850197710694175 ], [ -67.572850669907496, -23.868256845121394 ], [ -67.582669353853177, -23.868347545492512 ], [ -67.582865829927982, -23.85028833409373 ] ] ] } },
{ "type": "Feature", "properties": { "cve": "2863765", "nombre": "Tuyajto 5", "solicitante": "Solís Portales Cristián Andrés", "region": "REGIÓN DE ANTOFAGASTA", "provincia": "Provincia de El Loa", "comuna": "San Pedro de Atacama", "superficie_ha": 300.0, "datum_original": "PSAD56", "huso": 19, "epsg_origen": 24879, "tipo_publicacion": "pedimento", "fuente_pdf": "http://www.diariooficial.interior.gob.cl/publicaciones/2026/09/02/44540/07/2863765.pdf", "archivo": "gm_pedimento_2863765.pdf", "fecha": "02-09-2026", "edicion": "44540" }, "geometry": { "type": "Polygon", "coordinates": [ [ [ -67.592780688112654, -23.841348671808905 ], [ -67.582963995041069, -23.841258711813101 ], [ -67.582669353853177, -23.868347545492512 ], [ -67.592488086440127, -23.868437620141567 ], [ -67.592780688112654, -23.841348671808905 ] ] ] } },
{ "type": "Feature", "properties": { "cve": "2863776", "nombre": "LUPE DOS", "solicitante": "Minera Chañar Blanco S.A.", "region": "REGIÓN DE ATACAMA", "provincia": "Provincia de Chañaral", "comuna": "Diego de Almagro", "superficie_ha": 300.0, "datum_original": "PSAD56", "huso": 19, "epsg_origen": 24879, "tipo_publicacion": "pedimento", "fuente_pdf": "http://www.diariooficial.interior.gob.cl/publicaciones/2026/09/02/44540/07/2863776.pdf", "archivo": "gm_pedimento_2863776.pdf", "fecha": "02-09-2026", "edicion": "44540" }, "geometry": { "type": "Polygon", "coordinates": [ [ [ -69.051778176931194, -25.942987065449259 ], [ -69.021816219382274, -25.942994675602261 ], [ -69.021817883203084, -25.952024508261864 ], [ -69.051782125808302, -25.952016895072312 ], [ -69.051778176931194, -25.942987065449259 ] ] ] } },
{ "type": "Feature", "properties": { "cve": "2863775", "nombre": "LUPE UNO", "solicitante": "Minera Chañar Blanco S.A.", "region": "REGIÓN DE ATACAMA", "provincia": "Provincia de Chañaral", "comuna": "DIEGO DE ALMAGRO", "superficie_ha": 300.0, "datum_original": "PSAD56", "huso": 19, "epsg_origen": 24879, "tipo_publicacion": "pedimento", "fuente_pdf": "http://www.diariooficial.interior.gob.cl/publicaciones/2026/09/02/44540/07/2863775.pdf", "archivo": "gm_pedimento_2863775.pdf", "fecha": "02-09-2026", "edicion": "44540" }, "geometry": { "type": "Polygon", "coordinates": [ [ [ -69.051774229935219, -25.933957224476032 ], [ -69.021814556354073, -25.93396483159292 ], [ -69.021816219382274, -25.942994675602261 ], [ -69.051778176931194, -25.942987065449259 ], [ -69.051774229935219, -25.933957224476032 ] ] ] } },
{ "type": "Feature", "properties": { "cve": "2863648", "nombre": "WEIMA 1", "solicitante": "Inversiones VerdeRoca SpA", "region": "REGIÓN DE LOS RÍOS", "provincia": "Provincia de Valdivia", "comuna": null, "superficie_ha": 300.0, "datum_original": "PSAD56", "huso": 18, "epsg_origen": 24878, "tipo_publicacion": "pedimento", "fuente_pdf": "http://www.diariooficial.interior.gob.cl/publicaciones/2026/09/02/44540/07/2863648.pdf", "archivo": "gm_pedimento_2863648.pdf", "fecha": "02-09-2026", "edicion": "44540" }, "geometry": { "type": "Polygon", "coordinates": [ [ [ -72.717497758801457, -39.497768438277411 ], [ -72.682635125888595, -39.497078516373143 ], [ -72.682335977486289, -39.506081671338578 ], [ -72.717203101211751, -39.50677181272885 ], [ -72.717497758801457, -39.497768438277411 ] ] ] } },
{ "type": "Feature", "properties": { "cve": "2863649", "nombre": "WEIMA 2", "solicitante": "Inversiones VerdeRoca SpA", "region": "REGIÓN DE LOS RÍOS", "provincia": "Provincia de Valdivia", "comuna": null, "superficie_ha": 200.0, "datum_original": "PSAD56", "huso": 18, "epsg_origen": 24878, "tipo_publicacion": "pedimento", "fuente_pdf": "http://www.diariooficial.interior.gob.cl/publicaciones/2026/09/02/44540/07/2863649.pdf", "archivo": "gm_pedimento_2863649.pdf", "fecha": "02-09-2026", "edicion": "44540" }, "geometry": { "type": "Polygon", "coordinates": [ [ [ -72.682635125888595, -39.497078516373143 ], [ -72.671014515718738, -39.496846221952275 ], [ -72.67041309038683, -39.514852368087062 ], [ -72.682036694837052, -39.51508481032522 ], [ -72.682635125888595, -39.497078516373143 ] ] ] } },
{ "type": "Feature", "properties": { "cve": "2863650", "nombre": "WEIMA 3", "solicitante": "Inversiones Verderoca SpA", "region": "REGIÓN DE LOS RÍOS", "provincia": "Provincia de Valdivia", "comuna": null, "superficie_ha": 300.0, "datum_original": "PSAD56", "huso": 18, "epsg_origen": 24878, "tipo_publicacion": "pedimento", "fuente_pdf": "http://www.diariooficial.interior.gob.cl/publicaciones/2026/09/02/44540/07/2863650.pdf", "archivo": "gm_pedimento_2863650.pdf", "fecha": "02-09-2026", "edicion": "44540" }, "geometry": { "type": "Polygon", "coordinates": [ [ [ -72.717203101211751, -39.50677181272885 ], [ -72.682335977486289, -39.506081671338578 ], [ -72.682036694837052, -39.51508481032522 ], [ -72.716908311386732, -39.515775171257353 ], [ -72.717203101211751, -39.50677181272885 ] ] ] } },
{ "type": "Feature", "properties": { "cve": "2863651", "nombre": "WEIMA 4", "solicitante": "Inversiones VerdeRoca SpA", "region": "REGIÓN DE LOS RÍOS", "provincia": "Provincia de Valdivia", "comuna": null, "superficie_ha": 300.0, "datum_original": "PSAD56", "huso": 18, "epsg_origen": 24878, "tipo_publicacion": "pedimento", "fuente_pdf": "http://www.diariooficial.interior.gob.cl/publicaciones/2026/09/02/44540/07/2863651.pdf", "archivo": "gm_pedimento_2863651.pdf", "fecha": "02-09-2026", "edicion": "44540" }, "geometry": { "type": "Polygon", "coordinates": [ [ [ -72.711096292117702, -39.515660836733218 ], [ -72.699472353140962, -39.515431296912688 ], [ -72.698580444098468, -39.542440948706201 ], [ -72.710208880025363, -39.542670707627053 ], [ -72.711096292117702, -39.515660836733218 ] ] ] } },
{ "type": "Feature", "properties": { "cve": "2863652", "nombre": "WEIMA 5", "solicitante": "Inversiones VerdeRoca SpA", "region": "REGIÓN DE LOS RÍOS", "provincia": "Provincia de Valdivia", "comuna": null, "superficie_ha": 300.0, "datum_original": "PSAD56", "huso": 18, "epsg_origen": 24878, "tipo_publicacion": "pedimento", "fuente_pdf": "http://www.diariooficial.interior.gob.cl/publicaciones/2026/09/02/44540/07/2863652.pdf", "archivo": "gm_pedimento_2863652.pdf", "fecha": "02-09-2026", "edicion": "44540" }, "geometry": { "type": "Polygon", "coordinates": [ [ [ -72.699472353140962, -39.515431296912688 ], [ -72.687848547471702, -39.515200596095326 ], [ -72.686952141677551, -39.542210027681747 ], [ -72.698580444098468, -39.542440948706201 ], [ -72.699472353140962, -39.515431296912688 ] ] ] } },
{ "type": "Feature", "properties": { "cve": "2863653", "nombre": "WEIMA 6", "solicitante": "Inversiones VerdeRoca SpA", "region": "REGIÓN DE LOS RÍOS", "provincia": "Provincia de Valdivia", "comuna": null, "superficie_ha": 300.0, "datum_original": "PSAD56", "huso": 18, "epsg_origen": 24878, "tipo_publicacion": "pedimento", "fuente_pdf": "http://www.diariooficial.interior.gob.cl/publicaciones/2026/09/02/44540/07/2863653.pdf", "archivo": "gm_pedimento_2863653.pdf", "fecha": "02-09-2026", "edicion": "44540" }, "geometry": { "type": "Polygon", "coordinates": [ [ [ -72.687848547471702, -39.515200596095326 ], [ -72.67622487578079, -39.514968734320803 ], [ -72.675323973434445, -39.541977944593491 ], [ -72.686952141677551, -39.542210027681747 ], [ -72.687848547471702, -39.515200596095326 ] ] ] } },
{ "type": "Feature", "properties": { "cve": "2863654", "nombre": "WEIMA 7", "solicitante": "Inversiones VerdeRoca SpA", "region": "REGIÓN DE LOS RÍOS", "provincia": "Provincia de Valdivia", "comuna": null, "superficie_ha": 200.0, "datum_original": "PSAD56", "huso": 18, "epsg_origen": 24878, "tipo_publicacion": "pedimento", "fuente_pdf": "http://www.diariooficial.interior.gob.cl/publicaciones/2026/09/02/44540/07/2863654.pdf", "archivo": "gm_pedimento_2863654.pdf", "fecha": "02-09-2026", "edicion": "44540" }, "geometry": { "type": "Polygon", "coordinates": [ [ [ -72.70206896088898, -39.54250999840513 ], [ -72.678812409778729, -39.5420476915343 ], [ -72.678512289438174, -39.551050751817392 ], [ -72.701771841042643, -39.551513205715366 ], [ -72.70206896088898, -39.54250999840513 ] ] ] } },
{ "type": "Feature", "properties": { "cve": "2863655", "nombre": "WEIMA 8", "solicitante": "Inversiones VerdeRoca SpA", "region": "REGIÓN DE LOS RÍOS", "provincia": "Provincia de Valdivia", "comuna": null, "superficie_ha": 200.0, "datum_original": "PSAD56", "huso": 18, "epsg_origen": 24878, "tipo_publicacion": "pedimento", "fuente_pdf": "http://www.diariooficial.interior.gob.cl/publicaciones/2026/09/02/44540/07/2863655.pdf", "archivo": "gm_pedimento_2863655.pdf", "fecha": "02-09-2026", "edicion": "44540" }, "geometry": { "type": "Polygon", "coordinates": [ [ [ -72.701771841042643, -39.551513205715366 ], [ -72.678512289438174, -39.551050751817392 ], [ -72.678212034382938, -39.560053796108306 ], [ -72.70147458782597, -39.560516397070913 ], [ -72.701771841042643, -39.551513205715366 ] ] ] } }
]
}
