{
"type": "FeatureCollection",
"name": "boletin_mineria_20260812",
"crs": { "type": "name", "properties": { "name": "urn:ogc:def:crs:OGC:1.3:CRS84" } },
"features": [
{ "type": "Feature", "properties": { "cve": "2851976", "nombre": "DON MARIO 1 AL 10", "solicitante": "Mercado Naveas Mario", "region": "REGIÓN DE ATACAMA", "provincia": "Provincia de Copiapó", "comuna": null, "superficie_ha": 30.0, "datum_original": "PSAD56", "huso": 19, "epsg_origen": 24879, "tipo_publicacion": "manifestacion", "fuente_pdf": "http://www.diariooficial.interior.gob.cl/publicaciones/2026/08/12/44523/07/2851976.pdf", "archivo": "gm_manifestacion_2851976.pdf", "fecha": "12-08-2026", "edicion": "44523" }, "geometry": { "type": "Polygon", "coordinates": [ [ [ -70.576309600984501, -27.638361421562013 ], [ -70.573269662378209, -27.638395944502857 ], [ -70.573398783159504, -27.647420293573312 ], [ -70.576438971006866, -27.647385757459237 ], [ -70.576309600984501, -27.638361421562013 ] ] ] } },
{ "type": "Feature", "properties": { "cve": "2852251", "nombre": "EMILIA A11 1/40", "solicitante": "Porzio Honorato Cristóbal", "region": "REGIÓN DE ATACAMA", "provincia": "Provincia de Copiapó", "comuna": "Copiapó", "superficie_ha": 200.0, "datum_original": "PSAD56", "huso": 19, "epsg_origen": 24879, "tipo_publicacion": "manifestacion", "fuente_pdf": "http://www.diariooficial.interior.gob.cl/publicaciones/2026/08/12/44523/07/2852251.pdf", "archivo": "gm_manifestacion_2852251.pdf", "fecha": "12-08-2026", "edicion": "44523" }, "geometry": { "type": "Polygon", "coordinates": [ [ [ -70.423530169041442, -27.836240303797883 ], [ -70.403225757181545, -27.836448227641171 ], [ -70.403341894482281, -27.845473015022819 ], [ -70.423647985453428, -27.84526501221621 ], [ -70.423530169041442, -27.836240303797883 ] ] ] } },
{ "type": "Feature", "properties": { "cve": "2852252", "nombre": "EMILIA A12 1/40", "solicitante": "Porzio Honorato Cristóbal", "region": "REGIÓN DE ATACAMA", "provincia": "Provincia de Copiapó", "comuna": "Copiapó", "superficie_ha": 200.0, "datum_original": "PSAD56", "huso": 19, "epsg_origen": 24879, "tipo_publicacion": "manifestacion", "fuente_pdf": "http://www.diariooficial.interior.gob.cl/publicaciones/2026/08/12/44523/07/2852252.pdf", "archivo": "gm_manifestacion_2852252.pdf", "fecha": "12-08-2026", "edicion": "44523" }, "geometry": { "type": "Polygon", "coordinates": [ [ [ -70.4032838190994, -27.840960622875318 ], [ -70.393131112455976, -27.841063484939784 ], [ -70.393361814854288, -27.859113113132338 ], [ -70.403516201444802, -27.859010172941954 ], [ -70.4032838190994, -27.840960622875318 ] ] ] } },
{ "type": "Feature", "properties": { "cve": "2852253", "nombre": "EMILIA A13 1/40", "solicitante": "Porzio Honorato Cristóbal", "region": "REGIÓN DE ATACAMA", "provincia": "Provincia de Copiapó", "comuna": "Copiapó", "superficie_ha": 200.0, "datum_original": "PSAD56", "huso": 19, "epsg_origen": 24879, "tipo_publicacion": "manifestacion", "fuente_pdf": "http://www.diariooficial.interior.gob.cl/publicaciones/2026/08/12/44523/07/2852253.pdf", "archivo": "gm_manifestacion_2852253.pdf", "fecha": "12-08-2026", "edicion": "44523" }, "geometry": { "type": "Polygon", "coordinates": [ [ [ -70.393131112455976, -27.841063484939784 ], [ -70.382978352341922, -27.841165600586457 ], [ -70.383207374755301, -27.859215306338161 ], [ -70.393361814854288, -27.859113113132338 ], [ -70.393131112455976, -27.841063484939784 ] ] ] } },
{ "type": "Feature", "properties": { "cve": "2852254", "nombre": "EMILIA A14 1/40", "solicitante": "Porzio Honorato Cristóbal", "region": "REGIÓN DE ATACAMA", "provincia": "Provincia de Copiapó", "comuna": "Copiapó", "superficie_ha": 200.0, "datum_original": "PSAD56", "huso": 19, "epsg_origen": 24879, "tipo_publicacion": "manifestacion", "fuente_pdf": "http://www.diariooficial.interior.gob.cl/publicaciones/2026/08/12/44523/07/2852254.pdf", "archivo": "gm_manifestacion_2852254.pdf", "fecha": "12-08-2026", "edicion": "44523" }, "geometry": { "type": "Polygon", "coordinates": [ [ [ -70.382978352341922, -27.841165600586457 ], [ -70.372825539146447, -27.84126696980071 ], [ -70.373052881537362, -27.859316752544771 ], [ -70.383207374755301, -27.859215306338161 ], [ -70.382978352341922, -27.841165600586457 ] ] ] } },
{ "type": "Feature", "properties": { "cve": "2852255", "nombre": "EMILIA A15 1/40", "solicitante": "Porzio Honorato Cristóbal", "region": "REGIÓN DE ATACAMA", "provincia": "Provincia de Copiapó", "comuna": "Copiapó", "superficie_ha": 200.0, "datum_original": "PSAD56", "huso": 19, "epsg_origen": 24879, "tipo_publicacion": "manifestacion", "fuente_pdf": "http://www.diariooficial.interior.gob.cl/publicaciones/2026/08/12/44523/07/2852255.pdf", "archivo": "gm_manifestacion_2852255.pdf", "fecha": "12-08-2026", "edicion": "44523" }, "geometry": { "type": "Polygon", "coordinates": [ [ [ -70.372825539146447, -27.84126696980071 ], [ -70.3626726732588, -27.841367592568051 ], [ -70.362898335589961, -27.859417451737659 ], [ -70.373052881537362, -27.859316752544771 ], [ -70.372825539146447, -27.84126696980071 ] ] ] } },
{ "type": "Feature", "properties": { "cve": "2852289", "nombre": "IRON MOON TRES 1-30", "solicitante": "Astudillo Araya Luis Darío y otros", "region": "REGIÓN DE ATACAMA", "provincia": "Provincia de Copiapó", "comuna": "Caldera", "superficie_ha": 300.0, "datum_original": "PSAD56", "huso": 19, "epsg_origen": 24879, "tipo_publicacion": "manifestacion", "fuente_pdf": "http://www.diariooficial.interior.gob.cl/publicaciones/2026/08/12/44523/07/2852289.pdf", "archivo": "gm_manifestacion_2852289.pdf", "fecha": "12-08-2026", "edicion": "44523" }, "geometry": { "type": "Polygon", "coordinates": [ [ [ -70.439141682420683, -26.928017341906276 ], [ -70.429072139617844, -26.928119661353094 ], [ -70.429413631445357, -26.955197236965571 ], [ -70.439485578453457, -26.955094798247316 ], [ -70.439141682420683, -26.928017341906276 ] ] ] } },
{ "type": "Feature", "properties": { "cve": "2852288", "nombre": "IRON MOON UNO 1-30", "solicitante": "Astudillo Araya Luis Darío y otros", "region": "REGIÓN DE ATACAMA", "provincia": "Provincia de Copiapó", "comuna": "Caldera", "superficie_ha": 300.0, "datum_original": "PSAD56", "huso": 19, "epsg_origen": 24879, "tipo_publicacion": "manifestacion", "fuente_pdf": "http://www.diariooficial.interior.gob.cl/publicaciones/2026/08/12/44523/07/2852288.pdf", "archivo": "gm_manifestacion_2852288.pdf", "fecha": "12-08-2026", "edicion": "44523" }, "geometry": { "type": "Polygon", "coordinates": [ [ [ -70.45928060636156, -26.927810549268891 ], [ -70.449211171460504, -26.927914304540018 ], [ -70.449557471643203, -26.954991640772953 ], [ -70.459629310638462, -26.954887764557089 ], [ -70.45928060636156, -26.927810549268891 ] ] ] } },
{ "type": "Feature", "properties": { "cve": "2852256", "nombre": "MARGARITA A1 1/60", "solicitante": "Porzio Honorato Cristóbal", "region": "REGIÓN DE ATACAMA", "provincia": "Provincia de Copiapó", "comuna": "Copiapó", "superficie_ha": 300.0, "datum_original": "PSAD56", "huso": 19, "epsg_origen": 24879, "tipo_publicacion": "manifestacion", "fuente_pdf": "http://www.diariooficial.interior.gob.cl/publicaciones/2026/08/12/44523/07/2852256.pdf", "archivo": "gm_manifestacion_2852256.pdf", "fecha": "12-08-2026", "edicion": "44523" }, "geometry": { "type": "Polygon", "coordinates": [ [ [ -70.433089838409217, -27.791011694552623 ], [ -70.422941906027461, -27.791116576392429 ], [ -70.423294700084512, -27.818190849890147 ], [ -70.433445146379924, -27.818085848407524 ], [ -70.433089838409217, -27.791011694552623 ] ] ] } },
{ "type": "Feature", "properties": { "cve": "2852265", "nombre": "MARGARITA A10 1/60", "solicitante": "Porzio Honorato Cristóbal", "region": "REGIÓN DE ATACAMA", "provincia": "Provincia de Copiapó", "comuna": "Copiapó", "superficie_ha": 300.0, "datum_original": "PSAD56", "huso": 19, "epsg_origen": 24879, "tipo_publicacion": "manifestacion", "fuente_pdf": "http://www.diariooficial.interior.gob.cl/publicaciones/2026/08/12/44523/07/2852265.pdf", "archivo": "gm_manifestacion_2852265.pdf", "fecha": "12-08-2026", "edicion": "44523" }, "geometry": { "type": "Polygon", "coordinates": [ [ [ -70.372541657535294, -27.818704672029074 ], [ -70.362390889532989, -27.818805199299121 ], [ -70.362729069222112, -27.845880061981937 ], [ -70.372882354978685, -27.845779420110528 ], [ -70.372541657535294, -27.818704672029074 ] ] ] } },
{ "type": "Feature", "properties": { "cve": "2852257", "nombre": "MARGARITA A2 1 /60", "solicitante": "Porzio Honorato Cristóbal", "region": "REGIÓN DE ATACAMA", "provincia": "Provincia de Copiapó", "comuna": "Copiapó", "superficie_ha": 300.0, "datum_original": "PSAD56", "huso": 19, "epsg_origen": 24879, "tipo_publicacion": "manifestacion", "fuente_pdf": "http://www.diariooficial.interior.gob.cl/publicaciones/2026/08/12/44523/07/2852257.pdf", "archivo": "gm_manifestacion_2852257.pdf", "fecha": "12-08-2026", "edicion": "44523" }, "geometry": { "type": "Polygon", "coordinates": [ [ [ -70.422941906027461, -27.791116576392429 ], [ -70.412793919113554, -27.791220713416486 ], [ -70.413144199199181, -27.818295105707591 ], [ -70.423294700084512, -27.818190849890147 ], [ -70.422941906027461, -27.791116576392429 ] ] ] } },
{ "type": "Feature", "properties": { "cve": "2852258", "nombre": "MARGARITA A3 1/60", "solicitante": "Porzio Honorato Cristóbal", "region": "REGIÓN DE ATACAMA", "provincia": "Provincia de Copiapó", "comuna": "Copiapó", "superficie_ha": 300.0, "datum_original": "PSAD56", "huso": 19, "epsg_origen": 24879, "tipo_publicacion": "manifestacion", "fuente_pdf": "http://www.diariooficial.interior.gob.cl/publicaciones/2026/08/12/44523/07/2852258.pdf", "archivo": "gm_manifestacion_2852258.pdf", "fecha": "12-08-2026", "edicion": "44523" }, "geometry": { "type": "Polygon", "coordinates": [ [ [ -70.412793919113554, -27.791220713416486 ], [ -70.402645878055921, -27.791324105609895 ], [ -70.402993644112755, -27.818398615844963 ], [ -70.413144199199181, -27.818295105707591 ], [ -70.412793919113554, -27.791220713416486 ] ] ] } },
{ "type": "Feature", "properties": { "cve": "2852259", "nombre": "MARGARITA A4 1/60", "solicitante": "Porzio Honorato Cristobal", "region": "REGIÓN DE ATACAMA", "provincia": "Provincia de Copiapó", "comuna": "Copiapó", "superficie_ha": 300.0, "datum_original": "PSAD56", "huso": 19, "epsg_origen": 24879, "tipo_publicacion": "manifestacion", "fuente_pdf": "http://www.diariooficial.interior.gob.cl/publicaciones/2026/08/12/44523/07/2852259.pdf", "archivo": "gm_manifestacion_2852259.pdf", "fecha": "12-08-2026", "edicion": "44523" }, "geometry": { "type": "Polygon", "coordinates": [ [ [ -70.402645878055921, -27.791324105609895 ], [ -70.392497783242987, -27.791426752957893 ], [ -70.392843035214057, -27.818501380287447 ], [ -70.402993644112755, -27.818398615844963 ], [ -70.402645878055921, -27.791324105609895 ] ] ] } },
{ "type": "Feature", "properties": { "cve": "2852260", "nombre": "MARGARITA A5 1/60", "solicitante": "Porzio Honorato Cristóbal", "region": "REGIÓN DE ATACAMA", "provincia": "Provincia de Copiapó", "comuna": "Copiapó", "superficie_ha": 300.0, "datum_original": "PSAD56", "huso": 19, "epsg_origen": 24879, "tipo_publicacion": "manifestacion", "fuente_pdf": "http://www.diariooficial.interior.gob.cl/publicaciones/2026/08/12/44523/07/2852260.pdf", "archivo": "gm_manifestacion_2852260.pdf", "fecha": "12-08-2026", "edicion": "44523" }, "geometry": { "type": "Polygon", "coordinates": [ [ [ -70.392497783242987, -27.791426752957893 ], [ -70.382349635063207, -27.791528655445781 ], [ -70.382692372891938, -27.818603399020351 ], [ -70.392843035214057, -27.818501380287447 ], [ -70.392497783242987, -27.791426752957893 ] ] ] } },
{ "type": "Feature", "properties": { "cve": "2852261", "nombre": "MARGARITA A6 1/60", "solicitante": "Porzio Honorato Cristóbal", "region": "REGIÓN DE ATACAMA", "provincia": "Provincia de Copiapó", "comuna": "Copiapó", "superficie_ha": 300.0, "datum_original": "PSAD56", "huso": 19, "epsg_origen": 24879, "tipo_publicacion": "manifestacion", "fuente_pdf": "http://www.diariooficial.interior.gob.cl/publicaciones/2026/08/12/44523/07/2852261.pdf", "archivo": "gm_manifestacion_2852261.pdf", "fecha": "12-08-2026", "edicion": "44523" }, "geometry": { "type": "Polygon", "coordinates": [ [ [ -70.382349635063207, -27.791528655445781 ], [ -70.372201433905062, -27.791629813059 ], [ -70.372541657535294, -27.818704672029074 ], [ -70.382692372891938, -27.818603399020351 ], [ -70.382349635063207, -27.791528655445781 ] ] ] } },
{ "type": "Feature", "properties": { "cve": "2852262", "nombre": "MARGARITA A7 1/60", "solicitante": "Porzio Honorato Cristóbal", "region": "REGIÓN DE ATACAMA", "provincia": "Provincia de Copiapó", "comuna": "Copiapó", "superficie_ha": 300.0, "datum_original": "PSAD56", "huso": 19, "epsg_origen": 24879, "tipo_publicacion": "manifestacion", "fuente_pdf": "http://www.diariooficial.interior.gob.cl/publicaciones/2026/08/12/44523/07/2852262.pdf", "archivo": "gm_manifestacion_2852262.pdf", "fecha": "12-08-2026", "edicion": "44523" }, "geometry": { "type": "Polygon", "coordinates": [ [ [ -70.372201433905062, -27.791629813059 ], [ -70.362053180156991, -27.791730225783059 ], [ -70.362390889532989, -27.818805199299121 ], [ -70.372541657535294, -27.818704672029074 ], [ -70.372201433905062, -27.791629813059 ] ] ] } },
{ "type": "Feature", "properties": { "cve": "2852263", "nombre": "MARGARITA A8 1/60", "solicitante": "Porzio Honorato Cristóbal", "region": "REGIÓN DE ATACAMA", "provincia": "Provincia de Copiapó", "comuna": "Copiapó", "superficie_ha": 300.0, "datum_original": "PSAD56", "huso": 19, "epsg_origen": 24879, "tipo_publicacion": "manifestacion", "fuente_pdf": "http://www.diariooficial.interior.gob.cl/publicaciones/2026/08/12/44523/07/2852263.pdf", "archivo": "gm_manifestacion_2852263.pdf", "fecha": "12-08-2026", "edicion": "44523" }, "geometry": { "type": "Polygon", "coordinates": [ [ [ -70.392843035214057, -27.818501380287447 ], [ -70.382692372891938, -27.818603399020351 ], [ -70.383035588033778, -27.845678031650504 ], [ -70.393188767998069, -27.845575896616413 ], [ -70.392843035214057, -27.818501380287447 ] ] ] } },
{ "type": "Feature", "properties": { "cve": "2852264", "nombre": "MARGARITA A9 1/60", "solicitante": "Porzio Honorato Cristóbal", "region": "REGIÓN DE ATACAMA", "provincia": "Provincia de Copiapó", "comuna": "Copiapó", "superficie_ha": 300.0, "datum_original": "PSAD56", "huso": 19, "epsg_origen": 24879, "tipo_publicacion": "manifestacion", "fuente_pdf": "http://www.diariooficial.interior.gob.cl/publicaciones/2026/08/12/44523/07/2852264.pdf", "archivo": "gm_manifestacion_2852264.pdf", "fecha": "12-08-2026", "edicion": "44523" }, "geometry": { "type": "Polygon", "coordinates": [ [ [ -70.382692372891938, -27.818603399020351 ], [ -70.372541657535294, -27.818704672029074 ], [ -70.372882354978685, -27.845779420110528 ], [ -70.383035588033778, -27.845678031650504 ], [ -70.382692372891938, -27.818603399020351 ] ] ] } },
{ "type": "Feature", "properties": { "cve": "2852121", "nombre": "PARIWANA SAMAY 1-3", "solicitante": "Godoy Monárdez Isabel Selena", "region": "REGIÓN DE ATACAMA", "provincia": "Provincia de Copiapó", "comuna": null, "superficie_ha": 30.0, "datum_original": "PSAD56", "huso": 19, "epsg_origen": 24879, "tipo_publicacion": "manifestacion", "fuente_pdf": "http://www.diariooficial.interior.gob.cl/publicaciones/2026/08/12/44523/07/2852121.pdf", "archivo": "gm_manifestacion_2852121.pdf", "fecha": "12-08-2026", "edicion": "44523" }, "geometry": { "type": "Polygon", "coordinates": [ [ [ -69.333813945072905, -27.058650602768914 ], [ -69.323729762970075, -27.058674166790865 ], [ -69.323737538322405, -27.061382681271116 ], [ -69.333821962616682, -27.061359114511351 ], [ -69.333813945072905, -27.058650602768914 ] ] ] } },
{ "type": "Feature", "properties": { "cve": "2852102", "nombre": "RENATA 1 AL 6", "solicitante": "Inversiones CGS SpA", "region": "REGIÓN DE ATACAMA", "provincia": "Provincia de Copiapó", "comuna": null, "superficie_ha": 54.0, "datum_original": "WGS84", "huso": 19, "epsg_origen": 32719, "tipo_publicacion": "manifestacion", "fuente_pdf": "http://www.diariooficial.interior.gob.cl/publicaciones/2026/08/12/44523/07/2852102.pdf", "archivo": "gm_manifestacion_2852102.pdf", "fecha": "12-08-2026", "edicion": "44523" }, "geometry": { "type": "Polygon", "coordinates": [ [ [ -70.456759745829842, -27.266111228917545 ], [ -70.450699908060884, -27.266174187282157 ], [ -70.450805389747387, -27.274296994842135 ], [ -70.456865667753476, -27.274234014655178 ], [ -70.456759745829842, -27.266111228917545 ] ] ] } },
{ "type": "Feature", "properties": { "cve": "2852266", "nombre": "SOFIA A16 1/9", "solicitante": "Porzio Honorato Cristóbal", "region": "REGIÓN DE ATACAMA", "provincia": "Provincia de Copiapó", "comuna": "Copiapó", "superficie_ha": 27.0, "datum_original": "PSAD56", "huso": 19, "epsg_origen": 24879, "tipo_publicacion": "manifestacion", "fuente_pdf": "http://www.diariooficial.interior.gob.cl/publicaciones/2026/08/12/44523/07/2852266.pdf", "archivo": "gm_manifestacion_2852266.pdf", "fecha": "12-08-2026", "edicion": "44523" }, "geometry": { "type": "Polygon", "coordinates": [ [ [ -70.443422528293553, -27.804894332373667 ], [ -70.434288272507928, -27.804989485908035 ], [ -70.434323831741096, -27.807696899351409 ], [ -70.443458313794437, -27.807601734968554 ], [ -70.443422528293553, -27.804894332373667 ] ] ] } },
{ "type": "Feature", "properties": { "cve": "2852267", "nombre": "SOFIA A17 1/2", "solicitante": "Porzio Honorato Cristóbal", "region": "REGIÓN DE ATACAMA", "provincia": "Provincia de Copiapó", "comuna": "Copiapó", "superficie_ha": 8.0, "datum_original": "PSAD56", "huso": 19, "epsg_origen": 24879, "tipo_publicacion": "manifestacion", "fuente_pdf": "http://www.diariooficial.interior.gob.cl/publicaciones/2026/08/12/44523/07/2852267.pdf", "archivo": "gm_manifestacion_2852267.pdf", "fecha": "12-08-2026", "edicion": "44523" }, "geometry": { "type": "Polygon", "coordinates": [ [ [ -70.443523933483362, -27.81256530350284 ], [ -70.439463984798024, -27.812607682171375 ], [ -70.43948778358785, -27.814412618477022 ], [ -70.443547799339967, -27.814370236588058 ], [ -70.443523933483362, -27.81256530350284 ] ] ] } },
{ "type": "Feature", "properties": { "cve": "2852268", "nombre": "SOFIA A18 1/22", "solicitante": "Porzio Honorato Cristóbal", "region": "REGIÓN DE ATACAMA", "provincia": "Provincia de Copiapó", "comuna": "Copiapó", "superficie_ha": 110.0, "datum_original": "PSAD56", "huso": 19, "epsg_origen": 24879, "tipo_publicacion": "manifestacion", "fuente_pdf": "http://www.diariooficial.interior.gob.cl/publicaciones/2026/08/12/44523/07/2852268.pdf", "archivo": "gm_manifestacion_2852268.pdf", "fecha": "12-08-2026", "edicion": "44523" }, "geometry": { "type": "Polygon", "coordinates": [ [ [ -70.434341613213746, -27.809050605656058 ], [ -70.423177047500999, -27.809166104406277 ], [ -70.423294700084512, -27.818190849890147 ], [ -70.434460187992045, -27.818075307248261 ], [ -70.434341613213746, -27.809050605656058 ] ] ] } },
{ "type": "Feature", "properties": { "cve": "2851810", "nombre": "KEKA  10, 1 AL 30", "solicitante": "Compañía Minera Nevada SpA", "region": "REGIÓN DE ATACAMA", "provincia": "Provincia de Huasco", "comuna": "ALTO DEL CARMEN", "superficie_ha": 30.0, "datum_original": "PSAD56", "huso": 19, "epsg_origen": 24879, "tipo_publicacion": "manifestacion", "fuente_pdf": "http://www.diariooficial.interior.gob.cl/publicaciones/2026/08/12/44523/07/2851810.pdf", "archivo": "gm_manifestacion_2851810.pdf", "fecha": "12-08-2026", "edicion": "44523" }, "geometry": { "type": "Polygon", "coordinates": [ [ [ -69.996366321703874, -29.281856407600241 ], [ -69.990190262063152, -29.281902317365752 ], [ -69.990233770399939, -29.286414426141331 ], [ -69.996410101303738, -29.286368507941599 ], [ -69.996366321703874, -29.281856407600241 ] ] ] } },
{ "type": "Feature", "properties": { "cve": "2851811", "nombre": "KEKA  11, 1 AL 4", "solicitante": "Compañía Minera Nevada SpA", "region": "REGIÓN DE ATACAMA", "provincia": "Provincia de Huasco", "comuna": "ALTO DEL CARMEN", "superficie_ha": 4.0, "datum_original": "PSAD56", "huso": 19, "epsg_origen": 24879, "tipo_publicacion": "manifestacion", "fuente_pdf": "http://www.diariooficial.interior.gob.cl/publicaciones/2026/08/12/44523/07/2851811.pdf", "archivo": "gm_manifestacion_2851811.pdf", "fecha": "12-08-2026", "edicion": "44523" }, "geometry": { "type": "Polygon", "coordinates": [ [ [ -69.943956948746049, -29.231245882639108 ], [ -69.939841539633079, -29.231274860597146 ], [ -69.939849781050924, -29.232177302903462 ], [ -69.943965226238632, -29.232148323879549 ], [ -69.943956948746049, -29.231245882639108 ] ] ] } },
{ "type": "Feature", "properties": { "cve": "2851812", "nombre": "KEKA 12, 1 AL 3", "solicitante": "Compañía Minera Nevada SpA", "region": "REGIÓN DE ATACAMA", "provincia": "Provincia de Huasco", "comuna": "ALTO DEL CARMEN", "superficie_ha": 3.0, "datum_original": "PSAD56", "huso": 19, "epsg_origen": 24879, "tipo_publicacion": "manifestacion", "fuente_pdf": "http://www.diariooficial.interior.gob.cl/publicaciones/2026/08/12/44523/07/2851812.pdf", "archivo": "gm_manifestacion_2851812.pdf", "fecha": "12-08-2026", "edicion": "44523" }, "geometry": { "type": "Polygon", "coordinates": [ [ [ -69.939837473233496, -29.235336139180088 ], [ -69.938808579410392, -29.235343364771605 ], [ -69.938833281731604, -29.238050690458561 ], [ -69.939862202617675, -29.238043464069793 ], [ -69.939837473233496, -29.235336139180088 ] ] ] } },
{ "type": "Feature", "properties": { "cve": "2852175", "nombre": "LA JOSEFA 1 AL 6", "solicitante": "Flores Flores Patricio Andrés y otro", "region": "REGIÓN DE ATACAMA", "provincia": "Provincia de Huasco", "comuna": "Villarrica", "superficie_ha": 36.0, "datum_original": "PSAD56", "huso": 19, "epsg_origen": 24879, "tipo_publicacion": "manifestacion", "fuente_pdf": "http://www.diariooficial.interior.gob.cl/publicaciones/2026/08/12/44523/07/2852175.pdf", "archivo": "gm_manifestacion_2852175.pdf", "fecha": "12-08-2026", "edicion": "44523" }, "geometry": { "type": "Polygon", "coordinates": [ [ [ -70.630615473636311, -28.631123098087777 ], [ -70.624479461714841, -28.631196796494514 ], [ -70.624562847698115, -28.63661048128111 ], [ -70.630699174246999, -28.636536766394251 ], [ -70.630615473636311, -28.631123098087777 ] ] ] } },
{ "type": "Feature", "properties": { "cve": "2852210", "nombre": "MANKE C; 1 AL 50", "solicitante": "Sáez Sáez Ana Carolina", "region": "REGIÓN DE ATACAMA", "provincia": "Provincia de Huasco", "comuna": null, "superficie_ha": 50.0, "datum_original": "PSAD56", "huso": 19, "epsg_origen": 24879, "tipo_publicacion": "manifestacion", "fuente_pdf": "http://www.diariooficial.interior.gob.cl/publicaciones/2026/08/12/44523/07/2852210.pdf", "archivo": "gm_manifestacion_2852210.pdf", "fecha": "12-08-2026", "edicion": "44523" }, "geometry": { "type": "Polygon", "coordinates": [ [ [ -71.126602861522628, -28.850452033704695 ], [ -71.116357694700696, -28.850613243010457 ], [ -71.116449038028819, -28.855123230122476 ], [ -71.126694646228032, -28.854961990933347 ], [ -71.126602861522628, -28.850452033704695 ] ] ] } },
{ "type": "Feature", "properties": { "cve": "2852212", "nombre": "MANKE D; 1 AL 50", "solicitante": "Sáez Sáez Ana Carolina", "region": "REGIÓN DE ATACAMA", "provincia": "Provincia de Huasco", "comuna": null, "superficie_ha": 50.0, "datum_original": "PSAD56", "huso": 19, "epsg_origen": 24879, "tipo_publicacion": "manifestacion", "fuente_pdf": "http://www.diariooficial.interior.gob.cl/publicaciones/2026/08/12/44523/07/2852212.pdf", "archivo": "gm_manifestacion_2852212.pdf", "fecha": "12-08-2026", "edicion": "44523" }, "geometry": { "type": "Polygon", "coordinates": [ [ [ -71.126878278750297, -28.863981895463596 ], [ -71.116631787493347, -28.864143194427029 ], [ -71.116723193637398, -28.868653171618782 ], [ -71.126970126574861, -28.868491842764435 ], [ -71.126878278750297, -28.863981895463596 ] ] ] } },
{ "type": "Feature", "properties": { "cve": "2852213", "nombre": "MANKE E; 1 AL 50", "solicitante": "Sáez Sáez Ana Carolina", "region": "REGIÓN DE ATACAMA", "provincia": "Provincia de Huasco", "comuna": null, "superficie_ha": 50.0, "datum_original": "PSAD56", "huso": 19, "epsg_origen": 24879, "tipo_publicacion": "manifestacion", "fuente_pdf": "http://www.diariooficial.interior.gob.cl/publicaciones/2026/08/12/44523/07/2852213.pdf", "archivo": "gm_manifestacion_2852213.pdf", "fecha": "12-08-2026", "edicion": "44523" }, "geometry": { "type": "Polygon", "coordinates": [ [ [ -71.149674009703176, -28.836100894318744 ], [ -71.139430402801224, -28.836263782280323 ], [ -71.139522686859493, -28.840773711313425 ], [ -71.149766734790461, -28.840610793148013 ], [ -71.149674009703176, -28.836100894318744 ] ] ] } },
{ "type": "Feature", "properties": { "cve": "2852157", "nombre": "SMASH 1 AL 20", "solicitante": "Kincade Pefaur Daniel Etienne", "region": "REGIÓN DE ATACAMA", "provincia": "Provincia de Huasco", "comuna": "Vallenar", "superficie_ha": 100.0, "datum_original": "PSAD56", "huso": 19, "epsg_origen": 24879, "tipo_publicacion": "manifestacion", "fuente_pdf": "http://www.diariooficial.interior.gob.cl/publicaciones/2026/08/12/44523/07/2852157.pdf", "archivo": "gm_manifestacion_2852157.pdf", "fecha": "12-08-2026", "edicion": "44523" }, "geometry": { "type": "Polygon", "coordinates": [ [ [ -70.599041741650197, -28.375829700711336 ], [ -70.588839468051134, -28.375949017199925 ], [ -70.588973974119284, -28.384972322322955 ], [ -70.599177110515868, -28.384852961101551 ], [ -70.599041741650197, -28.375829700711336 ] ] ] } },
{ "type": "Feature", "properties": { "cve": "2851850", "nombre": "DESCUBRIDORA III 1 AL 20", "solicitante": "South Minerals SpA", "region": "REGIÓN DE COQUIMBO", "provincia": "Provincia de Choapa", "comuna": "Los Vilos", "superficie_ha": 200.0, "datum_original": "PSAD56", "huso": 19, "epsg_origen": 24879, "tipo_publicacion": "manifestacion", "fuente_pdf": "http://www.diariooficial.interior.gob.cl/publicaciones/2026/08/12/44523/07/2851850.pdf", "archivo": "gm_manifestacion_2851850.pdf", "fecha": "12-08-2026", "edicion": "44523" }, "geometry": { "type": "Polygon", "coordinates": [ [ [ -71.382942535691257, -32.148207188609334 ], [ -71.37234763138234, -32.148406319945778 ], [ -71.372814923165933, -32.16643388764895 ], [ -71.383411909594173, -32.16623461796835 ], [ -71.382942535691257, -32.148207188609334 ] ] ] } },
{ "type": "Feature", "properties": { "cve": "2851851", "nombre": "DESCUBRIDORA IV 1 AL 20", "solicitante": "South Minerals SpA", "region": "REGIÓN DE COQUIMBO", "provincia": "Provincia de Choapa", "comuna": "Los Vilos", "superficie_ha": 200.0, "datum_original": "PSAD56", "huso": 19, "epsg_origen": 24879, "tipo_publicacion": "manifestacion", "fuente_pdf": "http://www.diariooficial.interior.gob.cl/publicaciones/2026/08/12/44523/07/2851851.pdf", "archivo": "gm_manifestacion_2851851.pdf", "fecha": "12-08-2026", "edicion": "44523" }, "geometry": { "type": "Polygon", "coordinates": [ [ [ -71.404132029184268, -32.147806268792138 ], [ -71.393537335113422, -32.148007171548038 ], [ -71.394008791050808, -32.166034461948172 ], [ -71.404605567070959, -32.165833419618686 ], [ -71.404132029184268, -32.147806268792138 ] ] ] } },
{ "type": "Feature", "properties": { "cve": "2851852", "nombre": "DESCUBRIDORA VI 1 AL 30", "solicitante": "South Mineral SpA", "region": "REGIÓN DE COQUIMBO", "provincia": "Provincia de Choapa", "comuna": "Los Vilos", "superficie_ha": 300.0, "datum_original": "PSAD56", "huso": 19, "epsg_origen": 24879, "tipo_publicacion": "manifestacion", "fuente_pdf": "http://www.diariooficial.interior.gob.cl/publicaciones/2026/08/12/44523/07/2851852.pdf", "archivo": "gm_manifestacion_2851852.pdf", "fecha": "12-08-2026", "edicion": "44523" }, "geometry": { "type": "Polygon", "coordinates": [ [ [ -71.404487142899541, -32.161326637353461 ], [ -71.372698061043153, -32.161927001149508 ], [ -71.372931811415455, -32.170940770530251 ], [ -71.404724017717768, -32.170340198255737 ], [ -71.404487142899541, -32.161326637353461 ] ] ] } },
{ "type": "Feature", "properties": { "cve": "2851853", "nombre": "DESCUBRIDORA VI 1 AL 30", "solicitante": "South Minerals SpA", "region": "REGIÓN DE COQUIMBO", "provincia": "Provincia de Choapa", "comuna": "Los Vilos", "superficie_ha": 300.0, "datum_original": "PSAD56", "huso": 19, "epsg_origen": 24879, "tipo_publicacion": "manifestacion", "fuente_pdf": "http://www.diariooficial.interior.gob.cl/publicaciones/2026/08/12/44523/07/2851853.pdf", "archivo": "gm_manifestacion_2851853.pdf", "fecha": "12-08-2026", "edicion": "44523" }, "geometry": { "type": "Polygon", "coordinates": [ [ [ -71.394744201783439, -32.179547665782309 ], [ -71.384145761370547, -32.179747957981064 ], [ -71.38485119505637, -32.206788920660514 ], [ -71.395452764097726, -32.206588419829451 ], [ -71.394744201783439, -32.179547665782309 ] ] ] } },
{ "type": "Feature", "properties": { "cve": "2851854", "nombre": "DESCUBRIDORA VII 1 AL 30 /South Minerals SpA", "solicitante": null, "region": "REGIÓN DE COQUIMBO", "provincia": "Provincia de Choapa", "comuna": "Los Vilos", "superficie_ha": 300.0, "datum_original": "PSAD56", "huso": 19, "epsg_origen": 24879, "tipo_publicacion": "manifestacion", "fuente_pdf": "http://www.diariooficial.interior.gob.cl/publicaciones/2026/08/12/44523/07/2851854.pdf", "archivo": "gm_manifestacion_2851854.pdf", "fecha": "12-08-2026", "edicion": "44523" }, "geometry": { "type": "Polygon", "coordinates": [ [ [ -71.405342536679072, -32.179346486814147 ], [ -71.394744201783439, -32.179547665782309 ], [ -71.395452764097726, -32.206588419829451 ], [ -71.406054227493655, -32.206387031306193 ], [ -71.405342536679072, -32.179346486814147 ] ] ] } },
{ "type": "Feature", "properties": { "cve": "2851856", "nombre": "DESCUBRIDORA VIII 1 AL 18", "solicitante": "South Minerals SpA", "region": "REGIÓN DE COQUIMBO", "provincia": "Provincia de Choapa", "comuna": "Los Vilos", "superficie_ha": 180.0, "datum_original": "PSAD56", "huso": 19, "epsg_origen": 24879, "tipo_publicacion": "manifestacion", "fuente_pdf": "http://www.diariooficial.interior.gob.cl/publicaciones/2026/08/12/44523/07/2851856.pdf", "archivo": "gm_manifestacion_2851856.pdf", "fecha": "12-08-2026", "edicion": "44523" }, "geometry": { "type": "Polygon", "coordinates": [ [ [ -71.384260447497013, -32.184146630127181 ], [ -71.374721303500451, -32.184326165301208 ], [ -71.375189712844147, -32.202353598756297 ], [ -71.384730734080378, -32.202173938929171 ], [ -71.384260447497013, -32.184146630127181 ] ] ] } },
{ "type": "Feature", "properties": { "cve": "2851857", "nombre": "RINCONADA  VII 1 AL 20", "solicitante": "South Minerals SpA", "region": "REGIÓN DE COQUIMBO", "provincia": "Provincia de Choapa", "comuna": "Los Vilos", "superficie_ha": 200.0, "datum_original": "PSAD56", "huso": 19, "epsg_origen": 24879, "tipo_publicacion": "manifestacion", "fuente_pdf": "http://www.diariooficial.interior.gob.cl/publicaciones/2026/08/12/44523/07/2851857.pdf", "archivo": "gm_manifestacion_2851857.pdf", "fecha": "12-08-2026", "edicion": "44523" }, "geometry": { "type": "Polygon", "coordinates": [ [ [ -71.329674068315342, -31.955510912185797 ], [ -71.308527704861447, -31.955897305503481 ], [ -71.308753328445093, -31.964911784357451 ], [ -71.329901754097875, -31.964525256378248 ], [ -71.329674068315342, -31.955510912185797 ] ] ] } },
{ "type": "Feature", "properties": { "cve": "2851858", "nombre": "RINCONADA IX 1 AL 20", "solicitante": "South Minerals SpA", "region": "REGIÓN DE COQUIMBO", "provincia": "Provincia de Choapa", "comuna": "Los Vilos", "superficie_ha": 100.0, "datum_original": "WGS84", "huso": 19, "epsg_origen": 32719, "tipo_publicacion": "manifestacion", "fuente_pdf": "http://www.diariooficial.interior.gob.cl/publicaciones/2026/08/12/44523/07/2851858.pdf", "archivo": "gm_manifestacion_2851858.pdf", "fecha": "12-08-2026", "edicion": "44523" }, "geometry": { "type": "Polygon", "coordinates": [ [ [ -71.343968699654411, -31.969908147548338 ], [ -71.333393976289202, -31.970103073948692 ], [ -71.333622180308851, -31.979117416566574 ], [ -71.344197935569397, -31.978922422252552 ], [ -71.343968699654411, -31.969908147548338 ] ] ] } },
{ "type": "Feature", "properties": { "cve": "2851864", "nombre": "RINCONADA VIII 1 AL 28", "solicitante": "South Minerals SpA", "region": "REGIÓN DE COQUIMBO", "provincia": "Provincia de Choapa", "comuna": null, "superficie_ha": 280.0, "datum_original": "PSAD56", "huso": 19, "epsg_origen": 24879, "tipo_publicacion": "manifestacion", "fuente_pdf": "http://www.diariooficial.interior.gob.cl/publicaciones/2026/08/12/44523/07/2851864.pdf", "archivo": "gm_manifestacion_2851864.pdf", "fecha": "12-08-2026", "edicion": "44523" }, "geometry": { "type": "Polygon", "coordinates": [ [ [ -71.338361010413266, -31.964369660044632 ], [ -71.308753328445093, -31.964911784357451 ], [ -71.308979053028793, -31.973926248873013 ], [ -71.338589623320175, -31.973383935655029 ], [ -71.338361010413266, -31.964369660044632 ] ] ] } },
{ "type": "Feature", "properties": { "cve": "2851859", "nombre": "RINCONADA X 1 AL 25", "solicitante": "South Minerals SpA", "region": "REGIÓN DE COQUIMBO", "provincia": "Provincia de Choapa", "comuna": "Los Vilos", "superficie_ha": 250.0, "datum_original": "PSAD56", "huso": 19, "epsg_origen": 24879, "tipo_publicacion": "manifestacion", "fuente_pdf": "http://www.diariooficial.interior.gob.cl/publicaciones/2026/08/12/44523/07/2851859.pdf", "archivo": "gm_manifestacion_2851859.pdf", "fecha": "12-08-2026", "edicion": "44523" }, "geometry": { "type": "Polygon", "coordinates": [ [ [ -71.335417100413181, -31.973442370602303 ], [ -71.308979053028793, -31.973926248873013 ], [ -71.30920487865319, -31.98294069904744 ], [ -71.335645506065617, -31.982456652193996 ], [ -71.335417100413181, -31.973442370602303 ] ] ] } },
{ "type": "Feature", "properties": { "cve": "2851860", "nombre": "RINCONADA XI 1 AL 24", "solicitante": "South Minerals SpA", "region": "REGIÓN DE COQUIMBO", "provincia": "Provincia de Choapa", "comuna": "Los Vilos", "superficie_ha": 192.0, "datum_original": "PSAD56", "huso": 19, "epsg_origen": 24879, "tipo_publicacion": "manifestacion", "fuente_pdf": "http://www.diariooficial.interior.gob.cl/publicaciones/2026/08/12/44523/07/2851860.pdf", "archivo": "gm_manifestacion_2851860.pdf", "fecha": "12-08-2026", "edicion": "44523" }, "geometry": { "type": "Polygon", "coordinates": [ [ [ -71.344164585249985, -31.985005056155316 ], [ -71.331472889713922, -31.985238953569485 ], [ -71.331837937929606, -31.999661810795534 ], [ -71.344531616230284, -31.999427783017868 ], [ -71.344164585249985, -31.985005056155316 ] ] ] } },
{ "type": "Feature", "properties": { "cve": "2851861", "nombre": "RINCONADA XII 1 AL 18", "solicitante": "South Minerals SpA", "region": "REGIÓN DE COQUIMBO", "provincia": "Provincia de Choapa", "comuna": "Los Vilos", "superficie_ha": 180.0, "datum_original": "PSAD56", "huso": 19, "epsg_origen": 24879, "tipo_publicacion": "manifestacion", "fuente_pdf": "http://www.diariooficial.interior.gob.cl/publicaciones/2026/08/12/44523/07/2851861.pdf", "archivo": "gm_manifestacion_2851861.pdf", "fecha": "12-08-2026", "edicion": "44523" }, "geometry": { "type": "Polygon", "coordinates": [ [ [ -71.331495697571029, -31.986140383224097 ], [ -71.320919069083828, -31.986334336184303 ], [ -71.321327925994794, -32.002560167002621 ], [ -71.331906413571318, -32.002366092428566 ], [ -71.331495697571029, -31.986140383224097 ] ] ] } },
{ "type": "Feature", "properties": { "cve": "2851862", "nombre": "RINCONADA XIII 1 AL 18", "solicitante": "South Minerals SpA", "region": "REGIÓN DE COQUIMBO", "provincia": "Provincia de Choapa", "comuna": "Los Vilos", "superficie_ha": 180.0, "datum_original": "PSAD56", "huso": 19, "epsg_origen": 24879, "tipo_publicacion": "manifestacion", "fuente_pdf": "http://www.diariooficial.interior.gob.cl/publicaciones/2026/08/12/44523/07/2851862.pdf", "archivo": "gm_manifestacion_2851862.pdf", "fecha": "12-08-2026", "edicion": "44523" }, "geometry": { "type": "Polygon", "coordinates": [ [ [ -71.320919069083828, -31.986334336184303 ], [ -71.310342338992285, -31.986527408803834 ], [ -71.310749336740301, -32.002753360684487 ], [ -71.321327925994794, -32.002560167002621 ], [ -71.320919069083828, -31.986334336184303 ] ] ] } },
{ "type": "Feature", "properties": { "cve": "2851863", "nombre": "RINCONADA XIV 1 AL 14", "solicitante": "South Minerals SpA", "region": "REGIÓN DE COQUIMBO", "provincia": "Provincia de Choapa", "comuna": "Los Vilos", "superficie_ha": 126.0, "datum_original": "PSAD56", "huso": 19, "epsg_origen": 24879, "tipo_publicacion": "manifestacion", "fuente_pdf": "http://www.diariooficial.interior.gob.cl/publicaciones/2026/08/12/44523/07/2851863.pdf", "archivo": "gm_manifestacion_2851863.pdf", "fecha": "12-08-2026", "edicion": "44523" }, "geometry": { "type": "Polygon", "coordinates": [ [ [ -71.318890239444571, -31.947321132759726 ], [ -71.29986007372284, -31.947667350026514 ], [ -71.300017356737726, -31.95397753351951 ], [ -71.31904882106393, -31.95363123178058 ], [ -71.318890239444571, -31.947321132759726 ] ] ] } },
{ "type": "Feature", "properties": { "cve": "2852235", "nombre": "LOS ALAMOS 1 AL 54", "solicitante": "RAAC SpA", "region": "REGIÓN DE COQUIMBO", "provincia": "Provincia de Limarí", "comuna": null, "superficie_ha": 54.0, "datum_original": "PSAD56", "huso": 19, "epsg_origen": 24879, "tipo_publicacion": "manifestacion", "fuente_pdf": "http://www.diariooficial.interior.gob.cl/publicaciones/2026/08/12/44523/07/2852235.pdf", "archivo": "gm_manifestacion_2852235.pdf", "fecha": "12-08-2026", "edicion": "44523" }, "geometry": { "type": "Polygon", "coordinates": [ [ [ -71.297227207346054, -31.07786295170337 ], [ -71.287799703992931, -31.078030617682398 ], [ -71.287929322950831, -31.083440133609855 ], [ -71.297357359291254, -31.083272432009807 ], [ -71.297227207346054, -31.07786295170337 ] ] ] } },
{ "type": "Feature", "properties": { "cve": "2851822", "nombre": "MANTO BLANCO 1 AL 10", "solicitante": "Reyes Márquez Felipe Andrés", "region": "REGIÓN DEL BIOBÍO", "provincia": "Provincia de Arauco", "comuna": null, "superficie_ha": 100.0, "datum_original": "PSAD56", "huso": 18, "epsg_origen": 24878, "tipo_publicacion": "manifestacion", "fuente_pdf": "http://www.diariooficial.interior.gob.cl/publicaciones/2026/08/12/44523/07/2851822.pdf", "archivo": "gm_manifestacion_2851822.pdf", "fecha": "12-08-2026", "edicion": "44523" }, "geometry": { "type": "Polygon", "coordinates": [ [ [ -73.349299808254955, -37.575278410397431 ], [ -73.337979718404398, -37.575119549184805 ], [ -73.337779395235103, -37.584129275577396 ], [ -73.349100847979486, -37.584288188160542 ], [ -73.349299808254955, -37.575278410397431 ] ] ] } },
{ "type": "Feature", "properties": { "cve": "2852200", "nombre": "ARRECIFE 1 A, 1 AL 40", "solicitante": "Norte Abierto SpA", "region": "REGIÓN DE ATACAMA", "provincia": "Provincia de Copiapó", "comuna": null, "superficie_ha": 200.0, "datum_original": "PSAD56", "huso": 19, "epsg_origen": 24879, "tipo_publicacion": "mensura", "fuente_pdf": "http://www.diariooficial.interior.gob.cl/publicaciones/2026/08/12/44523/07/2852200.pdf", "archivo": "gm_mensura_2852200.pdf", "fecha": "12-08-2026", "edicion": "44523" }, "geometry": { "type": "Polygon", "coordinates": [ [ [ -69.223022694491149, -27.721529220413448 ], [ -69.212878115968508, -27.721545192864493 ], [ -69.212913194241452, -27.739600370303172 ], [ -69.223059444365063, -27.739584385681908 ], [ -69.223022694491149, -27.721529220413448 ] ] ] } },
{ "type": "Feature", "properties": { "cve": "2851965", "nombre": "CAROLINA 1 AL 6", "solicitante": "Aguirre Fuentes Eduardo Omar", "region": "REGIÓN DE ATACAMA", "provincia": "Provincia de Copiapó", "comuna": null, "superficie_ha": 42.0, "datum_original": "PSAD56", "huso": 19, "epsg_origen": 24879, "tipo_publicacion": "mensura", "fuente_pdf": "http://www.diariooficial.interior.gob.cl/publicaciones/2026/08/12/44523/07/2851965.pdf", "archivo": "gm_mensura_2851965.pdf", "fecha": "12-08-2026", "edicion": "44523" }, "geometry": { "type": "Polygon", "coordinates": [ [ [ -70.115889573277414, -27.937458959843774 ], [ -70.108775595695874, -27.937516425423251 ], [ -70.108830888160156, -27.942931831958894 ], [ -70.115945220322914, -27.942874353315986 ], [ -70.115889573277414, -27.937458959843774 ] ] ] } },
{ "type": "Feature", "properties": { "cve": "2851966", "nombre": "LA PORFIADA  1 AL 10", "solicitante": "Aguirre Fuentes Eduardo Omar y otro", "region": "REGIÓN DE ATACAMA", "provincia": "Provincia de Copiapó", "comuna": null, "superficie_ha": 100.0, "datum_original": "PSAD56", "huso": 19, "epsg_origen": 24879, "tipo_publicacion": "mensura", "fuente_pdf": "http://www.diariooficial.interior.gob.cl/publicaciones/2026/08/12/44523/07/2851966.pdf", "archivo": "gm_mensura_2851966.pdf", "fecha": "12-08-2026", "edicion": "44523" }, "geometry": { "type": "Polygon", "coordinates": [ [ [ -69.928678259216255, -27.406939046401384 ], [ -69.918563801819374, -27.407006025783861 ], [ -69.91863845747514, -27.416032930124132 ], [ -69.92875373663135, -27.415965925030363 ], [ -69.928678259216255, -27.406939046401384 ] ] ] } },
{ "type": "Feature", "properties": { "cve": "2851967", "nombre": "MANTO  1 AL 8", "solicitante": "Aguirre Fuentes Eduardo Omar", "region": "REGIÓN DE ATACAMA", "provincia": "Provincia de Copiapó", "comuna": null, "superficie_ha": 48.0, "datum_original": "PSAD56", "huso": 19, "epsg_origen": 24879, "tipo_publicacion": "mensura", "fuente_pdf": "http://www.diariooficial.interior.gob.cl/publicaciones/2026/08/12/44523/07/2851967.pdf", "archivo": "gm_mensura_2851967.pdf", "fecha": "12-08-2026", "edicion": "44523" }, "geometry": { "type": "Polygon", "coordinates": [ [ [ -70.512047074984082, -27.702619570708087 ], [ -70.505963450878966, -27.702685874076742 ], [ -70.506062594615202, -27.709905515702655 ], [ -70.512146618858949, -27.709839192125518 ], [ -70.512047074984082, -27.702619570708087 ] ] ] } },
{ "type": "Feature", "properties": { "cve": "2851968", "nombre": "MONSE 1 AL 6", "solicitante": "Aguirre Fuentes Eduardo Omar", "region": "REGIÓN DE ATACAMA", "provincia": "Provincia de Copiapó", "comuna": null, "superficie_ha": 48.0, "datum_original": "PSAD56", "huso": 19, "epsg_origen": 24879, "tipo_publicacion": "mensura", "fuente_pdf": "http://www.diariooficial.interior.gob.cl/publicaciones/2026/08/12/44523/07/2851968.pdf", "archivo": "gm_mensura_2851968.pdf", "fecha": "12-08-2026", "edicion": "44523" }, "geometry": { "type": "Polygon", "coordinates": [ [ [ -69.93408629689192, -27.416146962804419 ], [ -69.925994075404333, -27.416200935324273 ], [ -69.926039244603388, -27.42161706080957 ], [ -69.934131860683294, -27.421563075861979 ], [ -69.93408629689192, -27.416146962804419 ] ] ] } },
{ "type": "Feature", "properties": { "cve": "2851881", "nombre": "NEGRO 2 1 AL 28", "solicitante": "Sociedad San Enrique S.A.", "region": "REGIÓN DE ATACAMA", "provincia": "Provincia de Copiapó", "comuna": null, "superficie_ha": 280.0, "datum_original": "WGS84", "huso": 19, "epsg_origen": 32719, "tipo_publicacion": "mensura", "fuente_pdf": "http://www.diariooficial.interior.gob.cl/publicaciones/2026/08/12/44523/07/2851881.pdf", "archivo": "gm_mensura_2851881.pdf", "fecha": "12-08-2026", "edicion": "44523" }, "geometry": { "type": "Polygon", "coordinates": [ [ [ -70.451858034417796, -27.968846606207151 ], [ -70.423397470262358, -27.969144021691218 ], [ -70.423515952288, -27.978168556650079 ], [ -70.451978883460356, -27.977871028584026 ], [ -70.451858034417796, -27.968846606207151 ] ] ] } },
{ "type": "Feature", "properties": { "cve": "2851882", "nombre": "NEGRO 5 1 AL 30", "solicitante": "Sociedad San Enrique S.A. Cerrada", "region": "REGIÓN DE ATACAMA", "provincia": "Provincia de Copiapó", "comuna": null, "superficie_ha": 270.0, "datum_original": "WGS84", "huso": 19, "epsg_origen": 32719, "tipo_publicacion": "mensura", "fuente_pdf": "http://www.diariooficial.interior.gob.cl/publicaciones/2026/08/12/44523/07/2851882.pdf", "archivo": "gm_mensura_2851882.pdf", "fecha": "12-08-2026", "edicion": "44523" }, "geometry": { "type": "Polygon", "coordinates": [ [ [ -70.454011933285855, -27.977849551351603 ], [ -70.423515952288, -27.978168556650079 ], [ -70.423622633021154, -27.986290627591078 ], [ -70.454120897497916, -27.985971513637971 ], [ -70.454011933285855, -27.977849551351603 ] ] ] } },
{ "type": "Feature", "properties": { "cve": "2851969", "nombre": "RECUPERADA 1 al 10", "solicitante": "Cisterna Piazzoli René Edgardo", "region": "REGIÓN DE ATACAMA", "provincia": "Provincia de Copiapó", "comuna": null, "superficie_ha": 100.0, "datum_original": "PSAD56", "huso": 19, "epsg_origen": 24879, "tipo_publicacion": "mensura", "fuente_pdf": "http://www.diariooficial.interior.gob.cl/publicaciones/2026/08/12/44523/07/2851969.pdf", "archivo": "gm_mensura_2851969.pdf", "fecha": "12-08-2026", "edicion": "44523" }, "geometry": { "type": "Polygon", "coordinates": [ [ [ -70.337201704046421, -27.417377229409354 ], [ -70.327087720516971, -27.417473863591493 ], [ -70.327195621887043, -27.426499487549517 ], [ -70.337310427157917, -27.426402816287464 ], [ -70.337201704046421, -27.417377229409354 ] ] ] } },
{ "type": "Feature", "properties": { "cve": "2852086", "nombre": "HWZC 1, 1 AL 14", "solicitante": "Sociedad Minera El Águila SpA", "region": "REGIÓN DE ATACAMA", "provincia": "Provincia de Huasco", "comuna": null, "superficie_ha": 98.0, "datum_original": "PSAD56", "huso": 19, "epsg_origen": 24879, "tipo_publicacion": "mensura", "fuente_pdf": "http://www.diariooficial.interior.gob.cl/publicaciones/2026/08/12/44523/07/2852086.pdf", "archivo": "gm_mensura_2852086.pdf", "fecha": "12-08-2026", "edicion": "44523" }, "geometry": { "type": "Polygon", "coordinates": [ [ [ -71.256252516493205, -28.514509048083994 ], [ -71.259691949605795, -28.508135935155423 ], [ -71.252544255589243, -28.508254642037347 ], [ -71.252812690829188, -28.520882091678107 ], [ -71.259961234870289, -28.520763322702777 ], [ -71.256252516493205, -28.514509048083994 ] ] ] } },
{ "type": "Feature", "properties": { "cve": "2851947", "nombre": "PACUL DORADO 1 AL 20", "solicitante": "Fredes Varas Alfonso Patricio", "region": "REGIÓN DE ATACAMA", "provincia": "Provincia de Huasco", "comuna": null, "superficie_ha": 100.0, "datum_original": "WGS84", "huso": 19, "epsg_origen": 32719, "tipo_publicacion": "mensura", "fuente_pdf": "http://www.diariooficial.interior.gob.cl/publicaciones/2026/08/12/44523/07/2851947.pdf", "archivo": "gm_mensura_2851947.pdf", "fecha": "12-08-2026", "edicion": "44523" }, "geometry": { "type": "Polygon", "coordinates": [ [ [ -71.003625783619128, -28.943691495951235 ], [ -70.993370651169471, -28.943843828593376 ], [ -70.993543428839345, -28.952864382716211 ], [ -71.003799448718027, -28.952711993711794 ], [ -71.003625783619128, -28.943691495951235 ] ] ] } },
{ "type": "Feature", "properties": { "cve": "2852080", "nombre": "WH 1, 1 AL 20", "solicitante": "Sociedad Minera La Frontera SpA", "region": "REGIÓN DE ATACAMA", "provincia": "Provincia de Huasco", "comuna": null, "superficie_ha": 100.0, "datum_original": "PSAD56", "huso": 19, "epsg_origen": 24879, "tipo_publicacion": "mensura", "fuente_pdf": "http://www.diariooficial.interior.gob.cl/publicaciones/2026/08/12/44523/07/2852080.pdf", "archivo": "gm_mensura_2852080.pdf", "fecha": "12-08-2026", "edicion": "44523" }, "geometry": { "type": "Polygon", "coordinates": [ [ [ -69.712951421380396, -28.63607973425135 ], [ -69.718035956399575, -28.631539858073399 ], [ -69.707805881850206, -28.63159366855448 ], [ -69.707866448758864, -28.640619424357894 ], [ -69.718097398513095, -28.640565593814983 ], [ -69.712951421380396, -28.63607973425135 ] ] ] } },
{ "type": "Feature", "properties": { "cve": "2852104", "nombre": "KARLA DOS 1 AL 16", "solicitante": "Fajardo Muñoz Vladimir Honorindo", "region": "REGIÓN DE COQUIMBO", "provincia": "Provincia de Elqui", "comuna": null, "superficie_ha": 112.0, "datum_original": "PSAD56", "huso": 19, "epsg_origen": 24879, "tipo_publicacion": "mensura", "fuente_pdf": "http://www.diariooficial.interior.gob.cl/publicaciones/2026/08/12/44523/07/2852104.pdf", "archivo": "gm_mensura_2852104.pdf", "fecha": "12-08-2026", "edicion": "44523" }, "geometry": { "type": "Polygon", "coordinates": [ [ [ -71.162537812827679, -30.039612177942505 ], [ -71.145953706258041, -30.039883857888857 ], [ -71.146089815713779, -30.046196580700762 ], [ -71.162674972157376, -30.045924832023132 ], [ -71.162537812827679, -30.039612177942505 ] ] ] } },
{ "type": "Feature", "properties": { "cve": "2851868", "nombre": "LA TESORO 1/10", "solicitante": "Godoy Godoy Enrique de los Ángeles", "region": "REGIÓN DE COQUIMBO", "provincia": "Provincia de Elqui", "comuna": "La Serena", "superficie_ha": 10.0, "datum_original": "PSAD56", "huso": 19, "epsg_origen": 24879, "tipo_publicacion": "mensura", "fuente_pdf": "http://www.diariooficial.interior.gob.cl/publicaciones/2026/08/12/44523/07/2851868.pdf", "archivo": "gm_mensura_2851868.pdf", "fecha": "12-08-2026", "edicion": "44523" }, "geometry": { "type": "Polygon", "coordinates": [ [ [ -71.087166783739775, -30.08458431205052 ], [ -71.08815642446271, -30.082313219955161 ], [ -71.086082433528418, -30.082346164291444 ], [ -71.086177100547815, -30.086855398098962 ], [ -71.088251185433748, -30.086822447814505 ], [ -71.087166783739775, -30.08458431205052 ] ] ] } },
{ "type": "Feature", "properties": { "cve": "2851870", "nombre": "MINA ARENILLA 1 AL 20", "solicitante": "Compañía Minera Yor Andacollo SpA", "region": "REGIÓN DE COQUIMBO", "provincia": "Provincia de Elqui", "comuna": "La Serena", "superficie_ha": 20.0, "datum_original": "PSAD56", "huso": 19, "epsg_origen": 24879, "tipo_publicacion": "mensura", "fuente_pdf": "http://www.diariooficial.interior.gob.cl/publicaciones/2026/08/12/44523/07/2851870.pdf", "archivo": "gm_mensura_2851870.pdf", "fecha": "12-08-2026", "edicion": "44523" }, "geometry": { "type": "Polygon", "coordinates": [ [ [ -71.084781571458109, -30.203073246525996 ], [ -71.086810517262307, -30.200785628322869 ], [ -71.082657570726369, -30.200851675369456 ], [ -71.082752533077553, -30.205360836978837 ], [ -71.086905668639517, -30.205294778035938 ], [ -71.084781571458109, -30.203073246525996 ] ] ] } },
{ "type": "Feature", "properties": { "cve": "2851869", "nombre": "MIRNA 1/6", "solicitante": "Yáñez Yánez Yordan Andrés", "region": "REGIÓN DE COQUIMBO", "provincia": "Provincia de Elqui", "comuna": "La Serena", "superficie_ha": 6.0, "datum_original": "PSAD56", "huso": 19, "epsg_origen": 24879, "tipo_publicacion": "mensura", "fuente_pdf": "http://www.diariooficial.interior.gob.cl/publicaciones/2026/08/12/44523/07/2851869.pdf", "archivo": "gm_mensura_2851869.pdf", "fecha": "12-08-2026", "edicion": "44523" }, "geometry": { "type": "Polygon", "coordinates": [ [ [ -71.120959554629806, -30.209529409171896 ], [ -71.122497649550169, -30.20860238714523 ], [ -71.119382766327703, -30.208652794079455 ], [ -71.119421430254221, -30.210456414396976 ], [ -71.122536370197608, -30.21040600383181 ], [ -71.120959554629806, -30.209529409171896 ] ] ] } },
{ "type": "Feature", "properties": { "cve": "2851731", "nombre": "CN-6", "solicitante": "Inversiones VerdeRoca SpA", "region": "REGIÓN DE LA ARAUCANÍA", "provincia": "Provincia de Cautín", "comuna": "Toltén", "superficie_ha": 300.0, "datum_original": "PSAD56", "huso": 18, "epsg_origen": 24878, "tipo_publicacion": "pedimento", "fuente_pdf": "http://www.diariooficial.interior.gob.cl/publicaciones/2026/08/12/44523/07/2851731.pdf", "archivo": "gm_pedimento_2851731.pdf", "fecha": "12-08-2026", "edicion": "44523" }, "geometry": { "type": "Polygon", "coordinates": [ [ [ -73.012647229490724, -39.231250820829196 ], [ -73.001068062601092, -39.231052627035147 ], [ -73.000300823997151, -39.25806896366155 ], [ -73.011884428095897, -39.258267347060702 ], [ -73.012647229490724, -39.231250820829196 ] ] ] } },
{ "type": "Feature", "properties": { "cve": "2851732", "nombre": "CN-7", "solicitante": "Inversiones VerdeRoca SpA", "region": "REGIÓN DE LA ARAUCANÍA", "provincia": "Provincia de Cautín", "comuna": "Toltén", "superficie_ha": 300.0, "datum_original": "PSAD56", "huso": 18, "epsg_origen": 24878, "tipo_publicacion": "pedimento", "fuente_pdf": "http://www.diariooficial.interior.gob.cl/publicaciones/2026/08/12/44523/07/2851732.pdf", "archivo": "gm_pedimento_2851732.pdf", "fecha": "12-08-2026", "edicion": "44523" }, "geometry": { "type": "Polygon", "coordinates": [ [ [ -73.010087045271206, -39.204177445928813 ], [ -72.998512342391919, -39.20397911183057 ], [ -72.997744862826863, -39.230995533009732 ], [ -73.009323996913736, -39.231194056885009 ], [ -73.010087045271206, -39.204177445928813 ] ] ] } },
{ "type": "Feature", "properties": { "cve": "2851728", "nombre": "TRES CRUCES NORTE 1", "solicitante": "Inversiones VerdeRoca SpA", "region": "REGIÓN DE LOS RÍOS", "provincia": "Provincia de Valdivia", "comuna": null, "superficie_ha": 300.0, "datum_original": "PSAD56", "huso": 18, "epsg_origen": 24878, "tipo_publicacion": "pedimento", "fuente_pdf": "http://www.diariooficial.interior.gob.cl/publicaciones/2026/08/12/44523/07/2851728.pdf", "archivo": "gm_pedimento_2851728.pdf", "fecha": "12-08-2026", "edicion": "44523" }, "geometry": { "type": "Polygon", "coordinates": [ [ [ -73.087835113562548, -39.412183632673326 ], [ -73.076225557373689, -39.411992180287136 ], [ -73.075482389908956, -39.439008886073552 ], [ -73.087096424264203, -39.439200521383199 ], [ -73.087835113562548, -39.412183632673326 ] ] ] } },
{ "type": "Feature", "properties": { "cve": "2851729", "nombre": "TRES CRUCES NORTE 2", "solicitante": "Inversiones VerdeRoca SpA", "region": "REGIÓN DE LOS RÍOS", "provincia": "Provincia de Valdivia", "comuna": null, "superficie_ha": 200.0, "datum_original": "PSAD56", "huso": 18, "epsg_origen": 24878, "tipo_publicacion": "pedimento", "fuente_pdf": "http://www.diariooficial.interior.gob.cl/publicaciones/2026/08/12/44523/07/2851729.pdf", "archivo": "gm_pedimento_2851729.pdf", "fecha": "12-08-2026", "edicion": "44523" }, "geometry": { "type": "Polygon", "coordinates": [ [ [ -73.099200152916524, -39.421379632905136 ], [ -73.087588994244328, -39.421189277612655 ], [ -73.087096424264203, -39.439200521383199 ], [ -73.098710569158698, -39.439390997903274 ], [ -73.099200152916524, -39.421379632905136 ] ] ] } },
{ "type": "Feature", "properties": { "cve": "2851730", "nombre": "TRES CRUCES NORTE 3", "solicitante": "Inversiones VerdeRoca SpA", "region": "REGIÓN DE LOS RÍOS", "provincia": "Provincia de Valdivia", "comuna": null, "superficie_ha": 200.0, "datum_original": "PSAD56", "huso": 18, "epsg_origen": 24878, "tipo_publicacion": "pedimento", "fuente_pdf": "http://www.diariooficial.interior.gob.cl/publicaciones/2026/08/12/44523/07/2851730.pdf", "archivo": "gm_pedimento_2851730.pdf", "fecha": "12-08-2026", "edicion": "44523" }, "geometry": { "type": "Polygon", "coordinates": [ [ [ -73.098710569158698, -39.439390997903274 ], [ -73.087096424264203, -39.439200521383199 ], [ -73.086603412127999, -39.457211703665749 ], [ -73.09822054592199, -39.457402301475021 ], [ -73.098710569158698, -39.439390997903274 ] ] ] } }
]
}
