{
"type": "FeatureCollection",
"name": "boletin_mineria_20260924",
"crs": { "type": "name", "properties": { "name": "urn:ogc:def:crs:OGC:1.3:CRS84" } },
"features": [
{ "type": "Feature", "properties": { "cve": "2874783", "nombre": "DEIDAD 1 AL 10", "solicitante": "Robles Alfaro Luis Eduardo", "region": "REGIÓN DE ATACAMA", "provincia": "Provincia de Copiapó", "comuna": "Copiapó", "superficie_ha": 50.0, "datum_original": "PSAD56", "huso": 19, "epsg_origen": 24879, "tipo_publicacion": "manifestacion", "fuente_pdf": "http://www.diariooficial.interior.gob.cl/publicaciones/2026/09/24/44557/07/2874783.pdf", "archivo": "gm_manifestacion_2874783.pdf", "fecha": "24-09-2026", "edicion": "44557" }, "geometry": { "type": "Polygon", "coordinates": [ [ [ -69.755487994357608, -27.049434683093708 ], [ -69.745405336577662, -27.049488451669642 ], [ -69.745435164123506, -27.054002336547288 ], [ -69.755518225270137, -27.053948557557447 ], [ -69.755487994357608, -27.049434683093708 ] ] ] } },
{ "type": "Feature", "properties": { "cve": "2874760", "nombre": "PALENQUE 11, 1 AL 60", "solicitante": "Southern Copper Corporation Agencia en Chile", "region": "REGIÓN DE ATACAMA", "provincia": "Provincia de Chañaral", "comuna": "Diego de Almagro", "superficie_ha": 300.0, "datum_original": "PSAD56", "huso": 19, "epsg_origen": 24879, "tipo_publicacion": "manifestacion", "fuente_pdf": "http://www.diariooficial.interior.gob.cl/publicaciones/2026/09/24/44557/07/2874760.pdf", "archivo": "gm_manifestacion_2874760.pdf", "fecha": "24-09-2026", "edicion": "44557" }, "geometry": { "type": "Polygon", "coordinates": [ [ [ -69.844420735583583, -26.450711444803261 ], [ -69.834390972802339, -26.450770357549064 ], [ -69.83458628062084, -26.477855346735335 ], [ -69.844618390415647, -26.477796364434102 ], [ -69.844420735583583, -26.450711444803261 ] ] ] } },
{ "type": "Feature", "properties": { "cve": "2874761", "nombre": "PALENQUE 12, 1 AL 60", "solicitante": "Southern Copper Corporation Agencia en Chile", "region": "REGIÓN DE ATACAMA", "provincia": "Provincia de Chañaral", "comuna": "Diego de Almagro", "superficie_ha": 300.0, "datum_original": "PSAD56", "huso": 19, "epsg_origen": 24879, "tipo_publicacion": "manifestacion", "fuente_pdf": "http://www.diariooficial.interior.gob.cl/publicaciones/2026/09/24/44557/07/2874761.pdf", "archivo": "gm_manifestacion_2874761.pdf", "fecha": "24-09-2026", "edicion": "44557" }, "geometry": { "type": "Polygon", "coordinates": [ [ [ -69.894778464699741, -26.477490884353298 ], [ -69.884746514367762, -26.477553389484218 ], [ -69.884953850627966, -26.504637917488267 ], [ -69.894988151140723, -26.504575338614366 ], [ -69.894778464699741, -26.477490884353298 ] ] ] } },
{ "type": "Feature", "properties": { "cve": "2874762", "nombre": "PALENQUE 16, 1 AL  60", "solicitante": "Southern Copper Corporation Agencia en Chile", "region": "REGIÓN DE ATACAMA", "provincia": "Provincia de Chañaral", "comuna": "Diego de Almagro", "superficie_ha": 300.0, "datum_original": "PSAD56", "huso": 19, "epsg_origen": 24879, "tipo_publicacion": "manifestacion", "fuente_pdf": "http://www.diariooficial.interior.gob.cl/publicaciones/2026/09/24/44557/07/2874762.pdf", "archivo": "gm_manifestacion_2874762.pdf", "fecha": "24-09-2026", "edicion": "44557" }, "geometry": { "type": "Polygon", "coordinates": [ [ [ -69.854650469057603, -26.47773667754991 ], [ -69.844618390415647, -26.477796364434102 ], [ -69.844816325625729, -26.504881179098547 ], [ -69.854850754578507, -26.504821421796017 ], [ -69.854650469057603, -26.47773667754991 ] ] ] } },
{ "type": "Feature", "properties": { "cve": "2874763", "nombre": "PALENQUE 17, 1 AL 60", "solicitante": "Southern Copper Corporation Agencia en Chile", "region": "REGIÓN DE ATACAMA", "provincia": "Provincia de Chañaral", "comuna": "Diego de Almagro", "superficie_ha": 300.0, "datum_original": "PSAD56", "huso": 19, "epsg_origen": 24879, "tipo_publicacion": "manifestacion", "fuente_pdf": "http://www.diariooficial.interior.gob.cl/publicaciones/2026/09/24/44557/07/2874763.pdf", "archivo": "gm_manifestacion_2874763.pdf", "fecha": "24-09-2026", "edicion": "44557" }, "geometry": { "type": "Polygon", "coordinates": [ [ [ -69.844618390415647, -26.477796364434102 ], [ -69.83458628062084, -26.477855346735335 ], [ -69.834781865488495, -26.504940230986932 ], [ -69.844816325625729, -26.504881179098547 ], [ -69.844618390415647, -26.477796364434102 ] ] ] } },
{ "type": "Feature", "properties": { "cve": "2874764", "nombre": "PALENQUE 18, 1 AL 60", "solicitante": "Southern Copper Corporation Agencia en Chile", "region": "REGIÓN DE ATACAMA", "provincia": "Provincia de Chañaral", "comuna": "Diego de Almagro", "superficie_ha": 300.0, "datum_original": "PSAD56", "huso": 19, "epsg_origen": 24879, "tipo_publicacion": "manifestacion", "fuente_pdf": "http://www.diariooficial.interior.gob.cl/publicaciones/2026/09/24/44557/07/2874764.pdf", "archivo": "gm_manifestacion_2874764.pdf", "fecha": "24-09-2026", "edicion": "44557" }, "geometry": { "type": "Polygon", "coordinates": [ [ [ -69.864817574799261, -26.495732746430313 ], [ -69.834716639732036, -26.495911947900446 ], [ -69.834781865488495, -26.504940230986932 ], [ -69.864885151976637, -26.504760959087754 ], [ -69.864817574799261, -26.495732746430313 ] ] ] } },
{ "type": "Feature", "properties": { "cve": "2874765", "nombre": "PALENQUE 19, 1 AL 60", "solicitante": "Southern Copper Corporation Agencia en Chile", "region": "REGIÓN DE ATACAMA", "provincia": "Provincia de Chañaral", "comuna": "Diego de Almagro", "superficie_ha": 300.0, "datum_original": "PSAD56", "huso": 19, "epsg_origen": 24879, "tipo_publicacion": "manifestacion", "fuente_pdf": "http://www.diariooficial.interior.gob.cl/publicaciones/2026/09/24/44557/07/2874765.pdf", "archivo": "gm_manifestacion_2874765.pdf", "fecha": "24-09-2026", "edicion": "44557" }, "geometry": { "type": "Polygon", "coordinates": [ [ [ -69.864885151976637, -26.504760959087754 ], [ -69.834781865488495, -26.504940230986932 ], [ -69.834847122059386, -26.513968502405653 ], [ -69.864952761079167, -26.513789160066739 ], [ -69.864885151976637, -26.504760959087754 ] ] ] } },
{ "type": "Feature", "properties": { "cve": "2874766", "nombre": "PALENQUE 21, 1 AL 60", "solicitante": "Southern Copper Corporation Agencia en Chile", "region": "REGIÓN DE ATACAMA", "provincia": "Provincia de Chañaral", "comuna": "Diego de Almagro", "superficie_ha": 300.0, "datum_original": "PSAD56", "huso": 19, "epsg_origen": 24879, "tipo_publicacion": "manifestacion", "fuente_pdf": "http://www.diariooficial.interior.gob.cl/publicaciones/2026/09/24/44557/07/2874766.pdf", "archivo": "gm_manifestacion_2874766.pdf", "fecha": "24-09-2026", "edicion": "44557" }, "geometry": { "type": "Polygon", "coordinates": [ [ [ -69.854917579514463, -26.513849646532055 ], [ -69.824811846909753, -26.514026871797181 ], [ -69.824876349736925, -26.523055154474481 ], [ -69.854984436015982, -26.522877859590462 ], [ -69.854917579514463, -26.513849646532055 ] ] ] } },
{ "type": "Feature", "properties": { "cve": "2874767", "nombre": "PALENQUE 24, 1 AL 60", "solicitante": "Southern Copper Corporation Agencia en Chile", "region": "REGIÓN DE ATACAMA", "provincia": "Provincia de Chañaral", "comuna": "Diego de Almagro", "superficie_ha": 300.0, "datum_original": "PSAD56", "huso": 19, "epsg_origen": 24879, "tipo_publicacion": "manifestacion", "fuente_pdf": "http://www.diariooficial.interior.gob.cl/publicaciones/2026/09/24/44557/07/2874767.pdf", "archivo": "gm_manifestacion_2874767.pdf", "fecha": "24-09-2026", "edicion": "44557" }, "geometry": { "type": "Polygon", "coordinates": [ [ [ -69.845014541497989, -26.531965888721462 ], [ -69.834977727686152, -26.532025010228743 ], [ -69.8351738674952, -26.55910968438582 ], [ -69.845213038317226, -26.559050493227801 ], [ -69.845014541497989, -26.531965888721462 ] ] ] } },
{ "type": "Feature", "properties": { "cve": "2874758", "nombre": "PALENQUE 5, 1 AL 60", "solicitante": "Southern Copper Corporation Agencia en Chile", "region": "REGIÓN DE ATACAMA", "provincia": "Provincia de Chañaral", "comuna": "Diego de Almagro", "superficie_ha": 300.0, "datum_original": "PSAD56", "huso": 19, "epsg_origen": 24879, "tipo_publicacion": "manifestacion", "fuente_pdf": "http://www.diariooficial.interior.gob.cl/publicaciones/2026/09/24/44557/07/2874758.pdf", "archivo": "gm_manifestacion_2874758.pdf", "fecha": "24-09-2026", "edicion": "44557" }, "geometry": { "type": "Polygon", "coordinates": [ [ [ -69.844223360845831, -26.423626420281231 ], [ -69.834195941752739, -26.423685263503256 ], [ -69.834390972802339, -26.450770357549064 ], [ -69.844420735583583, -26.450711444803261 ], [ -69.844223360845831, -26.423626420281231 ] ] ] } },
{ "type": "Feature", "properties": { "cve": "2874759", "nombre": "PALENQUE 6, 1 AL 60", "solicitante": "Southern Copper Corporation Agencia en Chile", "region": "REGIÓN DE ATACAMA", "provincia": "Provincia de Chañaral", "comuna": "Diego de Almagro", "superficie_ha": 300.0, "datum_original": "PSAD56", "huso": 19, "epsg_origen": 24879, "tipo_publicacion": "manifestacion", "fuente_pdf": "http://www.diariooficial.interior.gob.cl/publicaciones/2026/09/24/44557/07/2874759.pdf", "archivo": "gm_manifestacion_2874759.pdf", "fecha": "24-09-2026", "edicion": "44557" }, "geometry": { "type": "Polygon", "coordinates": [ [ [ -69.834195941752739, -26.423685263503256 ], [ -69.824168491938892, -26.423743403795289 ], [ -69.824361179269275, -26.450828566534419 ], [ -69.834390972802339, -26.450770357549064 ], [ -69.834195941752739, -26.423685263503256 ] ] ] } },
{ "type": "Feature", "properties": { "cve": "2874551", "nombre": "ANTONIA 1 AL 21", "solicitante": "Pacheco Pacheco Luis Alberto", "region": "REGIÓN DE COQUIMBO", "provincia": "Provincia de Elqui", "comuna": null, "superficie_ha": 84.0, "datum_original": "WGS84", "huso": 19, "epsg_origen": 32719, "tipo_publicacion": "manifestacion", "fuente_pdf": "http://www.diariooficial.interior.gob.cl/publicaciones/2026/09/24/44557/07/2874551.pdf", "archivo": "gm_manifestacion_2874551.pdf", "fecha": "24-09-2026", "edicion": "44557" }, "geometry": { "type": "Polygon", "coordinates": [ [ [ -71.188935755363431, -30.044180645720985 ], [ -71.167168395623847, -30.044541256712861 ], [ -71.167246959620599, -30.048148483834439 ], [ -71.18901510693992, -30.04778782072065 ], [ -71.188935755363431, -30.044180645720985 ] ] ] } },
{ "type": "Feature", "properties": { "cve": "2874550", "nombre": "GABY 1 AL 8", "solicitante": "Pacheco Pacheco Luis Alberto", "region": "REGIÓN DE COQUIMBO", "provincia": "Provincia de Elqui", "comuna": null, "superficie_ha": 48.0, "datum_original": "WGS84", "huso": 19, "epsg_origen": 32719, "tipo_publicacion": "manifestacion", "fuente_pdf": "http://www.diariooficial.interior.gob.cl/publicaciones/2026/09/24/44557/07/2874550.pdf", "archivo": "gm_manifestacion_2874550.pdf", "fecha": "24-09-2026", "edicion": "44557" }, "geometry": { "type": "Polygon", "coordinates": [ [ [ -71.165927685520913, -30.058995787248264 ], [ -71.157634043347812, -30.059132197262898 ], [ -71.157751445310936, -30.064543059253715 ], [ -71.166045537902107, -30.064406619672518 ], [ -71.165927685520913, -30.058995787248264 ] ] ] } },
{ "type": "Feature", "properties": { "cve": "2874547", "nombre": "JULIAN 1 AL 10", "solicitante": "Pacheco Pacheco Luis Alberto", "region": "REGIÓN DE COQUIMBO", "provincia": "Provincia de Elqui", "comuna": null, "superficie_ha": 60.0, "datum_original": "WGS84", "huso": 19, "epsg_origen": 32719, "tipo_publicacion": "manifestacion", "fuente_pdf": "http://www.diariooficial.interior.gob.cl/publicaciones/2026/09/24/44557/07/2874547.pdf", "archivo": "gm_manifestacion_2874547.pdf", "fecha": "24-09-2026", "edicion": "44557" }, "geometry": { "type": "Polygon", "coordinates": [ [ [ -71.175602735205459, -30.050897277015974 ], [ -71.169383054958615, -30.051000066203187 ], [ -71.169579743389846, -30.060018107837376 ], [ -71.175799986464696, -30.059915281510737 ], [ -71.175602735205459, -30.050897277015974 ] ] ] } },
{ "type": "Feature", "properties": { "cve": "2874549", "nombre": "LUCRECIA 1 AL 11", "solicitante": "Pacheco Pacheco Luis Alberto", "region": "REGIÓN DE COQUIMBO", "provincia": "Provincia de Elqui", "comuna": null, "superficie_ha": 110.0, "datum_original": "WGS84", "huso": 19, "epsg_origen": 32719, "tipo_publicacion": "manifestacion", "fuente_pdf": "http://www.diariooficial.interior.gob.cl/publicaciones/2026/09/24/44557/07/2874549.pdf", "archivo": "gm_manifestacion_2874549.pdf", "fecha": "24-09-2026", "edicion": "44557" }, "geometry": { "type": "Polygon", "coordinates": [ [ [ -71.198403968064156, -30.050337512105916 ], [ -71.187001433938349, -30.050527708204388 ], [ -71.187199715219819, -30.059545644606001 ], [ -71.198603281114629, -30.059355379786766 ], [ -71.198403968064156, -30.050337512105916 ] ] ] } },
{ "type": "Feature", "properties": { "cve": "2874548", "nombre": "MARTIN 1 AL 31", "solicitante": "Pacheco Pacheco Luis Alberto", "region": "REGIÓN DE COQUIMBO", "provincia": "Provincia de Elqui", "comuna": null, "superficie_ha": 217.0, "datum_original": "WGS84", "huso": 19, "epsg_origen": 32719, "tipo_publicacion": "manifestacion", "fuente_pdf": "http://www.diariooficial.interior.gob.cl/publicaciones/2026/09/24/44557/07/2874548.pdf", "archivo": "gm_manifestacion_2874548.pdf", "fecha": "24-09-2026", "edicion": "44557" }, "geometry": { "type": "Polygon", "coordinates": [ [ [ -71.198583345744282, -30.058453593629665 ], [ -71.166446036267487, -30.058987244272753 ], [ -71.166583566671363, -30.065299879466689 ], [ -71.198722912312107, -30.064766093877804 ], [ -71.198583345744282, -30.058453593629665 ] ] ] } },
{ "type": "Feature", "properties": { "cve": "2874774", "nombre": "DONNA 1", "solicitante": "Colbún S.A.", "region": "REGIÓN DE VALPARAÍSO", "provincia": "Provincia de Valparaíso", "comuna": "Concón", "superficie_ha": 300.0, "datum_original": "PSAD56", "huso": 19, "epsg_origen": 24879, "tipo_publicacion": "manifestacion", "fuente_pdf": "http://www.diariooficial.interior.gob.cl/publicaciones/2026/09/24/44557/07/2874774.pdf", "archivo": "gm_manifestacion_2874774.pdf", "fecha": "24-09-2026", "edicion": "44557" }, "geometry": { "type": "Polygon", "coordinates": [ [ [ -71.486431226256286, -32.930935537611575 ], [ -71.454371731134017, -32.931569582401522 ], [ -71.454620782433196, -32.9405816962947 ], [ -71.486683522592742, -32.93994743413041 ], [ -71.486431226256286, -32.930935537611575 ] ] ] } },
{ "type": "Feature", "properties": { "cve": "2874739", "nombre": "SAMO D, 1 AL 81", "solicitante": "Pruneda Flores Alyson Jenyffer Jesús", "region": "REGIÓN DE COQUIMBO", "provincia": "Provincia de Limarí", "comuna": null, "superficie_ha": 81.0, "datum_original": "PSAD56", "huso": 19, "epsg_origen": 24879, "tipo_publicacion": "mensura", "fuente_pdf": "http://www.diariooficial.interior.gob.cl/publicaciones/2026/09/24/44557/07/2874739.pdf", "archivo": "gm_mensura_2874739.pdf", "fecha": "24-09-2026", "edicion": "44557" }, "geometry": { "type": "Polygon", "coordinates": [ [ [ -71.141310670369478, -30.514739127356517 ], [ -71.131936966551891, -30.51489285488606 ], [ -71.132114167823346, -30.523008692486506 ], [ -71.14148864931137, -30.5228549154272 ], [ -71.141310670369478, -30.514739127356517 ] ] ] } },
{ "type": "Feature", "properties": { "cve": "2874777", "nombre": "TAMANGO 2 1/60", "solicitante": "Grenergy Renovables Pacific SpA", "region": "REGIÓN DEL MAULE", "provincia": "Provincia de Linares", "comuna": null, "superficie_ha": 60.0, "datum_original": "PSAD56", "huso": 19, "epsg_origen": 24879, "tipo_publicacion": "mensura", "fuente_pdf": "http://www.diariooficial.interior.gob.cl/publicaciones/2026/09/24/44557/07/2874777.pdf", "archivo": "gm_mensura_2874777.pdf", "fecha": "24-09-2026", "edicion": "44557" }, "geometry": { "type": "Polygon", "coordinates": [ [ [ -71.926942068175677, -36.023751468132211 ], [ -71.920291510626711, -36.023913723394834 ], [ -71.920624104814166, -36.03291790757514 ], [ -71.927275417165447, -36.032755599023922 ], [ -71.926942068175677, -36.023751468132211 ] ] ] } },
{ "type": "Feature", "properties": { "cve": "2874709", "nombre": "GRACIA 10", "solicitante": "La Herradura Minerals SpA", "region": "REGIÓN DE COQUIMBO", "provincia": "Provincia de Elqui", "comuna": "Coquimbo", "superficie_ha": 300.0, "datum_original": "PSAD56", "huso": 19, "epsg_origen": 24879, "tipo_publicacion": "pedimento", "fuente_pdf": "http://www.diariooficial.interior.gob.cl/publicaciones/2026/09/24/44557/07/2874709.pdf", "archivo": "gm_pedimento_2874709.pdf", "fecha": "24-09-2026", "edicion": "44557" }, "geometry": { "type": "Polygon", "coordinates": [ [ [ -71.127935140705148, -30.036117032214559 ], [ -71.117570229715426, -30.036284333168386 ], [ -71.118146060884214, -30.063339328349262 ], [ -71.128513785230979, -30.063171845949515 ], [ -71.127935140705148, -30.036117032214559 ] ] ] } },
{ "type": "Feature", "properties": { "cve": "2874710", "nombre": "GRACIA 11", "solicitante": "La Herradura Minerals SpA", "region": "REGIÓN DE COQUIMBO", "provincia": "Provincia de Elqui", "comuna": "Coquimbo", "superficie_ha": 100.0, "datum_original": "PSAD56", "huso": 19, "epsg_origen": 24879, "tipo_publicacion": "pedimento", "fuente_pdf": "http://www.diariooficial.interior.gob.cl/publicaciones/2026/09/24/44557/07/2874710.pdf", "archivo": "gm_pedimento_2874710.pdf", "fecha": "24-09-2026", "edicion": "44557" }, "geometry": { "type": "Polygon", "coordinates": [ [ [ -71.117570229715426, -30.036284333168386 ], [ -71.107205231768688, -30.036450818428335 ], [ -71.107396151096296, -30.045469223916335 ], [ -71.117762086437111, -30.045302678479739 ], [ -71.117570229715426, -30.036284333168386 ] ] ] } },
{ "type": "Feature", "properties": { "cve": "2874711", "nombre": "GRACIA 12", "solicitante": "La Herradura Minerals SpA", "region": "REGIÓN DE COQUIMBO", "provincia": "Provincia de Elqui", "comuna": "Coquimbo", "superficie_ha": 100.0, "datum_original": "PSAD56", "huso": 19, "epsg_origen": 24879, "tipo_publicacion": "pedimento", "fuente_pdf": "http://www.diariooficial.interior.gob.cl/publicaciones/2026/09/24/44557/07/2874711.pdf", "archivo": "gm_pedimento_2874711.pdf", "fecha": "24-09-2026", "edicion": "44557" }, "geometry": { "type": "Polygon", "coordinates": [ [ [ -71.117954030149036, -30.054321010207655 ], [ -71.107587156989595, -30.054487615831537 ], [ -71.107778249481427, -30.063505994171081 ], [ -71.118146060884214, -30.063339328349262 ], [ -71.117954030149036, -30.054321010207655 ] ] ] } },
{ "type": "Feature", "properties": { "cve": "2874712", "nombre": "GRACIA 13", "solicitante": "La Herradura Minerals SpA", "region": "REGIÓN DE COQUIMBO", "provincia": "Provincia de Elqui", "comuna": "Coquimbo", "superficie_ha": 300.0, "datum_original": "PSAD56", "huso": 19, "epsg_origen": 24879, "tipo_publicacion": "pedimento", "fuente_pdf": "http://www.diariooficial.interior.gob.cl/publicaciones/2026/09/24/44557/07/2874712.pdf", "archivo": "gm_pedimento_2874712.pdf", "fecha": "24-09-2026", "edicion": "44557" }, "geometry": { "type": "Polygon", "coordinates": [ [ [ -71.107205231768688, -30.036450818428335 ], [ -71.096840147289313, -30.036616487969955 ], [ -71.097410351447508, -30.06367184339047 ], [ -71.107778249481427, -30.063505994171081 ], [ -71.107205231768688, -30.036450818428335 ] ] ] } },
{ "type": "Feature", "properties": { "cve": "2874713", "nombre": "GRACIA 19", "solicitante": "La Herradura Minerals SpA", "region": "REGIÓN DE COQUIMBO", "provincia": "Provincia de Elqui", "comuna": "Coquimbo", "superficie_ha": 300.0, "datum_original": "PSAD56", "huso": 19, "epsg_origen": 24879, "tipo_publicacion": "pedimento", "fuente_pdf": "http://www.diariooficial.interior.gob.cl/publicaciones/2026/09/24/44557/07/2874713.pdf", "archivo": "gm_pedimento_2874713.pdf", "fecha": "24-09-2026", "edicion": "44557" }, "geometry": { "type": "Polygon", "coordinates": [ [ [ -71.138881422096858, -30.063003546996448 ], [ -71.128513785230979, -30.063171845949515 ], [ -71.129093217087132, -30.090226537286135 ], [ -71.13946367103415, -30.090058055906262 ], [ -71.138881422096858, -30.063003546996448 ] ] ] } },
{ "type": "Feature", "properties": { "cve": "2874714", "nombre": "GRACIA 22", "solicitante": "La Herradura Minerals SpA", "region": "REGIÓN DE COQUIMBO", "provincia": "Provincia de Elqui", "comuna": "Coquimbo", "superficie_ha": 300.0, "datum_original": "PSAD56", "huso": 19, "epsg_origen": 24879, "tipo_publicacion": "pedimento", "fuente_pdf": "http://www.diariooficial.interior.gob.cl/publicaciones/2026/09/24/44557/07/2874714.pdf", "archivo": "gm_pedimento_2874714.pdf", "fecha": "24-09-2026", "edicion": "44557" }, "geometry": { "type": "Polygon", "coordinates": [ [ [ -71.107778249481427, -30.063505994171081 ], [ -71.097410351447508, -30.06367184339047 ], [ -71.097981331464112, -30.090727076700389 ], [ -71.10835204687676, -30.090561047707777 ], [ -71.107778249481427, -30.063505994171081 ] ] ] } },
{ "type": "Feature", "properties": { "cve": "2874715", "nombre": "GRACIA 30", "solicitante": "La Herradura Minerals SpA", "region": "REGIÓN DE COQUIMBO", "provincia": "Provincia de Elqui", "comuna": "Coquimbo", "superficie_ha": 300.0, "datum_original": "PSAD56", "huso": 19, "epsg_origen": 24879, "tipo_publicacion": "pedimento", "fuente_pdf": "http://www.diariooficial.interior.gob.cl/publicaciones/2026/09/24/44557/07/2874715.pdf", "archivo": "gm_pedimento_2874715.pdf", "fecha": "24-09-2026", "edicion": "44557" }, "geometry": { "type": "Polygon", "coordinates": [ [ [ -71.118722675559567, -30.090394201228197 ], [ -71.10835204687676, -30.090561047707777 ], [ -71.108926624843178, -30.117615978962448 ], [ -71.11930007463431, -30.117448951729006 ], [ -71.118722675559567, -30.090394201228197 ] ] ] } },
{ "type": "Feature", "properties": { "cve": "2874716", "nombre": "GRACIA 31", "solicitante": "La Herradura Minerals SpA", "region": "REGIÓN DE COQUIMBO", "provincia": "Provincia de Elqui", "comuna": "Coquimbo", "superficie_ha": 100.0, "datum_original": "PSAD56", "huso": 19, "epsg_origen": 24879, "tipo_publicacion": "pedimento", "fuente_pdf": "http://www.diariooficial.interior.gob.cl/publicaciones/2026/09/24/44557/07/2874716.pdf", "archivo": "gm_pedimento_2874716.pdf", "fecha": "24-09-2026", "edicion": "44557" }, "geometry": { "type": "Polygon", "coordinates": [ [ [ -71.10835204687676, -30.090561047707777 ], [ -71.097981331464112, -30.090727076700389 ], [ -71.098171830702057, -30.099745460654887 ], [ -71.10854348609152, -30.099579371716647 ], [ -71.10835204687676, -30.090561047707777 ] ] ] } },
{ "type": "Feature", "properties": { "cve": "2874717", "nombre": "GRACIA 41", "solicitante": "La Herradura Minerals SpA", "region": "REGIÓN DE COQUIMBO", "provincia": "Provincia de Elqui", "comuna": "Coquimbo", "superficie_ha": 200.0, "datum_original": "PSAD56", "huso": 19, "epsg_origen": 24879, "tipo_publicacion": "pedimento", "fuente_pdf": "http://www.diariooficial.interior.gob.cl/publicaciones/2026/09/24/44557/07/2874717.pdf", "archivo": "gm_pedimento_2874717.pdf", "fecha": "24-09-2026", "edicion": "44557" }, "geometry": { "type": "Polygon", "coordinates": [ [ [ -71.097068135906099, -30.04743864478657 ], [ -71.076335459003516, -30.047767679276038 ], [ -71.076523668306777, -30.056786247276264 ], [ -71.09725822118007, -30.056457093881562 ], [ -71.097068135906099, -30.04743864478657 ] ] ] } },
{ "type": "Feature", "properties": { "cve": "2874718", "nombre": "GRACIA 42", "solicitante": "La Herradura Minerals SpA", "region": "REGIÓN DE COQUIMBO", "provincia": "Provincia de Elqui", "comuna": "Coquimbo", "superficie_ha": 200.0, "datum_original": "PSAD56", "huso": 19, "epsg_origen": 24879, "tipo_publicacion": "pedimento", "fuente_pdf": "http://www.diariooficial.interior.gob.cl/publicaciones/2026/09/24/44557/07/2874718.pdf", "archivo": "gm_pedimento_2874718.pdf", "fecha": "24-09-2026", "edicion": "44557" }, "geometry": { "type": "Polygon", "coordinates": [ [ [ -71.09725822118007, -30.056457093881562 ], [ -71.076523668306777, -30.056786247276264 ], [ -71.076711962940735, -30.065804801731947 ], [ -71.097448392634362, -30.065475529410968 ], [ -71.09725822118007, -30.056457093881562 ] ] ] } },
{ "type": "Feature", "properties": { "cve": "2874719", "nombre": "GRACIA 43", "solicitante": "La Herradura Minerals SpA", "region": "REGIÓN DE COQUIMBO", "provincia": "Provincia de Elqui", "comuna": "Coquimbo", "superficie_ha": 200.0, "datum_original": "PSAD56", "huso": 19, "epsg_origen": 24879, "tipo_publicacion": "pedimento", "fuente_pdf": "http://www.diariooficial.interior.gob.cl/publicaciones/2026/09/24/44557/07/2874719.pdf", "archivo": "gm_pedimento_2874719.pdf", "fecha": "24-09-2026", "edicion": "44557" }, "geometry": { "type": "Polygon", "coordinates": [ [ [ -71.097448392634362, -30.065475529410968 ], [ -71.076711962940735, -30.065804801731947 ], [ -71.076900342937762, -30.074823342640272 ], [ -71.097638650301661, -30.074493951371949 ], [ -71.097448392634362, -30.065475529410968 ] ] ] } },
{ "type": "Feature", "properties": { "cve": "2874720", "nombre": "GRACIA 44", "solicitante": "La Herradura Minerals SpA", "region": "REGIÓN DE COQUIMBO", "provincia": "Provincia de Elqui", "comuna": "Coquimbo", "superficie_ha": 200.0, "datum_original": "PSAD56", "huso": 19, "epsg_origen": 24879, "tipo_publicacion": "pedimento", "fuente_pdf": "http://www.diariooficial.interior.gob.cl/publicaciones/2026/09/24/44557/07/2874720.pdf", "archivo": "gm_pedimento_2874720.pdf", "fecha": "24-09-2026", "edicion": "44557" }, "geometry": { "type": "Polygon", "coordinates": [ [ [ -71.097638650301661, -30.074493951371949 ], [ -71.076900342937762, -30.074823342640272 ], [ -71.077088808330288, -30.083841869998459 ], [ -71.097828994214723, -30.083512359761723 ], [ -71.097638650301661, -30.074493951371949 ] ] ] } },
{ "type": "Feature", "properties": { "cve": "2874721", "nombre": "GRACIA 45", "solicitante": "La Herradura Minerals SpA", "region": "REGIÓN DE COQUIMBO", "provincia": "Provincia de Elqui", "comuna": "Coquimbo", "superficie_ha": 200.0, "datum_original": "PSAD56", "huso": 19, "epsg_origen": 24879, "tipo_publicacion": "pedimento", "fuente_pdf": "http://www.diariooficial.interior.gob.cl/publicaciones/2026/09/24/44557/07/2874721.pdf", "archivo": "gm_pedimento_2874721.pdf", "fecha": "24-09-2026", "edicion": "44557" }, "geometry": { "type": "Polygon", "coordinates": [ [ [ -71.097828994214723, -30.083512359761723 ], [ -71.087458944198985, -30.083677523529978 ], [ -71.087838011129421, -30.101714418879638 ], [ -71.098209940909101, -30.101549135816381 ], [ -71.097828994214723, -30.083512359761723 ] ] ] } },
{ "type": "Feature", "properties": { "cve": "2874722", "nombre": "GRACIA 46", "solicitante": "La Herradura Minerals SpA", "region": "REGIÓN DE COQUIMBO", "provincia": "Provincia de Elqui", "comuna": "Coquimbo", "superficie_ha": 200.0, "datum_original": "PSAD56", "huso": 19, "epsg_origen": 24879, "tipo_publicacion": "pedimento", "fuente_pdf": "http://www.diariooficial.interior.gob.cl/publicaciones/2026/09/24/44557/07/2874722.pdf", "archivo": "gm_pedimento_2874722.pdf", "fecha": "24-09-2026", "edicion": "44557" }, "geometry": { "type": "Polygon", "coordinates": [ [ [ -71.087458944198985, -30.083677523529978 ], [ -71.077088808330288, -30.083841869998459 ], [ -71.07746599543151, -30.101878884053182 ], [ -71.087838011129421, -30.101714418879638 ], [ -71.087458944198985, -30.083677523529978 ] ] ] } },
{ "type": "Feature", "properties": { "cve": "2874723", "nombre": "GRACIA 47", "solicitante": "La Herradura Minerals SpA", "region": "REGIÓN DE COQUIMBO", "provincia": "Provincia de Elqui", "comuna": "Coquimbo", "superficie_ha": 100.0, "datum_original": "PSAD56", "huso": 19, "epsg_origen": 24879, "tipo_publicacion": "pedimento", "fuente_pdf": "http://www.diariooficial.interior.gob.cl/publicaciones/2026/09/24/44557/07/2874723.pdf", "archivo": "gm_pedimento_2874723.pdf", "fecha": "24-09-2026", "edicion": "44557" }, "geometry": { "type": "Polygon", "coordinates": [ [ [ -71.094061179334645, -30.101615347186904 ], [ -71.083689215136616, -30.101780303097176 ], [ -71.083878501245906, -30.110798754202545 ], [ -71.09425140597736, -30.110633738746916 ], [ -71.094061179334645, -30.101615347186904 ] ] ] } },
{ "type": "Feature", "properties": { "cve": "2874724", "nombre": "GRACIA 48", "solicitante": "La Herradura Minerals SpA", "region": "REGIÓN DE COQUIMBO", "provincia": "Provincia de Elqui", "comuna": "Coquimbo", "superficie_ha": 300.0, "datum_original": "PSAD56", "huso": 19, "epsg_origen": 24879, "tipo_publicacion": "pedimento", "fuente_pdf": "http://www.diariooficial.interior.gob.cl/publicaciones/2026/09/24/44557/07/2874724.pdf", "archivo": "gm_pedimento_2874724.pdf", "fecha": "24-09-2026", "edicion": "44557" }, "geometry": { "type": "Polygon", "coordinates": [ [ [ -71.076523668306777, -30.056786247276264 ], [ -71.045421200080696, -30.057273854013168 ], [ -71.045606679241686, -30.066292584647261 ], [ -71.076711962940735, -30.065804801731947 ], [ -71.076523668306777, -30.056786247276264 ] ] ] } },
{ "type": "Feature", "properties": { "cve": "2874725", "nombre": "GRACIA 49", "solicitante": "La Herradura Minerals SpA", "region": "REGIÓN DE COQUIMBO", "provincia": "Provincia de Elqui", "comuna": "Coquimbo", "superficie_ha": 300.0, "datum_original": "PSAD56", "huso": 19, "epsg_origen": 24879, "tipo_publicacion": "pedimento", "fuente_pdf": "http://www.diariooficial.interior.gob.cl/publicaciones/2026/09/24/44557/07/2874725.pdf", "archivo": "gm_pedimento_2874725.pdf", "fecha": "24-09-2026", "edicion": "44557" }, "geometry": { "type": "Polygon", "coordinates": [ [ [ -71.076711962940735, -30.065804801731947 ], [ -71.045606679241686, -30.066292584647261 ], [ -71.045792242490663, -30.075311301765208 ], [ -71.076900342937762, -30.074823342640272 ], [ -71.076711962940735, -30.065804801731947 ] ] ] } },
{ "type": "Feature", "properties": { "cve": "2874726", "nombre": "GRACIA 50", "solicitante": "La Herradura Minerals SpA", "region": "REGIÓN DE COQUIMBO", "provincia": "Provincia de Elqui", "comuna": "Coquimbo", "superficie_ha": 300.0, "datum_original": "PSAD56", "huso": 19, "epsg_origen": 24879, "tipo_publicacion": "pedimento", "fuente_pdf": "http://www.diariooficial.interior.gob.cl/publicaciones/2026/09/24/44557/07/2874726.pdf", "archivo": "gm_pedimento_2874726.pdf", "fecha": "24-09-2026", "edicion": "44557" }, "geometry": { "type": "Polygon", "coordinates": [ [ [ -71.063212872748423, -30.075038950615369 ], [ -71.052843478690363, -30.075201342202945 ], [ -71.053402590484652, -30.102257293265051 ], [ -71.063774803873571, -30.10209472568857 ], [ -71.063212872748423, -30.075038950615369 ] ] ] } },
{ "type": "Feature", "properties": { "cve": "2874727", "nombre": "GRACIA 51", "solicitante": "La Herradura Minerals SpA", "region": "REGIÓN DE COQUIMBO", "provincia": "Provincia de Elqui", "comuna": "Coquimbo", "superficie_ha": 200.0, "datum_original": "PSAD56", "huso": 19, "epsg_origen": 24879, "tipo_publicacion": "pedimento", "fuente_pdf": "http://www.diariooficial.interior.gob.cl/publicaciones/2026/09/24/44557/07/2874727.pdf", "archivo": "gm_pedimento_2874727.pdf", "fecha": "24-09-2026", "edicion": "44557" }, "geometry": { "type": "Polygon", "coordinates": [ [ [ -71.089225849354548, -30.02952044853394 ], [ -71.078861366712701, -30.02968466749055 ], [ -71.079238054387361, -30.047721810970739 ], [ -71.089604411740467, -30.047557473270079 ], [ -71.089225849354548, -30.02952044853394 ] ] ] } },
{ "type": "Feature", "properties": { "cve": "2874728", "nombre": "GRACIA 52", "solicitante": "La Herradura Minerals SpA", "region": "REGIÓN DE COQUIMBO", "provincia": "Provincia de Elqui", "comuna": "Coquimbo", "superficie_ha": 300.0, "datum_original": "PSAD56", "huso": 19, "epsg_origen": 24879, "tipo_publicacion": "pedimento", "fuente_pdf": "http://www.diariooficial.interior.gob.cl/publicaciones/2026/09/24/44557/07/2874728.pdf", "archivo": "gm_pedimento_2874728.pdf", "fecha": "24-09-2026", "edicion": "44557" }, "geometry": { "type": "Polygon", "coordinates": [ [ [ -71.078861366712701, -30.02968466749055 ], [ -71.068496798718613, -30.02984807089857 ], [ -71.069059145539327, -30.05690394305099 ], [ -71.079426526334345, -30.056740362395203 ], [ -71.078861366712701, -30.02968466749055 ] ] ] } },
{ "type": "Feature", "properties": { "cve": "2874706", "nombre": "GRACIA 8", "solicitante": "La Herradura Minerals SpA", "region": "REGIÓN DE COQUIMBO", "provincia": "Provincia de Elqui", "comuna": "Coquimbo", "superficie_ha": 300.0, "datum_original": "PSAD56", "huso": 19, "epsg_origen": 24879, "tipo_publicacion": "pedimento", "fuente_pdf": "http://www.diariooficial.interior.gob.cl/publicaciones/2026/09/24/44557/07/2874706.pdf", "archivo": "gm_pedimento_2874706.pdf", "fecha": "24-09-2026", "edicion": "44557" }, "geometry": { "type": "Polygon", "coordinates": [ [ [ -71.1486647001161, -30.035779983323742 ], [ -71.138299964313504, -30.035948915591433 ], [ -71.138881422096858, -30.063003546996448 ], [ -71.149248971057034, -30.062834431514808 ], [ -71.1486647001161, -30.035779983323742 ] ] ] } },
{ "type": "Feature", "properties": { "cve": "2874707", "nombre": "GRACIA 9", "solicitante": "La Herradura Minerals SpA", "region": "REGIÓN DE COQUIMBO", "provincia": "Provincia de Elqui", "comuna": "Coquimbo", "superficie_ha": 300.0, "datum_original": "PSAD56", "huso": 19, "epsg_origen": 24879, "tipo_publicacion": "pedimento", "fuente_pdf": "http://www.diariooficial.interior.gob.cl/publicaciones/2026/09/24/44557/07/2874707.pdf", "archivo": "gm_pedimento_2874707.pdf", "fecha": "24-09-2026", "edicion": "44557" }, "geometry": { "type": "Polygon", "coordinates": [ [ [ -71.138299964313504, -30.035948915591433 ], [ -71.127935140705148, -30.036117032214559 ], [ -71.128513785230979, -30.063171845949515 ], [ -71.138881422096858, -30.063003546996448 ], [ -71.138299964313504, -30.035948915591433 ] ] ] } },
{ "type": "Feature", "properties": { "cve": "2874657", "nombre": "LOS WARBOS 32", "solicitante": "FMR Chile Exploration SpA", "region": "REGIÓN DE COQUIMBO", "provincia": "Provincia de Limarí", "comuna": null, "superficie_ha": 300.0, "datum_original": "PSAD56", "huso": 19, "epsg_origen": 24879, "tipo_publicacion": "pedimento", "fuente_pdf": "http://www.diariooficial.interior.gob.cl/publicaciones/2026/09/24/44557/07/2874657.pdf", "archivo": "gm_pedimento_2874657.pdf", "fecha": "24-09-2026", "edicion": "44557" }, "geometry": { "type": "Polygon", "coordinates": [ [ [ -70.609182446640673, -30.654119977692851 ], [ -70.577882306955587, -30.6545037620428 ], [ -70.57802885907553, -30.663523998734018 ], [ -70.609331902857463, -30.663140077323643 ], [ -70.609182446640673, -30.654119977692851 ] ] ] } },
{ "type": "Feature", "properties": { "cve": "2874861", "nombre": "LEA 1", "solicitante": "Varela Echaurren Juan Francisco", "region": "REGIÓN DE ÑUBLE", "provincia": "Provincia de Itata", "comuna": "Trehuaco", "superficie_ha": 300.0, "datum_original": "PSAD56", "huso": 18, "epsg_origen": 24878, "tipo_publicacion": "pedimento", "fuente_pdf": "http://www.diariooficial.interior.gob.cl/publicaciones/2026/09/24/44557/07/2874861.pdf", "archivo": "gm_pedimento_2874861.pdf", "fecha": "24-09-2026", "edicion": "44557" }, "geometry": { "type": "Polygon", "coordinates": [ [ [ -72.714861572825868, -36.347023007721212 ], [ -72.681455552564529, -36.346379257939191 ], [ -72.68118831672561, -36.355387267633617 ], [ -72.714598179140154, -36.356031228166536 ], [ -72.714861572825868, -36.347023007721212 ] ] ] } },
{ "type": "Feature", "properties": { "cve": "2874870", "nombre": "LEA 10", "solicitante": "Varela Echaurren Juan Francisco", "region": "REGIÓN DE ÑUBLE", "provincia": "Provincia de Itata", "comuna": "Trehuaco", "superficie_ha": 300.0, "datum_original": "PSAD56", "huso": 18, "epsg_origen": 24878, "tipo_publicacion": "pedimento", "fuente_pdf": "http://www.diariooficial.interior.gob.cl/publicaciones/2026/09/24/44557/07/2874870.pdf", "archivo": "gm_pedimento_2874870.pdf", "fecha": "24-09-2026", "edicion": "44557" }, "geometry": { "type": "Polygon", "coordinates": [ [ [ -72.697627682705388, -36.364718514332111 ], [ -72.664214508862472, -36.364069676153562 ], [ -72.663945112992636, -36.373077548472445 ], [ -72.697362132154169, -36.373726599023165 ], [ -72.697627682705388, -36.364718514332111 ] ] ] } },
{ "type": "Feature", "properties": { "cve": "2874874", "nombre": "LEA 14", "solicitante": "Varela Echaurren Juan Francisco", "region": "REGIÓN DE ÑUBLE", "provincia": "Provincia de Itata", "comuna": "Trehuaco", "superficie_ha": 300.0, "datum_original": "PSAD56", "huso": 18, "epsg_origen": 24878, "tipo_publicacion": "pedimento", "fuente_pdf": "http://www.diariooficial.interior.gob.cl/publicaciones/2026/09/24/44557/07/2874874.pdf", "archivo": "gm_pedimento_2874874.pdf", "fecha": "24-09-2026", "edicion": "44557" }, "geometry": { "type": "Polygon", "coordinates": [ [ [ -72.688764678394037, -36.400600002856116 ], [ -72.655336363278309, -36.399948134269827 ], [ -72.655065589719115, -36.40895589481098 ], [ -72.688497756863839, -36.409607976674799 ], [ -72.688764678394037, -36.400600002856116 ] ] ] } },
{ "type": "Feature", "properties": { "cve": "2874877", "nombre": "LEA 17", "solicitante": "Varela Echaurren Juan Francisco", "region": "REGIÓN DE ÑUBLE", "provincia": "Provincia de Itata", "comuna": "Quirihue", "superficie_ha": 300.0, "datum_original": "PSAD56", "huso": 18, "epsg_origen": 24878, "tipo_publicacion": "pedimento", "fuente_pdf": "http://www.diariooficial.interior.gob.cl/publicaciones/2026/09/24/44557/07/2874877.pdf", "archivo": "gm_pedimento_2874877.pdf", "fecha": "24-09-2026", "edicion": "44557" }, "geometry": { "type": "Polygon", "coordinates": [ [ [ -72.647779522515805, -36.354733976693893 ], [ -72.614371811839987, -36.354071356299322 ], [ -72.614096771064865, -36.363078919841726 ], [ -72.647508324617434, -36.363741757136019 ], [ -72.647779522515805, -36.354733976693893 ] ] ] } },
{ "type": "Feature", "properties": { "cve": "2874878", "nombre": "LEA 18", "solicitante": "Varela Echaurren Juan Francisco", "region": "REGIÓN DE ÑUBLE", "provincia": "Provincia de Itata", "comuna": "Trehuaco", "superficie_ha": 300.0, "datum_original": "PSAD56", "huso": 18, "epsg_origen": 24878, "tipo_publicacion": "pedimento", "fuente_pdf": "http://www.diariooficial.interior.gob.cl/publicaciones/2026/09/24/44557/07/2874878.pdf", "archivo": "gm_pedimento_2874878.pdf", "fecha": "24-09-2026", "edicion": "44557" }, "geometry": { "type": "Polygon", "coordinates": [ [ [ -72.655877549816125, -36.381932566840689 ], [ -72.644737583870267, -36.381713344098316 ], [ -72.643921773778857, -36.408736456803915 ], [ -72.655065589719115, -36.40895589481098 ], [ -72.655877549816125, -36.381932566840689 ] ] ] } },
{ "type": "Feature", "properties": { "cve": "2874862", "nombre": "LEA 2", "solicitante": "Varela Echaurren Juan Francisco", "region": "REGIÓN DE ÑUBLE", "provincia": "Provincia de Itata", "comuna": "Trehuaco", "superficie_ha": 300.0, "datum_original": "PSAD56", "huso": 18, "epsg_origen": 24878, "tipo_publicacion": "pedimento", "fuente_pdf": "http://www.diariooficial.interior.gob.cl/publicaciones/2026/09/24/44557/07/2874862.pdf", "archivo": "gm_pedimento_2874862.pdf", "fecha": "24-09-2026", "edicion": "44557" }, "geometry": { "type": "Polygon", "coordinates": [ [ [ -72.714598179140154, -36.356031228166536 ], [ -72.68118831672561, -36.355387267633617 ], [ -72.68092096219749, -36.364395261925139 ], [ -72.714334668468837, -36.36503943325669 ], [ -72.714598179140154, -36.356031228166536 ] ] ] } },
{ "type": "Feature", "properties": { "cve": "2874880", "nombre": "LEA 20", "solicitante": "Varela Echaurren Juan Francisco", "region": "REGIÓN DE ÑUBLE", "provincia": "Provincia de Itata", "comuna": "Quirihue", "superficie_ha": 300.0, "datum_original": "PSAD56", "huso": 18, "epsg_origen": 24878, "tipo_publicacion": "pedimento", "fuente_pdf": "http://www.diariooficial.interior.gob.cl/publicaciones/2026/09/24/44557/07/2874880.pdf", "archivo": "gm_pedimento_2874880.pdf", "fecha": "24-09-2026", "edicion": "44557" }, "geometry": { "type": "Polygon", "coordinates": [ [ [ -72.644737583870267, -36.381713344098316 ], [ -72.611318412332452, -36.381049450317533 ], [ -72.611042748422534, -36.3900569527665 ], [ -72.644465767917239, -36.390721063797969 ], [ -72.644737583870267, -36.381713344098316 ] ] ] } },
{ "type": "Feature", "properties": { "cve": "2874881", "nombre": "LEA 21", "solicitante": "Varela Echaurren Juan Francisco", "region": "REGIÓN DE ÑUBLE", "provincia": "Provincia de Itata", "comuna": "Quirihue", "superficie_ha": 300.0, "datum_original": "PSAD56", "huso": 18, "epsg_origen": 24878, "tipo_publicacion": "pedimento", "fuente_pdf": "http://www.diariooficial.interior.gob.cl/publicaciones/2026/09/24/44557/07/2874881.pdf", "archivo": "gm_pedimento_2874881.pdf", "fecha": "24-09-2026", "edicion": "44557" }, "geometry": { "type": "Polygon", "coordinates": [ [ [ -72.644465767917239, -36.390721063797969 ], [ -72.611042748422534, -36.3900569527665 ], [ -72.610766962080874, -36.399064439702485 ], [ -72.644193831238454, -36.399728768033917 ], [ -72.644465767917239, -36.390721063797969 ] ] ] } },
{ "type": "Feature", "properties": { "cve": "2874882", "nombre": "LEA 22", "solicitante": "Varela Echaurren Juan Francisco", "region": "REGIÓN DE ÑUBLE", "provincia": "Provincia de Itata", "comuna": "Quirihue", "superficie_ha": 300.0, "datum_original": "PSAD56", "huso": 18, "epsg_origen": 24878, "tipo_publicacion": "pedimento", "fuente_pdf": "http://www.diariooficial.interior.gob.cl/publicaciones/2026/09/24/44557/07/2874882.pdf", "archivo": "gm_pedimento_2874882.pdf", "fecha": "24-09-2026", "edicion": "44557" }, "geometry": { "type": "Polygon", "coordinates": [ [ [ -72.644193831238454, -36.399728768033917 ], [ -72.610766962080874, -36.399064439702485 ], [ -72.610491053251678, -36.408071911123216 ], [ -72.643921773778857, -36.408736456803915 ], [ -72.644193831238454, -36.399728768033917 ] ] ] } },
{ "type": "Feature", "properties": { "cve": "2874883", "nombre": "LEA 23", "solicitante": "Varela Echaurren Juan Francisco", "region": "REGIÓN DE ÑUBLE", "provincia": "Provincia de Itata", "comuna": "Quirihue", "superficie_ha": 200.0, "datum_original": "PSAD56", "huso": 18, "epsg_origen": 24878, "tipo_publicacion": "pedimento", "fuente_pdf": "http://www.diariooficial.interior.gob.cl/publicaciones/2026/09/24/44557/07/2874883.pdf", "archivo": "gm_pedimento_2874883.pdf", "fecha": "24-09-2026", "edicion": "44557" }, "geometry": { "type": "Polygon", "coordinates": [ [ [ -72.614921527159751, -36.336056182715495 ], [ -72.592655449450234, -36.335609545720516 ], [ -72.592378093439649, -36.344616994033522 ], [ -72.614646730519766, -36.34506377725647 ], [ -72.614921527159751, -36.336056182715495 ] ] ] } },
{ "type": "Feature", "properties": { "cve": "2874884", "nombre": "LEA 24", "solicitante": "Varela Echaurren Juan Francisco", "region": "REGIÓN DE ÑUBLE", "provincia": "Provincia de Itata", "comuna": "Trehuaco", "superficie_ha": 200.0, "datum_original": "PSAD56", "huso": 18, "epsg_origen": 24878, "tipo_publicacion": "pedimento", "fuente_pdf": "http://www.diariooficial.interior.gob.cl/publicaciones/2026/09/24/44557/07/2874884.pdf", "archivo": "gm_pedimento_2874884.pdf", "fecha": "24-09-2026", "edicion": "44557" }, "geometry": { "type": "Polygon", "coordinates": [ [ [ -72.631573933894884, -36.448149309477003 ], [ -72.620424704754981, -36.447927475263732 ], [ -72.619874013645131, -36.465942380703893 ], [ -72.631025817088783, -36.466164360010978 ], [ -72.631573933894884, -36.448149309477003 ] ] ] } },
{ "type": "Feature", "properties": { "cve": "2874885", "nombre": "LEA 25", "solicitante": "Varela Echaurren Juan Francisco", "region": "REGIÓN DE ÑUBLE", "provincia": "Provincia de Itata", "comuna": "Trehuaco", "superficie_ha": 300.0, "datum_original": "PSAD56", "huso": 18, "epsg_origen": 24878, "tipo_publicacion": "pedimento", "fuente_pdf": "http://www.diariooficial.interior.gob.cl/publicaciones/2026/09/24/44557/07/2874885.pdf", "archivo": "gm_pedimento_2874885.pdf", "fecha": "24-09-2026", "edicion": "44557" }, "geometry": { "type": "Polygon", "coordinates": [ [ [ -72.620809897623246, -36.435317004538 ], [ -72.609662591280014, -36.435094232270764 ], [ -72.608833024907341, -36.462116413697935 ], [ -72.619984190998736, -36.462339404580312 ], [ -72.620809897623246, -36.435317004538 ] ] ] } },
{ "type": "Feature", "properties": { "cve": "2874863", "nombre": "LEA 3", "solicitante": "Varela Echaurren Juan Francisco", "region": "REGIÓN DE ÑUBLE", "provincia": "Provincia de Itata", "comuna": "Trehuaco", "superficie_ha": 300.0, "datum_original": "PSAD56", "huso": 18, "epsg_origen": 24878, "tipo_publicacion": "pedimento", "fuente_pdf": "http://www.diariooficial.interior.gob.cl/publicaciones/2026/09/24/44557/07/2874863.pdf", "archivo": "gm_pedimento_2874863.pdf", "fecha": "24-09-2026", "edicion": "44557" }, "geometry": { "type": "Polygon", "coordinates": [ [ [ -72.731041917570337, -36.365358018581972 ], [ -72.697627682705388, -36.364718514332111 ], [ -72.697362132154169, -36.373726599023165 ], [ -72.730780212821116, -36.374366312593537 ], [ -72.731041917570337, -36.365358018581972 ] ] ] } },
{ "type": "Feature", "properties": { "cve": "2874864", "nombre": "LEA 4", "solicitante": "Varela Echaurren Juan Francisco", "region": "REGIÓN DE ÑUBLE", "provincia": "Provincia de Itata", "comuna": "Trehuaco", "superficie_ha": 300.0, "datum_original": "PSAD56", "huso": 18, "epsg_origen": 24878, "tipo_publicacion": "pedimento", "fuente_pdf": "http://www.diariooficial.interior.gob.cl/publicaciones/2026/09/24/44557/07/2874864.pdf", "archivo": "gm_pedimento_2874864.pdf", "fecha": "24-09-2026", "edicion": "44557" }, "geometry": { "type": "Polygon", "coordinates": [ [ [ -72.722982566528103, -36.374217881284139 ], [ -72.689564732173096, -36.373575989001118 ], [ -72.689298165994671, -36.382584009017016 ], [ -72.722719847744727, -36.383226111380267 ], [ -72.722982566528103, -36.374217881284139 ] ] ] } },
{ "type": "Feature", "properties": { "cve": "2874896", "nombre": "LEA 49", "solicitante": "Varela Echaurren Juan Francisco", "region": "REGIÓN DE ÑUBLE", "provincia": "Provincia de Itata", "comuna": "Portezuelo", "superficie_ha": 300.0, "datum_original": "PSAD56", "huso": 18, "epsg_origen": 24878, "tipo_publicacion": "pedimento", "fuente_pdf": "http://www.diariooficial.interior.gob.cl/publicaciones/2026/09/24/44557/07/2874896.pdf", "archivo": "gm_pedimento_2874896.pdf", "fecha": "24-09-2026", "edicion": "44557" }, "geometry": { "type": "Polygon", "coordinates": [ [ [ -72.526654925998415, -36.555074249347093 ], [ -72.515491226894412, -36.554842035703722 ], [ -72.514625226644426, -36.581861773722842 ], [ -72.525792807267365, -36.582094214931431 ], [ -72.526654925998415, -36.555074249347093 ] ] ] } },
{ "type": "Feature", "properties": { "cve": "2874865", "nombre": "LEA 5", "solicitante": "Varela Echaurren Juan Francisco", "region": "REGIÓN DE ÑUBLE", "provincia": "Provincia de Itata", "comuna": "Trehuaco", "superficie_ha": 300.0, "datum_original": "PSAD56", "huso": 18, "epsg_origen": 24878, "tipo_publicacion": "pedimento", "fuente_pdf": "http://www.diariooficial.interior.gob.cl/publicaciones/2026/09/24/44557/07/2874865.pdf", "archivo": "gm_pedimento_2874865.pdf", "fecha": "24-09-2026", "edicion": "44557" }, "geometry": { "type": "Polygon", "coordinates": [ [ [ -72.722719847744727, -36.383226111380267 ], [ -72.689298165994671, -36.382584009017016 ], [ -72.689031481419633, -36.3915920136361 ], [ -72.722457012270766, -36.392234326127195 ], [ -72.722719847744727, -36.383226111380267 ] ] ] } },
{ "type": "Feature", "properties": { "cve": "2874866", "nombre": "LEA 6", "solicitante": "Varela Echaurren Juan Francisco", "region": "REGIÓN DE ÑUBLE", "provincia": "Provincia de Itata", "comuna": "Trehuaco", "superficie_ha": 300.0, "datum_original": "PSAD56", "huso": 18, "epsg_origen": 24878, "tipo_publicacion": "pedimento", "fuente_pdf": "http://www.diariooficial.interior.gob.cl/publicaciones/2026/09/24/44557/07/2874866.pdf", "archivo": "gm_pedimento_2874866.pdf", "fecha": "24-09-2026", "edicion": "44557" }, "geometry": { "type": "Polygon", "coordinates": [ [ [ -72.722457012270766, -36.392234326127195 ], [ -72.689031481419633, -36.3915920136361 ], [ -72.688764678394037, -36.400600002856116 ], [ -72.722194060052999, -36.401242525522726 ], [ -72.722457012270766, -36.392234326127195 ] ] ] } },
{ "type": "Feature", "properties": { "cve": "2874913", "nombre": "LEA 66", "solicitante": "Varela Echaurren Juan Francisco", "region": "REGIÓN DE ÑUBLE", "provincia": "Provincia de Itata", "comuna": "Ninhue", "superficie_ha": 300.0, "datum_original": "PSAD56", "huso": 18, "epsg_origen": 24878, "tipo_publicacion": "pedimento", "fuente_pdf": "http://www.diariooficial.interior.gob.cl/publicaciones/2026/09/24/44557/07/2874913.pdf", "archivo": "gm_pedimento_2874913.pdf", "fecha": "24-09-2026", "edicion": "44557" }, "geometry": { "type": "Polygon", "coordinates": [ [ [ -72.459832208475873, -36.377922699180246 ], [ -72.448694449347329, -36.377685219733287 ], [ -72.447810907082442, -36.404704377255378 ], [ -72.458952513186205, -36.404942089870339 ], [ -72.459832208475873, -36.377922699180246 ] ] ] } },
{ "type": "Feature", "properties": { "cve": "2874914", "nombre": "LEA 67", "solicitante": "Varela Echaurren Juan Francisco", "region": "REGIÓN DE ÑUBLE", "provincia": "Provincia de Itata", "comuna": "Ninhue", "superficie_ha": 300.0, "datum_original": "PSAD56", "huso": 18, "epsg_origen": 24878, "tipo_publicacion": "pedimento", "fuente_pdf": "http://www.diariooficial.interior.gob.cl/publicaciones/2026/09/24/44557/07/2874914.pdf", "archivo": "gm_pedimento_2874914.pdf", "fecha": "24-09-2026", "edicion": "44557" }, "geometry": { "type": "Polygon", "coordinates": [ [ [ -72.448694449347329, -36.377685219733287 ], [ -72.437556820888517, -36.377446703322541 ], [ -72.436669431827141, -36.404465626659963 ], [ -72.447810907082442, -36.404704377255378 ], [ -72.448694449347329, -36.377685219733287 ] ] ] } },
{ "type": "Feature", "properties": { "cve": "2874867", "nombre": "LEA 7", "solicitante": "Varela Echaurren Juan Francisco", "region": "REGIÓN DE ÑUBLE", "provincia": "Provincia de Itata", "comuna": "Trehuaco", "superficie_ha": 300.0, "datum_original": "PSAD56", "huso": 18, "epsg_origen": 24878, "tipo_publicacion": "pedimento", "fuente_pdf": "http://www.diariooficial.interior.gob.cl/publicaciones/2026/09/24/44557/07/2874867.pdf", "archivo": "gm_pedimento_2874867.pdf", "fecha": "24-09-2026", "edicion": "44557" }, "geometry": { "type": "Polygon", "coordinates": [ [ [ -72.722194060052999, -36.401242525522726 ], [ -72.688764678394037, -36.400600002856116 ], [ -72.688497756863839, -36.409607976674799 ], [ -72.721930991038207, -36.410250709564629 ], [ -72.722194060052999, -36.401242525522726 ] ] ] } },
{ "type": "Feature", "properties": { "cve": "2874868", "nombre": "LEA 8", "solicitante": "Varela Echaurren Juan Francisco", "region": "REGIÓN DE ÑUBLE", "provincia": "Provincia de Itata", "comuna": "Trehuaco", "superficie_ha": 300.0, "datum_original": "PSAD56", "huso": 18, "epsg_origen": 24878, "tipo_publicacion": "pedimento", "fuente_pdf": "http://www.diariooficial.interior.gob.cl/publicaciones/2026/09/24/44557/07/2874868.pdf", "archivo": "gm_pedimento_2874868.pdf", "fecha": "24-09-2026", "edicion": "44557" }, "geometry": { "type": "Polygon", "coordinates": [ [ [ -72.681455552564529, -36.346379257939191 ], [ -72.648050600021733, -36.345726180800469 ], [ -72.647779522515805, -36.354733976693893 ], [ -72.68118831672561, -36.355387267633617 ], [ -72.681455552564529, -36.346379257939191 ] ] ] } },
{ "type": "Feature", "properties": { "cve": "2874917", "nombre": "LUNA 74", "solicitante": "Varela Echaurren Juan Francisco", "region": "REGIÓN DEL BIOBÍO", "provincia": "Provincia de Concepción", "comuna": null, "superficie_ha": 300.0, "datum_original": "PSAD56", "huso": 18, "epsg_origen": 24878, "tipo_publicacion": "pedimento", "fuente_pdf": "http://www.diariooficial.interior.gob.cl/publicaciones/2026/09/24/44557/07/2874917.pdf", "archivo": "gm_pedimento_2874917.pdf", "fecha": "24-09-2026", "edicion": "44557" }, "geometry": { "type": "Polygon", "coordinates": [ [ [ -72.847072946289316, -37.002927041809954 ], [ -72.813379135427112, -37.002310875334175 ], [ -72.813121010736182, -37.011318702373053 ], [ -72.846818791511467, -37.011935069171749 ], [ -72.847072946289316, -37.002927041809954 ] ] ] } },
{ "type": "Feature", "properties": { "cve": "2874918", "nombre": "LUNA 76", "solicitante": "Varela Echaurren Juan Francisco", "region": "REGIÓN DEL BIOBÍO", "provincia": "Provincia de Concepción", "comuna": null, "superficie_ha": 300.0, "datum_original": "PSAD56", "huso": 18, "epsg_origen": 24878, "tipo_publicacion": "pedimento", "fuente_pdf": "http://www.diariooficial.interior.gob.cl/publicaciones/2026/09/24/44557/07/2874918.pdf", "archivo": "gm_pedimento_2874918.pdf", "fecha": "24-09-2026", "edicion": "44557" }, "geometry": { "type": "Polygon", "coordinates": [ [ [ -72.846564523714974, -37.020943081233945 ], [ -72.81286277126398, -37.020326514065829 ], [ -72.812604416957257, -37.029334310410476 ], [ -72.846310142847415, -37.029951077994554 ], [ -72.846564523714974, -37.020943081233945 ] ] ] } },
{ "type": "Feature", "properties": { "cve": "2874919", "nombre": "LUNA 79", "solicitante": "Varela Echaurren Juan Francisco", "region": "REGIÓN DEL BIOBÍO", "provincia": "Provincia de Concepción", "comuna": null, "superficie_ha": 300.0, "datum_original": "PSAD56", "huso": 18, "epsg_origen": 24878, "tipo_publicacion": "pedimento", "fuente_pdf": "http://www.diariooficial.interior.gob.cl/publicaciones/2026/09/24/44557/07/2874919.pdf", "archivo": "gm_pedimento_2874919.pdf", "fecha": "24-09-2026", "edicion": "44557" }, "geometry": { "type": "Polygon", "coordinates": [ [ [ -72.813379135427112, -37.002310875334175 ], [ -72.779686357119672, -37.001685154303402 ], [ -72.779424262994425, -37.010692777916333 ], [ -72.813121010736182, -37.011318702373053 ], [ -72.813379135427112, -37.002310875334175 ] ] ] } },
{ "type": "Feature", "properties": { "cve": "2874920", "nombre": "LUNA 80", "solicitante": "Varela Echaurren Juan Francisco", "region": "REGIÓN DEL BIOBÍO", "provincia": "Provincia de Concepción", "comuna": null, "superficie_ha": 300.0, "datum_original": "PSAD56", "huso": 18, "epsg_origen": 24878, "tipo_publicacion": "pedimento", "fuente_pdf": "http://www.diariooficial.interior.gob.cl/publicaciones/2026/09/24/44557/07/2874920.pdf", "archivo": "gm_pedimento_2874920.pdf", "fecha": "24-09-2026", "edicion": "44557" }, "geometry": { "type": "Polygon", "coordinates": [ [ [ -72.813121010736182, -37.011318702373053 ], [ -72.779424262994425, -37.010692777916333 ], [ -72.779162052325574, -37.019700386135973 ], [ -72.81286277126398, -37.020326514065829 ], [ -72.813121010736182, -37.011318702373053 ] ] ] } },
{ "type": "Feature", "properties": { "cve": "2874921", "nombre": "LUNA 82", "solicitante": "Varela Echaurren Juan Francisco", "region": "REGIÓN DEL BIOBÍO", "provincia": "Provincia de Concepción", "comuna": null, "superficie_ha": 300.0, "datum_original": "PSAD56", "huso": 18, "epsg_origen": 24878, "tipo_publicacion": "pedimento", "fuente_pdf": "http://www.diariooficial.interior.gob.cl/publicaciones/2026/09/24/44557/07/2874921.pdf", "archivo": "gm_pedimento_2874921.pdf", "fecha": "24-09-2026", "edicion": "44557" }, "geometry": { "type": "Polygon", "coordinates": [ [ [ -72.812604416957257, -37.029334310410476 ], [ -72.778899725059105, -37.028707978960199 ], [ -72.778637281140917, -37.037715556386907 ], [ -72.812345947762751, -37.038342091404878 ], [ -72.812604416957257, -37.029334310410476 ] ] ] } },
{ "type": "Feature", "properties": { "cve": "2874922", "nombre": "LUNA 84", "solicitante": "Varela Echaurren Juan Francisco", "region": "REGIÓN DEL BIOBÍO", "provincia": "Provincia de Concepción", "comuna": null, "superficie_ha": 300.0, "datum_original": "PSAD56", "huso": 18, "epsg_origen": 24878, "tipo_publicacion": "pedimento", "fuente_pdf": "http://www.diariooficial.interior.gob.cl/publicaciones/2026/09/24/44557/07/2874922.pdf", "archivo": "gm_pedimento_2874922.pdf", "fecha": "24-09-2026", "edicion": "44557" }, "geometry": { "type": "Polygon", "coordinates": [ [ [ -72.779424262994425, -37.010692777916333 ], [ -72.768192246051598, -37.010482012665918 ], [ -72.767401291561512, -37.037504585546664 ], [ -72.778637281140917, -37.037715556386907 ], [ -72.779424262994425, -37.010692777916333 ] ] ] } },
{ "type": "Feature", "properties": { "cve": "2874846", "nombre": "LUNA 173", "solicitante": "Varela Echaurren Juan Francisco", "region": "REGIÓN DEL BIOBÍO", "provincia": "Provincia de Biobío", "comuna": null, "superficie_ha": 300.0, "datum_original": "PSAD56", "huso": 18, "epsg_origen": 24878, "tipo_publicacion": "pedimento", "fuente_pdf": "http://www.diariooficial.interior.gob.cl/publicaciones/2026/09/24/44557/07/2874846.pdf", "archivo": "gm_pedimento_2874846.pdf", "fecha": "24-09-2026", "edicion": "44557" }, "geometry": { "type": "Polygon", "coordinates": [ [ [ -73.054541514006559, -37.58872208010596 ], [ -73.043221229693501, -37.588534902111206 ], [ -73.042513058938695, -37.61555956951424 ], [ -73.053837433813854, -37.615746929081077 ], [ -73.054541514006559, -37.58872208010596 ] ] ] } },
{ "type": "Feature", "properties": { "cve": "2874847", "nombre": "LUNA 175", "solicitante": "Varela Echaurren Juan Francisco", "region": "REGIÓN DEL BIOBÍO", "provincia": "Provincia de Biobío", "comuna": null, "superficie_ha": 300.0, "datum_original": "PSAD56", "huso": 18, "epsg_origen": 24878, "tipo_publicacion": "pedimento", "fuente_pdf": "http://www.diariooficial.interior.gob.cl/publicaciones/2026/09/24/44557/07/2874847.pdf", "archivo": "gm_pedimento_2874847.pdf", "fecha": "24-09-2026", "edicion": "44557" }, "geometry": { "type": "Polygon", "coordinates": [ [ [ -73.043221229693501, -37.588534902111206 ], [ -73.00926100943056, -37.587966859594246 ], [ -73.009020969175211, -37.596974913576155 ], [ -73.042985277883076, -37.597543139724259 ], [ -73.043221229693501, -37.588534902111206 ] ] ] } },
{ "type": "Feature", "properties": { "cve": "2874848", "nombre": "LUNA 183", "solicitante": "Varela Echaurren Juan Francisco", "region": "REGIÓN DEL BIOBÍO", "provincia": "Provincia de Biobío", "comuna": null, "superficie_ha": 300.0, "datum_original": "PSAD56", "huso": 18, "epsg_origen": 24878, "tipo_publicacion": "pedimento", "fuente_pdf": "http://www.diariooficial.interior.gob.cl/publicaciones/2026/09/24/44557/07/2874848.pdf", "archivo": "gm_pedimento_2874848.pdf", "fecha": "24-09-2026", "edicion": "44557" }, "geometry": { "type": "Polygon", "coordinates": [ [ [ -73.009020969175211, -37.596974913576155 ], [ -72.975057622658611, -37.596396922136648 ], [ -72.974813385683262, -37.60540477410175 ], [ -73.008780822009925, -37.6059829523697 ], [ -73.009020969175211, -37.596974913576155 ] ] ] } },
{ "type": "Feature", "properties": { "cve": "2874849", "nombre": "LUNA 185", "solicitante": "Varela Echaurren Juan Francisco", "region": "REGIÓN DEL BIOBÍO", "provincia": "Provincia de Biobío", "comuna": null, "superficie_ha": 300.0, "datum_original": "PSAD56", "huso": 18, "epsg_origen": 24878, "tipo_publicacion": "pedimento", "fuente_pdf": "http://www.diariooficial.interior.gob.cl/publicaciones/2026/09/24/44557/07/2874849.pdf", "archivo": "gm_pedimento_2874849.pdf", "fecha": "24-09-2026", "edicion": "44557" }, "geometry": { "type": "Polygon", "coordinates": [ [ [ -72.976277177635794, -37.551357433858442 ], [ -72.942335229167426, -37.550770627222505 ], [ -72.942087455053723, -37.559778365575603 ], [ -72.976033483789806, -37.560365361968159 ], [ -72.976277177635794, -37.551357433858442 ] ] ] } },
{ "type": "Feature", "properties": { "cve": "2874850", "nombre": "LUNA 193", "solicitante": "Varela Echaurren Juan Francisco", "region": "REGIÓN DEL BIOBÍO", "provincia": "Provincia de Biobío", "comuna": null, "superficie_ha": 300.0, "datum_original": "PSAD56", "huso": 18, "epsg_origen": 24878, "tipo_publicacion": "pedimento", "fuente_pdf": "http://www.diariooficial.interior.gob.cl/publicaciones/2026/09/24/44557/07/2874850.pdf", "archivo": "gm_pedimento_2874850.pdf", "fecha": "24-09-2026", "edicion": "44557" }, "geometry": { "type": "Polygon", "coordinates": [ [ [ -72.942087455053723, -37.559778365575603 ], [ -72.90814241936296, -37.559181618233879 ], [ -72.907890453296346, -37.568189148365384 ], [ -72.941839570601871, -37.568786088658598 ], [ -72.942087455053723, -37.559778365575603 ] ] ] } },
{ "type": "Feature", "properties": { "cve": "2874851", "nombre": "LUNA 195", "solicitante": "Varela Echaurren Juan Francisco", "region": "REGIÓN DEL BIOBÍO", "provincia": "Provincia de Biobío", "comuna": null, "superficie_ha": 300.0, "datum_original": "PSAD56", "huso": 18, "epsg_origen": 24878, "tipo_publicacion": "pedimento", "fuente_pdf": "http://www.diariooficial.interior.gob.cl/publicaciones/2026/09/24/44557/07/2874851.pdf", "archivo": "gm_pedimento_2874851.pdf", "fecha": "24-09-2026", "edicion": "44557" }, "geometry": { "type": "Polygon", "coordinates": [ [ [ -72.941591575759929, -37.577793796469535 ], [ -72.907638375024575, -37.577196663179087 ], [ -72.907386184494825, -37.586204162673091 ], [ -72.9413434704759, -37.586801489006518 ], [ -72.941591575759929, -37.577793796469535 ] ] ] } },
{ "type": "Feature", "properties": { "cve": "2874852", "nombre": "LUNA 203", "solicitante": "Varela Echaurren Juan Francisco", "region": "REGIÓN DEL BIOBÍO", "provincia": "Provincia de Biobío", "comuna": null, "superficie_ha": 300.0, "datum_original": "PSAD56", "huso": 18, "epsg_origen": 24878, "tipo_publicacion": "pedimento", "fuente_pdf": "http://www.diariooficial.interior.gob.cl/publicaciones/2026/09/24/44557/07/2874852.pdf", "archivo": "gm_pedimento_2874852.pdf", "fecha": "24-09-2026", "edicion": "44557" }, "geometry": { "type": "Polygon", "coordinates": [ [ [ -72.850648694649664, -37.531112800190527 ], [ -72.816718669195581, -37.530490171533643 ], [ -72.816455968235601, -37.539497207907068 ], [ -72.850390068558482, -37.540120037927238 ], [ -72.850648694649664, -37.531112800190527 ] ] ] } },
{ "type": "Feature", "properties": { "cve": "2874853", "nombre": "LUNA 205", "solicitante": "Varela Echaurren Juan Francisco", "region": "REGIÓN DEL BIOBÍO", "provincia": "Provincia de Biobío", "comuna": null, "superficie_ha": 300.0, "datum_original": "PSAD56", "huso": 18, "epsg_origen": 24878, "tipo_publicacion": "pedimento", "fuente_pdf": "http://www.diariooficial.interior.gob.cl/publicaciones/2026/09/24/44557/07/2874853.pdf", "archivo": "gm_pedimento_2874853.pdf", "fecha": "24-09-2026", "edicion": "44557" }, "geometry": { "type": "Polygon", "coordinates": [ [ [ -72.850131327309768, -37.549127260271874 ], [ -72.816193150306532, -37.548504228840734 ], [ -72.815930215353291, -37.557511234332608 ], [ -72.849872470849334, -37.55813446722243 ], [ -72.850131327309768, -37.549127260271874 ] ] ] } },
{ "type": "Feature", "properties": { "cve": "2874854", "nombre": "LUNA 213", "solicitante": "Varela Echaurren Juan Francisco", "region": "REGIÓN DEL BIOBÍO", "provincia": "Provincia de Biobío", "comuna": null, "superficie_ha": 300.0, "datum_original": "PSAD56", "huso": 18, "epsg_origen": 24878, "tipo_publicacion": "pedimento", "fuente_pdf": "http://www.diariooficial.interior.gob.cl/publicaciones/2026/09/24/44557/07/2874854.pdf", "archivo": "gm_pedimento_2874854.pdf", "fecha": "24-09-2026", "edicion": "44557" }, "geometry": { "type": "Polygon", "coordinates": [ [ [ -72.793036857451071, -37.566097184325358 ], [ -72.781721881729553, -37.56588503926465 ], [ -72.780919772289437, -37.592905302470925 ], [ -72.792238831282759, -37.593117653333152 ], [ -72.793036857451071, -37.566097184325358 ] ] ] } },
{ "type": "Feature", "properties": { "cve": "2874855", "nombre": "LUNA 215", "solicitante": "Varela Echaurren Juan Francisco", "region": "REGIÓN DEL BIOBÍO", "provincia": "Provincia de Biobío", "comuna": null, "superficie_ha": 300.0, "datum_original": "PSAD56", "huso": 18, "epsg_origen": 24878, "tipo_publicacion": "pedimento", "fuente_pdf": "http://www.diariooficial.interior.gob.cl/publicaciones/2026/09/24/44557/07/2874855.pdf", "archivo": "gm_pedimento_2874855.pdf", "fecha": "24-09-2026", "edicion": "44557" }, "geometry": { "type": "Polygon", "coordinates": [ [ [ -72.784121792887802, -37.484823413173324 ], [ -72.750214230408687, -37.484182346732936 ], [ -72.749943983309933, -37.493189048597984 ], [ -72.783855610618829, -37.493830322447806 ], [ -72.784121792887802, -37.484823413173324 ] ] ] } },
{ "type": "Feature", "properties": { "cve": "2874856", "nombre": "LUNA 223", "solicitante": "Varela Echaurren Juan Francisco", "region": "REGIÓN DEL BIOBÍO", "provincia": "Provincia de Biobío", "comuna": null, "superficie_ha": 300.0, "datum_original": "PSAD56", "huso": 18, "epsg_origen": 24878, "tipo_publicacion": "pedimento", "fuente_pdf": "http://www.diariooficial.interior.gob.cl/publicaciones/2026/09/24/44557/07/2874856.pdf", "archivo": "gm_pedimento_2874856.pdf", "fecha": "24-09-2026", "edicion": "44557" }, "geometry": { "type": "Polygon", "coordinates": [ [ [ -72.781989013572087, -37.556878253871218 ], [ -72.748048881821902, -37.556235526781208 ], [ -72.747777670672903, -37.565242104372246 ], [ -72.781721881729553, -37.56588503926465 ], [ -72.781989013572087, -37.556878253871218 ] ] ] } },
{ "type": "Feature", "properties": { "cve": "2874857", "nombre": "LUNA 225", "solicitante": "Varela Echaurren Juan Francisco", "region": "REGIÓN DEL BIOBÍO", "provincia": "Provincia de Biobío", "comuna": null, "superficie_ha": 300.0, "datum_original": "PSAD56", "huso": 18, "epsg_origen": 24878, "tipo_publicacion": "pedimento", "fuente_pdf": "http://www.diariooficial.interior.gob.cl/publicaciones/2026/09/24/44557/07/2874857.pdf", "archivo": "gm_pedimento_2874857.pdf", "fecha": "24-09-2026", "edicion": "44557" }, "geometry": { "type": "Polygon", "coordinates": [ [ [ -72.781454630938953, -37.574891809163788 ], [ -72.747506338762406, -37.57424866641972 ], [ -72.747234886033567, -37.583255212921564 ], [ -72.781187261144254, -37.583898563566549 ], [ -72.781454630938953, -37.574891809163788 ] ] ] } },
{ "type": "Feature", "properties": { "cve": "2874858", "nombre": "LUNA 233", "solicitante": "Varela Echaurren Juan Francisco", "region": "REGIÓN DEL BIOBÍO", "provincia": "Provincia de Biobío", "comuna": null, "superficie_ha": 300.0, "datum_original": "PSAD56", "huso": 18, "epsg_origen": 24878, "tipo_publicacion": "pedimento", "fuente_pdf": "http://www.diariooficial.interior.gob.cl/publicaciones/2026/09/24/44557/07/2874858.pdf", "archivo": "gm_pedimento_2874858.pdf", "fecha": "24-09-2026", "edicion": "44557" }, "geometry": { "type": "Polygon", "coordinates": [ [ [ -72.749132519938556, -37.520209061022818 ], [ -72.715209771599817, -37.519557431560941 ], [ -72.714934971377559, -37.528563860555529 ], [ -72.748861791267842, -37.529215700767409 ], [ -72.749132519938556, -37.520209061022818 ] ] ] } },
{ "type": "Feature", "properties": { "cve": "2874859", "nombre": "LUNA 243", "solicitante": "Varela Echaurren Juan Francisco", "region": "REGIÓN DEL BIOBÍO", "provincia": "Provincia de Biobío", "comuna": null, "superficie_ha": 300.0, "datum_original": "PSAD56", "huso": 18, "epsg_origen": 24878, "tipo_publicacion": "pedimento", "fuente_pdf": "http://www.diariooficial.interior.gob.cl/publicaciones/2026/09/24/44557/07/2874859.pdf", "archivo": "gm_pedimento_2874859.pdf", "fecha": "24-09-2026", "edicion": "44557" }, "geometry": { "type": "Polygon", "coordinates": [ [ [ -72.715759005241793, -37.501544526824638 ], [ -72.704454378562332, -37.501325296109442 ], [ -72.70362627529866, -37.528344417044693 ], [ -72.714934971377559, -37.528563860555529 ], [ -72.715759005241793, -37.501544526824638 ] ] ] } },
{ "type": "Feature", "properties": { "cve": "2874860", "nombre": "LUNA 245", "solicitante": "Varela Echaurren Juan Francisco", "region": "REGIÓN DEL BIOBÍO", "provincia": "Provincia de Biobío", "comuna": null, "superficie_ha": 300.0, "datum_original": "PSAD56", "huso": 18, "epsg_origen": 24878, "tipo_publicacion": "pedimento", "fuente_pdf": "http://www.diariooficial.interior.gob.cl/publicaciones/2026/09/24/44557/07/2874860.pdf", "archivo": "gm_pedimento_2874860.pdf", "fecha": "24-09-2026", "edicion": "44557" }, "geometry": { "type": "Polygon", "coordinates": [ [ [ -72.714109836415744, -37.55558305401992 ], [ -72.680171893663356, -37.554920836559212 ], [ -72.679892525442853, -37.563926989104061 ], [ -72.713834546471546, -37.564589420661285 ], [ -72.714109836415744, -37.55558305401992 ] ] ] } }
]
}
