{
"type": "FeatureCollection",
"name": "boletin_mineria_20260709",
"crs": { "type": "name", "properties": { "name": "urn:ogc:def:crs:OGC:1.3:CRS84" } },
"features": [
{ "type": "Feature", "properties": { "cve": "2835115", "nombre": "ALE A 15, 1 AL 300", "solicitante": "Antofagasta Minerals S.A.", "region": "REGIÓN DE ANTOFAGASTA", "provincia": "Provincia de Antofagasta", "comuna": null, "superficie_ha": 300.0, "datum_original": "PSAD56", "huso": 19, "epsg_origen": 24879, "tipo_publicacion": "manifestacion", "fuente_pdf": "http://www.diariooficial.interior.gob.cl/publicaciones/2026/07/09/44495/07/2835115.pdf", "archivo": "gm_manifestacion_2835115.pdf", "fecha": "09-07-2026", "edicion": "44495" }, "geometry": { "type": "Polygon", "coordinates": [ [ [ -70.196275011981498, -23.459301157217208 ], [ -70.166907589826096, -23.459523584306517 ], [ -70.166986978666756, -23.468554548214044 ], [ -70.196356397644294, -23.468332025452032 ], [ -70.196275011981498, -23.459301157217208 ] ] ] } },
{ "type": "Feature", "properties": { "cve": "2835120", "nombre": "CALIPSO A 2, 1 AL 20", "solicitante": "Minera Centinela", "region": "REGIÓN DE ANTOFAGASTA", "provincia": "Provincia de Antofagasta", "comuna": null, "superficie_ha": 200.0, "datum_original": "PSAD56", "huso": 19, "epsg_origen": 24879, "tipo_publicacion": "manifestacion", "fuente_pdf": "http://www.diariooficial.interior.gob.cl/publicaciones/2026/07/09/44495/07/2835120.pdf", "archivo": "gm_manifestacion_2835120.pdf", "fecha": "09-07-2026", "edicion": "44495" }, "geometry": { "type": "Polygon", "coordinates": [ [ [ -69.314994504211413, -23.404856598470936 ], [ -69.305207431304538, -23.404876015363165 ], [ -69.305248864648917, -23.422941567217148 ], [ -69.315037266144259, -23.422922133586741 ], [ -69.314994504211413, -23.404856598470936 ] ] ] } },
{ "type": "Feature", "properties": { "cve": "2835023", "nombre": "ARIDO 1 AL 22", "solicitante": "Navarro Reyes Celmira Petronila", "region": "REGIÓN DE ATACAMA", "provincia": "Provincia de Copiapó", "comuna": null, "superficie_ha": 121.0, "datum_original": "PSAD56", "huso": 19, "epsg_origen": 24879, "tipo_publicacion": "manifestacion", "fuente_pdf": "http://www.diariooficial.interior.gob.cl/publicaciones/2026/07/09/44495/07/2835023.pdf", "archivo": "gm_manifestacion_2835023.pdf", "fecha": "09-07-2026", "edicion": "44495" }, "geometry": { "type": "Polygon", "coordinates": [ [ [ -70.198873471342708, -27.346870962794803 ], [ -70.187754543746223, -27.346965959140924 ], [ -70.187860458701522, -27.356894778174063 ], [ -70.198980377223535, -27.356799741658051 ], [ -70.198873471342708, -27.346870962794803 ] ] ] } },
{ "type": "Feature", "properties": { "cve": "2835035", "nombre": "ATENEA III 7, 1 AL 30", "solicitante": "Inversiones América SpA", "region": "REGIÓN DE ATACAMA", "provincia": "Provincia de Copiapó", "comuna": "TIERRA AMARILLA", "superficie_ha": 300.0, "datum_original": "PSAD56", "huso": 19, "epsg_origen": 24879, "tipo_publicacion": "manifestacion", "fuente_pdf": "http://www.diariooficial.interior.gob.cl/publicaciones/2026/07/09/44495/07/2835035.pdf", "archivo": "gm_manifestacion_2835035.pdf", "fecha": "09-07-2026", "edicion": "44495" }, "geometry": { "type": "Polygon", "coordinates": [ [ [ -70.019521832452952, -28.065479655494254 ], [ -69.988996214436455, -28.065702943433973 ], [ -69.989078866298954, -28.074728795759071 ], [ -70.019607034325077, -28.07450542347371 ], [ -70.019521832452952, -28.065479655494254 ] ] ] } },
{ "type": "Feature", "properties": { "cve": "2835049", "nombre": "DON MARIO 1 al 10", "solicitante": "Mercado Naveas Mario", "region": "REGIÓN DE ATACAMA", "provincia": "Provincia de Copiapó", "comuna": null, "superficie_ha": 30.0, "datum_original": "PSAD56", "huso": 19, "epsg_origen": 24879, "tipo_publicacion": "manifestacion", "fuente_pdf": "http://www.diariooficial.interior.gob.cl/publicaciones/2026/07/09/44495/07/2835049.pdf", "archivo": "gm_manifestacion_2835049.pdf", "fecha": "09-07-2026", "edicion": "44495" }, "geometry": { "type": "Polygon", "coordinates": [ [ [ -70.576309600984501, -27.638361421562013 ], [ -70.573269662378209, -27.638395944502857 ], [ -70.573398783159504, -27.647420293573312 ], [ -70.576438971006866, -27.647385757459237 ], [ -70.576309600984501, -27.638361421562013 ] ] ] } },
{ "type": "Feature", "properties": { "cve": "2834999", "nombre": "VENUS 1 AL 10", "solicitante": "Fasani Donoso Carlos Alfonso Alejandro", "region": "REGIÓN DE ATACAMA", "provincia": "Provincia de Copiapó", "comuna": null, "superficie_ha": 50.0, "datum_original": "PSAD56", "huso": 19, "epsg_origen": 24879, "tipo_publicacion": "manifestacion", "fuente_pdf": "http://www.diariooficial.interior.gob.cl/publicaciones/2026/07/09/44495/07/2834999.pdf", "archivo": "gm_manifestacion_2834999.pdf", "fecha": "09-07-2026", "edicion": "44495" }, "geometry": { "type": "Polygon", "coordinates": [ [ [ -70.733449002811071, -27.271760749786601 ], [ -70.728399561412573, -27.271823220290212 ], [ -70.728539211730933, -27.280847340921099 ], [ -70.733589060614207, -27.280784846363403 ], [ -70.733449002811071, -27.271760749786601 ] ] ] } },
{ "type": "Feature", "properties": { "cve": "2834797", "nombre": "YERBAS BUENAS 1 AL 10", "solicitante": "Pastén Cortés Luis Felipe Ignacio", "region": "REGIÓN DE ATACAMA", "provincia": "Provincia de Copiapó", "comuna": null, "superficie_ha": 80.0, "datum_original": "WGS84", "huso": 19, "epsg_origen": 32719, "tipo_publicacion": "manifestacion", "fuente_pdf": "http://www.diariooficial.interior.gob.cl/publicaciones/2026/07/09/44495/07/2834797.pdf", "archivo": "gm_manifestacion_2834797.pdf", "fecha": "09-07-2026", "edicion": "44495" }, "geometry": { "type": "Polygon", "coordinates": [ [ [ -70.098184923993941, -27.371663277856385 ], [ -70.090096354904745, -27.371726685828577 ], [ -70.090184828113294, -27.380753155771572 ], [ -70.098274053357656, -27.380689723440266 ], [ -70.098184923993941, -27.371663277856385 ] ] ] } },
{ "type": "Feature", "properties": { "cve": "2834888", "nombre": "LA PORFIADA 1 AL 5", "solicitante": "Barrera Carvajal Francisco Herman", "region": "REGIÓN DE COQUIMBO", "provincia": "Provincia de Elqui", "comuna": "La Higuera", "superficie_ha": 20.0, "datum_original": "PSAD56", "huso": 19, "epsg_origen": 24879, "tipo_publicacion": "manifestacion", "fuente_pdf": "http://www.diariooficial.interior.gob.cl/publicaciones/2026/07/09/44495/07/2834888.pdf", "archivo": "gm_manifestacion_2834888.pdf", "fecha": "09-07-2026", "edicion": "44495" }, "geometry": { "type": "Polygon", "coordinates": [ [ [ -70.916357725698603, -29.54476772538148 ], [ -70.91223143263818, -29.544827183523658 ], [ -70.912316348539008, -29.549337266532937 ], [ -70.916442824561415, -29.549277797533524 ], [ -70.916357725698603, -29.54476772538148 ] ] ] } },
{ "type": "Feature", "properties": { "cve": "2835042", "nombre": "SOLEDAD DOS D 1 AL 20", "solicitante": "Inmobiliaria Toromiro S.A.", "region": "REGIÓN METROPOLITANA DE SANTIAGO", "provincia": "Provincia Cordillera", "comuna": null, "superficie_ha": 100.0, "datum_original": "PSAD56", "huso": 19, "epsg_origen": 24879, "tipo_publicacion": "manifestacion", "fuente_pdf": "http://www.diariooficial.interior.gob.cl/publicaciones/2026/07/09/44495/07/2835042.pdf", "archivo": "gm_manifestacion_2835042.pdf", "fecha": "09-07-2026", "edicion": "44495" }, "geometry": { "type": "Polygon", "coordinates": [ [ [ -70.539833060173763, -33.591923572695613 ], [ -70.529059638493706, -33.592057187612987 ], [ -70.529218769650399, -33.601073415658867 ], [ -70.539993311457692, -33.600939755373929 ], [ -70.539833060173763, -33.591923572695613 ] ] ] } },
{ "type": "Feature", "properties": { "cve": "2835041", "nombre": "SOLEDAD UNO D 1 AL 20", "solicitante": "Inmobiliaria Toromiro S.A.", "region": "REGIÓN METROPOLITANA DE SANTIAGO", "provincia": "Provincia Cordillera", "comuna": null, "superficie_ha": 100.0, "datum_original": "PSAD56", "huso": 19, "epsg_origen": 24879, "tipo_publicacion": "manifestacion", "fuente_pdf": "http://www.diariooficial.interior.gob.cl/publicaciones/2026/07/09/44495/07/2835041.pdf", "archivo": "gm_manifestacion_2835041.pdf", "fecha": "09-07-2026", "edicion": "44495" }, "geometry": { "type": "Polygon", "coordinates": [ [ [ -70.538057039408642, -33.58292747126098 ], [ -70.52728472671096, -33.583060900253308 ], [ -70.527443619123275, -33.592077148997028 ], [ -70.538217051454666, -33.591943674694107 ], [ -70.538057039408642, -33.58292747126098 ] ] ] } },
{ "type": "Feature", "properties": { "cve": "2834728", "nombre": "LUIS UNO 1/20", "solicitante": "Cuevas Valdivia Freddy William", "region": "REGIÓN METROPOLITANA DE SANTIAGO", "provincia": "Provincia de Chacabuco", "comuna": null, "superficie_ha": 100.0, "datum_original": "PSAD56", "huso": 19, "epsg_origen": 24879, "tipo_publicacion": "manifestacion", "fuente_pdf": "http://www.diariooficial.interior.gob.cl/publicaciones/2026/07/09/44495/07/2834728.pdf", "archivo": "gm_manifestacion_2834728.pdf", "fecha": "09-07-2026", "edicion": "44495" }, "geometry": { "type": "Polygon", "coordinates": [ [ [ -70.683080962739439, -33.085755766589678 ], [ -70.672370426602413, -33.085899917329975 ], [ -70.672541156126883, -33.094916254176411 ], [ -70.683252784430337, -33.094772054112099 ], [ -70.683080962739439, -33.085755766589678 ] ] ] } },
{ "type": "Feature", "properties": { "cve": "2834655", "nombre": "EL TESORO I 1 AL 10", "solicitante": "Sepúlveda Caniupán Eliecer Benjamín", "region": "REGIÓN DEL BIOBÍO", "provincia": "Provincia de Arauco", "comuna": null, "superficie_ha": 100.0, "datum_original": "PSAD56", "huso": 18, "epsg_origen": 24878, "tipo_publicacion": "manifestacion", "fuente_pdf": "http://www.diariooficial.interior.gob.cl/publicaciones/2026/07/09/44495/07/2834655.pdf", "archivo": "gm_manifestacion_2834655.pdf", "fecha": "09-07-2026", "edicion": "44495" }, "geometry": { "type": "Polygon", "coordinates": [ [ [ -73.237720153374767, -37.827134869453744 ], [ -73.226362366790312, -37.826964348299995 ], [ -73.226146646664205, -37.835973158554523 ], [ -73.237505812899997, -37.836143734715982 ], [ -73.237720153374767, -37.827134869453744 ] ] ] } },
{ "type": "Feature", "properties": { "cve": "2834656", "nombre": "EL TESORO II 1 AL 3", "solicitante": "Sepúlveda Caniupán Eliecer Benjamín", "region": "REGIÓN DEL BIOBÍO", "provincia": "Provincia de Arauco", "comuna": null, "superficie_ha": 25.0, "datum_original": "PSAD56", "huso": 18, "epsg_origen": 24878, "tipo_publicacion": "manifestacion", "fuente_pdf": "http://www.diariooficial.interior.gob.cl/publicaciones/2026/07/09/44495/07/2834656.pdf", "archivo": "gm_manifestacion_2834656.pdf", "fecha": "09-07-2026", "edicion": "44495" }, "geometry": { "type": "Polygon", "coordinates": [ [ [ -73.218183610203155, -37.833032156808507 ], [ -73.212504313168594, -37.832946079850373 ], [ -73.212395599346962, -37.83745044827333 ], [ -73.21807524134482, -37.837536539113373 ], [ -73.218183610203155, -37.833032156808507 ] ] ] } },
{ "type": "Feature", "properties": { "cve": "2834827", "nombre": "PAMPA I A 1 AL 15", "solicitante": "Zabaleta Andrade José Iván", "region": "REGIÓN DE TARAPACÁ", "provincia": "Provincia del Tamarugal", "comuna": null, "superficie_ha": 75.0, "datum_original": "PSAD56", "huso": 19, "epsg_origen": 24879, "tipo_publicacion": "mensura", "fuente_pdf": "http://www.diariooficial.interior.gob.cl/publicaciones/2026/07/09/44495/07/2834827.pdf", "archivo": "gm_mensura_2834827.pdf", "fecha": "09-07-2026", "edicion": "44495" }, "geometry": { "type": "Polygon", "coordinates": [ [ [ -69.45034266711022, -21.380938544174953 ], [ -69.435873185854959, -21.380976749029319 ], [ -69.435886562355137, -21.385494213814393 ], [ -69.450356487627943, -21.385456000113003 ], [ -69.45034266711022, -21.380938544174953 ] ] ] } },
{ "type": "Feature", "properties": { "cve": "2835090", "nombre": "AURORA 1  1 AL 10", "solicitante": "García Díaz Hugo Osvaldo y otra", "region": "REGIÓN DE ATACAMA", "provincia": "Provincia de Copiapó", "comuna": null, "superficie_ha": 100.0, "datum_original": "PSAD56", "huso": 19, "epsg_origen": 24879, "tipo_publicacion": "mensura", "fuente_pdf": "http://www.diariooficial.interior.gob.cl/publicaciones/2026/07/09/44495/07/2835090.pdf", "archivo": "gm_mensura_2835090.pdf", "fecha": "09-07-2026", "edicion": "44495" }, "geometry": { "type": "Polygon", "coordinates": [ [ [ -70.451055551495472, -27.614816559484932 ], [ -70.440923983985201, -27.614922143613938 ], [ -70.441042127568508, -27.62394707421927 ], [ -70.45117452507354, -27.623841449775821 ], [ -70.451055551495472, -27.614816559484932 ] ] ] } },
{ "type": "Feature", "properties": { "cve": "2835098", "nombre": "AURORA 10 1 AL 10", "solicitante": "García Díaz Hugo Osvaldo y otra", "region": "REGIÓN DE ATACAMA", "provincia": "Provincia de Copiapó", "comuna": null, "superficie_ha": 75.0, "datum_original": "PSAD56", "huso": 19, "epsg_origen": 24879, "tipo_publicacion": "mensura", "fuente_pdf": "http://www.diariooficial.interior.gob.cl/publicaciones/2026/07/09/44495/07/2835098.pdf", "archivo": "gm_mensura_2835098.pdf", "fecha": "09-07-2026", "edicion": "44495" }, "geometry": { "type": "Polygon", "coordinates": [ [ [ -70.441278579605267, -27.641996898511376 ], [ -70.436211529634221, -27.642049473512639 ], [ -70.436270469237741, -27.646561931922349 ], [ -70.431203197797728, -27.646614331886202 ], [ -70.431261943284227, -27.651126797214278 ], [ -70.441396888097316, -27.651021792192537 ], [ -70.441278579605267, -27.641996898511376 ] ] ] } },
{ "type": "Feature", "properties": { "cve": "2835099", "nombre": "AURORA 11  1 AL 5", "solicitante": "García Díaz Hugo Osvaldo y otra", "region": "REGIÓN DE ATACAMA", "provincia": "Provincia de Copiapó", "comuna": null, "superficie_ha": 50.0, "datum_original": "PSAD56", "huso": 19, "epsg_origen": 24879, "tipo_publicacion": "mensura", "fuente_pdf": "http://www.diariooficial.interior.gob.cl/publicaciones/2026/07/09/44495/07/2835099.pdf", "archivo": "gm_mensura_2835099.pdf", "fecha": "09-07-2026", "edicion": "44495" }, "geometry": { "type": "Polygon", "coordinates": [ [ [ -70.431203197797728, -27.646614331886202 ], [ -70.421068614006884, -27.646718576603874 ], [ -70.421126943849487, -27.651231061817303 ], [ -70.431261943284227, -27.651126797214278 ], [ -70.431203197797728, -27.646614331886202 ] ] ] } },
{ "type": "Feature", "properties": { "cve": "2835100", "nombre": "AURORA 12  1 AL 5", "solicitante": "García Díaz Hugo Osvaldo y otra", "region": "REGIÓN DE ATACAMA", "provincia": "Provincia de Copiapó", "comuna": null, "superficie_ha": 50.0, "datum_original": "PSAD56", "huso": 19, "epsg_origen": 24879, "tipo_publicacion": "mensura", "fuente_pdf": "http://www.diariooficial.interior.gob.cl/publicaciones/2026/07/09/44495/07/2835100.pdf", "archivo": "gm_mensura_2835100.pdf", "fecha": "09-07-2026", "edicion": "44495" }, "geometry": { "type": "Polygon", "coordinates": [ [ [ -70.421068614006884, -27.646718576603874 ], [ -70.410933975990233, -27.646822081029129 ], [ -70.410991890179375, -27.651334585986728 ], [ -70.421126943849487, -27.651231061817303 ], [ -70.421068614006884, -27.646718576603874 ] ] ] } },
{ "type": "Feature", "properties": { "cve": "2835101", "nombre": "AURORA 13 1 AL 5", "solicitante": "García Díaz Hugo Osvaldo y otra", "region": "REGIÓN DE ATACAMA", "provincia": "Provincia de Copiapó", "comuna": null, "superficie_ha": 50.0, "datum_original": "PSAD56", "huso": 19, "epsg_origen": 24879, "tipo_publicacion": "mensura", "fuente_pdf": "http://www.diariooficial.interior.gob.cl/publicaciones/2026/07/09/44495/07/2835101.pdf", "archivo": "gm_mensura_2835101.pdf", "fecha": "09-07-2026", "edicion": "44495" }, "geometry": { "type": "Polygon", "coordinates": [ [ [ -70.410933975990233, -27.646822081029129 ], [ -70.400799284133981, -27.646924845147186 ], [ -70.400856782660213, -27.651437369707775 ], [ -70.410991890179375, -27.651334585986728 ], [ -70.410933975990233, -27.646822081029129 ] ] ] } },
{ "type": "Feature", "properties": { "cve": "2835102", "nombre": "AURORA 14 1 AL 10", "solicitante": "García Díaz Hugo Osvaldo y otra", "region": "REGIÓN DE ATACAMA", "provincia": "Provincia de Copiapó", "comuna": null, "superficie_ha": 75.0, "datum_original": "PSAD56", "huso": 19, "epsg_origen": 24879, "tipo_publicacion": "mensura", "fuente_pdf": "http://www.diariooficial.interior.gob.cl/publicaciones/2026/07/09/44495/07/2835102.pdf", "archivo": "gm_mensura_2835102.pdf", "fecha": "09-07-2026", "edicion": "44495" }, "geometry": { "type": "Polygon", "coordinates": [ [ [ -70.395674640760561, -27.642463412206343 ], [ -70.390607469237267, -27.642514321850825 ], [ -70.390721621678324, -27.651539412965764 ], [ -70.400856782660213, -27.651437369707775 ], [ -70.400799284133981, -27.646924845147186 ], [ -70.395731918136718, -27.646975949586434 ], [ -70.395674640760561, -27.642463412206343 ] ] ] } },
{ "type": "Feature", "properties": { "cve": "2835103", "nombre": "AURORA 15  1 AL 5", "solicitante": "García Díaz Hugo Osvaldo y otra", "region": "REGIÓN DE ATACAMA", "provincia": "Provincia de Copiapó", "comuna": null, "superficie_ha": 50.0, "datum_original": "PSAD56", "huso": 19, "epsg_origen": 24879, "tipo_publicacion": "mensura", "fuente_pdf": "http://www.diariooficial.interior.gob.cl/publicaciones/2026/07/09/44495/07/2835103.pdf", "archivo": "gm_mensura_2835103.pdf", "fecha": "09-07-2026", "edicion": "44495" }, "geometry": { "type": "Polygon", "coordinates": [ [ [ -70.425843428400213, -27.624104124210657 ], [ -70.415710894243617, -27.624207899733921 ], [ -70.415768948743164, -27.628720410204007 ], [ -70.425901898065831, -27.628616614873899 ], [ -70.425843428400213, -27.624104124210657 ] ] ] } },
{ "type": "Feature", "properties": { "cve": "2835104", "nombre": "AURORA 16 1 AL 5", "solicitante": "García Díaz Hugo Osvaldo y otra", "region": "REGIÓN DE ATACAMA", "provincia": "Provincia de Copiapó", "comuna": null, "superficie_ha": 50.0, "datum_original": "PSAD56", "huso": 19, "epsg_origen": 24879, "tipo_publicacion": "mensura", "fuente_pdf": "http://www.diariooficial.interior.gob.cl/publicaciones/2026/07/09/44495/07/2835104.pdf", "archivo": "gm_mensura_2835104.pdf", "fecha": "09-07-2026", "edicion": "44495" }, "geometry": { "type": "Polygon", "coordinates": [ [ [ -70.415710894243617, -27.624207899733921 ], [ -70.405578306101702, -27.6243109356631 ], [ -70.405635945425701, -27.628823465798909 ], [ -70.415768948743164, -27.628720410204007 ], [ -70.415710894243617, -27.624207899733921 ] ] ] } },
{ "type": "Feature", "properties": { "cve": "2835105", "nombre": "AURORA 17 1 AL 10", "solicitante": "García Díaz Hugo Osvaldo y otra", "region": "REGIÓN DE ATACAMA", "provincia": "Provincia de Copiapó", "comuna": null, "superficie_ha": 100.0, "datum_original": "PSAD56", "huso": 19, "epsg_origen": 24879, "tipo_publicacion": "mensura", "fuente_pdf": "http://www.diariooficial.interior.gob.cl/publicaciones/2026/07/09/44495/07/2835105.pdf", "archivo": "gm_mensura_2835105.pdf", "fecha": "09-07-2026", "edicion": "44495" }, "geometry": { "type": "Polygon", "coordinates": [ [ [ -70.405578306101702, -27.6243109356631 ], [ -70.395445664360366, -27.624413231983489 ], [ -70.395560125944257, -27.633438328234718 ], [ -70.40569359815197, -27.633335992863589 ], [ -70.405578306101702, -27.6243109356631 ] ] ] } },
{ "type": "Feature", "properties": { "cve": "2835106", "nombre": "AURORA 18  1 AL 5", "solicitante": "García Díaz Hugo Osvaldo y otra", "region": "REGIÓN DE ATACAMA", "provincia": "Provincia de Copiapó", "comuna": null, "superficie_ha": 50.0, "datum_original": "PSAD56", "huso": 19, "epsg_origen": 24879, "tipo_publicacion": "mensura", "fuente_pdf": "http://www.diariooficial.interior.gob.cl/publicaciones/2026/07/09/44495/07/2835106.pdf", "archivo": "gm_mensura_2835106.pdf", "fecha": "09-07-2026", "edicion": "44495" }, "geometry": { "type": "Polygon", "coordinates": [ [ [ -70.40569359815197, -27.633335992863589 ], [ -70.395560125944257, -27.633438328234718 ], [ -70.395617376697189, -27.63795087175567 ], [ -70.40575126428287, -27.63784851685682 ], [ -70.40569359815197, -27.633335992863589 ] ] ] } },
{ "type": "Feature", "properties": { "cve": "2835091", "nombre": "AURORA 2 1 AL 10", "solicitante": "García Díaz Hugo Osvaldo y otra", "region": "REGIÓN DE ATACAMA", "provincia": "Provincia de Copiapó", "comuna": null, "superficie_ha": 75.0, "datum_original": "PSAD56", "huso": 19, "epsg_origen": 24879, "tipo_publicacion": "mensura", "fuente_pdf": "http://www.diariooficial.interior.gob.cl/publicaciones/2026/07/09/44495/07/2835091.pdf", "archivo": "gm_mensura_2835091.pdf", "fecha": "09-07-2026", "edicion": "44495" }, "geometry": { "type": "Polygon", "coordinates": [ [ [ -70.440923983985201, -27.614922143613938 ], [ -70.430792361544206, -27.615026988468273 ], [ -70.430851011509461, -27.619539475324256 ], [ -70.435917037052818, -27.619487135317318 ], [ -70.435975908185611, -27.623999609108115 ], [ -70.441042127568508, -27.62394707421927 ], [ -70.440923983985201, -27.614922143613938 ] ] ] } },
{ "type": "Feature", "properties": { "cve": "2835092", "nombre": "AURORA 3 1 AL 10", "solicitante": "García Díaz Hugo Osvaldo y otra", "region": "REGIÓN DE ATACAMA", "provincia": "Provincia de Copiapó", "comuna": null, "superficie_ha": 100.0, "datum_original": "PSAD56", "huso": 19, "epsg_origen": 24879, "tipo_publicacion": "mensura", "fuente_pdf": "http://www.diariooficial.interior.gob.cl/publicaciones/2026/07/09/44495/07/2835092.pdf", "archivo": "gm_mensura_2835092.pdf", "fecha": "09-07-2026", "edicion": "44495" }, "geometry": { "type": "Polygon", "coordinates": [ [ [ -70.430792361544206, -27.615026988468273 ], [ -70.420660684558158, -27.615131094033 ], [ -70.420777168094205, -27.624156104420631 ], [ -70.43090967511344, -27.624051959105866 ], [ -70.430792361544206, -27.615026988468273 ] ] ] } },
{ "type": "Feature", "properties": { "cve": "2835093", "nombre": "AURORA 5 1 AL 5", "solicitante": "García Díaz Hugo Osvaldo y otra", "region": "REGIÓN DE ATACAMA", "provincia": "Provincia de Copiapó", "comuna": null, "superficie_ha": 50.0, "datum_original": "PSAD56", "huso": 19, "epsg_origen": 24879, "tipo_publicacion": "mensura", "fuente_pdf": "http://www.diariooficial.interior.gob.cl/publicaciones/2026/07/09/44495/07/2835093.pdf", "archivo": "gm_mensura_2835093.pdf", "fecha": "09-07-2026", "edicion": "44495" }, "geometry": { "type": "Polygon", "coordinates": [ [ [ -70.405463067651056, -27.615285866179541 ], [ -70.400397168494095, -27.615337087234217 ], [ -70.400511991906839, -27.624362176275316 ], [ -70.405578306101702, -27.6243109356631 ], [ -70.405463067651056, -27.615285866179541 ] ] ] } },
{ "type": "Feature", "properties": { "cve": "2835094", "nombre": "AURORA 6  1 AL 10", "solicitante": "García Diaz Hugo Osvaldo y otra", "region": "REGIÓN DE ATACAMA", "provincia": "Provincia de Copiapó", "comuna": null, "superficie_ha": 100.0, "datum_original": "PSAD56", "huso": 19, "epsg_origen": 24879, "tipo_publicacion": "mensura", "fuente_pdf": "http://www.diariooficial.interior.gob.cl/publicaciones/2026/07/09/44495/07/2835094.pdf", "archivo": "gm_mensura_2835094.pdf", "fecha": "09-07-2026", "edicion": "44495" }, "geometry": { "type": "Polygon", "coordinates": [ [ [ -70.4461083332139, -27.623894354441212 ], [ -70.435975908185611, -27.623999609108115 ], [ -70.436093691521634, -27.633024547462799 ], [ -70.446226946940229, -27.632919252616137 ], [ -70.4461083332139, -27.623894354441212 ] ] ] } },
{ "type": "Feature", "properties": { "cve": "2835095", "nombre": "AURORA 7 1 AL 10", "solicitante": "García Díaz Hugo Osvaldo y otra", "region": "REGIÓN DE ATACAMA", "provincia": "Provincia de Copiapó", "comuna": null, "superficie_ha": 100.0, "datum_original": "PSAD56", "huso": 19, "epsg_origen": 24879, "tipo_publicacion": "mensura", "fuente_pdf": "http://www.diariooficial.interior.gob.cl/publicaciones/2026/07/09/44495/07/2835095.pdf", "archivo": "gm_mensura_2835095.pdf", "fecha": "09-07-2026", "edicion": "44495" }, "geometry": { "type": "Polygon", "coordinates": [ [ [ -70.446226946940229, -27.632919252616137 ], [ -70.436093691521634, -27.633024547462799 ], [ -70.436211529634221, -27.642049473512639 ], [ -70.446345615829145, -27.641944138479772 ], [ -70.446226946940229, -27.632919252616137 ] ] ] } },
{ "type": "Feature", "properties": { "cve": "2835096", "nombre": "AURORA 8  1 AL 10", "solicitante": "García Díaz Hugo Osvaldo y otra", "region": "REGIÓN DE ATACAMA", "provincia": "Provincia de Copiapó", "comuna": null, "superficie_ha": 100.0, "datum_original": "PSAD56", "huso": 19, "epsg_origen": 24879, "tipo_publicacion": "mensura", "fuente_pdf": "http://www.diariooficial.interior.gob.cl/publicaciones/2026/07/09/44495/07/2835096.pdf", "archivo": "gm_mensura_2835096.pdf", "fecha": "09-07-2026", "edicion": "44495" }, "geometry": { "type": "Polygon", "coordinates": [ [ [ -70.451412638257608, -27.641891193419699 ], [ -70.441278579605267, -27.641996898511376 ], [ -70.441396888097316, -27.651021792192537 ], [ -70.45153177790246, -27.650916046767083 ], [ -70.451412638257608, -27.641891193419699 ] ] ] } },
{ "type": "Feature", "properties": { "cve": "2835097", "nombre": "AURORA 9 1 AL 10", "solicitante": "García Díaz Hugo Osvaldo y otra", "region": "REGIÓN DE ATACAMA", "provincia": "Provincia de Copiapó", "comuna": null, "superficie_ha": 100.0, "datum_original": "PSAD56", "huso": 19, "epsg_origen": 24879, "tipo_publicacion": "mensura", "fuente_pdf": "http://www.diariooficial.interior.gob.cl/publicaciones/2026/07/09/44495/07/2835097.pdf", "archivo": "gm_mensura_2835097.pdf", "fecha": "09-07-2026", "edicion": "44495" }, "geometry": { "type": "Polygon", "coordinates": [ [ [ -70.45153177790246, -27.650916046767083 ], [ -70.441396888097316, -27.651021792192537 ], [ -70.441515251597579, -27.660046673560043 ], [ -70.451650972941778, -27.659940887794345 ], [ -70.45153177790246, -27.650916046767083 ] ] ] } },
{ "type": "Feature", "properties": { "cve": "2834830", "nombre": "TEBOS DEL 1 AL 7", "solicitante": "Caullan Flores Fernando Aladino", "region": "REGIÓN METROPOLITANA DE SANTIAGO", "provincia": "Provincia de Melipilla", "comuna": null, "superficie_ha": 28.0, "datum_original": "PSAD56", "huso": 19, "epsg_origen": 24879, "tipo_publicacion": "mensura", "fuente_pdf": "http://www.diariooficial.interior.gob.cl/publicaciones/2026/07/09/44495/07/2834830.pdf", "archivo": "gm_mensura_2834830.pdf", "fecha": "09-07-2026", "edicion": "44495" }, "geometry": { "type": "Polygon", "coordinates": [ [ [ -71.237029157919082, -33.760577902675166 ], [ -71.232713112312766, -33.760656077081727 ], [ -71.232876771573032, -33.766964711387885 ], [ -71.237193132905475, -33.766886518455671 ], [ -71.237029157919082, -33.760577902675166 ] ] ] } },
{ "type": "Feature", "properties": { "cve": "2834917", "nombre": "ELENA 17, 1 AL 300", "solicitante": "Neore SpA", "region": "REGIÓN DE ÑUBLE", "provincia": "Provincia de Itata", "comuna": null, "superficie_ha": 300.0, "datum_original": "PSAD56", "huso": 18, "epsg_origen": 24878, "tipo_publicacion": "mensura", "fuente_pdf": "http://www.diariooficial.interior.gob.cl/publicaciones/2026/07/09/44495/07/2834917.pdf", "archivo": "gm_mensura_2834917.pdf", "fecha": "09-07-2026", "edicion": "44495" }, "geometry": { "type": "Polygon", "coordinates": [ [ [ -72.745418607306689, -36.059171418212713 ], [ -72.712133947881341, -36.058540541337209 ], [ -72.711873007087974, -36.067549182558224 ], [ -72.745161454869702, -36.068180266651972 ], [ -72.745418607306689, -36.059171418212713 ] ] ] } },
{ "type": "Feature", "properties": { "cve": "2835017", "nombre": "MARISOL UNO", "solicitante": "Sociedad Química y Minera de Chile S.A.", "region": "REGIÓN DE ANTOFAGASTA", "provincia": "Provincia de Tocopilla", "comuna": null, "superficie_ha": 100.0, "datum_original": "WGS84", "huso": 19, "epsg_origen": 32719, "tipo_publicacion": "pedimento", "fuente_pdf": "http://www.diariooficial.interior.gob.cl/publicaciones/2026/07/09/44495/07/2835017.pdf", "archivo": "gm_pedimento_2835017.pdf", "fecha": "09-07-2026", "edicion": "44495" }, "geometry": { "type": "Polygon", "coordinates": [ [ [ -70.071652374850473, -22.156145542799866 ], [ -70.061955443145109, -22.156208978002176 ], [ -70.062023250316244, -22.165241808797489 ], [ -70.071720800895164, -22.165178345055054 ], [ -70.071652374850473, -22.156145542799866 ] ] ] } },
{ "type": "Feature", "properties": { "cve": "2834904", "nombre": "LOMA NEGRA 1", "solicitante": "Solís Gatica Luis Humberto y otro", "region": "REGIÓN DE ATACAMA", "provincia": "Provincia de Copiapó", "comuna": null, "superficie_ha": 200.0, "datum_original": "PSAD56", "huso": 19, "epsg_origen": 24879, "tipo_publicacion": "pedimento", "fuente_pdf": "http://www.diariooficial.interior.gob.cl/publicaciones/2026/07/09/44495/07/2834904.pdf", "archivo": "gm_pedimento_2834904.pdf", "fecha": "09-07-2026", "edicion": "44495" }, "geometry": { "type": "Polygon", "coordinates": [ [ [ -70.150364114733975, -26.954138299722445 ], [ -70.140291104417258, -26.954220091655159 ], [ -70.140472929646478, -26.972273802897877 ], [ -70.150547545296277, -26.972191947443729 ], [ -70.150364114733975, -26.954138299722445 ] ] ] } },
{ "type": "Feature", "properties": { "cve": "2835113", "nombre": "RAMA 7", "solicitante": "Andina Minergy SpA y otras", "region": "REGIÓN DE ATACAMA", "provincia": "Provincia de Copiapó", "comuna": null, "superficie_ha": 100.0, "datum_original": "WGS84", "huso": 19, "epsg_origen": 32719, "tipo_publicacion": "pedimento", "fuente_pdf": "http://www.diariooficial.interior.gob.cl/publicaciones/2026/07/09/44495/07/2835113.pdf", "archivo": "gm_pedimento_2835113.pdf", "fecha": "09-07-2026", "edicion": "44495" }, "geometry": { "type": "Polygon", "coordinates": [ [ [ -70.539648626673525, -27.70705052829652 ], [ -70.529508963719223, -27.707162936881844 ], [ -70.529634876060115, -27.716187381869194 ], [ -70.539775372931203, -27.716074930464771 ], [ -70.539648626673525, -27.70705052829652 ] ] ] } },
{ "type": "Feature", "properties": { "cve": "2834930", "nombre": "CONDOR 17", "solicitante": "Izquierdo Frutos Felipe", "region": "REGIÓN DE COQUIMBO", "provincia": "Provincia de Elqui", "comuna": "La Serena", "superficie_ha": 300.0, "datum_original": "PSAD56", "huso": 19, "epsg_origen": 24879, "tipo_publicacion": "pedimento", "fuente_pdf": "http://www.diariooficial.interior.gob.cl/publicaciones/2026/07/09/44495/07/2834930.pdf", "archivo": "gm_pedimento_2834930.pdf", "fecha": "09-07-2026", "edicion": "44495" }, "geometry": { "type": "Polygon", "coordinates": [ [ [ -70.875677523826482, -29.57692773463922 ], [ -70.86535825775043, -29.577073125247924 ], [ -70.865856203414594, -29.604134174242677 ], [ -70.876178220226038, -29.603988624411436 ], [ -70.875677523826482, -29.57692773463922 ] ] ] } },
{ "type": "Feature", "properties": { "cve": "2834931", "nombre": "CONDOR 18", "solicitante": "Izquierdo Frutos Felipe", "region": "REGIÓN DE COQUIMBO", "provincia": "Provincia de Elqui", "comuna": "La Serena", "superficie_ha": 300.0, "datum_original": "PSAD56", "huso": 19, "epsg_origen": 24879, "tipo_publicacion": "pedimento", "fuente_pdf": "http://www.diariooficial.interior.gob.cl/publicaciones/2026/07/09/44495/07/2834931.pdf", "archivo": "gm_pedimento_2834931.pdf", "fecha": "09-07-2026", "edicion": "44495" }, "geometry": { "type": "Polygon", "coordinates": [ [ [ -70.86535825775043, -29.577073125247924 ], [ -70.85503891616969, -29.577217714684345 ], [ -70.855534111013668, -29.604278922024676 ], [ -70.865856203414594, -29.604134174242677 ], [ -70.86535825775043, -29.577073125247924 ] ] ] } },
{ "type": "Feature", "properties": { "cve": "2834964", "nombre": "EL MIRADOR 1", "solicitante": "Ávila Manuel Fernando y otros", "region": "REGIÓN DEL LIBERTADOR GENERAL BERNARDO O’HIGGINS", "provincia": "Provincia de Cachapoal", "comuna": null, "superficie_ha": 200.0, "datum_original": "PSAD56", "huso": 19, "epsg_origen": 24879, "tipo_publicacion": "pedimento", "fuente_pdf": "http://www.diariooficial.interior.gob.cl/publicaciones/2026/07/09/44495/07/2834964.pdf", "archivo": "gm_pedimento_2834964.pdf", "fecha": "09-07-2026", "edicion": "44495" }, "geometry": { "type": "Polygon", "coordinates": [ [ [ -71.180909310673215, -34.562354821822744 ], [ -71.170016280215037, -34.562549004277415 ], [ -71.170484767513145, -34.580572040562267 ], [ -71.18138014514544, -34.580377728096046 ], [ -71.180909310673215, -34.562354821822744 ] ] ] } }
]
}
