{
"type": "FeatureCollection",
"name": "boletin_mineria_20260618",
"crs": { "type": "name", "properties": { "name": "urn:ogc:def:crs:OGC:1.3:CRS84" } },
"features": [
{ "type": "Feature", "properties": { "cve": "2824983", "nombre": "SOFIA DOS, DEL 1 AL 300", "solicitante": "Curaco SpA", "region": "REGIÓN DE ATACAMA", "provincia": "Provincia de Copiapó", "comuna": null, "superficie_ha": 300.0, "datum_original": "PSAD56", "huso": 19, "epsg_origen": 24879, "tipo_publicacion": "manifestacion", "fuente_pdf": "http://www.diariooficial.interior.gob.cl/publicaciones/2026/06/18/44478/07/2824983.pdf", "archivo": "gm_manifestacion_2824983.pdf", "fecha": "18-06-2026", "edicion": "44478" }, "geometry": { "type": "Polygon", "coordinates": [ [ [ -70.80920702993231, -27.520356040405698 ], [ -70.799085933334723, -27.520487355407585 ], [ -70.799526870074871, -27.547557674234898 ], [ -70.809650443954681, -27.547426208467478 ], [ -70.80920702993231, -27.520356040405698 ] ] ] } },
{ "type": "Feature", "properties": { "cve": "2824984", "nombre": "SOFIA TRES, DEL 1 AL 200", "solicitante": "Curaco SpA", "region": "REGIÓN DE ATACAMA", "provincia": "Provincia de Copiapó", "comuna": null, "superficie_ha": 200.0, "datum_original": "PSAD56", "huso": 19, "epsg_origen": 24879, "tipo_publicacion": "manifestacion", "fuente_pdf": "http://www.diariooficial.interior.gob.cl/publicaciones/2026/06/18/44478/07/2824984.pdf", "archivo": "gm_manifestacion_2824984.pdf", "fecha": "18-06-2026", "edicion": "44478" }, "geometry": { "type": "Polygon", "coordinates": [ [ [ -70.839720117496938, -27.528980929899745 ], [ -70.819476619004419, -27.529247340929945 ], [ -70.819625249407167, -27.538270679748184 ], [ -70.839870399300224, -27.538004166800221 ], [ -70.839720117496938, -27.528980929899745 ] ] ] } },
{ "type": "Feature", "properties": { "cve": "2824982", "nombre": "SOFIA UNO, DEL 1 AL 300", "solicitante": "Curaco SpA", "region": "REGIÓN DE ATACAMA", "provincia": "Provincia de Copiapó", "comuna": null, "superficie_ha": 300.0, "datum_original": "PSAD56", "huso": 19, "epsg_origen": 24879, "tipo_publicacion": "manifestacion", "fuente_pdf": "http://www.diariooficial.interior.gob.cl/publicaciones/2026/06/18/44478/07/2824982.pdf", "archivo": "gm_manifestacion_2824982.pdf", "fecha": "18-06-2026", "edicion": "44478" }, "geometry": { "type": "Polygon", "coordinates": [ [ [ -70.819328057769937, -27.520223989563753 ], [ -70.80920702993231, -27.520356040405698 ], [ -70.809650443954681, -27.547426208467478 ], [ -70.819773949002368, -27.547294006015537 ], [ -70.819328057769937, -27.520223989563753 ] ] ] } },
{ "type": "Feature", "properties": { "cve": "2825212", "nombre": "DOMINGO 16B, 1 AL 5", "solicitante": "Minera Santo Domingo SCM", "region": "REGIÓN DE ATACAMA", "provincia": "Provincia de Chañaral", "comuna": "DIEGO DE ALMAGRO", "superficie_ha": 35.0, "datum_original": "PSAD56", "huso": 19, "epsg_origen": 24879, "tipo_publicacion": "manifestacion", "fuente_pdf": "http://www.diariooficial.interior.gob.cl/publicaciones/2026/06/18/44478/07/2825212.pdf", "archivo": "gm_manifestacion_2825212.pdf", "fecha": "18-06-2026", "edicion": "44478" }, "geometry": { "type": "Polygon", "coordinates": [ [ [ -70.075368553980823, -26.47850224412915 ], [ -70.068346511354932, -26.478554953052253 ], [ -70.068388214804713, -26.483068800089626 ], [ -70.075410531411279, -26.483016080805086 ], [ -70.075368553980823, -26.47850224412915 ] ] ] } },
{ "type": "Feature", "properties": { "cve": "2825278", "nombre": "BOYEN 1 AL 9", "solicitante": "Dinamarca Aguirre Erasmo Hernán", "region": "REGIÓN DE COQUIMBO", "provincia": "Provincia de Elqui", "comuna": null, "superficie_ha": 90.0, "datum_original": "PSAD56", "huso": 19, "epsg_origen": 24879, "tipo_publicacion": "manifestacion", "fuente_pdf": "http://www.diariooficial.interior.gob.cl/publicaciones/2026/06/18/44478/07/2825278.pdf", "archivo": "gm_manifestacion_2825278.pdf", "fecha": "18-06-2026", "edicion": "44478" }, "geometry": { "type": "Polygon", "coordinates": [ [ [ -71.090566173666204, -30.08344769134456 ], [ -71.0843441291358, -30.083546543703914 ], [ -71.084627971643314, -30.097074247464462 ], [ -71.090850861978822, -30.096975341557663 ], [ -71.090566173666204, -30.08344769134456 ] ] ] } },
{ "type": "Feature", "properties": { "cve": "2825201", "nombre": "San Enrique III del 1 al 8", "solicitante": "Araya Tapia Luis Eduardo", "region": "REGIÓN DE COQUIMBO", "provincia": "Provincia de Limarí", "comuna": "Ovalle", "superficie_ha": 40.0, "datum_original": "PSAD56", "huso": 19, "epsg_origen": 24879, "tipo_publicacion": "manifestacion", "fuente_pdf": "http://www.diariooficial.interior.gob.cl/publicaciones/2026/06/18/44478/07/2825201.pdf", "archivo": "gm_manifestacion_2825201.pdf", "fecha": "18-06-2026", "edicion": "44478" }, "geometry": { "type": "Polygon", "coordinates": [ [ [ -71.175282480730047, -30.608442071620694 ], [ -71.170069987196129, -30.608529155736338 ], [ -71.170230910648172, -30.615742948578259 ], [ -71.175443789976825, -30.615655839568927 ], [ -71.175282480730047, -30.608442071620694 ] ] ] } },
{ "type": "Feature", "properties": { "cve": "2825067", "nombre": "ANGELITA SEGUNDA 1 AL 20", "solicitante": "Alcaíno Iturriaga Álvaro Claudio", "region": "REGIÓN METROPOLITANA DE SANTIAGO", "provincia": "Provincia de Melipilla", "comuna": null, "superficie_ha": 100.0, "datum_original": "PSAD56", "huso": 19, "epsg_origen": 24879, "tipo_publicacion": "manifestacion", "fuente_pdf": "http://www.diariooficial.interior.gob.cl/publicaciones/2026/06/18/44478/07/2825067.pdf", "archivo": "gm_manifestacion_2825067.pdf", "fecha": "18-06-2026", "edicion": "44478" }, "geometry": { "type": "Polygon", "coordinates": [ [ [ -71.417285759738931, -33.707995020859173 ], [ -71.406503572930376, -33.708205641066122 ], [ -71.406755078632273, -33.717216939877474 ], [ -71.417538389626287, -33.717006248318299 ], [ -71.417285759738931, -33.707995020859173 ] ] ] } },
{ "type": "Feature", "properties": { "cve": "2825037", "nombre": "DON JERONIMO 1 AL 60", "solicitante": "Comercial Pencahue SpA", "region": "REGIÓN DEL MAULE", "provincia": "Provincia de Talca", "comuna": null, "superficie_ha": 300.0, "datum_original": "PSAD56", "huso": 19, "epsg_origen": 24879, "tipo_publicacion": "manifestacion", "fuente_pdf": "http://www.diariooficial.interior.gob.cl/publicaciones/2026/06/18/44478/07/2825037.pdf", "archivo": "gm_manifestacion_2825037.pdf", "fecha": "18-06-2026", "edicion": "44478" }, "geometry": { "type": "Polygon", "coordinates": [ [ [ -71.763952988239751, -35.281204029246801 ], [ -71.731001782294328, -35.281952903434075 ], [ -71.731304453744116, -35.290959566742565 ], [ -71.76425930033399, -35.290210444346862 ], [ -71.763952988239751, -35.281204029246801 ] ] ] } },
{ "type": "Feature", "properties": { "cve": "2825112", "nombre": "SAN ALFONSO 7A DEL 1 AL 15", "solicitante": "Ávila Espinoza Cristián Luis", "region": "REGIÓN DEL MAULE", "provincia": "Provincia de Talca", "comuna": null, "superficie_ha": 150.0, "datum_original": "PSAD56", "huso": 19, "epsg_origen": 24879, "tipo_publicacion": "manifestacion", "fuente_pdf": "http://www.diariooficial.interior.gob.cl/publicaciones/2026/06/18/44478/07/2825112.pdf", "archivo": "gm_manifestacion_2825112.pdf", "fecha": "18-06-2026", "edicion": "44478" }, "geometry": { "type": "Polygon", "coordinates": [ [ [ -71.539999361451464, -35.290533565440576 ], [ -71.529012511976333, -35.290763904651207 ], [ -71.529433146150794, -35.304276068603265 ], [ -71.540421818215592, -35.304045614863661 ], [ -71.539999361451464, -35.290533565440576 ] ] ] } },
{ "type": "Feature", "properties": { "cve": "2825230", "nombre": "INKANA 2 1 AL 4", "solicitante": "Palma Marín Francisco Javier", "region": "REGIÓN DE ATACAMA", "provincia": "Provincia de Chañaral", "comuna": null, "superficie_ha": 32.0, "datum_original": "PSAD56", "huso": 19, "epsg_origen": 24879, "tipo_publicacion": "mensura", "fuente_pdf": "http://www.diariooficial.interior.gob.cl/publicaciones/2026/06/18/44478/07/2825230.pdf", "archivo": "gm_mensura_2825230.pdf", "fecha": "18-06-2026", "edicion": "44478" }, "geometry": { "type": "Polygon", "coordinates": [ [ [ -70.072925949830406, -26.67948810392879 ], [ -70.068906343609797, -26.679518407757264 ], [ -70.068973696006836, -26.686740354804048 ], [ -70.072993555386944, -26.686710041494688 ], [ -70.072925949830406, -26.67948810392879 ] ] ] } },
{ "type": "Feature", "properties": { "cve": "2825132", "nombre": "SALOMON I 1 AL 20", "solicitante": "Compañía Minera Minerales Copiapó Limitada", "region": "REGIÓN DE ATACAMA", "provincia": "Provincia de Chañaral", "comuna": null, "superficie_ha": 180.0, "datum_original": "WGS84", "huso": 19, "epsg_origen": 32719, "tipo_publicacion": "mensura", "fuente_pdf": "http://www.diariooficial.interior.gob.cl/publicaciones/2026/06/18/44478/07/2825132.pdf", "archivo": "gm_mensura_2825132.pdf", "fecha": "18-06-2026", "edicion": "44478" }, "geometry": { "type": "Polygon", "coordinates": [ [ [ -70.042924329259932, -26.59001465562319 ], [ -70.024849986616587, -26.590145917714064 ], [ -70.024930408403804, -26.599173579390026 ], [ -70.043006168751447, -26.599042265846212 ], [ -70.042924329259932, -26.59001465562319 ] ] ] } },
{ "type": "Feature", "properties": { "cve": "2825180", "nombre": "PLANTA I 1 AL 12", "solicitante": "Sociedad Industrial Romeral S.A.", "region": "REGIÓN METROPOLITANA DE SANTIAGO", "provincia": "Provincia Cordillera", "comuna": null, "superficie_ha": 12.0, "datum_original": "PSAD56", "huso": 19, "epsg_origen": 24879, "tipo_publicacion": "mensura", "fuente_pdf": "http://www.diariooficial.interior.gob.cl/publicaciones/2026/06/18/44478/07/2825180.pdf", "archivo": "gm_mensura_2825180.pdf", "fecha": "18-06-2026", "edicion": "44478" }, "geometry": { "type": "Polygon", "coordinates": [ [ [ -70.217195988947481, -33.790769245192287 ], [ -70.213956078835039, -33.790801165871862 ], [ -70.214006990123664, -33.794408018165747 ], [ -70.217247036030869, -33.794376093163343 ], [ -70.217195988947481, -33.790769245192287 ] ] ] } },
{ "type": "Feature", "properties": { "cve": "2825204", "nombre": "VICUÑA9", "solicitante": "SCM Vilacollo", "region": "REGIÓN DE ARICA Y PARINACOTA", "provincia": "Provincia de Parinacota", "comuna": "Putre", "superficie_ha": 300.0, "datum_original": "PSAD56", "huso": 19, "epsg_origen": 24879, "tipo_publicacion": "pedimento", "fuente_pdf": "http://www.diariooficial.interior.gob.cl/publicaciones/2026/06/18/44478/07/2825204.pdf", "archivo": "gm_pedimento_2825204.pdf", "fecha": "18-06-2026", "edicion": "44478" }, "geometry": { "type": "Polygon", "coordinates": [ [ [ -69.333182526964663, -18.371889918611956 ], [ -69.304784723196846, -18.371937488031438 ], [ -69.304800595834593, -18.380975486393901 ], [ -69.333199878444901, -18.380927891943472 ], [ -69.333182526964663, -18.371889918611956 ] ] ] } },
{ "type": "Feature", "properties": { "cve": "2825311", "nombre": "ROSA 1", "solicitante": "Compañía Minera Minerales Copiapó Limitada", "region": "REGIÓN DE ATACAMA", "provincia": "Provincia de Copiapó", "comuna": null, "superficie_ha": 100.0, "datum_original": "PSAD56", "huso": 19, "epsg_origen": 24879, "tipo_publicacion": "pedimento", "fuente_pdf": "http://www.diariooficial.interior.gob.cl/publicaciones/2026/06/18/44478/07/2825311.pdf", "archivo": "gm_pedimento_2825311.pdf", "fecha": "18-06-2026", "edicion": "44478" }, "geometry": { "type": "Polygon", "coordinates": [ [ [ -70.194471850619976, -28.169222410207539 ], [ -70.184287486699247, -28.169310855389153 ], [ -70.184386888238194, -28.178335984289507 ], [ -70.194572106476159, -28.178247505782327 ], [ -70.194471850619976, -28.169222410207539 ] ] ] } },
{ "type": "Feature", "properties": { "cve": "2824919", "nombre": "PIEDRA 2", "solicitante": "Gasco Inversiones S.A.", "region": "REGIÓN METROPOLITANA DE SANTIAGO", "provincia": "Provincia Cordillera", "comuna": null, "superficie_ha": 300.0, "datum_original": "PSAD56", "huso": 19, "epsg_origen": 24879, "tipo_publicacion": "pedimento", "fuente_pdf": "http://www.diariooficial.interior.gob.cl/publicaciones/2026/06/18/44478/07/2824919.pdf", "archivo": "gm_pedimento_2824919.pdf", "fecha": "18-06-2026", "edicion": "44478" }, "geometry": { "type": "Polygon", "coordinates": [ [ [ -70.202738009323184, -33.915273556497958 ], [ -70.191922552717671, -33.915378699971356 ], [ -70.192299439580623, -33.942429706266616 ], [ -70.203118314040822, -33.9423244561658 ], [ -70.202738009323184, -33.915273556497958 ] ] ] } },
{ "type": "Feature", "properties": { "cve": "2825302", "nombre": "TORRE 1", "solicitante": "Jara Cáceres Javier Andrés", "region": "REGIÓN METROPOLITANA DE SANTIAGO", "provincia": "Provincia de Chacabuco", "comuna": null, "superficie_ha": 300.0, "datum_original": "PSAD56", "huso": 19, "epsg_origen": 24879, "tipo_publicacion": "pedimento", "fuente_pdf": "http://www.diariooficial.interior.gob.cl/publicaciones/2026/06/18/44478/07/2825302.pdf", "archivo": "gm_pedimento_2825302.pdf", "fecha": "18-06-2026", "edicion": "44478" }, "geometry": { "type": "Polygon", "coordinates": [ [ [ -70.679879733059735, -33.057119675731691 ], [ -70.647758250523836, -33.057548218887483 ], [ -70.647926286438647, -33.066564709707222 ], [ -70.680051040955377, -33.066136019849971 ], [ -70.679879733059735, -33.057119675731691 ] ] ] } },
{ "type": "Feature", "properties": { "cve": "2825303", "nombre": "TORRE 2", "solicitante": "Jara Cáceres Javier Andrés", "region": "REGIÓN METROPOLITANA DE SANTIAGO", "provincia": "Provincia de Chacabuco", "comuna": null, "superficie_ha": 300.0, "datum_original": "PSAD56", "huso": 19, "epsg_origen": 24879, "tipo_publicacion": "pedimento", "fuente_pdf": "http://www.diariooficial.interior.gob.cl/publicaciones/2026/06/18/44478/07/2825303.pdf", "archivo": "gm_pedimento_2825303.pdf", "fecha": "18-06-2026", "edicion": "44478" }, "geometry": { "type": "Polygon", "coordinates": [ [ [ -70.680051040955377, -33.066136019849971 ], [ -70.647926286438647, -33.066564709707222 ], [ -70.648094397257978, -33.075581186617136 ], [ -70.680222425212946, -33.075152350029107 ], [ -70.680051040955377, -33.066136019849971 ] ] ] } },
{ "type": "Feature", "properties": { "cve": "2825054", "nombre": "LAS INDUSTRIAS", "solicitante": "Easton Inmobiliaria Industrial SpA", "region": "REGIÓN DEL BIOBÍO", "provincia": "Provincia de Biobío", "comuna": null, "superficie_ha": 100.0, "datum_original": "PSAD56", "huso": 18, "epsg_origen": 24878, "tipo_publicacion": "pedimento", "fuente_pdf": "http://www.diariooficial.interior.gob.cl/publicaciones/2026/06/18/44478/07/2825054.pdf", "archivo": "gm_pedimento_2825054.pdf", "fecha": "18-06-2026", "edicion": "44478" }, "geometry": { "type": "Polygon", "coordinates": [ [ [ -72.330123709950712, -37.452002960263663 ], [ -72.318829850364537, -37.45174712132453 ], [ -72.318508196144123, -37.460750945681049 ], [ -72.329803406696584, -37.461006867392477 ], [ -72.330123709950712, -37.452002960263663 ] ] ] } }
]
}
