{
"type": "FeatureCollection",
"name": "boletin_mineria_20260805",
"crs": { "type": "name", "properties": { "name": "urn:ogc:def:crs:OGC:1.3:CRS84" } },
"features": [
{ "type": "Feature", "properties": { "cve": "2848462", "nombre": "KATALINA 1 al 20", "solicitante": "Véliz Demanet Enrique Manuel", "region": "REGIÓN DE ANTOFAGASTA", "provincia": "Provincia de El Loa", "comuna": null, "superficie_ha": 100.0, "datum_original": "PSAD56", "huso": 19, "epsg_origen": 24879, "tipo_publicacion": "manifestacion", "fuente_pdf": "http://www.diariooficial.interior.gob.cl/publicaciones/2026/08/05/44517/07/2848462.pdf", "archivo": "gm_manifestacion_2848462.pdf", "fecha": "05-08-2026", "edicion": "44517" }, "geometry": { "type": "Polygon", "coordinates": [ [ [ -68.263966286439526, -22.299153303398924 ], [ -68.244551146056537, -22.299064086039134 ], [ -68.244526862092712, -22.30358078053591 ], [ -68.26394262643781, -22.303670017865855 ], [ -68.263966286439526, -22.299153303398924 ] ] ] } },
{ "type": "Feature", "properties": { "cve": "2848737", "nombre": "VARSOVIA I 1 AL 2", "solicitante": "Olivares Estay Erwin Juan Carlos", "region": "REGIÓN DE ATACAMA", "provincia": "Provincia de Copiapó", "comuna": "Copiapó", "superficie_ha": 12.0, "datum_original": "PSAD56", "huso": 19, "epsg_origen": 24879, "tipo_publicacion": "manifestacion", "fuente_pdf": "http://www.diariooficial.interior.gob.cl/publicaciones/2026/08/05/44517/07/2848737.pdf", "archivo": "gm_manifestacion_2848737.pdf", "fecha": "05-08-2026", "edicion": "44517" }, "geometry": { "type": "Polygon", "coordinates": [ [ [ -69.029932187260982, -27.205981142386378 ], [ -69.02387364459608, -27.205982305123392 ], [ -69.023874029281103, -27.207787972148342 ], [ -69.02993266956959, -27.207786809321597 ], [ -69.029932187260982, -27.205981142386378 ] ] ] } },
{ "type": "Feature", "properties": { "cve": "2848738", "nombre": "VARSOVIA II 1 AL 2", "solicitante": "Olivares Estay Erwin Juan Carlos", "region": "REGIÓN DE ATACAMA", "provincia": "Provincia de Copiapó", "comuna": "Copiapó", "superficie_ha": 12.0, "datum_original": "PSAD56", "huso": 19, "epsg_origen": 24879, "tipo_publicacion": "manifestacion", "fuente_pdf": "http://www.diariooficial.interior.gob.cl/publicaciones/2026/08/05/44517/07/2848738.pdf", "archivo": "gm_manifestacion_2848738.pdf", "fecha": "05-08-2026", "edicion": "44517" }, "geometry": { "type": "Polygon", "coordinates": [ [ [ -69.047651886423921, -27.202364903780882 ], [ -69.041593540397216, -27.202366832120234 ], [ -69.041594210505664, -27.204172499764027 ], [ -69.047652654137551, -27.204170571275853 ], [ -69.047651886423921, -27.202364903780882 ] ] ] } },
{ "type": "Feature", "properties": { "cve": "2848508", "nombre": "SAN PEDRO 1 AL 20", "solicitante": "Vial Saavedra Alfredo Nazareno", "region": "REGIÓN DE COQUIMBO", "provincia": "Provincia de Elqui", "comuna": "La Coquimbo", "superficie_ha": 100.0, "datum_original": "PSAD56", "huso": 19, "epsg_origen": 24879, "tipo_publicacion": "manifestacion", "fuente_pdf": "http://www.diariooficial.interior.gob.cl/publicaciones/2026/08/05/44517/07/2848508.pdf", "archivo": "gm_manifestacion_2848508.pdf", "fecha": "05-08-2026", "edicion": "44517" }, "geometry": { "type": "Polygon", "coordinates": [ [ [ -70.908644765074826, -29.955396708373911 ], [ -70.89828683907831, -29.95554636933451 ], [ -70.898458277655024, -29.964566040949904 ], [ -70.908817137718415, -29.964416325797028 ], [ -70.908644765074826, -29.955396708373911 ] ] ] } },
{ "type": "Feature", "properties": { "cve": "2848612", "nombre": "ROCA QUELÉN 1 AL 7", "solicitante": "Phoenix SpA", "region": "REGIÓN DE VALPARAÍSO", "provincia": "Provincia de San Antonio", "comuna": null, "superficie_ha": 7.0, "datum_original": "PSAD56", "huso": 19, "epsg_origen": 24879, "tipo_publicacion": "manifestacion", "fuente_pdf": "http://www.diariooficial.interior.gob.cl/publicaciones/2026/08/05/44517/07/2848612.pdf", "archivo": "gm_manifestacion_2848612.pdf", "fecha": "05-08-2026", "edicion": "44517" }, "geometry": { "type": "Polygon", "coordinates": [ [ [ -71.419397641082824, -33.715978047722359 ], [ -71.418319329365517, -33.715999174851561 ], [ -71.418496287517826, -33.722307022580139 ], [ -71.419574677951871, -33.722285890441604 ], [ -71.419397641082824, -33.715978047722359 ] ] ] } },
{ "type": "Feature", "properties": { "cve": "2848747", "nombre": "PAULINA, 1 AL 10", "solicitante": "Bravo Yáñez Eduardo Alberto", "region": "REGIÓN DE LA ARAUCANÍA", "provincia": "Provincia de Cautín", "comuna": "Carahue", "superficie_ha": 2.0, "datum_original": "PSAD56", "huso": 18, "epsg_origen": 24878, "tipo_publicacion": "manifestacion", "fuente_pdf": "http://www.diariooficial.interior.gob.cl/publicaciones/2026/08/05/44517/07/2848747.pdf", "archivo": "gm_manifestacion_2848747.pdf", "fecha": "05-08-2026", "edicion": "44517" }, "geometry": { "type": "Polygon", "coordinates": [ [ [ -73.203669464206101, -38.586741041055518 ], [ -73.201374213794438, -38.586705783076425 ], [ -73.20135173833107, -38.587606534840226 ], [ -73.203647017386359, -38.587641793949025 ], [ -73.203669464206101, -38.586741041055518 ] ] ] } },
{ "type": "Feature", "properties": { "cve": "2848787", "nombre": "YEGUAS HELADAS 22 1 AL 30", "solicitante": "SCM Carola", "region": "REGIÓN DE ATACAMA", "provincia": "Provincia de Copiapó", "comuna": null, "superficie_ha": 300.0, "datum_original": "PSAD56", "huso": 19, "epsg_origen": 24879, "tipo_publicacion": "mensura", "fuente_pdf": "http://www.diariooficial.interior.gob.cl/publicaciones/2026/08/05/44517/07/2848787.pdf", "archivo": "gm_mensura_2848787.pdf", "fecha": "05-08-2026", "edicion": "44517" }, "geometry": { "type": "Polygon", "coordinates": [ [ [ -69.417660335782784, -27.685320671760838 ], [ -69.387237165881359, -27.685409045468337 ], [ -69.387269014187552, -27.694436543169932 ], [ -69.417694686070604, -27.694348135767701 ], [ -69.417660335782784, -27.685320671760838 ] ] ] } },
{ "type": "Feature", "properties": { "cve": "2848788", "nombre": "YEGUAS HELADAS 23 1 AL 30", "solicitante": "SCM Carola", "region": "REGIÓN DE ATACAMA", "provincia": "Provincia de Copiapó", "comuna": null, "superficie_ha": 300.0, "datum_original": "PSAD56", "huso": 19, "epsg_origen": 24879, "tipo_publicacion": "mensura", "fuente_pdf": "http://www.diariooficial.interior.gob.cl/publicaciones/2026/08/05/44517/07/2848788.pdf", "archivo": "gm_mensura_2848788.pdf", "fecha": "05-08-2026", "edicion": "44517" }, "geometry": { "type": "Polygon", "coordinates": [ [ [ -69.417694686070604, -27.694348135767701 ], [ -69.387269014187552, -27.694436543169932 ], [ -69.387300877298088, -27.703464028971883 ], [ -69.417729052325768, -27.70337558786952 ], [ -69.417694686070604, -27.694348135767701 ] ] ] } },
{ "type": "Feature", "properties": { "cve": "2848789", "nombre": "YEGUAS HELADAS 24 1 AL 30", "solicitante": "SCM Carola", "region": "REGIÓN DE ATACAMA", "provincia": "Provincia de Copiapó", "comuna": null, "superficie_ha": 300.0, "datum_original": "PSAD56", "huso": 19, "epsg_origen": 24879, "tipo_publicacion": "mensura", "fuente_pdf": "http://www.diariooficial.interior.gob.cl/publicaciones/2026/08/05/44517/07/2848789.pdf", "archivo": "gm_mensura_2848789.pdf", "fecha": "05-08-2026", "edicion": "44517" }, "geometry": { "type": "Polygon", "coordinates": [ [ [ -69.422496120321838, -27.703361126369614 ], [ -69.412353418227141, -27.703391698673745 ], [ -69.412455284963457, -27.730474001946014 ], [ -69.422600492505865, -27.730443394682332 ], [ -69.422496120321838, -27.703361126369614 ] ] ] } },
{ "type": "Feature", "properties": { "cve": "2848790", "nombre": "YEGUAS HELADAS 25 1 AL 30", "solicitante": "SCM Carola", "region": "REGIÓN DE ATACAMA", "provincia": "Provincia de Copiapó", "comuna": null, "superficie_ha": 296.0, "datum_original": "PSAD56", "huso": 19, "epsg_origen": 24879, "tipo_publicacion": "mensura", "fuente_pdf": "http://www.diariooficial.interior.gob.cl/publicaciones/2026/08/05/44517/07/2848790.pdf", "archivo": "gm_mensura_2848790.pdf", "fecha": "05-08-2026", "edicion": "44517" }, "geometry": { "type": "Polygon", "coordinates": [ [ [ -69.412353418227141, -27.703391698673745 ], [ -69.402210700365259, -27.703421528165769 ], [ -69.402253739913377, -27.71515722085703 ], [ -69.404282501783584, -27.715151311457419 ], [ -69.404289158964929, -27.716956800404354 ], [ -69.402260363690019, -27.716962710254212 ], [ -69.402310061637209, -27.730503865548187 ], [ -69.412455284963457, -27.730474001946014 ], [ -69.412353418227141, -27.703391698673745 ] ] ] } },
{ "type": "Feature", "properties": { "cve": "2848791", "nombre": "YEGUAS HELADAS 26 1 AL 30", "solicitante": "SCM Carola", "region": "REGIÓN DE ATACAMA", "provincia": "Provincia de Copiapó", "comuna": null, "superficie_ha": 300.0, "datum_original": "PSAD56", "huso": 19, "epsg_origen": 24879, "tipo_publicacion": "mensura", "fuente_pdf": "http://www.diariooficial.interior.gob.cl/publicaciones/2026/08/05/44517/07/2848791.pdf", "archivo": "gm_mensura_2848791.pdf", "fecha": "05-08-2026", "edicion": "44517" }, "geometry": { "type": "Polygon", "coordinates": [ [ [ -69.402210700365259, -27.703421528165769 ], [ -69.392067967124007, -27.703450614841433 ], [ -69.392164822915291, -27.730532985484611 ], [ -69.402310061637209, -27.730503865548187 ], [ -69.402210700365259, -27.703421528165769 ] ] ] } },
{ "type": "Feature", "properties": { "cve": "2848792", "nombre": "YEGUAS HELADAS 30 1 AL 30", "solicitante": "SCM Carola", "region": "REGIÓN DE ATACAMA", "provincia": "Provincia de Copiapó", "comuna": null, "superficie_ha": 300.0, "datum_original": "PSAD56", "huso": 19, "epsg_origen": 24879, "tipo_publicacion": "mensura", "fuente_pdf": "http://www.diariooficial.interior.gob.cl/publicaciones/2026/08/05/44517/07/2848792.pdf", "archivo": "gm_mensura_2848792.pdf", "fecha": "05-08-2026", "edicion": "44517" }, "geometry": { "type": "Polygon", "coordinates": [ [ [ -69.422904848484222, -27.7304424649749 ], [ -69.392469180297255, -27.730532122706904 ], [ -69.392501520647514, -27.739559555441364 ], [ -69.422939696626884, -27.739469863562768 ], [ -69.422904848484222, -27.7304424649749 ] ] ] } },
{ "type": "Feature", "properties": { "cve": "2848793", "nombre": "YEGUAS HELADAS 31 1 AL 5 /Sociedad Contractual Minera Carola", "solicitante": null, "region": "REGIÓN DE ATACAMA", "provincia": "Provincia de Copiapó", "comuna": null, "superficie_ha": 30.0, "datum_original": "PSAD56", "huso": 19, "epsg_origen": 24879, "tipo_publicacion": "mensura", "fuente_pdf": "http://www.diariooficial.interior.gob.cl/publicaciones/2026/08/05/44517/07/2848793.pdf", "archivo": "gm_mensura_2848793.pdf", "fecha": "05-08-2026", "edicion": "44517" }, "geometry": { "type": "Polygon", "coordinates": [ [ [ -69.406300211294422, -27.739528752184285 ], [ -69.396154141760192, -27.73955817336299 ], [ -69.396163937107929, -27.742266399667741 ], [ -69.406310257498319, -27.742236975128403 ], [ -69.406300211294422, -27.739528752184285 ] ] ] } },
{ "type": "Feature", "properties": { "cve": "2848687", "nombre": "LLANOS 1", "solicitante": "Los Llanos S.A.", "region": "REGIÓN DE ATACAMA", "provincia": "Provincia de Copiapó", "comuna": null, "superficie_ha": 100.0, "datum_original": "PSAD56", "huso": 19, "epsg_origen": 24879, "tipo_publicacion": "pedimento", "fuente_pdf": "http://www.diariooficial.interior.gob.cl/publicaciones/2026/08/05/44517/07/2848687.pdf", "archivo": "gm_pedimento_2848687.pdf", "fecha": "05-08-2026", "edicion": "44517" }, "geometry": { "type": "Polygon", "coordinates": [ [ [ -70.877301721561722, -27.356999321124309 ], [ -70.867195902548033, -27.357134848114175 ], [ -70.867347314829317, -27.366158168702164 ], [ -70.877453952160991, -27.366022589643858 ], [ -70.877301721561722, -27.356999321124309 ] ] ] } },
{ "type": "Feature", "properties": { "cve": "2848696", "nombre": "LLANOS 10", "solicitante": "Los Llanos S.A.", "region": "REGIÓN DE ATACAMA", "provincia": "Provincia de Copiapó", "comuna": null, "superficie_ha": 200.0, "datum_original": "PSAD56", "huso": 19, "epsg_origen": 24879, "tipo_publicacion": "pedimento", "fuente_pdf": "http://www.diariooficial.interior.gob.cl/publicaciones/2026/08/05/44517/07/2848696.pdf", "archivo": "gm_pedimento_2848696.pdf", "fecha": "05-08-2026", "edicion": "44517" }, "geometry": { "type": "Polygon", "coordinates": [ [ [ -70.796744648219118, -27.37611041921091 ], [ -70.786636637535182, -27.376240199979591 ], [ -70.786926705310336, -27.394287591681064 ], [ -70.797036354924558, -27.394157711226146 ], [ -70.796744648219118, -27.37611041921091 ] ] ] } },
{ "type": "Feature", "properties": { "cve": "2848688", "nombre": "LLANOS 2", "solicitante": "Los Llanos S.A.", "region": "REGIÓN DE ATACAMA", "provincia": "Provincia de Copiapó", "comuna": null, "superficie_ha": 200.0, "datum_original": "PSAD56", "huso": 19, "epsg_origen": 24879, "tipo_publicacion": "pedimento", "fuente_pdf": "http://www.diariooficial.interior.gob.cl/publicaciones/2026/08/05/44517/07/2848688.pdf", "archivo": "gm_pedimento_2848688.pdf", "fecha": "05-08-2026", "edicion": "44517" }, "geometry": { "type": "Polygon", "coordinates": [ [ [ -70.867180765204353, -27.356232515366081 ], [ -70.857074957385564, -27.356367306509483 ], [ -70.857376201472562, -27.374414041239767 ], [ -70.867483646281698, -27.37427914651413 ], [ -70.867180765204353, -27.356232515366081 ] ] ] } },
{ "type": "Feature", "properties": { "cve": "2848689", "nombre": "LLANOS 3", "solicitante": "Los Llanos S.A.", "region": "REGIÓN DE ATACAMA", "provincia": "Provincia de Copiapó", "comuna": null, "superficie_ha": 300.0, "datum_original": "PSAD56", "huso": 19, "epsg_origen": 24879, "tipo_publicacion": "pedimento", "fuente_pdf": "http://www.diariooficial.interior.gob.cl/publicaciones/2026/08/05/44517/07/2848689.pdf", "archivo": "gm_pedimento_2848689.pdf", "fecha": "05-08-2026", "edicion": "44517" }, "geometry": { "type": "Polygon", "coordinates": [ [ [ -70.856969588336995, -27.350050937518052 ], [ -70.826653462859682, -27.350450819356901 ], [ -70.826801546348392, -27.359474355412424 ], [ -70.85712012608397, -27.35907431991307 ], [ -70.856969588336995, -27.350050937518052 ] ] ] } },
{ "type": "Feature", "properties": { "cve": "2848690", "nombre": "LLANOS 4", "solicitante": "Los Llanos S.A.", "region": "REGIÓN DE ATACAMA", "provincia": "Provincia de Copiapó", "comuna": null, "superficie_ha": 300.0, "datum_original": "PSAD56", "huso": 19, "epsg_origen": 24879, "tipo_publicacion": "pedimento", "fuente_pdf": "http://www.diariooficial.interior.gob.cl/publicaciones/2026/08/05/44517/07/2848690.pdf", "archivo": "gm_pedimento_2848690.pdf", "fecha": "05-08-2026", "edicion": "44517" }, "geometry": { "type": "Polygon", "coordinates": [ [ [ -70.85712012608397, -27.35907431991307 ], [ -70.847014002572053, -27.359208395848317 ], [ -70.847463580888729, -27.386278622426698 ], [ -70.85757216087535, -27.38614439194043 ], [ -70.85712012608397, -27.35907431991307 ] ] ] } },
{ "type": "Feature", "properties": { "cve": "2848691", "nombre": "LLANOS 5", "solicitante": "Los Llanos S.A.", "region": "REGIÓN DE ATACAMA", "provincia": "Provincia de Copiapó", "comuna": null, "superficie_ha": 300.0, "datum_original": "PSAD56", "huso": 19, "epsg_origen": 24879, "tipo_publicacion": "pedimento", "fuente_pdf": "http://www.diariooficial.interior.gob.cl/publicaciones/2026/08/05/44517/07/2848691.pdf", "archivo": "gm_pedimento_2848691.pdf", "fecha": "05-08-2026", "edicion": "44517" }, "geometry": { "type": "Polygon", "coordinates": [ [ [ -70.847014002572053, -27.359208395848317 ], [ -70.836907809199687, -27.359341741021087 ], [ -70.837354930968743, -27.386412121308499 ], [ -70.847463580888729, -27.386278622426698 ], [ -70.847014002572053, -27.359208395848317 ] ] ] } },
{ "type": "Feature", "properties": { "cve": "2848692", "nombre": "LLANOS 6", "solicitante": "Los Llanos S.A.", "region": "REGIÓN DE ATACAMA", "provincia": "Provincia de Copiapó", "comuna": null, "superficie_ha": 300.0, "datum_original": "PSAD56", "huso": 19, "epsg_origen": 24879, "tipo_publicacion": "pedimento", "fuente_pdf": "http://www.diariooficial.interior.gob.cl/publicaciones/2026/08/05/44517/07/2848692.pdf", "archivo": "gm_pedimento_2848692.pdf", "fecha": "05-08-2026", "edicion": "44517" }, "geometry": { "type": "Polygon", "coordinates": [ [ [ -70.836907809199687, -27.359341741021087 ], [ -70.826801546348392, -27.359474355412424 ], [ -70.827246211497226, -27.386544888566839 ], [ -70.837354930968743, -27.386412121308499 ], [ -70.836907809199687, -27.359341741021087 ] ] ] } },
{ "type": "Feature", "properties": { "cve": "2848693", "nombre": "LLANOS 7", "solicitante": "Los Llanos S.A.", "region": "REGIÓN DE ATACAMA", "provincia": "Provincia de Copiapó", "comuna": null, "superficie_ha": 300.0, "datum_original": "PSAD56", "huso": 19, "epsg_origen": 24879, "tipo_publicacion": "pedimento", "fuente_pdf": "http://www.diariooficial.interior.gob.cl/publicaciones/2026/08/05/44517/07/2848693.pdf", "archivo": "gm_pedimento_2848693.pdf", "fecha": "05-08-2026", "edicion": "44517" }, "geometry": { "type": "Polygon", "coordinates": [ [ [ -70.826831171337091, -27.361279061123618 ], [ -70.816724675715633, -27.361410954847404 ], [ -70.817166925424843, -27.388481632528695 ], [ -70.827275877967665, -27.388349586775146 ], [ -70.826831171337091, -27.361279061123618 ] ] ] } },
{ "type": "Feature", "properties": { "cve": "2848694", "nombre": "LLANOS 8", "solicitante": "Los Llanos S.A.", "region": "REGIÓN DE ATACAMA", "provincia": "Provincia de Copiapó", "comuna": null, "superficie_ha": 200.0, "datum_original": "PSAD56", "huso": 19, "epsg_origen": 24879, "tipo_publicacion": "pedimento", "fuente_pdf": "http://www.diariooficial.interior.gob.cl/publicaciones/2026/08/05/44517/07/2848694.pdf", "archivo": "gm_pedimento_2848694.pdf", "fecha": "05-08-2026", "edicion": "44517" }, "geometry": { "type": "Polygon", "coordinates": [ [ [ -70.816872023532426, -27.370434526571103 ], [ -70.806764640574158, -27.370565739807628 ], [ -70.807057904089447, -27.388612946564944 ], [ -70.817166925424843, -27.388481632528695 ], [ -70.816872023532426, -27.370434526571103 ] ] ] } },
{ "type": "Feature", "properties": { "cve": "2848695", "nombre": "LLANOS 9", "solicitante": "Los Llanos S.A.", "region": "REGIÓN DE ATACAMA", "provincia": "Provincia de Copiapó", "comuna": null, "superficie_ha": 200.0, "datum_original": "PSAD56", "huso": 19, "epsg_origen": 24879, "tipo_publicacion": "pedimento", "fuente_pdf": "http://www.diariooficial.interior.gob.cl/publicaciones/2026/08/05/44517/07/2848695.pdf", "archivo": "gm_pedimento_2848695.pdf", "fecha": "05-08-2026", "edicion": "44517" }, "geometry": { "type": "Polygon", "coordinates": [ [ [ -70.806852590907496, -27.375979907080719 ], [ -70.796744648219118, -27.37611041921091 ], [ -70.797036354924558, -27.394157711226146 ], [ -70.807145936495871, -27.394027098848198 ], [ -70.806852590907496, -27.375979907080719 ] ] ] } },
{ "type": "Feature", "properties": { "cve": "2848714", "nombre": "PEDRO 10", "solicitante": "Río Tinto Mining and Exploration Limited Agencia en Chile", "region": "REGIÓN DE ATACAMA", "provincia": "Provincia de Copiapó", "comuna": "Copiapó", "superficie_ha": 200.0, "datum_original": "PSAD56", "huso": 19, "epsg_origen": 24879, "tipo_publicacion": "pedimento", "fuente_pdf": "http://www.diariooficial.interior.gob.cl/publicaciones/2026/08/05/44517/07/2848714.pdf", "archivo": "gm_pedimento_2848714.pdf", "fecha": "05-08-2026", "edicion": "44517" }, "geometry": { "type": "Polygon", "coordinates": [ [ [ -69.60958457201626, -27.548844476377134 ], [ -69.589328193374342, -27.548931834931601 ], [ -69.589376382216628, -27.557959239198674 ], [ -69.609634416958798, -27.557871847225524 ], [ -69.60958457201626, -27.548844476377134 ] ] ] } },
{ "type": "Feature", "properties": { "cve": "2848715", "nombre": "PEDRO 12", "solicitante": "Río Tinto Mining and Exploration Limited Agencia en Chile", "region": "REGIÓN DE ATACAMA", "provincia": "Provincia de Copiapó", "comuna": "Copiapó", "superficie_ha": 200.0, "datum_original": "PSAD56", "huso": 19, "epsg_origen": 24879, "tipo_publicacion": "pedimento", "fuente_pdf": "http://www.diariooficial.interior.gob.cl/publicaciones/2026/08/05/44517/07/2848715.pdf", "archivo": "gm_pedimento_2848715.pdf", "fecha": "05-08-2026", "edicion": "44517" }, "geometry": { "type": "Polygon", "coordinates": [ [ [ -69.609634416958798, -27.557871847225524 ], [ -69.589376382216628, -27.557959239198674 ], [ -69.589424593497, -27.56698663156137 ], [ -69.609684285110433, -27.566899206164234 ], [ -69.609634416958798, -27.557871847225524 ] ] ] } },
{ "type": "Feature", "properties": { "cve": "2848716", "nombre": "PEDRO 15", "solicitante": "Río Tinto Mining and Exploration Limited Agencia en Chile", "region": "REGIÓN DE ATACAMA", "provincia": "Provincia de Copiapó", "comuna": "Copiapó", "superficie_ha": 300.0, "datum_original": "PSAD56", "huso": 19, "epsg_origen": 24879, "tipo_publicacion": "pedimento", "fuente_pdf": "http://www.diariooficial.interior.gob.cl/publicaciones/2026/08/05/44517/07/2848716.pdf", "archivo": "gm_pedimento_2848716.pdf", "fecha": "05-08-2026", "edicion": "44517" }, "geometry": { "type": "Polygon", "coordinates": [ [ [ -69.54877031435413, -27.540070217531635 ], [ -69.53864283303642, -27.54010982312391 ], [ -69.538774978413471, -27.567192271743206 ], [ -69.548904944007447, -27.567152620680453 ], [ -69.54877031435413, -27.540070217531635 ] ] ] } },
{ "type": "Feature", "properties": { "cve": "2848711", "nombre": "PEDRO 2", "solicitante": "Rio Tinto Mining and Exploration Limited Agencia en Chile", "region": "REGIÓN DE ATACAMA", "provincia": "Provincia de Copiapó", "comuna": "Copiapó", "superficie_ha": 300.0, "datum_original": "PSAD56", "huso": 19, "epsg_origen": 24879, "tipo_publicacion": "pedimento", "fuente_pdf": "http://www.diariooficial.interior.gob.cl/publicaciones/2026/08/05/44517/07/2848711.pdf", "archivo": "gm_pedimento_2848711.pdf", "fecha": "05-08-2026", "edicion": "44517" }, "geometry": { "type": "Polygon", "coordinates": [ [ [ -69.589135662228614, -27.512822098871862 ], [ -69.558760852281949, -27.512947410438532 ], [ -69.558806471864131, -27.521974910277379 ], [ -69.589183761397209, -27.521849550730312 ], [ -69.589135662228614, -27.512822098871862 ] ] ] } },
{ "type": "Feature", "properties": { "cve": "2848712", "nombre": "PEDRO 4", "solicitante": "Río Tinto Mining and Exploration Limited Agencia en Chile", "region": "REGIÓN DE ATACAMA", "provincia": "Provincia de Copiapó", "comuna": "Copiapó", "superficie_ha": 100.0, "datum_original": "PSAD56", "huso": 19, "epsg_origen": 24879, "tipo_publicacion": "pedimento", "fuente_pdf": "http://www.diariooficial.interior.gob.cl/publicaciones/2026/08/05/44517/07/2848712.pdf", "archivo": "gm_pedimento_2848712.pdf", "fecha": "05-08-2026", "edicion": "44517" }, "geometry": { "type": "Polygon", "coordinates": [ [ [ -69.599309480275409, -27.521806290090943 ], [ -69.589183761397209, -27.521849550730312 ], [ -69.58923188297247, -27.530876990694811 ], [ -69.599358428748971, -27.530833713495152 ], [ -69.599309480275409, -27.521806290090943 ] ] ] } },
{ "type": "Feature", "properties": { "cve": "2848713", "nombre": "PEDRO 8", "solicitante": "Río Tinto Mining and Exploration Limited Agencia en Chile", "region": "REGIÓN DE ATACAMA", "provincia": "Provincia de Copiapó", "comuna": "Copiapó", "superficie_ha": 200.0, "datum_original": "PSAD56", "huso": 19, "epsg_origen": 24879, "tipo_publicacion": "pedimento", "fuente_pdf": "http://www.diariooficial.interior.gob.cl/publicaciones/2026/08/05/44517/07/2848713.pdf", "archivo": "gm_pedimento_2848713.pdf", "fecha": "05-08-2026", "edicion": "44517" }, "geometry": { "type": "Polygon", "coordinates": [ [ [ -69.609534750274761, -27.539817093621654 ], [ -69.589280026962228, -27.539904418762774 ], [ -69.589328193374342, -27.548931834931601 ], [ -69.60958457201626, -27.548844476377134 ], [ -69.609534750274761, -27.539817093621654 ] ] ] } },
{ "type": "Feature", "properties": { "cve": "2848667", "nombre": "SAN FELIX 13", "solicitante": "León Alvear Óscar Joel", "region": "REGIÓN DE ATACAMA", "provincia": "Provincia de Huasco", "comuna": null, "superficie_ha": 200.0, "datum_original": "PSAD56", "huso": 19, "epsg_origen": 24879, "tipo_publicacion": "pedimento", "fuente_pdf": "http://www.diariooficial.interior.gob.cl/publicaciones/2026/08/05/44517/07/2848667.pdf", "archivo": "gm_pedimento_2848667.pdf", "fecha": "05-08-2026", "edicion": "44517" }, "geometry": { "type": "Polygon", "coordinates": [ [ [ -70.642384952451877, -28.867146582120903 ], [ -70.621885578383697, -28.867394784790651 ], [ -70.622025707567119, -28.876417283986495 ], [ -70.642526850830492, -28.876168989302887 ], [ -70.642384952451877, -28.867146582120903 ] ] ] } },
{ "type": "Feature", "properties": { "cve": "2848668", "nombre": "SAN FELIX 14", "solicitante": "León Alvear Óscar Joel", "region": "REGIÓN DE ATACAMA", "provincia": "Provincia de Huasco", "comuna": null, "superficie_ha": 300.0, "datum_original": "PSAD56", "huso": 19, "epsg_origen": 24879, "tipo_publicacion": "pedimento", "fuente_pdf": "http://www.diariooficial.interior.gob.cl/publicaciones/2026/08/05/44517/07/2848668.pdf", "archivo": "gm_pedimento_2848668.pdf", "fecha": "05-08-2026", "edicion": "44517" }, "geometry": { "type": "Polygon", "coordinates": [ [ [ -70.632417389964587, -28.885315966639205 ], [ -70.601662730658191, -28.885685040099862 ], [ -70.60180121744115, -28.89470760457948 ], [ -70.63255853307848, -28.894338394350449 ], [ -70.632417389964587, -28.885315966639205 ] ] ] } },
{ "type": "Feature", "properties": { "cve": "2848669", "nombre": "SAN FELIX 15", "solicitante": "León Alvear Óscar Joel", "region": "REGIÓN DE ATACAMA", "provincia": "Provincia de Huasco", "comuna": null, "superficie_ha": 200.0, "datum_original": "PSAD56", "huso": 19, "epsg_origen": 24879, "tipo_publicacion": "pedimento", "fuente_pdf": "http://www.diariooficial.interior.gob.cl/publicaciones/2026/08/05/44517/07/2848669.pdf", "archivo": "gm_pedimento_2848669.pdf", "fecha": "05-08-2026", "edicion": "44517" }, "geometry": { "type": "Polygon", "coordinates": [ [ [ -70.633265219561821, -28.939450340626372 ], [ -70.612751539996253, -28.93969771789757 ], [ -70.612891295905968, -28.948720160237929 ], [ -70.633406751207218, -28.948472691406451 ], [ -70.633265219561821, -28.939450340626372 ] ] ] } },
{ "type": "Feature", "properties": { "cve": "2848670", "nombre": "SAN FELIX 16", "solicitante": "León Alvear Óscar Joel", "region": "REGIÓN DE ATACAMA", "provincia": "Provincia de Huasco", "comuna": null, "superficie_ha": 200.0, "datum_original": "PSAD56", "huso": 19, "epsg_origen": 24879, "tipo_publicacion": "pedimento", "fuente_pdf": "http://www.diariooficial.interior.gob.cl/publicaciones/2026/08/05/44517/07/2848670.pdf", "archivo": "gm_pedimento_2848670.pdf", "fecha": "05-08-2026", "edicion": "44517" }, "geometry": { "type": "Polygon", "coordinates": [ [ [ -70.658332607394911, -28.903047658863802 ], [ -70.637826346752263, -28.903298569064955 ], [ -70.637968062388751, -28.912320948088279 ], [ -70.658476095399379, -28.912069944944935 ], [ -70.658332607394911, -28.903047658863802 ] ] ] } },
{ "type": "Feature", "properties": { "cve": "2848671", "nombre": "SAN FELIX 17", "solicitante": "León Alvear Óscar Joel", "region": "REGIÓN DE ATACAMA", "provincia": "Provincia de Huasco", "comuna": null, "superficie_ha": 300.0, "datum_original": "PSAD56", "huso": 19, "epsg_origen": 24879, "tipo_publicacion": "pedimento", "fuente_pdf": "http://www.diariooficial.interior.gob.cl/publicaciones/2026/08/05/44517/07/2848671.pdf", "archivo": "gm_pedimento_2848671.pdf", "fecha": "05-08-2026", "edicion": "44517" }, "geometry": { "type": "Polygon", "coordinates": [ [ [ -70.571451194887004, -28.922137817978193 ], [ -70.540684770043583, -28.92249339027774 ], [ -70.540818187855962, -28.931516169494827 ], [ -70.571587274315434, -28.931160465534489 ], [ -70.571451194887004, -28.922137817978193 ] ] ] } },
{ "type": "Feature", "properties": { "cve": "2848672", "nombre": "SAN FELIX 18", "solicitante": "León Alvear Óscar Joel", "region": "REGIÓN DE ATACAMA", "provincia": "Provincia de Huasco", "comuna": null, "superficie_ha": 300.0, "datum_original": "PSAD56", "huso": 19, "epsg_origen": 24879, "tipo_publicacion": "pedimento", "fuente_pdf": "http://www.diariooficial.interior.gob.cl/publicaciones/2026/08/05/44517/07/2848672.pdf", "archivo": "gm_pedimento_2848672.pdf", "fecha": "05-08-2026", "edicion": "44517" }, "geometry": { "type": "Polygon", "coordinates": [ [ [ -70.571587274315434, -28.931160465534489 ], [ -70.540818187855962, -28.931516169494827 ], [ -70.540951666802783, -28.940538935954024 ], [ -70.571723416097228, -28.940183100310655 ], [ -70.571587274315434, -28.931160465534489 ] ] ] } },
{ "type": "Feature", "properties": { "cve": "2848673", "nombre": "SAN FELIX 19", "solicitante": "León Alvear Óscar Joel", "region": "REGIÓN DE ATACAMA", "provincia": "Provincia de Huasco", "comuna": null, "superficie_ha": 300.0, "datum_original": "PSAD56", "huso": 19, "epsg_origen": 24879, "tipo_publicacion": "pedimento", "fuente_pdf": "http://www.diariooficial.interior.gob.cl/publicaciones/2026/08/05/44517/07/2848673.pdf", "archivo": "gm_pedimento_2848673.pdf", "fecha": "05-08-2026", "edicion": "44517" }, "geometry": { "type": "Polygon", "coordinates": [ [ [ -70.601662730658191, -28.885685040099862 ], [ -70.570907500250783, -28.886047100005534 ], [ -70.571043330493836, -28.895069798655424 ], [ -70.60180121744115, -28.89470760457948 ], [ -70.601662730658191, -28.885685040099862 ] ] ] } },
{ "type": "Feature", "properties": { "cve": "2848340", "nombre": "FERNANDA 50", "solicitante": "Piro Vergara Alejandra", "region": "REGIÓN DE ÑUBLE", "provincia": "Provincia de Itata", "comuna": null, "superficie_ha": 300.0, "datum_original": "PSAD56", "huso": 18, "epsg_origen": 24878, "tipo_publicacion": "pedimento", "fuente_pdf": "http://www.diariooficial.interior.gob.cl/publicaciones/2026/08/05/44517/07/2848340.pdf", "archivo": "gm_pedimento_2848340.pdf", "fecha": "05-08-2026", "edicion": "44517" }, "geometry": { "type": "Polygon", "coordinates": [ [ [ -72.535119343107382, -36.064358716851366 ], [ -72.524025301746761, -36.064129961832229 ], [ -72.523177604187225, -36.091152111927038 ], [ -72.534275434403412, -36.091381092361203 ], [ -72.535119343107382, -36.064358716851366 ] ] ] } },
{ "type": "Feature", "properties": { "cve": "2848341", "nombre": "FERNANDA 51", "solicitante": "Piro Vergara Alejandra", "region": "REGIÓN DE ÑUBLE", "provincia": "Provincia de Itata", "comuna": null, "superficie_ha": 300.0, "datum_original": "PSAD56", "huso": 18, "epsg_origen": 24878, "tipo_publicacion": "pedimento", "fuente_pdf": "http://www.diariooficial.interior.gob.cl/publicaciones/2026/08/05/44517/07/2848341.pdf", "archivo": "gm_pedimento_2848341.pdf", "fecha": "05-08-2026", "edicion": "44517" }, "geometry": { "type": "Polygon", "coordinates": [ [ [ -72.535119343107382, -36.064358716851366 ], [ -72.524025301746761, -36.064129961832229 ], [ -72.523177604187225, -36.091152111927038 ], [ -72.534275434403412, -36.091381092361203 ], [ -72.535119343107382, -36.064358716851366 ] ] ] } },
{ "type": "Feature", "properties": { "cve": "2848342", "nombre": "FERNANDA 52", "solicitante": "Piro Vergara Alejandra", "region": "REGIÓN DE ÑUBLE", "provincia": "Provincia de Itata", "comuna": null, "superficie_ha": 300.0, "datum_original": "PSAD56", "huso": 18, "epsg_origen": 24878, "tipo_publicacion": "pedimento", "fuente_pdf": "http://www.diariooficial.interior.gob.cl/publicaciones/2026/08/05/44517/07/2848342.pdf", "archivo": "gm_pedimento_2848342.pdf", "fecha": "05-08-2026", "edicion": "44517" }, "geometry": { "type": "Polygon", "coordinates": [ [ [ -72.50183759558297, -36.063669375679659 ], [ -72.49074393189791, -36.063437544620385 ], [ -72.489884868794618, -36.090459012415678 ], [ -72.500982320822999, -36.090691071917149 ], [ -72.50183759558297, -36.063669375679659 ] ] ] } },
{ "type": "Feature", "properties": { "cve": "2848343", "nombre": "FERNANDA 53", "solicitante": "Piro Vergara Alejandra", "region": "REGIÓN DE ÑUBLE", "provincia": "Provincia de Itata", "comuna": null, "superficie_ha": 300.0, "datum_original": "PSAD56", "huso": 18, "epsg_origen": 24878, "tipo_publicacion": "pedimento", "fuente_pdf": "http://www.diariooficial.interior.gob.cl/publicaciones/2026/08/05/44517/07/2848343.pdf", "archivo": "gm_pedimento_2848343.pdf", "fecha": "05-08-2026", "edicion": "44517" }, "geometry": { "type": "Polygon", "coordinates": [ [ [ -72.534275434403412, -36.091381092361203 ], [ -72.500982320822999, -36.090691071917149 ], [ -72.500696976068284, -36.099698272769473 ], [ -72.533993881691998, -36.100388519739184 ], [ -72.534275434403412, -36.091381092361203 ] ] ] } },
{ "type": "Feature", "properties": { "cve": "2848344", "nombre": "FERNANDA 54", "solicitante": "Piro Vergara Alejandra", "region": "REGIÓN DE ÑUBLE", "provincia": "Provincia de Itata", "comuna": null, "superficie_ha": 300.0, "datum_original": "PSAD56", "huso": 18, "epsg_origen": 24878, "tipo_publicacion": "pedimento", "fuente_pdf": "http://www.diariooficial.interior.gob.cl/publicaciones/2026/08/05/44517/07/2848344.pdf", "archivo": "gm_pedimento_2848344.pdf", "fecha": "05-08-2026", "edicion": "44517" }, "geometry": { "type": "Polygon", "coordinates": [ [ [ -72.533993881691998, -36.100388519739184 ], [ -72.500696976068284, -36.099698272769473 ], [ -72.500411504634158, -36.10870545800438 ], [ -72.533712203981409, -36.10939593155053 ], [ -72.533993881691998, -36.100388519739184 ] ] ] } },
{ "type": "Feature", "properties": { "cve": "2848345", "nombre": "ISABEL 26", "solicitante": "Piro Vera Alejandra", "region": "REGIÓN DE ÑUBLE", "provincia": "Provincia de Itata", "comuna": null, "superficie_ha": 300.0, "datum_original": "PSAD56", "huso": 18, "epsg_origen": 24878, "tipo_publicacion": "pedimento", "fuente_pdf": "http://www.diariooficial.interior.gob.cl/publicaciones/2026/08/05/44517/07/2848345.pdf", "archivo": "gm_pedimento_2848345.pdf", "fecha": "05-08-2026", "edicion": "44517" }, "geometry": { "type": "Polygon", "coordinates": [ [ [ -72.530033641821845, -36.413644407290974 ], [ -72.496603652876445, -36.412947904531286 ], [ -72.496314422126787, -36.421954585884642 ], [ -72.529748263776142, -36.422651316465675 ], [ -72.530033641821845, -36.413644407290974 ] ] ] } },
{ "type": "Feature", "properties": { "cve": "2848347", "nombre": "Isabel 28", "solicitante": "Piro Vergara Alejandra", "region": "REGIÓN DE ÑUBLE", "provincia": "Provincia de Itata", "comuna": null, "superficie_ha": 300.0, "datum_original": "PSAD56", "huso": 18, "epsg_origen": 24878, "tipo_publicacion": "pedimento", "fuente_pdf": "http://www.diariooficial.interior.gob.cl/publicaciones/2026/08/05/44517/07/2848347.pdf", "archivo": "gm_pedimento_2848347.pdf", "fecha": "05-08-2026", "edicion": "44517" }, "geometry": { "type": "Polygon", "coordinates": [ [ [ -72.463174819471263, -36.412242055992827 ], [ -72.429747156965277, -36.411526862704868 ], [ -72.429450222395772, -36.420533079257574 ], [ -72.462881736544659, -36.421248506472033 ], [ -72.463174819471263, -36.412242055992827 ] ] ] } },
{ "type": "Feature", "properties": { "cve": "2848350", "nombre": "Isabel 31", "solicitante": "Piro Vergara Alejandra", "region": "REGIÓN DE ÑUBLE", "provincia": "Provincia de Itata", "comuna": null, "superficie_ha": 300.0, "datum_original": "PSAD56", "huso": 18, "epsg_origen": 24878, "tipo_publicacion": "pedimento", "fuente_pdf": "http://www.diariooficial.interior.gob.cl/publicaciones/2026/08/05/44517/07/2848350.pdf", "archivo": "gm_pedimento_2848350.pdf", "fecha": "05-08-2026", "edicion": "44517" }, "geometry": { "type": "Polygon", "coordinates": [ [ [ -72.462881736544659, -36.421248506472033 ], [ -72.429450222395772, -36.420533079257574 ], [ -72.429153155960279, -36.429539280009998 ], [ -72.462588523459033, -36.430254941204048 ], [ -72.462881736544659, -36.421248506472033 ] ] ] } },
{ "type": "Feature", "properties": { "cve": "2848351", "nombre": "Isabel 32", "solicitante": "Piro Vergara Alejandra", "region": "REGIÓN DE ÑUBLE", "provincia": "Provincia de Itata", "comuna": null, "superficie_ha": 300.0, "datum_original": "PSAD56", "huso": 18, "epsg_origen": 24878, "tipo_publicacion": "pedimento", "fuente_pdf": "http://www.diariooficial.interior.gob.cl/publicaciones/2026/08/05/44517/07/2848351.pdf", "archivo": "gm_pedimento_2848351.pdf", "fecha": "05-08-2026", "edicion": "44517" }, "geometry": { "type": "Polygon", "coordinates": [ [ [ -72.488223099700264, -36.430797282233947 ], [ -72.454786832318121, -36.430088789935958 ], [ -72.454492589452542, -36.439095154583867 ], [ -72.487932712302921, -36.43980387857345 ], [ -72.488223099700264, -36.430797282233947 ] ] ] } },
{ "type": "Feature", "properties": { "cve": "2848352", "nombre": "Isabel 33", "solicitante": "Piro Vergara Alejandra", "region": "REGIÓN DE ÑUBLE", "provincia": "Provincia de Itata", "comuna": null, "superficie_ha": 200.0, "datum_original": "PSAD56", "huso": 18, "epsg_origen": 24878, "tipo_publicacion": "pedimento", "fuente_pdf": "http://www.diariooficial.interior.gob.cl/publicaciones/2026/08/05/44517/07/2848352.pdf", "archivo": "gm_pedimento_2848352.pdf", "fecha": "05-08-2026", "edicion": "44517" }, "geometry": { "type": "Polygon", "coordinates": [ [ [ -72.454786832318121, -36.430088789935958 ], [ -72.432496639533554, -36.42961126688823 ], [ -72.432199826653417, -36.438617475378599 ], [ -72.454492589452542, -36.439095154583867 ], [ -72.454786832318121, -36.430088789935958 ] ] ] } },
{ "type": "Feature", "properties": { "cve": "2848353", "nombre": "ISABEL 34", "solicitante": "Piro Vergara Alejandra", "region": "REGIÓN DE ÑUBLE", "provincia": "Provincia de Itata", "comuna": null, "superficie_ha": 300.0, "datum_original": "PSAD56", "huso": 18, "epsg_origen": 24878, "tipo_publicacion": "pedimento", "fuente_pdf": "http://www.diariooficial.interior.gob.cl/publicaciones/2026/08/05/44517/07/2848353.pdf", "archivo": "gm_pedimento_2848353.pdf", "fecha": "05-08-2026", "edicion": "44517" }, "geometry": { "type": "Polygon", "coordinates": [ [ [ -72.487932712302921, -36.43980387857345 ], [ -72.454492589452542, -36.439095154583867 ], [ -72.454198215910452, -36.448101503467427 ], [ -72.487642195937823, -36.448810459201219 ], [ -72.487932712302921, -36.43980387857345 ] ] ] } },
{ "type": "Feature", "properties": { "cve": "2848354", "nombre": "Isabel 35", "solicitante": "Piro Vergara Alejandra", "region": "REGIÓN DE ÑUBLE", "provincia": "Provincia de Itata", "comuna": null, "superficie_ha": 200.0, "datum_original": "PSAD56", "huso": 18, "epsg_origen": 24878, "tipo_publicacion": "pedimento", "fuente_pdf": "http://www.diariooficial.interior.gob.cl/publicaciones/2026/08/05/44517/07/2848354.pdf", "archivo": "gm_pedimento_2848354.pdf", "fecha": "05-08-2026", "edicion": "44517" }, "geometry": { "type": "Polygon", "coordinates": [ [ [ -72.454492589452542, -36.439095154583867 ], [ -72.432199826653417, -36.438617475378599 ], [ -72.431902881957768, -36.447623668069134 ], [ -72.454198215910452, -36.448101503467427 ], [ -72.454492589452542, -36.439095154583867 ] ] ] } },
{ "type": "Feature", "properties": { "cve": "2848355", "nombre": "Isabel 36", "solicitante": "Piro Vergara Alejandra", "region": "REGIÓN DE ÑUBLE", "provincia": "Provincia de Itata", "comuna": null, "superficie_ha": 300.0, "datum_original": "PSAD56", "huso": 18, "epsg_origen": 24878, "tipo_publicacion": "pedimento", "fuente_pdf": "http://www.diariooficial.interior.gob.cl/publicaciones/2026/08/05/44517/07/2848355.pdf", "archivo": "gm_pedimento_2848355.pdf", "fecha": "05-08-2026", "edicion": "44517" }, "geometry": { "type": "Polygon", "coordinates": [ [ [ -72.487642195937823, -36.448810459201219 ], [ -72.454198215910452, -36.448101503467427 ], [ -72.453903711632194, -36.457107836584129 ], [ -72.487351550546137, -36.457817024114824 ], [ -72.487642195937823, -36.448810459201219 ] ] ] } },
{ "type": "Feature", "properties": { "cve": "2848356", "nombre": "Isabel 37", "solicitante": "Piro Vergara Alejandra", "region": "REGIÓN DE ÑUBLE", "provincia": "Provincia de Itata", "comuna": null, "superficie_ha": 200.0, "datum_original": "PSAD56", "huso": 18, "epsg_origen": 24878, "tipo_publicacion": "pedimento", "fuente_pdf": "http://www.diariooficial.interior.gob.cl/publicaciones/2026/08/05/44517/07/2848356.pdf", "archivo": "gm_pedimento_2848356.pdf", "fecha": "05-08-2026", "edicion": "44517" }, "geometry": { "type": "Polygon", "coordinates": [ [ [ -72.454198215910452, -36.448101503467427 ], [ -72.431902881957768, -36.447623668069134 ], [ -72.431605805386454, -36.456629844957391 ], [ -72.453903711632194, -36.457107836584129 ], [ -72.454198215910452, -36.448101503467427 ] ] ] } },
{ "type": "Feature", "properties": { "cve": "2848357", "nombre": "Isabel 38", "solicitante": "Piro Vergara Alejandra Carolina", "region": "REGIÓN DE ÑUBLE", "provincia": "Provincia de Itata", "comuna": null, "superficie_ha": 300.0, "datum_original": "PSAD56", "huso": 18, "epsg_origen": 24878, "tipo_publicacion": "pedimento", "fuente_pdf": "http://www.diariooficial.interior.gob.cl/publicaciones/2026/08/05/44517/07/2848357.pdf", "archivo": "gm_pedimento_2848357.pdf", "fecha": "05-08-2026", "edicion": "44517" }, "geometry": { "type": "Polygon", "coordinates": [ [ [ -72.487351550546137, -36.457817024114824 ], [ -72.453903711632194, -36.457107836584129 ], [ -72.453609076558124, -36.466114153931599 ], [ -72.487060776068972, -36.466823573311885 ], [ -72.487351550546137, -36.457817024114824 ] ] ] } },
{ "type": "Feature", "properties": { "cve": "2848358", "nombre": "Isabel 39", "solicitante": "Piro Vergara Alejandra Carolina", "region": "REGIÓN DE ÑUBLE", "provincia": "Provincia de Itata", "comuna": null, "superficie_ha": 200.0, "datum_original": "PSAD56", "huso": 18, "epsg_origen": 24878, "tipo_publicacion": "pedimento", "fuente_pdf": "http://www.diariooficial.interior.gob.cl/publicaciones/2026/08/05/44517/07/2848358.pdf", "archivo": "gm_pedimento_2848358.pdf", "fecha": "05-08-2026", "edicion": "44517" }, "geometry": { "type": "Polygon", "coordinates": [ [ [ -72.453903711632194, -36.457107836584129 ], [ -72.431605805386454, -36.456629844957391 ], [ -72.431308596879276, -36.465636006040832 ], [ -72.453609076558124, -36.466114153931599 ], [ -72.453903711632194, -36.457107836584129 ] ] ] } },
{ "type": "Feature", "properties": { "cve": "2848359", "nombre": "Isabel 40", "solicitante": "Piro Vergara Alejandra Carolina", "region": "REGIÓN DE ÑUBLE", "provincia": "Provincia de Itata", "comuna": null, "superficie_ha": 300.0, "datum_original": "PSAD56", "huso": 18, "epsg_origen": 24878, "tipo_publicacion": "pedimento", "fuente_pdf": "http://www.diariooficial.interior.gob.cl/publicaciones/2026/08/05/44517/07/2848359.pdf", "archivo": "gm_pedimento_2848359.pdf", "fecha": "05-08-2026", "edicion": "44517" }, "geometry": { "type": "Polygon", "coordinates": [ [ [ -72.570976196899935, -36.459549037166113 ], [ -72.537525482427071, -36.458863253571892 ], [ -72.53724049983785, -36.467870144812842 ], [ -72.570695076220844, -36.468556152615314 ], [ -72.570976196899935, -36.459549037166113 ] ] ] } },
{ "type": "Feature", "properties": { "cve": "2848362", "nombre": "Isabel 43", "solicitante": "Piro Vergara Alejandra", "region": "REGIÓN DE ÑUBLE", "provincia": "Provincia de Itata", "comuna": null, "superficie_ha": 300.0, "datum_original": "PSAD56", "huso": 18, "epsg_origen": 24878, "tipo_publicacion": "pedimento", "fuente_pdf": "http://www.diariooficial.interior.gob.cl/publicaciones/2026/08/05/44517/07/2848362.pdf", "archivo": "gm_pedimento_2848362.pdf", "fecha": "05-08-2026", "edicion": "44517" }, "geometry": { "type": "Polygon", "coordinates": [ [ [ -72.537183488132598, -36.469671521184168 ], [ -72.50372927846162, -36.46897610252838 ], [ -72.503440280528764, -36.477982747672471 ], [ -72.536898353643963, -36.478678393655429 ], [ -72.537183488132598, -36.469671521184168 ] ] ] } },
{ "type": "Feature", "properties": { "cve": "2848363", "nombre": "Isabel 44", "solicitante": "Piro Vergara Alejandra", "region": "REGIÓN DE ÑUBLE", "provincia": "Provincia de Itata", "comuna": null, "superficie_ha": 300.0, "datum_original": "PSAD56", "huso": 18, "epsg_origen": 24878, "tipo_publicacion": "pedimento", "fuente_pdf": "http://www.diariooficial.interior.gob.cl/publicaciones/2026/08/05/44517/07/2848363.pdf", "archivo": "gm_pedimento_2848363.pdf", "fecha": "05-08-2026", "edicion": "44517" }, "geometry": { "type": "Polygon", "coordinates": [ [ [ -72.570580631788815, -36.479369214313891 ], [ -72.537121411306586, -36.478682999858016 ], [ -72.536836175940991, -36.487689858190869 ], [ -72.570299262104314, -36.488376296946818 ], [ -72.570580631788815, -36.479369214313891 ] ] ] } },
{ "type": "Feature", "properties": { "cve": "2848364", "nombre": "Isabel 45", "solicitante": "Piro Vergara Alejandra", "region": "REGIÓN DE ÑUBLE", "provincia": "Provincia de Itata", "comuna": null, "superficie_ha": 300.0, "datum_original": "PSAD56", "huso": 18, "epsg_origen": 24878, "tipo_publicacion": "pedimento", "fuente_pdf": "http://www.diariooficial.interior.gob.cl/publicaciones/2026/08/05/44517/07/2848364.pdf", "archivo": "gm_pedimento_2848364.pdf", "fecha": "05-08-2026", "edicion": "44517" }, "geometry": { "type": "Polygon", "coordinates": [ [ [ -72.537121411306586, -36.478682999858016 ], [ -72.503663330541556, -36.477987416332148 ], [ -72.503374230015623, -36.486994047306474 ], [ -72.536836175940991, -36.487689858190869 ], [ -72.537121411306586, -36.478682999858016 ] ] ] } },
{ "type": "Feature", "properties": { "cve": "2848365", "nombre": "Isabel 46", "solicitante": "Piro Vera Alejandra", "region": "REGIÓN DE ÑUBLE", "provincia": "Provincia de Itata", "comuna": null, "superficie_ha": 300.0, "datum_original": "PSAD56", "huso": 18, "epsg_origen": 24878, "tipo_publicacion": "pedimento", "fuente_pdf": "http://www.diariooficial.interior.gob.cl/publicaciones/2026/08/05/44517/07/2848365.pdf", "archivo": "gm_pedimento_2848365.pdf", "fecha": "05-08-2026", "edicion": "44517" }, "geometry": { "type": "Polygon", "coordinates": [ [ [ -72.570299262104314, -36.488376296946818 ], [ -72.536836175940991, -36.487689858190869 ], [ -72.536550813882485, -36.496696700877692 ], [ -72.570017767440689, -36.497383363984753 ], [ -72.570299262104314, -36.488376296946818 ] ] ] } },
{ "type": "Feature", "properties": { "cve": "2848366", "nombre": "Isabel 47", "solicitante": "Piro Vergara Alejandra", "region": "REGIÓN DE ÑUBLE", "provincia": "Provincia de Itata", "comuna": null, "superficie_ha": 300.0, "datum_original": "PSAD56", "huso": 18, "epsg_origen": 24878, "tipo_publicacion": "pedimento", "fuente_pdf": "http://www.diariooficial.interior.gob.cl/publicaciones/2026/08/05/44517/07/2848366.pdf", "archivo": "gm_pedimento_2848366.pdf", "fecha": "05-08-2026", "edicion": "44517" }, "geometry": { "type": "Polygon", "coordinates": [ [ [ -72.536836175940991, -36.487689858190869 ], [ -72.503374230015623, -36.486994047306474 ], [ -72.503085001083377, -36.496000662583057 ], [ -72.536550813882485, -36.496696700877692 ], [ -72.536836175940991, -36.487689858190869 ] ] ] } },
{ "type": "Feature", "properties": { "cve": "2848367", "nombre": "Isabel 48", "solicitante": "Piro Vergara Alejandra", "region": "REGIÓN DE ÑUBLE", "provincia": "Provincia de Itata", "comuna": null, "superficie_ha": 300.0, "datum_original": "PSAD56", "huso": 18, "epsg_origen": 24878, "tipo_publicacion": "pedimento", "fuente_pdf": "http://www.diariooficial.interior.gob.cl/publicaciones/2026/08/05/44517/07/2848367.pdf", "archivo": "gm_pedimento_2848367.pdf", "fecha": "05-08-2026", "edicion": "44517" }, "geometry": { "type": "Polygon", "coordinates": [ [ [ -72.570017767440689, -36.497383363984753 ], [ -72.536550813882485, -36.496696700877692 ], [ -72.53626532507316, -36.505703527916097 ], [ -72.569736147740812, -36.506390415425372 ], [ -72.570017767440689, -36.497383363984753 ] ] ] } },
{ "type": "Feature", "properties": { "cve": "2848368", "nombre": "Isabel 49", "solicitante": "Piro Vergara Alejandra", "region": "REGIÓN DE ÑUBLE", "provincia": "Provincia de Itata", "comuna": null, "superficie_ha": 300.0, "datum_original": "PSAD56", "huso": 18, "epsg_origen": 24878, "tipo_publicacion": "pedimento", "fuente_pdf": "http://www.diariooficial.interior.gob.cl/publicaciones/2026/08/05/44517/07/2848368.pdf", "archivo": "gm_pedimento_2848368.pdf", "fecha": "05-08-2026", "edicion": "44517" }, "geometry": { "type": "Polygon", "coordinates": [ [ [ -72.536550813882485, -36.496696700877692 ], [ -72.503085001083377, -36.496000662583057 ], [ -72.502795643686184, -36.505007262159459 ], [ -72.53626532507316, -36.505703527916097 ], [ -72.536550813882485, -36.496696700877692 ] ] ] } },
{ "type": "Feature", "properties": { "cve": "2848369", "nombre": "Isabel 50", "solicitante": "Piro Vergara Alejandra Carolina", "region": "REGIÓN DE ÑUBLE", "provincia": "Provincia de Itata", "comuna": null, "superficie_ha": 300.0, "datum_original": "PSAD56", "huso": 18, "epsg_origen": 24878, "tipo_publicacion": "pedimento", "fuente_pdf": "http://www.diariooficial.interior.gob.cl/publicaciones/2026/08/05/44517/07/2848369.pdf", "archivo": "gm_pedimento_2848369.pdf", "fecha": "05-08-2026", "edicion": "44517" }, "geometry": { "type": "Polygon", "coordinates": [ [ [ -72.569736147740812, -36.506390415425372 ], [ -72.53626532507316, -36.505703527916097 ], [ -72.53597970945512, -36.514710339303782 ], [ -72.5694544029475, -36.515397451266359 ], [ -72.569736147740812, -36.506390415425372 ] ] ] } },
{ "type": "Feature", "properties": { "cve": "2848370", "nombre": "Isabel 51", "solicitante": "Piro Vergara Alejandra", "region": "REGIÓN DE ÑUBLE", "provincia": "Provincia de Itata", "comuna": null, "superficie_ha": 300.0, "datum_original": "PSAD56", "huso": 18, "epsg_origen": 24878, "tipo_publicacion": "pedimento", "fuente_pdf": "http://www.diariooficial.interior.gob.cl/publicaciones/2026/08/05/44517/07/2848370.pdf", "archivo": "gm_pedimento_2848370.pdf", "fecha": "05-08-2026", "edicion": "44517" }, "geometry": { "type": "Polygon", "coordinates": [ [ [ -72.53626532507316, -36.505703527916097 ], [ -72.502795643686184, -36.505007262159459 ], [ -72.502506157765254, -36.514013846033315 ], [ -72.53597970945512, -36.514710339303782 ], [ -72.53626532507316, -36.505703527916097 ] ] ] } },
{ "type": "Feature", "properties": { "cve": "2848371", "nombre": "Isabel 52", "solicitante": "Piro Vergara Alejandra", "region": "REGIÓN DE ÑUBLE", "provincia": "Provincia de Itata", "comuna": null, "superficie_ha": 300.0, "datum_original": "PSAD56", "huso": 18, "epsg_origen": 24878, "tipo_publicacion": "pedimento", "fuente_pdf": "http://www.diariooficial.interior.gob.cl/publicaciones/2026/08/05/44517/07/2848371.pdf", "archivo": "gm_pedimento_2848371.pdf", "fecha": "05-08-2026", "edicion": "44517" }, "geometry": { "type": "Polygon", "coordinates": [ [ [ -72.5694544029475, -36.515397451266359 ], [ -72.53597970945512, -36.514710339303782 ], [ -72.535693966970328, -36.523717135038353 ], [ -72.569172533003581, -36.52440447150537 ], [ -72.5694544029475, -36.515397451266359 ] ] ] } },
{ "type": "Feature", "properties": { "cve": "2848372", "nombre": "Isabel 53", "solicitante": "Piro Vergara Alejandra", "region": "REGIÓN DE ÑUBLE", "provincia": "Provincia de Itata", "comuna": null, "superficie_ha": 300.0, "datum_original": "PSAD56", "huso": 18, "epsg_origen": 24878, "tipo_publicacion": "pedimento", "fuente_pdf": "http://www.diariooficial.interior.gob.cl/publicaciones/2026/08/05/44517/07/2848372.pdf", "archivo": "gm_pedimento_2848372.pdf", "fecha": "05-08-2026", "edicion": "44517" }, "geometry": { "type": "Polygon", "coordinates": [ [ [ -72.53597970945512, -36.514710339303782 ], [ -72.502506157765254, -36.514013846033315 ], [ -72.502216543261852, -36.523020414202236 ], [ -72.535693966970328, -36.523717135038353 ], [ -72.53597970945512, -36.514710339303782 ] ] ] } }
]
}
