{
"type": "FeatureCollection",
"name": "boletin_mineria_20261001",
"crs": { "type": "name", "properties": { "name": "urn:ogc:def:crs:OGC:1.3:CRS84" } },
"features": [
{ "type": "Feature", "properties": { "cve": "2878911", "nombre": "VIDALITA 1 1 AL 30", "solicitante": "Pérez Vargas Miguel Ángel y otro", "region": "REGIÓN DE ATACAMA", "provincia": "Provincia de Copiapó", "comuna": null, "superficie_ha": 300.0, "datum_original": "PSAD56", "huso": 19, "epsg_origen": 24879, "tipo_publicacion": "manifestacion", "fuente_pdf": "http://www.diariooficial.interior.gob.cl/publicaciones/2026/10/01/44563/07/2878911.pdf", "archivo": "gm_manifestacion_2878911.pdf", "fecha": "01-10-2026", "edicion": "44563" }, "geometry": { "type": "Polygon", "coordinates": [ [ [ -69.09821561096426, -27.690077169724468 ], [ -69.088073880895564, -27.690083988738788 ], [ -69.088095626359021, -27.717167016805977 ], [ -69.098239860414111, -27.717160189991372 ], [ -69.09821561096426, -27.690077169724468 ] ] ] } },
{ "type": "Feature", "properties": { "cve": "2878912", "nombre": "VIDALITA 2 1 AL 30", "solicitante": "Pérez Vargas Miguel Ángel y otro", "region": "REGIÓN DE ATACAMA", "provincia": "Provincia de Copiapó", "comuna": null, "superficie_ha": 300.0, "datum_original": "PSAD56", "huso": 19, "epsg_origen": 24879, "tipo_publicacion": "manifestacion", "fuente_pdf": "http://www.diariooficial.interior.gob.cl/publicaciones/2026/10/01/44563/07/2878912.pdf", "archivo": "gm_manifestacion_2878912.pdf", "fecha": "01-10-2026", "edicion": "44563" }, "geometry": { "type": "Polygon", "coordinates": [ [ [ -69.088073880895564, -27.690083988738788 ], [ -69.077932147460601, -27.690090065292875 ], [ -69.077951388934082, -27.717173100311054 ], [ -69.088095626359021, -27.717167016805977 ], [ -69.088073880895564, -27.690083988738788 ] ] ] } },
{ "type": "Feature", "properties": { "cve": "2878913", "nombre": "VIDALITA 3 1 AL 30", "solicitante": "Pérez Vargas Miguel Ángel y otro", "region": "REGIÓN DE ATACAMA", "provincia": "Provincia de Copiapó", "comuna": null, "superficie_ha": 300.0, "datum_original": "PSAD56", "huso": 19, "epsg_origen": 24879, "tipo_publicacion": "manifestacion", "fuente_pdf": "http://www.diariooficial.interior.gob.cl/publicaciones/2026/10/01/44563/07/2878913.pdf", "archivo": "gm_manifestacion_2878913.pdf", "fecha": "01-10-2026", "edicion": "44563" }, "geometry": { "type": "Polygon", "coordinates": [ [ [ -69.077932147460601, -27.690090065292875 ], [ -69.067790411047014, -27.690095399385893 ], [ -69.067807148527379, -27.717178440505741 ], [ -69.077951388934082, -27.717173100311054 ], [ -69.077932147460601, -27.690090065292875 ] ] ] } },
{ "type": "Feature", "properties": { "cve": "2878914", "nombre": "VIDALITA 4 1 AL 30", "solicitante": "Perez Vargas Miguel Ángel y otro", "region": "REGIÓN DE ATACAMA", "provincia": "Provincia de Copiapó", "comuna": null, "superficie_ha": 300.0, "datum_original": "PSAD56", "huso": 19, "epsg_origen": 24879, "tipo_publicacion": "manifestacion", "fuente_pdf": "http://www.diariooficial.interior.gob.cl/publicaciones/2026/10/01/44563/07/2878914.pdf", "archivo": "gm_manifestacion_2878914.pdf", "fecha": "01-10-2026", "edicion": "44563" }, "geometry": { "type": "Polygon", "coordinates": [ [ [ -69.067790411047014, -27.690095399385893 ], [ -69.057648672042475, -27.69009999101705 ], [ -69.057662905526968, -27.717183037389287 ], [ -69.067807148527379, -27.717178440505741 ], [ -69.067790411047014, -27.690095399385893 ] ] ] } },
{ "type": "Feature", "properties": { "cve": "2878915", "nombre": "VIDALITA 5 1 AL 30", "solicitante": "Pérez Vargas Miguel Ángel y otro", "region": "REGIÓN DE ATACAMA", "provincia": "Provincia de Copiapó", "comuna": null, "superficie_ha": 300.0, "datum_original": "PSAD56", "huso": 19, "epsg_origen": 24879, "tipo_publicacion": "manifestacion", "fuente_pdf": "http://www.diariooficial.interior.gob.cl/publicaciones/2026/10/01/44563/07/2878915.pdf", "archivo": "gm_manifestacion_2878915.pdf", "fecha": "01-10-2026", "edicion": "44563" }, "geometry": { "type": "Polygon", "coordinates": [ [ [ -69.057648672042475, -27.69009999101705 ], [ -69.047506930834615, -27.690103840185717 ], [ -69.047518660320932, -27.717186890961013 ], [ -69.057662905526968, -27.717183037389287 ], [ -69.057648672042475, -27.69009999101705 ] ] ] } },
{ "type": "Feature", "properties": { "cve": "2878916", "nombre": "VIDALITA 6 1 AL 20", "solicitante": "Pérez Vargas Miguel Ángel y otro", "region": "REGIÓN DE ATACAMA", "provincia": "Provincia de Copiapó", "comuna": null, "superficie_ha": 100.0, "datum_original": "PSAD56", "huso": 19, "epsg_origen": 24879, "tipo_publicacion": "manifestacion", "fuente_pdf": "http://www.diariooficial.interior.gob.cl/publicaciones/2026/10/01/44563/07/2878916.pdf", "archivo": "gm_manifestacion_2878916.pdf", "fecha": "01-10-2026", "edicion": "44563" }, "geometry": { "type": "Polygon", "coordinates": [ [ [ -69.047506930834615, -27.690103840185717 ], [ -69.042436059525571, -27.690105486346436 ], [ -69.042443042893552, -27.708160866655163 ], [ -69.047514748675198, -27.708159219239182 ], [ -69.047506930834615, -27.690103840185717 ] ] ] } },
{ "type": "Feature", "properties": { "cve": "2878917", "nombre": "VIDALITA 7 1 AL 20", "solicitante": "Pérez Vargas Miguel Ángel y otro", "region": "REGIÓN DE ATACAMA", "provincia": "Provincia de Copiapó", "comuna": null, "superficie_ha": 200.0, "datum_original": "PSAD56", "huso": 19, "epsg_origen": 24879, "tipo_publicacion": "manifestacion", "fuente_pdf": "http://www.diariooficial.interior.gob.cl/publicaciones/2026/10/01/44563/07/2878917.pdf", "archivo": "gm_manifestacion_2878917.pdf", "fecha": "01-10-2026", "edicion": "44563" }, "geometry": { "type": "Polygon", "coordinates": [ [ [ -69.083016673712677, -27.708142486126928 ], [ -69.06272986310077, -27.708153162447683 ], [ -69.06273502732715, -27.717180831861445 ], [ -69.083023508043524, -27.717170151472263 ], [ -69.083016673712677, -27.708142486126928 ] ] ] } },
{ "type": "Feature", "properties": { "cve": "2878578", "nombre": "RAGNAROCK 1 AL 8", "solicitante": "Gómez Rojas Jorge Antonio y otro", "region": "REGIÓN DE COQUIMBO", "provincia": "Provincia de Choapa", "comuna": "Illapel", "superficie_ha": 48.0, "datum_original": "PSAD56", "huso": 19, "epsg_origen": 24879, "tipo_publicacion": "manifestacion", "fuente_pdf": "http://www.diariooficial.interior.gob.cl/publicaciones/2026/10/01/44563/07/2878578.pdf", "archivo": "gm_manifestacion_2878578.pdf", "fecha": "01-10-2026", "edicion": "44563" }, "geometry": { "type": "Polygon", "coordinates": [ [ [ -71.064711298286227, -31.456807156270052 ], [ -71.05840016230286, -31.456908772596613 ], [ -71.058558005334646, -31.464122130541551 ], [ -71.064869624433982, -31.464020485626268 ], [ -71.064711298286227, -31.456807156270052 ] ] ] } },
{ "type": "Feature", "properties": { "cve": "2878815", "nombre": "Codelco 3 de 1-11", "solicitante": "Escobar Riquelme Guillermo Antonio", "region": "REGIÓN DE VALPARAÍSO", "provincia": "Provincia de Petorca", "comuna": "La Ligua", "superficie_ha": 99.0, "datum_original": "PSAD56", "huso": 19, "epsg_origen": 24879, "tipo_publicacion": "manifestacion", "fuente_pdf": "http://www.diariooficial.interior.gob.cl/publicaciones/2026/10/01/44563/07/2878815.pdf", "archivo": "gm_manifestacion_2878815.pdf", "fecha": "01-10-2026", "edicion": "44563" }, "geometry": { "type": "Polygon", "coordinates": [ [ [ -71.163963233529159, -32.508130538256658 ], [ -71.152260859104203, -32.508331339981332 ], [ -71.152454261388669, -32.516444521497561 ], [ -71.164157685394144, -32.516243657373096 ], [ -71.163963233529159, -32.508130538256658 ] ] ] } },
{ "type": "Feature", "properties": { "cve": "2878825", "nombre": "LOS CUATROS 1 AL 100", "solicitante": "Kurapov Sergey", "region": "REGIÓN DEL BIOBÍO", "provincia": "Provincia de Arauco", "comuna": null, "superficie_ha": 200.0, "datum_original": "PSAD56", "huso": 18, "epsg_origen": 24878, "tipo_publicacion": "manifestacion", "fuente_pdf": "http://www.diariooficial.interior.gob.cl/publicaciones/2026/10/01/44563/07/2878825.pdf", "archivo": "gm_manifestacion_2878825.pdf", "fecha": "01-10-2026", "edicion": "44563" }, "geometry": { "type": "Polygon", "coordinates": [ [ [ -73.057113138727104, -37.533339335171263 ], [ -73.03448939111891, -37.532964856721591 ], [ -73.034252861302591, -37.541973132756205 ], [ -73.056879327255402, -37.542347732328786 ], [ -73.057113138727104, -37.533339335171263 ] ] ] } },
{ "type": "Feature", "properties": { "cve": "2869383", "nombre": "FLOR DE CHILE", "solicitante": "Ahumada Varela Hernán Antonio", "region": "REGIÓN DE COQUIMBO", "provincia": "Provincia de Elqui", "comuna": null, "superficie_ha": 100.0, "datum_original": "WGS84", "huso": 19, "epsg_origen": 32719, "tipo_publicacion": "sentencia_exploracion", "fuente_pdf": "http://www.diariooficial.interior.gob.cl/publicaciones/2026/10/01/44563/07/2869383.pdf", "archivo": "gm_sentencia_exploracion_2869383.pdf", "fecha": "01-10-2026", "edicion": "44563" }, "geometry": { "type": "Polygon", "coordinates": [ [ [ -70.406635581904652, -30.120024593728363 ], [ -70.396257863197008, -30.120135351546114 ], [ -70.396384825528543, -30.129157101348646 ], [ -70.406763487130874, -30.129046303551736 ], [ -70.406635581904652, -30.120024593728363 ] ] ] } },
{ "type": "Feature", "properties": { "cve": "2868364", "nombre": "QUETROLEUFU II", "solicitante": "Paravicini Michael Markus Johann", "region": "REGIÓN DE LA ARAUCANÍA", "provincia": "Provincia de Cautín", "comuna": null, "superficie_ha": 1000.0, "datum_original": "PSAD56", "huso": 19, "epsg_origen": 24879, "tipo_publicacion": "sentencia_exploracion", "fuente_pdf": "http://www.diariooficial.interior.gob.cl/publicaciones/2026/10/01/44563/07/2868364.pdf", "archivo": "gm_sentencia_exploracion_2868364.pdf", "fecha": "01-10-2026", "edicion": "44563" }, "geometry": { "type": "Polygon", "coordinates": [ [ [ -71.87279634573116, -39.255614688861563 ], [ -71.814916058018198, -39.257029085104065 ], [ -71.815636708128068, -39.275029151815275 ], [ -71.873531764627998, -39.27361385435055 ], [ -71.87279634573116, -39.255614688861563 ] ] ] } },
{ "type": "Feature", "properties": { "cve": "2878681", "nombre": "BLACKY I", "solicitante": "Céspedes Santis Daniela Carolina", "region": "REGIÓN DE ATACAMA", "provincia": "Provincia de Chañaral", "comuna": null, "superficie_ha": 300.0, "datum_original": "PSAD56", "huso": 19, "epsg_origen": 24879, "tipo_publicacion": "pedimento", "fuente_pdf": "http://www.diariooficial.interior.gob.cl/publicaciones/2026/10/01/44563/07/2878681.pdf", "archivo": "gm_pedimento_2878681.pdf", "fecha": "01-10-2026", "edicion": "44563" }, "geometry": { "type": "Polygon", "coordinates": [ [ [ -70.140654261869344, -25.974620746501685 ], [ -70.130666238480899, -25.97469911945382 ], [ -70.130925400700775, -26.001783166998703 ], [ -70.140915712258618, -26.001704700317113 ], [ -70.140654261869344, -25.974620746501685 ] ] ] } },
{ "type": "Feature", "properties": { "cve": "2878682", "nombre": "BLACKY II", "solicitante": "Céspedes Santis Daniela Carolina", "region": "REGIÓN DE ATACAMA", "provincia": "Provincia de Chañaral", "comuna": null, "superficie_ha": 300.0, "datum_original": "PSAD56", "huso": 19, "epsg_origen": 24879, "tipo_publicacion": "pedimento", "fuente_pdf": "http://www.diariooficial.interior.gob.cl/publicaciones/2026/10/01/44563/07/2878682.pdf", "archivo": "gm_pedimento_2878682.pdf", "fecha": "01-10-2026", "edicion": "44563" }, "geometry": { "type": "Polygon", "coordinates": [ [ [ -70.150642243790728, -25.974541684580881 ], [ -70.140654261869344, -25.974620746501685 ], [ -70.140915712258618, -26.001704700317113 ], [ -70.150905982308089, -26.001625543842998 ], [ -70.150642243790728, -25.974541684580881 ] ] ] } },
{ "type": "Feature", "properties": { "cve": "2878683", "nombre": "BLACKY III", "solicitante": "Céspedes Santis Daniela Carolina", "region": "REGIÓN DE ATACAMA", "provincia": "Provincia de Chañaral", "comuna": null, "superficie_ha": 300.0, "datum_original": "PSAD56", "huso": 19, "epsg_origen": 24879, "tipo_publicacion": "pedimento", "fuente_pdf": "http://www.diariooficial.interior.gob.cl/publicaciones/2026/10/01/44563/07/2878683.pdf", "archivo": "gm_pedimento_2878683.pdf", "fecha": "01-10-2026", "edicion": "44563" }, "geometry": { "type": "Polygon", "coordinates": [ [ [ -70.160630183882233, -25.974461933702479 ], [ -70.150642243790728, -25.974541684580881 ], [ -70.150905982308089, -26.001625543842998 ], [ -70.16089621048603, -26.001545697587467 ], [ -70.160630183882233, -25.974461933702479 ] ] ] } },
{ "type": "Feature", "properties": { "cve": "2878560", "nombre": "GOLD IA 1", "solicitante": "Céspedes Santis Daniela Carolina", "region": "REGIÓN DE ATACAMA", "provincia": "Provincia de Chañaral", "comuna": null, "superficie_ha": 300.0, "datum_original": "PSAD56", "huso": 19, "epsg_origen": 24879, "tipo_publicacion": "pedimento", "fuente_pdf": "http://www.diariooficial.interior.gob.cl/publicaciones/2026/10/01/44563/07/2878560.pdf", "archivo": "gm_pedimento_2878560.pdf", "fecha": "01-10-2026", "edicion": "44563" }, "geometry": { "type": "Polygon", "coordinates": [ [ [ -70.025554782215735, -25.948395350118513 ], [ -69.995596105412147, -25.948604379774864 ], [ -69.995672049968121, -25.957632836774501 ], [ -70.025633011072117, -25.957423723737598 ], [ -70.025554782215735, -25.948395350118513 ] ] ] } },
{ "type": "Feature", "properties": { "cve": "2878561", "nombre": "GOLD IA 2", "solicitante": "Céspedes Santis Daniela Carolina", "region": "REGIÓN DE ATACAMA", "provincia": "Provincia de Chañaral", "comuna": null, "superficie_ha": 300.0, "datum_original": "PSAD56", "huso": 19, "epsg_origen": 24879, "tipo_publicacion": "pedimento", "fuente_pdf": "http://www.diariooficial.interior.gob.cl/publicaciones/2026/10/01/44563/07/2878561.pdf", "archivo": "gm_pedimento_2878561.pdf", "fecha": "01-10-2026", "edicion": "44563" }, "geometry": { "type": "Polygon", "coordinates": [ [ [ -69.995596105412147, -25.948604379774864 ], [ -69.965637103084873, -25.94880721477886 ], [ -69.965710763232622, -25.957835752688318 ], [ -69.995672049968121, -25.957632836774501 ], [ -69.995596105412147, -25.948604379774864 ] ] ] } },
{ "type": "Feature", "properties": { "cve": "2878562", "nombre": "GOLD IA 3", "solicitante": "Céspedes Santis Daniela Carolina", "region": "REGIÓN DE ATACAMA", "provincia": "Provincia de Chañaral", "comuna": null, "superficie_ha": 300.0, "datum_original": "PSAD56", "huso": 19, "epsg_origen": 24879, "tipo_publicacion": "pedimento", "fuente_pdf": "http://www.diariooficial.interior.gob.cl/publicaciones/2026/10/01/44563/07/2878562.pdf", "archivo": "gm_pedimento_2878562.pdf", "fecha": "01-10-2026", "edicion": "44563" }, "geometry": { "type": "Polygon", "coordinates": [ [ [ -70.025633011072117, -25.957423723737598 ], [ -69.995672049968121, -25.957632836774501 ], [ -69.99574803070567, -25.966661282216357 ], [ -70.025711277198099, -25.966452085786536 ], [ -70.025633011072117, -25.957423723737598 ] ] ] } },
{ "type": "Feature", "properties": { "cve": "2878563", "nombre": "GOLD IA 4", "solicitante": "Céspedes Santis Daniela Carolina", "region": "REGIÓN DE ATACAMA", "provincia": "Provincia de Chañaral", "comuna": null, "superficie_ha": 300.0, "datum_original": "PSAD56", "huso": 19, "epsg_origen": 24879, "tipo_publicacion": "pedimento", "fuente_pdf": "http://www.diariooficial.interior.gob.cl/publicaciones/2026/10/01/44563/07/2878563.pdf", "archivo": "gm_pedimento_2878563.pdf", "fecha": "01-10-2026", "edicion": "44563" }, "geometry": { "type": "Polygon", "coordinates": [ [ [ -69.995596105412147, -25.948604379774864 ], [ -69.965637103084873, -25.94880721477886 ], [ -69.965710763232622, -25.957835752688318 ], [ -69.995672049968121, -25.957632836774501 ], [ -69.995596105412147, -25.948604379774864 ] ] ] } },
{ "type": "Feature", "properties": { "cve": "2878564", "nombre": "GOLD IA 5", "solicitante": "Céspedes Santis Daniela Carolina", "region": "REGIÓN DE ATACAMA", "provincia": "Provincia de Chañaral", "comuna": null, "superficie_ha": 300.0, "datum_original": "PSAD56", "huso": 19, "epsg_origen": 24879, "tipo_publicacion": "pedimento", "fuente_pdf": "http://www.diariooficial.interior.gob.cl/publicaciones/2026/10/01/44563/07/2878564.pdf", "archivo": "gm_pedimento_2878564.pdf", "fecha": "01-10-2026", "edicion": "44563" }, "geometry": { "type": "Polygon", "coordinates": [ [ [ -69.996746810891139, -25.966654408882942 ], [ -69.986758992793028, -25.966722832236243 ], [ -69.986985093341971, -25.993808172816344 ], [ -69.996975199074825, -25.993739667610818 ], [ -69.996746810891139, -25.966654408882942 ] ] ] } },
{ "type": "Feature", "properties": { "cve": "2878565", "nombre": "GOLD IA 6", "solicitante": "Céspedes Santis Daniela Carolina", "region": "REGIÓN DE ATACAMA", "provincia": "Provincia de Chañaral", "comuna": null, "superficie_ha": 300.0, "datum_original": "PSAD56", "huso": 19, "epsg_origen": 24879, "tipo_publicacion": "pedimento", "fuente_pdf": "http://www.diariooficial.interior.gob.cl/publicaciones/2026/10/01/44563/07/2878565.pdf", "archivo": "gm_pedimento_2878565.pdf", "fecha": "01-10-2026", "edicion": "44563" }, "geometry": { "type": "Polygon", "coordinates": [ [ [ -69.986758992793028, -25.966722832236243 ], [ -69.976771138828155, -25.96679056673706 ], [ -69.976994951706672, -25.993875988345426 ], [ -69.986985093341971, -25.993808172816344 ], [ -69.986758992793028, -25.966722832236243 ] ] ] } },
{ "type": "Feature", "properties": { "cve": "2878566", "nombre": "GOLD IA 7", "solicitante": "Céspedes Santis Daniela Carolina", "region": "REGIÓN DE ATACAMA", "provincia": "Provincia de Chañaral", "comuna": null, "superficie_ha": 300.0, "datum_original": "PSAD56", "huso": 19, "epsg_origen": 24879, "tipo_publicacion": "pedimento", "fuente_pdf": "http://www.diariooficial.interior.gob.cl/publicaciones/2026/10/01/44563/07/2878566.pdf", "archivo": "gm_pedimento_2878566.pdf", "fecha": "01-10-2026", "edicion": "44563" }, "geometry": { "type": "Polygon", "coordinates": [ [ [ -69.976771138828155, -25.96679056673706 ], [ -69.966783249359381, -25.966857612375907 ], [ -69.967004774532114, -25.993943114188561 ], [ -69.976994951706672, -25.993875988345426 ], [ -69.976771138828155, -25.96679056673706 ] ] ] } },
{ "type": "Feature", "properties": { "cve": "2878692", "nombre": "GOLDEN PHOENIX II", "solicitante": "Céspedes Santis Daniela Carolina", "region": "REGIÓN DE ATACAMA", "provincia": "Provincia de Chañaral", "comuna": null, "superficie_ha": 300.0, "datum_original": "PSAD56", "huso": 19, "epsg_origen": 24879, "tipo_publicacion": "pedimento", "fuente_pdf": "http://www.diariooficial.interior.gob.cl/publicaciones/2026/10/01/44563/07/2878692.pdf", "archivo": "gm_pedimento_2878692.pdf", "fecha": "01-10-2026", "edicion": "44563" }, "geometry": { "type": "Polygon", "coordinates": [ [ [ -70.030705119256538, -25.966416616994984 ], [ -70.00074192800642, -25.966626846665072 ], [ -70.000818326024557, -25.975655266817022 ], [ -70.030783803733229, -25.975444953329742 ], [ -70.030705119256538, -25.966416616994984 ] ] ] } },
{ "type": "Feature", "properties": { "cve": "2878693", "nombre": "GOLDEN PHOENIX III", "solicitante": "Céspedes Santis Daniela Carolina", "region": "REGIÓN DE ATACAMA", "provincia": "Provincia de Chañaral", "comuna": null, "superficie_ha": 300.0, "datum_original": "PSAD56", "huso": 19, "epsg_origen": 24879, "tipo_publicacion": "pedimento", "fuente_pdf": "http://www.diariooficial.interior.gob.cl/publicaciones/2026/10/01/44563/07/2878693.pdf", "archivo": "gm_pedimento_2878693.pdf", "fecha": "01-10-2026", "edicion": "44563" }, "geometry": { "type": "Polygon", "coordinates": [ [ [ -70.030783803733229, -25.975444953329742 ], [ -70.000818326024557, -25.975655266817022 ], [ -70.000894760429716, -25.98468367540341 ], [ -70.030862525685691, -25.984473278086469 ], [ -70.030783803733229, -25.975444953329742 ] ] ] } },
{ "type": "Feature", "properties": { "cve": "2878694", "nombre": "GOLDEN PHOENIX IV", "solicitante": "Céspedes Santis Daniela Carolina", "region": "REGIÓN DE ATACAMA", "provincia": "Provincia de Chañaral", "comuna": null, "superficie_ha": 300.0, "datum_original": "PSAD56", "huso": 19, "epsg_origen": 24879, "tipo_publicacion": "pedimento", "fuente_pdf": "http://www.diariooficial.interior.gob.cl/publicaciones/2026/10/01/44563/07/2878694.pdf", "archivo": "gm_pedimento_2878694.pdf", "fecha": "01-10-2026", "edicion": "44563" }, "geometry": { "type": "Polygon", "coordinates": [ [ [ -70.030862525685691, -25.984473278086469 ], [ -70.000894760429716, -25.98468367540341 ], [ -70.000971231233933, -25.993712072421353 ], [ -70.03094128512636, -25.993501591262305 ], [ -70.030862525685691, -25.984473278086469 ] ] ] } },
{ "type": "Feature", "properties": { "cve": "2878588", "nombre": "TN", "solicitante": "Uka Chile y Compañía", "region": "REGIÓN DE COQUIMBO", "provincia": "Provincia de Choapa", "comuna": null, "superficie_ha": 100.0, "datum_original": "PSAD56", "huso": 19, "epsg_origen": 24879, "tipo_publicacion": "pedimento", "fuente_pdf": "http://www.diariooficial.interior.gob.cl/publicaciones/2026/10/01/44563/07/2878588.pdf", "archivo": "gm_pedimento_2878588.pdf", "fecha": "01-10-2026", "edicion": "44563" }, "geometry": { "type": "Polygon", "coordinates": [ [ [ -71.372937923411641, -31.620840639787001 ], [ -71.362403136486023, -31.621036039685027 ], [ -71.362631032495074, -31.630050649454805 ], [ -71.373166833368941, -31.629855181055998 ], [ -71.372937923411641, -31.620840639787001 ] ] ] } },
{ "type": "Feature", "properties": { "cve": "2878705", "nombre": "TABALES 1", "solicitante": "Compañía Minera Vizcachitas Holding", "region": "REGIÓN DE VALPARAÍSO", "provincia": "Provincia de San Felipe de Aconcagua", "comuna": "Putaendo", "superficie_ha": 200.0, "datum_original": "PSAD56", "huso": 19, "epsg_origen": 24879, "tipo_publicacion": "pedimento", "fuente_pdf": "http://www.diariooficial.interior.gob.cl/publicaciones/2026/10/01/44563/07/2878705.pdf", "archivo": "gm_pedimento_2878705.pdf", "fecha": "01-10-2026", "edicion": "44563" }, "geometry": { "type": "Polygon", "coordinates": [ [ [ -70.362473810438175, -32.36647654338384 ], [ -70.341220812948947, -32.366704388910897 ], [ -70.341354020180489, -32.375723144680968 ], [ -70.362609126893318, -32.375495220261733 ], [ -70.362473810438175, -32.36647654338384 ] ] ] } },
{ "type": "Feature", "properties": { "cve": "2878706", "nombre": "TABALES 2", "solicitante": "Compañía Minera Vizcachitas Holding", "region": "REGIÓN DE VALPARAÍSO", "provincia": "Provincia de San Felipe de Aconcagua", "comuna": "Putaendo", "superficie_ha": 200.0, "datum_original": "PSAD56", "huso": 19, "epsg_origen": 24879, "tipo_publicacion": "pedimento", "fuente_pdf": "http://www.diariooficial.interior.gob.cl/publicaciones/2026/10/01/44563/07/2878706.pdf", "archivo": "gm_pedimento_2878706.pdf", "fecha": "01-10-2026", "edicion": "44563" }, "geometry": { "type": "Polygon", "coordinates": [ [ [ -70.362609126893318, -32.375495220261733 ], [ -70.341354020180489, -32.375723144680968 ], [ -70.341487286958639, -32.384741886947992 ], [ -70.362744503837462, -32.38451388362121 ], [ -70.362609126893318, -32.375495220261733 ] ] ] } },
{ "type": "Feature", "properties": { "cve": "2878661", "nombre": "VALKIRIA 1", "solicitante": "Veth Raffo Daniela", "region": "REGIÓN DEL MAULE", "provincia": "Provincia de Talca", "comuna": null, "superficie_ha": 300.0, "datum_original": "PSAD56", "huso": 19, "epsg_origen": 24879, "tipo_publicacion": "pedimento", "fuente_pdf": "http://www.diariooficial.interior.gob.cl/publicaciones/2026/10/01/44563/07/2878661.pdf", "archivo": "gm_pedimento_2878661.pdf", "fecha": "01-10-2026", "edicion": "44563" }, "geometry": { "type": "Polygon", "coordinates": [ [ [ -70.774349139816408, -35.872594858884412 ], [ -70.741132271712843, -35.873080986342146 ], [ -70.741329529171267, -35.882092854586404 ], [ -70.774550155732513, -35.881606567057013 ], [ -70.774349139816408, -35.872594858884412 ] ] ] } },
{ "type": "Feature", "properties": { "cve": "2878662", "nombre": "VALKIRIA 3", "solicitante": "Veth Raffo Daniela", "region": "REGIÓN DEL MAULE", "provincia": "Provincia de Talca", "comuna": null, "superficie_ha": 300.0, "datum_original": "PSAD56", "huso": 19, "epsg_origen": 24879, "tipo_publicacion": "pedimento", "fuente_pdf": "http://www.diariooficial.interior.gob.cl/publicaciones/2026/10/01/44563/07/2878662.pdf", "archivo": "gm_pedimento_2878662.pdf", "fecha": "01-10-2026", "edicion": "44563" }, "geometry": { "type": "Polygon", "coordinates": [ [ [ -70.774751260916588, -35.89061826060685 ], [ -70.741526874230161, -35.891104708243518 ], [ -70.741724306928916, -35.90011654731159 ], [ -70.774952455408751, -35.89962993953197 ], [ -70.774751260916588, -35.89061826060685 ] ] ] } },
{ "type": "Feature", "properties": { "cve": "2878663", "nombre": "VALKIRIA 4", "solicitante": "Veth Raffo Daniela", "region": "REGIÓN DEL MAULE", "provincia": "Provincia de Talca", "comuna": null, "superficie_ha": 300.0, "datum_original": "PSAD56", "huso": 19, "epsg_origen": 24879, "tipo_publicacion": "pedimento", "fuente_pdf": "http://www.diariooficial.interior.gob.cl/publicaciones/2026/10/01/44563/07/2878663.pdf", "archivo": "gm_pedimento_2878663.pdf", "fecha": "01-10-2026", "edicion": "44563" }, "geometry": { "type": "Polygon", "coordinates": [ [ [ -70.774952455408751, -35.89962993953197 ], [ -70.741724306928916, -35.90011654731159 ], [ -70.741921827307024, -35.909128371788725 ], [ -70.775153739249234, -35.908641603830461 ], [ -70.774952455408751, -35.89962993953197 ] ] ] } },
{ "type": "Feature", "properties": { "cve": "2878664", "nombre": "VALKIRIA 7", "solicitante": "Veth Raffo Daniela", "region": "REGIÓN DEL MAULE", "provincia": "Provincia de Talca", "comuna": null, "superficie_ha": 300.0, "datum_original": "PSAD56", "huso": 19, "epsg_origen": 24879, "tipo_publicacion": "pedimento", "fuente_pdf": "http://www.diariooficial.interior.gob.cl/publicaciones/2026/10/01/44563/07/2878664.pdf", "archivo": "gm_pedimento_2878664.pdf", "fecha": "01-10-2026", "edicion": "44563" }, "geometry": { "type": "Polygon", "coordinates": [ [ [ -70.775556575135894, -35.926664888539861 ], [ -70.742317131258986, -35.927151976962541 ], [ -70.742514914911894, -35.936163757655443 ], [ -70.775758127262606, -35.935676508946962 ], [ -70.775556575135894, -35.926664888539861 ] ] ] } },
{ "type": "Feature", "properties": { "cve": "2878665", "nombre": "VALKIRIA 8", "solicitante": "Veth Raffo Daniela", "region": "REGIÓN DEL MAULE", "provincia": "Provincia de Talca", "comuna": null, "superficie_ha": 300.0, "datum_original": "PSAD56", "huso": 19, "epsg_origen": 24879, "tipo_publicacion": "pedimento", "fuente_pdf": "http://www.diariooficial.interior.gob.cl/publicaciones/2026/10/01/44563/07/2878665.pdf", "archivo": "gm_pedimento_2878665.pdf", "fecha": "01-10-2026", "edicion": "44563" }, "geometry": { "type": "Polygon", "coordinates": [ [ [ -70.775758127262606, -35.935676508946962 ], [ -70.742514914911894, -35.936163757655443 ], [ -70.742712786402137, -35.945175523749796 ], [ -70.77595976889863, -35.944688114719767 ], [ -70.775758127262606, -35.935676508946962 ] ] ] } }
]
}
