{
"type": "FeatureCollection",
"name": "boletin_mineria_20260910",
"crs": { "type": "name", "properties": { "name": "urn:ogc:def:crs:OGC:1.3:CRS84" } },
"features": [
{ "type": "Feature", "properties": { "cve": "2867575", "nombre": "BRILLANTE II 1 AL 30", "solicitante": "Villalobos Salcedo Óscar Manuel", "region": "REGIÓN DE ATACAMA", "provincia": "Provincia de Copiapó", "comuna": null, "superficie_ha": 300.0, "datum_original": "PSAD56", "huso": 19, "epsg_origen": 24879, "tipo_publicacion": "manifestacion", "fuente_pdf": "http://www.diariooficial.interior.gob.cl/publicaciones/2026/09/10/44547/07/2867575.pdf", "archivo": "gm_manifestacion_2867575.pdf", "fecha": "10-09-2026", "edicion": "44547" }, "geometry": { "type": "Polygon", "coordinates": [ [ [ -70.020798385245627, -27.108606645120783 ], [ -70.010711153495876, -27.108679567559477 ], [ -70.010954571753373, -27.135760672137472 ], [ -70.02104423187437, -27.13568766507489 ], [ -70.020798385245627, -27.108606645120783 ] ] ] } },
{ "type": "Feature", "properties": { "cve": "2867469", "nombre": "MISAEL DEL 1 AL 81", "solicitante": "Molina Donoso Osvaldo", "region": "REGIÓN DE ATACAMA", "provincia": "Provincia de Chañaral", "comuna": null, "superficie_ha": 81.0, "datum_original": "WGS84", "huso": 19, "epsg_origen": 32719, "tipo_publicacion": "manifestacion", "fuente_pdf": "http://www.diariooficial.interior.gob.cl/publicaciones/2026/09/10/44547/07/2867469.pdf", "archivo": "gm_manifestacion_2867469.pdf", "fecha": "10-09-2026", "edicion": "44547" }, "geometry": { "type": "Polygon", "coordinates": [ [ [ -69.945604159783457, -26.807579779205472 ], [ -69.93654955493183, -26.807639970058609 ], [ -69.936616325121335, -26.815764832422328 ], [ -69.945671575276918, -26.815704620455264 ], [ -69.945604159783457, -26.807579779205472 ] ] ] } },
{ "type": "Feature", "properties": { "cve": "2867910", "nombre": "MINA ONIX II 1 AL 63", "solicitante": "Minera Hugo Homero Altamirano Godoy", "region": "REGIÓN DE ATACAMA", "provincia": "Provincia de Huasco", "comuna": "Freirina", "superficie_ha": 63.0, "datum_original": "PSAD56", "huso": 19, "epsg_origen": 24879, "tipo_publicacion": "manifestacion", "fuente_pdf": "http://www.diariooficial.interior.gob.cl/publicaciones/2026/09/10/44547/07/2867910.pdf", "archivo": "gm_manifestacion_2867910.pdf", "fecha": "10-09-2026", "edicion": "44547" }, "geometry": { "type": "Polygon", "coordinates": [ [ [ -71.190038056670502, -28.708231389633017 ], [ -71.180830292382396, -28.708380178913835 ], [ -71.18096130090909, -28.714694026312429 ], [ -71.190169617257453, -28.714545198295024 ], [ -71.190038056670502, -28.708231389633017 ] ] ] } },
{ "type": "Feature", "properties": { "cve": "2867911", "nombre": "SAN JOSE 3, 1 AL 8", "solicitante": "Minera Andrés Osvaldo Baza Mella", "region": "REGIÓN DE ATACAMA", "provincia": "Provincia de Huasco", "comuna": "Freirina", "superficie_ha": 40.0, "datum_original": "PSAD56", "huso": 19, "epsg_origen": 24879, "tipo_publicacion": "manifestacion", "fuente_pdf": "http://www.diariooficial.interior.gob.cl/publicaciones/2026/09/10/44547/07/2867911.pdf", "archivo": "gm_manifestacion_2867911.pdf", "fecha": "10-09-2026", "edicion": "44547" }, "geometry": { "type": "Polygon", "coordinates": [ [ [ -70.925170322730466, -28.275236358623413 ], [ -70.914979433824229, -28.275379614807793 ], [ -70.915043995966414, -28.278988361102449 ], [ -70.925235227935076, -28.278845083389218 ], [ -70.925170322730466, -28.275236358623413 ] ] ] } },
{ "type": "Feature", "properties": { "cve": "2867459", "nombre": "LUCAS TRES 1/20", "solicitante": "Pontigo Rubio Ronald Andrés", "region": "REGIÓN DE COQUIMBO", "provincia": "Provincia de Choapa", "comuna": null, "superficie_ha": 100.0, "datum_original": "WGS84", "huso": 19, "epsg_origen": 32719, "tipo_publicacion": "manifestacion", "fuente_pdf": "http://www.diariooficial.interior.gob.cl/publicaciones/2026/09/10/44547/07/2867459.pdf", "archivo": "gm_manifestacion_2867459.pdf", "fecha": "10-09-2026", "edicion": "44547" }, "geometry": { "type": "Polygon", "coordinates": [ [ [ -71.125091405240084, -31.883571411970415 ], [ -71.11452498259996, -31.8837476797754 ], [ -71.114731099192994, -31.892763487208743 ], [ -71.125298549926114, -31.892587157888958 ], [ -71.125091405240084, -31.883571411970415 ] ] ] } },
{ "type": "Feature", "properties": { "cve": "2867414", "nombre": "VENTISCA 1, 1 AL 30", "solicitante": "El Espino SpA", "region": "REGIÓN DE COQUIMBO", "provincia": "Provincia de Choapa", "comuna": null, "superficie_ha": 150.0, "datum_original": "PSAD56", "huso": 19, "epsg_origen": 24879, "tipo_publicacion": "manifestacion", "fuente_pdf": "http://www.diariooficial.interior.gob.cl/publicaciones/2026/09/10/44547/07/2867414.pdf", "archivo": "gm_manifestacion_2867414.pdf", "fecha": "10-09-2026", "edicion": "44547" }, "geometry": { "type": "Polygon", "coordinates": [ [ [ -71.103395586918964, -31.304193012275544 ], [ -71.092894257379555, -31.304364630478279 ], [ -71.093193423025483, -31.317889697452141 ], [ -71.103696250969762, -31.317717988461521 ], [ -71.103395586918964, -31.304193012275544 ] ] ] } },
{ "type": "Feature", "properties": { "cve": "2867415", "nombre": "VENTISCA 2, 1 AL 20", "solicitante": "El Espino SpA", "region": "REGIÓN DE COQUIMBO", "provincia": "Provincia de Choapa", "comuna": null, "superficie_ha": 100.0, "datum_original": "PSAD56", "huso": 19, "epsg_origen": 24879, "tipo_publicacion": "manifestacion", "fuente_pdf": "http://www.diariooficial.interior.gob.cl/publicaciones/2026/09/10/44547/07/2867415.pdf", "archivo": "gm_manifestacion_2867415.pdf", "fecha": "10-09-2026", "edicion": "44547" }, "geometry": { "type": "Polygon", "coordinates": [ [ [ -71.103746381345289, -31.3199721481129 ], [ -71.093243303568784, -31.320143872237299 ], [ -71.093442881768922, -31.329160562679821 ], [ -71.103946959154541, -31.328988778013237 ], [ -71.103746381345289, -31.3199721481129 ] ] ] } },
{ "type": "Feature", "properties": { "cve": "2867819", "nombre": "BONNIE DEL 1-12", "solicitante": "Pérez Pérez Juan", "region": "REGIÓN DE VALPARAÍSO", "provincia": "Provincia de Petorca", "comuna": null, "superficie_ha": 120.0, "datum_original": "PSAD56", "huso": 19, "epsg_origen": 24879, "tipo_publicacion": "manifestacion", "fuente_pdf": "http://www.diariooficial.interior.gob.cl/publicaciones/2026/09/10/44547/07/2867819.pdf", "archivo": "gm_manifestacion_2867819.pdf", "fecha": "10-09-2026", "edicion": "44547" }, "geometry": { "type": "Polygon", "coordinates": [ [ [ -70.883705437851532, -32.486710641094483 ], [ -70.870940025763232, -32.486901096017355 ], [ -70.871126689718906, -32.495917332546561 ], [ -70.883893373584243, -32.495726811827694 ], [ -70.883705437851532, -32.486710641094483 ] ] ] } },
{ "type": "Feature", "properties": { "cve": "2867573", "nombre": "GLORIA 8, 1 AL 40", "solicitante": "Colbún S.A.", "region": "REGIÓN DE VALPARAÍSO", "provincia": "Provincia de Quillota", "comuna": "Quillota", "superficie_ha": 200.0, "datum_original": "PSAD56", "huso": 19, "epsg_origen": 24879, "tipo_publicacion": "manifestacion", "fuente_pdf": "http://www.diariooficial.interior.gob.cl/publicaciones/2026/09/10/44547/07/2867573.pdf", "archivo": "gm_manifestacion_2867573.pdf", "fecha": "10-09-2026", "edicion": "44547" }, "geometry": { "type": "Polygon", "coordinates": [ [ [ -71.32094475656217, -32.940432117330253 ], [ -71.310255931595506, -32.940630278631538 ], [ -71.310725069633804, -32.958656358121253 ], [ -71.321416060412886, -32.958458060936948 ], [ -71.32094475656217, -32.940432117330253 ] ] ] } },
{ "type": "Feature", "properties": { "cve": "2867853", "nombre": "GLORIA 3, 1 AL 60", "solicitante": "Colbún S.A.", "region": "REGIÓN DE VALPARAÍSO", "provincia": "Provincia de Marga Marga", "comuna": "Limache", "superficie_ha": 300.0, "datum_original": "PSAD56", "huso": 19, "epsg_origen": 24879, "tipo_publicacion": "manifestacion", "fuente_pdf": "http://www.diariooficial.interior.gob.cl/publicaciones/2026/09/10/44547/07/2867853.pdf", "archivo": "gm_manifestacion_2867853.pdf", "fecha": "10-09-2026", "edicion": "44547" }, "geometry": { "type": "Polygon", "coordinates": [ [ [ -71.436451452024087, -32.940937464714459 ], [ -71.404387152391607, -32.941558855216783 ], [ -71.404631227718298, -32.950571289287538 ], [ -71.436698774477151, -32.949949685775287 ], [ -71.436451452024087, -32.940937464714459 ] ] ] } },
{ "type": "Feature", "properties": { "cve": "2867854", "nombre": "GLORIA 4, 1 AL 60", "solicitante": "Colbún S.A.", "region": "REGIÓN DE VALPARAÍSO", "provincia": "Provincia de Marga Marga", "comuna": "Limache", "superficie_ha": 300.0, "datum_original": "PSAD56", "huso": 19, "epsg_origen": 24879, "tipo_publicacion": "manifestacion", "fuente_pdf": "http://www.diariooficial.interior.gob.cl/publicaciones/2026/09/10/44547/07/2867854.pdf", "archivo": "gm_manifestacion_2867854.pdf", "fecha": "10-09-2026", "edicion": "44547" }, "geometry": { "type": "Polygon", "coordinates": [ [ [ -71.404338350377429, -32.939756366636104 ], [ -71.372273721351547, -32.940369498048518 ], [ -71.372514527682824, -32.949382145251256 ], [ -71.404582403950997, -32.948768803651149 ], [ -71.404338350377429, -32.939756366636104 ] ] ] } },
{ "type": "Feature", "properties": { "cve": "2867855", "nombre": "GLORIA 5, 1 AL 40", "solicitante": "Colbún S.A.", "region": "REGIÓN DE VALPARAÍSO", "provincia": "Provincia de Marga Marga", "comuna": "Limache", "superficie_ha": 200.0, "datum_original": "PSAD56", "huso": 19, "epsg_origen": 24879, "tipo_publicacion": "manifestacion", "fuente_pdf": "http://www.diariooficial.interior.gob.cl/publicaciones/2026/09/10/44547/07/2867855.pdf", "archivo": "gm_manifestacion_2867855.pdf", "fecha": "10-09-2026", "edicion": "44547" }, "geometry": { "type": "Polygon", "coordinates": [ [ [ -71.372370031006284, -32.943974558691131 ], [ -71.350992208479354, -32.944378803251539 ], [ -71.351230892304841, -32.953391583155039 ], [ -71.372610880267629, -32.952987200021887 ], [ -71.372370031006284, -32.943974558691131 ] ] ] } },
{ "type": "Feature", "properties": { "cve": "2867856", "nombre": "GLORIA 6, 1 AL 60", "solicitante": "Colbún S.A.", "region": "REGIÓN DE VALPARAÍSO", "provincia": "Provincia de Marga Marga", "comuna": "Limache", "superficie_ha": 300.0, "datum_original": "PSAD56", "huso": 19, "epsg_origen": 24879, "tipo_publicacion": "manifestacion", "fuente_pdf": "http://www.diariooficial.interior.gob.cl/publicaciones/2026/09/10/44547/07/2867856.pdf", "archivo": "gm_manifestacion_2867856.pdf", "fecha": "10-09-2026", "edicion": "44547" }, "geometry": { "type": "Polygon", "coordinates": [ [ [ -71.357644933553843, -32.953270651889525 ], [ -71.325574345337586, -32.953872019416416 ], [ -71.325810535643726, -32.962884949334402 ], [ -71.357884373710277, -32.962283375690049 ], [ -71.357644933553843, -32.953270651889525 ] ] ] } },
{ "type": "Feature", "properties": { "cve": "2867857", "nombre": "GLORIA 7, 1 AL 20", "solicitante": "Colbún S.A.", "region": "REGIÓN DE VALPARAÍSO", "provincia": "Provincia de Marga Marga", "comuna": "Limache", "superficie_ha": 100.0, "datum_original": "PSAD56", "huso": 19, "epsg_origen": 24879, "tipo_publicacion": "manifestacion", "fuente_pdf": "http://www.diariooficial.interior.gob.cl/publicaciones/2026/09/10/44547/07/2867857.pdf", "archivo": "gm_manifestacion_2867857.pdf", "fecha": "10-09-2026", "edicion": "44547" }, "geometry": { "type": "Polygon", "coordinates": [ [ [ -71.325574345337586, -32.953872019416416 ], [ -71.31488393815161, -32.954070648077774 ], [ -71.315119045086945, -32.96308364607593 ], [ -71.325810535643726, -32.962884949334402 ], [ -71.325574345337586, -32.953872019416416 ] ] ] } },
{ "type": "Feature", "properties": { "cve": "2869957", "nombre": "FITZ A 1 AL 100", "solicitante": "Compañía Minera Doña Inés de Collahuasi SCM", "region": "REGIÓN DE TARAPACÁ", "provincia": "Provincia del Tamarugal", "comuna": null, "superficie_ha": 1000.0, "datum_original": "WGS84", "huso": 19, "epsg_origen": 32719, "tipo_publicacion": "mensura", "fuente_pdf": "http://www.diariooficial.interior.gob.cl/publicaciones/2026/09/10/44547/07/2869957.pdf", "archivo": "gm_mensura_2869957.pdf", "fecha": "10-09-2026", "edicion": "44547" }, "geometry": { "type": "Polygon", "coordinates": [ [ [ -68.577823907829625, -20.573465168274456 ], [ -68.529850505192854, -20.573341537143875 ], [ -68.529795141510604, -20.591413101419469 ], [ -68.577774192948482, -20.591536850745559 ], [ -68.577823907829625, -20.573465168274456 ] ] ] } },
{ "type": "Feature", "properties": { "cve": "2867814", "nombre": "SHAKIRA III 1 AL 20", "solicitante": "Paredes Páez Yovana Yengla", "region": "REGIÓN DE ATACAMA", "provincia": "Provincia de Huasco", "comuna": null, "superficie_ha": 40.0, "datum_original": "WGS84", "huso": 19, "epsg_origen": 32719, "tipo_publicacion": "mensura", "fuente_pdf": "http://www.diariooficial.interior.gob.cl/publicaciones/2026/09/10/44547/07/2867814.pdf", "archivo": "gm_mensura_2867814.pdf", "fecha": "10-09-2026", "edicion": "44547" }, "geometry": { "type": "Polygon", "coordinates": [ [ [ -70.533239548667396, -28.893381892024728 ], [ -70.522986764734497, -28.893498195743415 ], [ -70.523039455144499, -28.897107358981728 ], [ -70.533292593452899, -28.896991038027508 ], [ -70.533239548667396, -28.893381892024728 ] ] ] } },
{ "type": "Feature", "properties": { "cve": "2867471", "nombre": "PROYECTO 1, 1 AL 60", "solicitante": "Onell Onell Iván del Rosario", "region": "REGIÓN DE COQUIMBO", "provincia": "Provincia de Elqui", "comuna": null, "superficie_ha": 60.0, "datum_original": "PSAD56", "huso": 19, "epsg_origen": 24879, "tipo_publicacion": "mensura", "fuente_pdf": "http://www.diariooficial.interior.gob.cl/publicaciones/2026/09/10/44547/07/2867471.pdf", "archivo": "gm_mensura_2867471.pdf", "fecha": "10-09-2026", "edicion": "44547" }, "geometry": { "type": "Polygon", "coordinates": [ [ [ -71.230612515059335, -29.524525926875992 ], [ -71.225456700009019, -29.524612371274106 ], [ -71.225298766574355, -29.517397639729811 ], [ -71.220143294207304, -29.517483859216593 ], [ -71.220340263520427, -29.526502303794313 ], [ -71.230652098716746, -29.52632960209263 ], [ -71.230612515059335, -29.524525926875992 ] ] ] } },
{ "type": "Feature", "properties": { "cve": "2867802", "nombre": "La Hermandad del 1-6", "solicitante": "SLM La Hermandad 1 de Cabildo", "region": "REGIÓN DE VALPARAÍSO", "provincia": "Provincia de Petorca", "comuna": null, "superficie_ha": null, "datum_original": "PSAD56", "huso": 19, "epsg_origen": 24879, "tipo_publicacion": "mensura", "fuente_pdf": "http://www.diariooficial.interior.gob.cl/publicaciones/2026/09/10/44547/07/2867802.pdf", "archivo": "gm_mensura_2867802.pdf", "fecha": "10-09-2026", "edicion": "44547" }, "geometry": { "type": "Polygon", "coordinates": [ [ [ -70.883865581023045, -32.448422525262956 ], [ -70.877485590713079, -32.448517823046608 ], [ -70.877597804860997, -32.453927579607011 ], [ -70.883978175943327, -32.453832262058178 ], [ -70.883865581023045, -32.448422525262956 ] ] ] } },
{ "type": "Feature", "properties": { "cve": "2867729", "nombre": "EMILIO 5", "solicitante": "Peña Díaz Rodrigo Neftalí", "region": "REGIÓN DE ANTOFAGASTA", "provincia": "Provincia de Tocopilla", "comuna": "María Elena", "superficie_ha": 200.0, "datum_original": "PSAD56", "huso": 19, "epsg_origen": 24879, "tipo_publicacion": "pedimento", "fuente_pdf": "http://www.diariooficial.interior.gob.cl/publicaciones/2026/09/10/44547/07/2867729.pdf", "archivo": "gm_pedimento_2867729.pdf", "fecha": "10-09-2026", "edicion": "44547" }, "geometry": { "type": "Polygon", "coordinates": [ [ [ -69.682395023678367, -21.497605968046962 ], [ -69.663087796255695, -21.497683706684924 ], [ -69.66312874429407, -21.506718161385631 ], [ -69.682437163784613, -21.506640386903484 ], [ -69.682395023678367, -21.497605968046962 ] ] ] } },
{ "type": "Feature", "properties": { "cve": "2867730", "nombre": "EMILIO 6", "solicitante": "Peña Díaz Rodrigo Neftalí", "region": "REGIÓN DE ANTOFAGASTA", "provincia": "Provincia de Tocopilla", "comuna": "María Elena", "superficie_ha": 300.0, "datum_original": "PSAD56", "huso": 19, "epsg_origen": 24879, "tipo_publicacion": "pedimento", "fuente_pdf": "http://www.diariooficial.interior.gob.cl/publicaciones/2026/09/10/44547/07/2867730.pdf", "archivo": "gm_pedimento_2867730.pdf", "fecha": "10-09-2026", "edicion": "44547" }, "geometry": { "type": "Polygon", "coordinates": [ [ [ -69.663087796255695, -21.497683706684924 ], [ -69.653434150219041, -21.497721739494565 ], [ -69.653555269631624, -21.524825126411411 ], [ -69.663210704733928, -21.524787040986261 ], [ -69.663087796255695, -21.497683706684924 ] ] ] } },
{ "type": "Feature", "properties": { "cve": "2867731", "nombre": "EMILIO 7", "solicitante": "Peña Díaz Rodrigo Neftalí", "region": "REGIÓN DE ANTOFAGASTA", "provincia": "Provincia de Tocopilla", "comuna": "María Elena", "superficie_ha": 300.0, "datum_original": "PSAD56", "huso": 19, "epsg_origen": 24879, "tipo_publicacion": "pedimento", "fuente_pdf": "http://www.diariooficial.interior.gob.cl/publicaciones/2026/09/10/44547/07/2867731.pdf", "archivo": "gm_pedimento_2867731.pdf", "fecha": "10-09-2026", "edicion": "44547" }, "geometry": { "type": "Polygon", "coordinates": [ [ [ -69.653555269631624, -21.524825126411411 ], [ -69.643899813377672, -21.524862653385341 ], [ -69.64401933126247, -21.551966002731422 ], [ -69.653676579411567, -21.551928423894847 ], [ -69.653555269631624, -21.524825126411411 ] ] ] } },
{ "type": "Feature", "properties": { "cve": "2867732", "nombre": "EMILIO 8", "solicitante": "Peña Díaz Rodrigo Neftalí", "region": "REGIÓN DE ANTOFAGASTA", "provincia": "Provincia de Tocopilla", "comuna": "María Elena", "superficie_ha": 200.0, "datum_original": "PSAD56", "huso": 19, "epsg_origen": 24879, "tipo_publicacion": "pedimento", "fuente_pdf": "http://www.diariooficial.interior.gob.cl/publicaciones/2026/09/10/44547/07/2867732.pdf", "archivo": "gm_pedimento_2867732.pdf", "fecha": "10-09-2026", "edicion": "44547" }, "geometry": { "type": "Polygon", "coordinates": [ [ [ -69.653676579411567, -21.551928423894847 ], [ -69.64401933126247, -21.551966002731422 ], [ -69.644099114127414, -21.570034852576235 ], [ -69.653757558436524, -21.569997239154201 ], [ -69.653676579411567, -21.551928423894847 ] ] ] } },
{ "type": "Feature", "properties": { "cve": "2867665", "nombre": "CACHIYUYO 1", "solicitante": "Compañía Minera Minerales Copiapó Limitada", "region": "REGIÓN DE ATACAMA", "provincia": "Provincia de Copiapó", "comuna": null, "superficie_ha": 200.0, "datum_original": "PSAD56", "huso": 19, "epsg_origen": 24879, "tipo_publicacion": "pedimento", "fuente_pdf": "http://www.diariooficial.interior.gob.cl/publicaciones/2026/09/10/44547/07/2867665.pdf", "archivo": "gm_pedimento_2867665.pdf", "fecha": "10-09-2026", "edicion": "44547" }, "geometry": { "type": "Polygon", "coordinates": [ [ [ -70.52307592504215, -27.91189576386645 ], [ -70.50275830803561, -27.912118881799497 ], [ -70.502883078926942, -27.921143170042324 ], [ -70.52320238128371, -27.920919967534058 ], [ -70.52307592504215, -27.91189576386645 ] ] ] } },
{ "type": "Feature", "properties": { "cve": "2867666", "nombre": "CACHIYUYO 2", "solicitante": "Compañía Minera Minerales Copiapó Limitada", "region": "REGIÓN DE ATACAMA", "provincia": "Provincia de Copiapó", "comuna": null, "superficie_ha": 100.0, "datum_original": "PSAD56", "huso": 19, "epsg_origen": 24879, "tipo_publicacion": "pedimento", "fuente_pdf": "http://www.diariooficial.interior.gob.cl/publicaciones/2026/09/10/44547/07/2867666.pdf", "archivo": "gm_pedimento_2867666.pdf", "fecha": "10-09-2026", "edicion": "44547" }, "geometry": { "type": "Polygon", "coordinates": [ [ [ -70.531330036770512, -27.920829847896641 ], [ -70.52117046154433, -27.920942422566331 ], [ -70.521296807775698, -27.92996662229498 ], [ -70.531457226040374, -27.929854004962042 ], [ -70.531330036770512, -27.920829847896641 ] ] ] } },
{ "type": "Feature", "properties": { "cve": "2867667", "nombre": "CACHIYUYO 3", "solicitante": "Compañía Minera Minerales Copiapó Limitada", "region": "REGIÓN DE ATACAMA", "provincia": "Provincia de Copiapó", "comuna": null, "superficie_ha": 100.0, "datum_original": "PSAD56", "huso": 19, "epsg_origen": 24879, "tipo_publicacion": "pedimento", "fuente_pdf": "http://www.diariooficial.interior.gob.cl/publicaciones/2026/09/10/44547/07/2867667.pdf", "archivo": "gm_pedimento_2867667.pdf", "fecha": "10-09-2026", "edicion": "44547" }, "geometry": { "type": "Polygon", "coordinates": [ [ [ -70.513042759209625, -27.921031943183223 ], [ -70.502883078926942, -27.921143170042324 ], [ -70.503007907636857, -27.930167445849936 ], [ -70.513168430995279, -27.930056176838225 ], [ -70.513042759209625, -27.921031943183223 ] ] ] } },
{ "type": "Feature", "properties": { "cve": "2867668", "nombre": "CACHIYUYO 4", "solicitante": "Compañía Minera Minerales Copiapó Limitada", "region": "REGIÓN DE ATACAMA", "provincia": "Provincia de Copiapó", "comuna": null, "superficie_ha": 200.0, "datum_original": "PSAD56", "huso": 19, "epsg_origen": 24879, "tipo_publicacion": "pedimento", "fuente_pdf": "http://www.diariooficial.interior.gob.cl/publicaciones/2026/09/10/44547/07/2867668.pdf", "archivo": "gm_pedimento_2867668.pdf", "fecha": "10-09-2026", "edicion": "44547" }, "geometry": { "type": "Polygon", "coordinates": [ [ [ -70.525360982128419, -27.929921665248219 ], [ -70.505040016948143, -27.93014525197426 ], [ -70.505165072191986, -27.939169506934668 ], [ -70.525487724275692, -27.93894583549254 ], [ -70.525360982128419, -27.929921665248219 ] ] ] } },
{ "type": "Feature", "properties": { "cve": "2867669", "nombre": "CACHIYUYO 5", "solicitante": "Compañía Minera Minerales Copiapó Limitada", "region": "REGIÓN DE ATACAMA", "provincia": "Provincia de Copiapó", "comuna": null, "superficie_ha": 100.0, "datum_original": "PSAD56", "huso": 19, "epsg_origen": 24879, "tipo_publicacion": "pedimento", "fuente_pdf": "http://www.diariooficial.interior.gob.cl/publicaciones/2026/09/10/44547/07/2867669.pdf", "archivo": "gm_pedimento_2867669.pdf", "fecha": "10-09-2026", "edicion": "44547" }, "geometry": { "type": "Polygon", "coordinates": [ [ [ -70.526707075962833, -27.938932319888902 ], [ -70.516545786110612, -27.939044620208559 ], [ -70.516671844405693, -27.948068815417948 ], [ -70.526833978087396, -27.947956472557436 ], [ -70.526707075962833, -27.938932319888902 ] ] ] } },
{ "type": "Feature", "properties": { "cve": "2867569", "nombre": "ANDES VI", "solicitante": "Gasoducto GasAndes S.A.", "region": "REGIÓN DEL LIBERTADOR GENERAL BERNARDO O’HIGGINS", "provincia": "Provincia de Cachapoal", "comuna": null, "superficie_ha": 200.0, "datum_original": "PSAD56", "huso": 19, "epsg_origen": 24879, "tipo_publicacion": "pedimento", "fuente_pdf": "http://www.diariooficial.interior.gob.cl/publicaciones/2026/09/10/44547/07/2867569.pdf", "archivo": "gm_pedimento_2867569.pdf", "fecha": "10-09-2026", "edicion": "44547" }, "geometry": { "type": "Polygon", "coordinates": [ [ [ -70.584310334247036, -33.901577735901114 ], [ -70.573498355459193, -33.901716330953015 ], [ -70.573829787872072, -33.919747480733662 ], [ -70.584644041716487, -33.919608791987216 ], [ -70.584310334247036, -33.901577735901114 ] ] ] } },
{ "type": "Feature", "properties": { "cve": "2867570", "nombre": "ANDES VII", "solicitante": "Gasoducto GasAndes S.A.", "region": "REGIÓN DEL LIBERTADOR GENERAL BERNARDO O’HIGGINS", "provincia": "Provincia de Cachapoal", "comuna": null, "superficie_ha": 200.0, "datum_original": "PSAD56", "huso": 19, "epsg_origen": 24879, "tipo_publicacion": "pedimento", "fuente_pdf": "http://www.diariooficial.interior.gob.cl/publicaciones/2026/09/10/44547/07/2867570.pdf", "archivo": "gm_pedimento_2867570.pdf", "fecha": "10-09-2026", "edicion": "44547" }, "geometry": { "type": "Polygon", "coordinates": [ [ [ -70.602231932382381, -34.026915606300996 ], [ -70.591404179058145, -34.02705622651677 ], [ -70.591740966146503, -34.045086849681041 ], [ -70.602571008553838, -34.044946134574857 ], [ -70.602231932382381, -34.026915606300996 ] ] ] } },
{ "type": "Feature", "properties": { "cve": "2867571", "nombre": "ANDES VIII", "solicitante": "Gasoducto GasAndes S.A.", "region": "REGIÓN DEL LIBERTADOR GENERAL BERNARDO O’HIGGINS", "provincia": "Provincia de Cachapoal", "comuna": null, "superficie_ha": 200.0, "datum_original": "PSAD56", "huso": 19, "epsg_origen": 24879, "tipo_publicacion": "pedimento", "fuente_pdf": "http://www.diariooficial.interior.gob.cl/publicaciones/2026/09/10/44547/07/2867571.pdf", "archivo": "gm_pedimento_2867571.pdf", "fecha": "10-09-2026", "edicion": "44547" }, "geometry": { "type": "Polygon", "coordinates": [ [ [ -70.616120970439823, -33.999726474151053 ], [ -70.605296741394199, -33.999868218226553 ], [ -70.605636120788631, -34.017898799394175 ], [ -70.616462635788309, -34.01775695963304 ], [ -70.616120970439823, -33.999726474151053 ] ] ] } },
{ "type": "Feature", "properties": { "cve": "2867657", "nombre": "IRIS 69", "solicitante": "Varela Echaurren Juan Francisco", "region": "REGIÓN DEL MAULE", "provincia": "Provincia de Talca", "comuna": null, "superficie_ha": 300.0, "datum_original": "PSAD56", "huso": 18, "epsg_origen": 24878, "tipo_publicacion": "pedimento", "fuente_pdf": "http://www.diariooficial.interior.gob.cl/publicaciones/2026/09/10/44547/07/2867657.pdf", "archivo": "gm_pedimento_2867657.pdf", "fecha": "10-09-2026", "edicion": "44547" }, "geometry": { "type": "Polygon", "coordinates": [ [ [ -72.107931074984506, -35.671414806489445 ], [ -72.07482529784815, -35.670614500099411 ], [ -72.07449644501672, -35.679619041492415 ], [ -72.107605931231419, -35.68041961182626 ], [ -72.107931074984506, -35.671414806489445 ] ] ] } },
{ "type": "Feature", "properties": { "cve": "2867658", "nombre": "IRIS 73", "solicitante": "Varela Echaurren Juan Francisco", "region": "REGIÓN DEL MAULE", "provincia": "Provincia de Talca", "comuna": null, "superficie_ha": 300.0, "datum_original": "PSAD56", "huso": 18, "epsg_origen": 24878, "tipo_publicacion": "pedimento", "fuente_pdf": "http://www.diariooficial.interior.gob.cl/publicaciones/2026/09/10/44547/07/2867658.pdf", "archivo": "gm_pedimento_2867658.pdf", "fecha": "10-09-2026", "edicion": "44547" }, "geometry": { "type": "Polygon", "coordinates": [ [ [ -72.229018376423227, -35.683277263023108 ], [ -72.195904201832832, -35.682510025967595 ], [ -72.195588811889237, -35.69151550451474 ], [ -72.22870669929415, -35.692282994598052 ], [ -72.229018376423227, -35.683277263023108 ] ] ] } },
{ "type": "Feature", "properties": { "cve": "2867659", "nombre": "IRIS 74", "solicitante": "Varela Echaurren Juan Francisco", "region": "REGIÓN DEL MAULE", "provincia": "Provincia de Talca", "comuna": null, "superficie_ha": 300.0, "datum_original": "PSAD56", "huso": 18, "epsg_origen": 24878, "tipo_publicacion": "pedimento", "fuente_pdf": "http://www.diariooficial.interior.gob.cl/publicaciones/2026/09/10/44547/07/2867659.pdf", "archivo": "gm_pedimento_2867659.pdf", "fecha": "10-09-2026", "edicion": "44547" }, "geometry": { "type": "Polygon", "coordinates": [ [ [ -72.22870669929415, -35.692282994598052 ], [ -72.195588811889237, -35.69151550451474 ], [ -72.195273282000898, -35.700520967046373 ], [ -72.228394883863857, -35.701288710213298 ], [ -72.22870669929415, -35.692282994598052 ] ] ] } },
{ "type": "Feature", "properties": { "cve": "2867660", "nombre": "IRIS 75", "solicitante": "Varela Echaurren Juan Francisco", "region": "REGIÓN DEL MAULE", "provincia": "Provincia de Talca", "comuna": null, "superficie_ha": 300.0, "datum_original": "PSAD56", "huso": 18, "epsg_origen": 24878, "tipo_publicacion": "pedimento", "fuente_pdf": "http://www.diariooficial.interior.gob.cl/publicaciones/2026/09/10/44547/07/2867660.pdf", "archivo": "gm_pedimento_2867660.pdf", "fecha": "10-09-2026", "edicion": "44547" }, "geometry": { "type": "Polygon", "coordinates": [ [ [ -72.228394883863857, -35.701288710213298 ], [ -72.195273282000898, -35.700520967046373 ], [ -72.19495761210527, -35.709526413559679 ], [ -72.228082930070485, -35.710294409866144 ], [ -72.228394883863857, -35.701288710213298 ] ] ] } },
{ "type": "Feature", "properties": { "cve": "2867661", "nombre": "IRIS 84", "solicitante": "Varela Echaurren Juan Francisco", "region": "REGIÓN DEL MAULE", "provincia": "Provincia de Talca", "comuna": null, "superficie_ha": 300.0, "datum_original": "PSAD56", "huso": 18, "epsg_origen": 24878, "tipo_publicacion": "pedimento", "fuente_pdf": "http://www.diariooficial.interior.gob.cl/publicaciones/2026/09/10/44547/07/2867661.pdf", "archivo": "gm_pedimento_2867661.pdf", "fecha": "10-09-2026", "edicion": "44547" }, "geometry": { "type": "Polygon", "coordinates": [ [ [ -72.140716715797311, -35.68121109277471 ], [ -72.12967964425944, -35.680948275794165 ], [ -72.128710772868629, -35.707963117936679 ], [ -72.139751557541217, -35.708226194986906 ], [ -72.140716715797311, -35.68121109277471 ] ] ] } },
{ "type": "Feature", "properties": { "cve": "2867662", "nombre": "IRIS 86", "solicitante": "Varela Echaurren Juan Francisco", "region": "REGIÓN DEL MAULE", "provincia": "Provincia de Talca", "comuna": null, "superficie_ha": 300.0, "datum_original": "PSAD56", "huso": 18, "epsg_origen": 24878, "tipo_publicacion": "pedimento", "fuente_pdf": "http://www.diariooficial.interior.gob.cl/publicaciones/2026/09/10/44547/07/2867662.pdf", "archivo": "gm_pedimento_2867662.pdf", "fecha": "10-09-2026", "edicion": "44547" }, "geometry": { "type": "Polygon", "coordinates": [ [ [ -72.12935683038107, -35.689953239305154 ], [ -72.096242765850278, -35.689158466427138 ], [ -72.09591609599191, -35.698163151743827 ], [ -72.129033873272149, -35.698958186686944 ], [ -72.12935683038107, -35.689953239305154 ] ] ] } },
{ "type": "Feature", "properties": { "cve": "2867663", "nombre": "IRIS 89", "solicitante": "Varela Echaurren Juan Francisco", "region": "REGIÓN DEL MAULE", "provincia": "Provincia de Talca", "comuna": null, "superficie_ha": 300.0, "datum_original": "PSAD56", "huso": 18, "epsg_origen": 24878, "tipo_publicacion": "pedimento", "fuente_pdf": "http://www.diariooficial.interior.gob.cl/publicaciones/2026/09/10/44547/07/2867663.pdf", "archivo": "gm_pedimento_2867663.pdf", "fecha": "10-09-2026", "edicion": "44547" }, "geometry": { "type": "Polygon", "coordinates": [ [ [ -72.096569290835717, -35.680153764923425 ], [ -72.063460240687576, -35.679350165049755 ], [ -72.063130005177271, -35.688354601554124 ], [ -72.096242765850278, -35.689158466427138 ], [ -72.096569290835717, -35.680153764923425 ] ] ] } },
{ "type": "Feature", "properties": { "cve": "2867664", "nombre": "IRIS 92", "solicitante": "Varela Echaurren Juan Francisco", "region": "REGIÓN DEL MAULE", "provincia": "Provincia de Talca", "comuna": null, "superficie_ha": 300.0, "datum_original": "PSAD56", "huso": 18, "epsg_origen": 24878, "tipo_publicacion": "pedimento", "fuente_pdf": "http://www.diariooficial.interior.gob.cl/publicaciones/2026/09/10/44547/07/2867664.pdf", "archivo": "gm_pedimento_2867664.pdf", "fecha": "10-09-2026", "edicion": "44547" }, "geometry": { "type": "Polygon", "coordinates": [ [ [ -72.095589281195942, -35.707167820870616 ], [ -72.062469094546827, -35.706363425823461 ], [ -72.062138419295678, -35.715367813582652 ], [ -72.095262321397527, -35.716172473804683 ], [ -72.095589281195942, -35.707167820870616 ] ] ] } },
{ "type": "Feature", "properties": { "cve": "2867628", "nombre": "IRIS 100", "solicitante": "Varela Echaurren Juan Francisco", "region": "REGIÓN DEL MAULE", "provincia": "Provincia de Cauquenes", "comuna": null, "superficie_ha": 300.0, "datum_original": "PSAD56", "huso": 18, "epsg_origen": 24878, "tipo_publicacion": "pedimento", "fuente_pdf": "http://www.diariooficial.interior.gob.cl/publicaciones/2026/09/10/44547/07/2867628.pdf", "archivo": "gm_pedimento_2867628.pdf", "fecha": "10-09-2026", "edicion": "44547" }, "geometry": { "type": "Polygon", "coordinates": [ [ [ -72.294032633612446, -35.720809275030128 ], [ -72.260901119948016, -35.720059237577686 ], [ -72.260592609193367, -35.729065155552156 ], [ -72.293727843359235, -35.729815440261746 ], [ -72.294032633612446, -35.720809275030128 ] ] ] } },
{ "type": "Feature", "properties": { "cve": "2867629", "nombre": "IRIS 101", "solicitante": "Varela Echaurren Juan Francisco", "region": "REGIÓN DEL MAULE", "provincia": "Provincia de Cauquenes", "comuna": null, "superficie_ha": 300.0, "datum_original": "PSAD56", "huso": 18, "epsg_origen": 24878, "tipo_publicacion": "pedimento", "fuente_pdf": "http://www.diariooficial.interior.gob.cl/publicaciones/2026/09/10/44547/07/2867629.pdf", "archivo": "gm_pedimento_2867629.pdf", "fecha": "10-09-2026", "edicion": "44547" }, "geometry": { "type": "Polygon", "coordinates": [ [ [ -72.293727843359235, -35.729815440261746 ], [ -72.260592609193367, -35.729065155552156 ], [ -72.260283961536757, -35.738071057611435 ], [ -72.29342291785126, -35.738821589632835 ], [ -72.293727843359235, -35.729815440261746 ] ] ] } },
{ "type": "Feature", "properties": { "cve": "2867630", "nombre": "IRIS 109", "solicitante": "Varela Echaurren Juan Francisco", "region": "REGIÓN DEL MAULE", "provincia": "Provincia de Cauquenes", "comuna": null, "superficie_ha": 300.0, "datum_original": "PSAD56", "huso": 18, "epsg_origen": 24878, "tipo_publicacion": "pedimento", "fuente_pdf": "http://www.diariooficial.interior.gob.cl/publicaciones/2026/09/10/44547/07/2867630.pdf", "archivo": "gm_pedimento_2867630.pdf", "fecha": "10-09-2026", "edicion": "44547" }, "geometry": { "type": "Polygon", "coordinates": [ [ [ -72.281763722806943, -35.756584511754021 ], [ -72.248617726859635, -35.755830445302379 ], [ -72.248307425886964, -35.764836216441282 ], [ -72.281457148745488, -35.765590531368993 ], [ -72.281763722806943, -35.756584511754021 ] ] ] } },
{ "type": "Feature", "properties": { "cve": "2867631", "nombre": "IRIS 110", "solicitante": "Varela Echaurren Juan Francisco", "region": "REGIÓN DEL MAULE", "provincia": "Provincia de Cauquenes", "comuna": null, "superficie_ha": 300.0, "datum_original": "PSAD56", "huso": 18, "epsg_origen": 24878, "tipo_publicacion": "pedimento", "fuente_pdf": "http://www.diariooficial.interior.gob.cl/publicaciones/2026/09/10/44547/07/2867631.pdf", "archivo": "gm_pedimento_2867631.pdf", "fecha": "10-09-2026", "edicion": "44547" }, "geometry": { "type": "Polygon", "coordinates": [ [ [ -72.281457148745488, -35.765590531368993 ], [ -72.248307425886964, -35.764836216441282 ], [ -72.247996987217064, -35.773841971635854 ], [ -72.2811504386368, -35.774596535094638 ], [ -72.281457148745488, -35.765590531368993 ] ] ] } },
{ "type": "Feature", "properties": { "cve": "2867632", "nombre": "IRIS 111", "solicitante": "Varela Echaurren Juan Francisco", "region": "REGIÓN DEL MAULE", "provincia": "Provincia de Cauquenes", "comuna": null, "superficie_ha": 300.0, "datum_original": "PSAD56", "huso": 18, "epsg_origen": 24878, "tipo_publicacion": "pedimento", "fuente_pdf": "http://www.diariooficial.interior.gob.cl/publicaciones/2026/09/10/44547/07/2867632.pdf", "archivo": "gm_pedimento_2867632.pdf", "fecha": "10-09-2026", "edicion": "44547" }, "geometry": { "type": "Polygon", "coordinates": [ [ [ -72.2811504386368, -35.774596535094638 ], [ -72.247996987217064, -35.773841971635854 ], [ -72.247686410788262, -35.782847710883431 ], [ -72.28084359241997, -35.783602522928312 ], [ -72.2811504386368, -35.774596535094638 ] ] ] } },
{ "type": "Feature", "properties": { "cve": "2867633", "nombre": "IRIS 119", "solicitante": "Varela Echaurren Juan Francisco", "region": "REGIÓN DEL MAULE", "provincia": "Provincia de Cauquenes", "comuna": null, "superficie_ha": 300.0, "datum_original": "PSAD56", "huso": 18, "epsg_origen": 24878, "tipo_publicacion": "pedimento", "fuente_pdf": "http://www.diariooficial.interior.gob.cl/publicaciones/2026/09/10/44547/07/2867633.pdf", "archivo": "gm_pedimento_2867633.pdf", "fecha": "10-09-2026", "edicion": "44547" }, "geometry": { "type": "Polygon", "coordinates": [ [ [ -72.247375696538839, -35.791853434181313 ], [ -72.214216023986978, -35.791089243290635 ], [ -72.213901438895761, -35.800094698937365 ], [ -72.247064844407035, -35.8008591415268 ], [ -72.247375696538839, -35.791853434181313 ] ] ] } },
{ "type": "Feature", "properties": { "cve": "2867634", "nombre": "IRIS 120", "solicitante": "Varela Echaurren Juan Francisco", "region": "REGIÓN DEL MAULE", "provincia": "Provincia de Cauquenes", "comuna": null, "superficie_ha": 300.0, "datum_original": "PSAD56", "huso": 18, "epsg_origen": 24878, "tipo_publicacion": "pedimento", "fuente_pdf": "http://www.diariooficial.interior.gob.cl/publicaciones/2026/09/10/44547/07/2867634.pdf", "archivo": "gm_pedimento_2867634.pdf", "fecha": "10-09-2026", "edicion": "44547" }, "geometry": { "type": "Polygon", "coordinates": [ [ [ -72.247064844407035, -35.8008591415268 ], [ -72.213901438895761, -35.800094698937365 ], [ -72.213586714207793, -35.809100138573214 ], [ -72.246753854331047, -35.809864832917228 ], [ -72.247064844407035, -35.8008591415268 ] ] ] } },
{ "type": "Feature", "properties": { "cve": "2867635", "nombre": "IRIS 121", "solicitante": "Varela Echaurren Juan Francisco", "region": "REGIÓN DEL MAULE", "provincia": "Provincia de Cauquenes", "comuna": null, "superficie_ha": 300.0, "datum_original": "PSAD56", "huso": 18, "epsg_origen": 24878, "tipo_publicacion": "pedimento", "fuente_pdf": "http://www.diariooficial.interior.gob.cl/publicaciones/2026/09/10/44547/07/2867635.pdf", "archivo": "gm_pedimento_2867635.pdf", "fecha": "10-09-2026", "edicion": "44547" }, "geometry": { "type": "Polygon", "coordinates": [ [ [ -72.246753854331047, -35.809864832917228 ], [ -72.213586714207793, -35.809100138573214 ], [ -72.213271849860476, -35.81810556219547 ], [ -72.246442726249001, -35.81887050834991 ], [ -72.246753854331047, -35.809864832917228 ] ] ] } },
{ "type": "Feature", "properties": { "cve": "2867636", "nombre": "IRIS 129", "solicitante": "Varela Echaurren Juan Francisco", "region": "REGIÓN DEL MAULE", "provincia": "Provincia de Cauquenes", "comuna": null, "superficie_ha": 200.0, "datum_original": "PSAD56", "huso": 18, "epsg_origen": 24878, "tipo_publicacion": "pedimento", "fuente_pdf": "http://www.diariooficial.interior.gob.cl/publicaciones/2026/09/10/44547/07/2867636.pdf", "archivo": "gm_pedimento_2867636.pdf", "fecha": "10-09-2026", "edicion": "44547" }, "geometry": { "type": "Polygon", "coordinates": [ [ [ -72.204109725739173, -35.763816274859117 ], [ -72.193060649069878, -35.763558756102142 ], [ -72.192427205156946, -35.781569408679111 ], [ -72.203478767339377, -35.781827097142575 ], [ -72.204109725739173, -35.763816274859117 ] ] ] } },
{ "type": "Feature", "properties": { "cve": "2867637", "nombre": "IRIS 130", "solicitante": "Varela Echaurren Juan Francisco", "region": "REGIÓN DEL MAULE", "provincia": "Provincia de Cauquenes", "comuna": null, "superficie_ha": 300.0, "datum_original": "PSAD56", "huso": 18, "epsg_origen": 24878, "tipo_publicacion": "pedimento", "fuente_pdf": "http://www.diariooficial.interior.gob.cl/publicaciones/2026/09/10/44547/07/2867637.pdf", "archivo": "gm_pedimento_2867637.pdf", "fecha": "10-09-2026", "edicion": "44547" }, "geometry": { "type": "Polygon", "coordinates": [ [ [ -72.214530469543988, -35.782083771635769 ], [ -72.203478767339377, -35.781827097142575 ], [ -72.202531279417755, -35.808843210379827 ], [ -72.213586714207793, -35.809100138573214 ], [ -72.214530469543988, -35.782083771635769 ] ] ] } },
{ "type": "Feature", "properties": { "cve": "2867638", "nombre": "IRIS 131", "solicitante": "Varela Echaurren Juan Francisco", "region": "REGIÓN DEL MAULE", "provincia": "Provincia de Cauquenes", "comuna": null, "superficie_ha": 300.0, "datum_original": "PSAD56", "huso": 18, "epsg_origen": 24878, "tipo_publicacion": "pedimento", "fuente_pdf": "http://www.diariooficial.interior.gob.cl/publicaciones/2026/09/10/44547/07/2867638.pdf", "archivo": "gm_pedimento_2867638.pdf", "fecha": "10-09-2026", "edicion": "44547" }, "geometry": { "type": "Polygon", "coordinates": [ [ [ -72.203478767339377, -35.781827097142575 ], [ -72.192427205156946, -35.781569408679111 ], [ -72.19147598483832, -35.808585267215584 ], [ -72.202531279417755, -35.808843210379827 ], [ -72.203478767339377, -35.781827097142575 ] ] ] } },
{ "type": "Feature", "properties": { "cve": "2867639", "nombre": "IRIS 139", "solicitante": "Varela Echaurren Juan Francisco", "region": "REGIÓN DEL MAULE", "provincia": "Provincia de Cauquenes", "comuna": null, "superficie_ha": 300.0, "datum_original": "PSAD56", "huso": 18, "epsg_origen": 24878, "tipo_publicacion": "pedimento", "fuente_pdf": "http://www.diariooficial.interior.gob.cl/publicaciones/2026/09/10/44547/07/2867639.pdf", "archivo": "gm_pedimento_2867639.pdf", "fecha": "10-09-2026", "edicion": "44547" }, "geometry": { "type": "Polygon", "coordinates": [ [ [ -72.193377160325312, -35.754553405756099 ], [ -72.160234500613186, -35.753775026551345 ], [ -72.159914263940422, -35.762780120422896 ], [ -72.193060649069878, -35.763558756102142 ], [ -72.193377160325312, -35.754553405756099 ] ] ] } },
{ "type": "Feature", "properties": { "cve": "2867640", "nombre": "IRIS 140", "solicitante": "Varela Echaurren Juan Francisco", "region": "REGIÓN DEL MAULE", "provincia": "Provincia de Cauquenes", "comuna": null, "superficie_ha": 300.0, "datum_original": "PSAD56", "huso": 18, "epsg_origen": 24878, "tipo_publicacion": "pedimento", "fuente_pdf": "http://www.diariooficial.interior.gob.cl/publicaciones/2026/09/10/44547/07/2867640.pdf", "archivo": "gm_pedimento_2867640.pdf", "fecha": "10-09-2026", "edicion": "44547" }, "geometry": { "type": "Polygon", "coordinates": [ [ [ -72.193060649069878, -35.763558756102142 ], [ -72.159914263940422, -35.762780120422896 ], [ -72.159593885172313, -35.771785198200234 ], [ -72.192743997368055, -35.772564090410725 ], [ -72.193060649069878, -35.763558756102142 ] ] ] } },
{ "type": "Feature", "properties": { "cve": "2867641", "nombre": "IRIS 141", "solicitante": "Varela Echaurren Juan Francisco", "region": "REGIÓN DEL MAULE", "provincia": "Provincia de Cauquenes", "comuna": null, "superficie_ha": 300.0, "datum_original": "PSAD56", "huso": 18, "epsg_origen": 24878, "tipo_publicacion": "pedimento", "fuente_pdf": "http://www.diariooficial.interior.gob.cl/publicaciones/2026/09/10/44547/07/2867641.pdf", "archivo": "gm_pedimento_2867641.pdf", "fecha": "10-09-2026", "edicion": "44547" }, "geometry": { "type": "Polygon", "coordinates": [ [ [ -72.192743997368055, -35.772564090410725 ], [ -72.159593885172313, -35.771785198200234 ], [ -72.159273364245223, -35.780790259880547 ], [ -72.192427205156946, -35.781569408679111 ], [ -72.192743997368055, -35.772564090410725 ] ] ] } },
{ "type": "Feature", "properties": { "cve": "2867642", "nombre": "IRIS 149", "solicitante": "Varela Echaurren Juan Francisco", "region": "REGIÓN DEL MAULE", "provincia": "Provincia de Cauquenes", "comuna": null, "superficie_ha": 300.0, "datum_original": "PSAD56", "huso": 18, "epsg_origen": 24878, "tipo_publicacion": "pedimento", "fuente_pdf": "http://www.diariooficial.interior.gob.cl/publicaciones/2026/09/10/44547/07/2867642.pdf", "archivo": "gm_pedimento_2867642.pdf", "fecha": "10-09-2026", "edicion": "44547" }, "geometry": { "type": "Polygon", "coordinates": [ [ [ -72.190205720126528, -35.844606187201883 ], [ -72.157025731949318, -35.843825240693924 ], [ -72.156704071454129, -35.852830173498475 ], [ -72.189887801571501, -35.853611377050029 ], [ -72.190205720126528, -35.844606187201883 ] ] ] } },
{ "type": "Feature", "properties": { "cve": "2867643", "nombre": "IRIS 150", "solicitante": "Varela Echaurren Juan Francisco", "region": "REGIÓN DEL MAULE", "provincia": "Provincia de Cauquenes", "comuna": null, "superficie_ha": 200.0, "datum_original": "PSAD56", "huso": 18, "epsg_origen": 24878, "tipo_publicacion": "pedimento", "fuente_pdf": "http://www.diariooficial.interior.gob.cl/publicaciones/2026/09/10/44547/07/2867643.pdf", "archivo": "gm_pedimento_2867643.pdf", "fecha": "10-09-2026", "edicion": "44547" }, "geometry": { "type": "Polygon", "coordinates": [ [ [ -72.161833554770936, -35.70874931587695 ], [ -72.150792485024667, -35.708488260980971 ], [ -72.150150810530988, -35.72649842135862 ], [ -72.161194358695084, -35.726759648398918 ], [ -72.161833554770936, -35.70874931587695 ] ] ] } },
{ "type": "Feature", "properties": { "cve": "2867644", "nombre": "IRIS 151", "solicitante": "Varela Echaurren Juan Francisco", "region": "REGIÓN DEL MAULE", "provincia": "Provincia de Cauquenes", "comuna": null, "superficie_ha": 200.0, "datum_original": "PSAD56", "huso": 18, "epsg_origen": 24878, "tipo_publicacion": "pedimento", "fuente_pdf": "http://www.diariooficial.interior.gob.cl/publicaciones/2026/09/10/44547/07/2867644.pdf", "archivo": "gm_pedimento_2867644.pdf", "fecha": "10-09-2026", "edicion": "44547" }, "geometry": { "type": "Polygon", "coordinates": [ [ [ -72.150792485024667, -35.708488260980971 ], [ -72.128710772868629, -35.707963117936679 ], [ -72.128387529106476, -35.7169680330516 ], [ -72.150471718940921, -35.717493349219488 ], [ -72.150792485024667, -35.708488260980971 ] ] ] } },
{ "type": "Feature", "properties": { "cve": "2867645", "nombre": "IRIS 159", "solicitante": "Varela Echaurren Juan Francisco", "region": "REGIÓN DEL MAULE", "provincia": "Provincia de Cauquenes", "comuna": null, "superficie_ha": 300.0, "datum_original": "PSAD56", "huso": 18, "epsg_origen": 24878, "tipo_publicacion": "pedimento", "fuente_pdf": "http://www.diariooficial.interior.gob.cl/publicaciones/2026/09/10/44547/07/2867645.pdf", "archivo": "gm_pedimento_2867645.pdf", "fecha": "10-09-2026", "edicion": "44547" }, "geometry": { "type": "Polygon", "coordinates": [ [ [ -72.159273364245223, -35.780790259880547 ], [ -72.12612080333929, -35.780001986845001 ], [ -72.125796410396603, -35.789006772780255 ], [ -72.158952701095444, -35.789795305461091 ], [ -72.159273364245223, -35.780790259880547 ] ] ] } },
{ "type": "Feature", "properties": { "cve": "2867646", "nombre": "IRIS 160", "solicitante": "Varela Echaurren Juan Francisco", "region": "REGIÓN DEL MAULE", "provincia": "Provincia de Cauquenes", "comuna": null, "superficie_ha": 300.0, "datum_original": "PSAD56", "huso": 18, "epsg_origen": 24878, "tipo_publicacion": "pedimento", "fuente_pdf": "http://www.diariooficial.interior.gob.cl/publicaciones/2026/09/10/44547/07/2867646.pdf", "archivo": "gm_pedimento_2867646.pdf", "fecha": "10-09-2026", "edicion": "44547" }, "geometry": { "type": "Polygon", "coordinates": [ [ [ -72.158952701095444, -35.789795305461091 ], [ -72.125796410396603, -35.789006772780255 ], [ -72.125471873516759, -35.79801154255545 ], [ -72.158631895659298, -35.798800334939102 ], [ -72.158952701095444, -35.789795305461091 ] ] ] } },
{ "type": "Feature", "properties": { "cve": "2867647", "nombre": "IRIS 161", "solicitante": "Varela Echaurren Juan Francisco", "region": "REGIÓN DEL MAULE", "provincia": "Provincia de Cauquenes", "comuna": null, "superficie_ha": 300.0, "datum_original": "PSAD56", "huso": 18, "epsg_origen": 24878, "tipo_publicacion": "pedimento", "fuente_pdf": "http://www.diariooficial.interior.gob.cl/publicaciones/2026/09/10/44547/07/2867647.pdf", "archivo": "gm_pedimento_2867647.pdf", "fecha": "10-09-2026", "edicion": "44547" }, "geometry": { "type": "Polygon", "coordinates": [ [ [ -72.158631895659298, -35.798800334939102 ], [ -72.125471873516759, -35.79801154255545 ], [ -72.125147192635254, -35.807016296167767 ], [ -72.158310947873005, -35.80780534831176 ], [ -72.158631895659298, -35.798800334939102 ] ] ] } },
{ "type": "Feature", "properties": { "cve": "2867648", "nombre": "IRIS 170", "solicitante": "Varela Echaurren Juan Francisco", "region": "REGIÓN DEL MAULE", "provincia": "Provincia de Cauquenes", "comuna": null, "superficie_ha": 300.0, "datum_original": "PSAD56", "huso": 18, "epsg_origen": 24878, "tipo_publicacion": "pedimento", "fuente_pdf": "http://www.diariooficial.interior.gob.cl/publicaciones/2026/09/10/44547/07/2867648.pdf", "archivo": "gm_pedimento_2867648.pdf", "fecha": "10-09-2026", "edicion": "44547" }, "geometry": { "type": "Polygon", "coordinates": [ [ [ -72.127416937026922, -35.743982681559281 ], [ -72.094280571339311, -35.743186335422173 ], [ -72.093953030882474, -35.752190923556959 ], [ -72.127093119188743, -35.752987532106808 ], [ -72.127416937026922, -35.743982681559281 ] ] ] } },
{ "type": "Feature", "properties": { "cve": "2867649", "nombre": "IRIS 171", "solicitante": "Varela Echaurren Juan Francisco", "region": "REGIÓN DEL MAULE", "provincia": "Provincia de Cauquenes", "comuna": null, "superficie_ha": 300.0, "datum_original": "PSAD56", "huso": 18, "epsg_origen": 24878, "tipo_publicacion": "pedimento", "fuente_pdf": "http://www.diariooficial.interior.gob.cl/publicaciones/2026/09/10/44547/07/2867649.pdf", "archivo": "gm_pedimento_2867649.pdf", "fecha": "10-09-2026", "edicion": "44547" }, "geometry": { "type": "Polygon", "coordinates": [ [ [ -72.127093119188743, -35.752987532106808 ], [ -72.093953030882474, -35.752190923556959 ], [ -72.093625345098602, -35.761195495484841 ], [ -72.126769157670964, -35.761992366505467 ], [ -72.127093119188743, -35.752987532106808 ] ] ] } },
{ "type": "Feature", "properties": { "cve": "2867650", "nombre": "IRIS 172", "solicitante": "Varela Echaurren Juan Francisco", "region": "REGIÓN DEL MAULE", "provincia": "Provincia de Cauquenes", "comuna": null, "superficie_ha": 300.0, "datum_original": "PSAD56", "huso": 18, "epsg_origen": 24878, "tipo_publicacion": "pedimento", "fuente_pdf": "http://www.diariooficial.interior.gob.cl/publicaciones/2026/09/10/44547/07/2867650.pdf", "archivo": "gm_pedimento_2867650.pdf", "fecha": "10-09-2026", "edicion": "44547" }, "geometry": { "type": "Polygon", "coordinates": [ [ [ -72.126769157670964, -35.761992366505467 ], [ -72.093625345098602, -35.761195495484841 ], [ -72.09329751392265, -35.770200051202984 ], [ -72.126445052409267, -35.770997184752467 ], [ -72.126769157670964, -35.761992366505467 ] ] ] } },
{ "type": "Feature", "properties": { "cve": "2867627", "nombre": "IRIS 99", "solicitante": "Varela Echaurren Juan Francisco", "region": "REGIÓN DEL MAULE", "provincia": "Provincia de Cauquenes", "comuna": null, "superficie_ha": 300.0, "datum_original": "PSAD56", "huso": 18, "epsg_origen": 24878, "tipo_publicacion": "pedimento", "fuente_pdf": "http://www.diariooficial.interior.gob.cl/publicaciones/2026/09/10/44547/07/2867627.pdf", "archivo": "gm_pedimento_2867627.pdf", "fecha": "10-09-2026", "edicion": "44547" }, "geometry": { "type": "Polygon", "coordinates": [ [ [ -72.294337288671358, -35.711803093940631 ], [ -72.261209493861912, -35.711053303690683 ], [ -72.260901119948016, -35.720059237577686 ], [ -72.294032633612446, -35.720809275030128 ], [ -72.294337288671358, -35.711803093940631 ] ] ] } },
{ "type": "Feature", "properties": { "cve": "2867755", "nombre": "IRIS 10", "solicitante": "Varela Echaurren Juan Francisco", "region": "REGIÓN DEL MAULE", "provincia": "Provincia de Linares", "comuna": null, "superficie_ha": 300.0, "datum_original": "PSAD56", "huso": 18, "epsg_origen": 24878, "tipo_publicacion": "pedimento", "fuente_pdf": "http://www.diariooficial.interior.gob.cl/publicaciones/2026/09/10/44547/07/2867755.pdf", "archivo": "gm_pedimento_2867755.pdf", "fecha": "10-09-2026", "edicion": "44547" }, "geometry": { "type": "Polygon", "coordinates": [ [ [ -72.057707791362887, -35.535008509034988 ], [ -72.046691592589468, -35.534739039726567 ], [ -72.045700084685464, -35.56175254602875 ], [ -72.05671996885998, -35.562022282444993 ], [ -72.057707791362887, -35.535008509034988 ] ] ] } },
{ "type": "Feature", "properties": { "cve": "2867756", "nombre": "IRIS 11", "solicitante": "Varela Echaurren Juan Francisco", "region": "REGIÓN DEL MAULE", "provincia": "Provincia de Linares", "comuna": null, "superficie_ha": 300.0, "datum_original": "PSAD56", "huso": 18, "epsg_origen": 24878, "tipo_publicacion": "pedimento", "fuente_pdf": "http://www.diariooficial.interior.gob.cl/publicaciones/2026/09/10/44547/07/2867756.pdf", "archivo": "gm_pedimento_2867756.pdf", "fecha": "10-09-2026", "edicion": "44547" }, "geometry": { "type": "Polygon", "coordinates": [ [ [ -72.046691592589468, -35.534739039726567 ], [ -72.035675540311161, -35.534468566051416 ], [ -72.034680347201729, -35.561481804251997 ], [ -72.045700084685464, -35.56175254602875 ], [ -72.046691592589468, -35.534739039726567 ] ] ] } },
{ "type": "Feature", "properties": { "cve": "2867757", "nombre": "IRIS 12", "solicitante": "Varela Echaurren Juan Francisco", "region": "REGIÓN DEL MAULE", "provincia": "Provincia de Linares", "comuna": null, "superficie_ha": 300.0, "datum_original": "PSAD56", "huso": 18, "epsg_origen": 24878, "tipo_publicacion": "pedimento", "fuente_pdf": "http://www.diariooficial.interior.gob.cl/publicaciones/2026/09/10/44547/07/2867757.pdf", "archivo": "gm_pedimento_2867757.pdf", "fecha": "10-09-2026", "edicion": "44547" }, "geometry": { "type": "Polygon", "coordinates": [ [ [ -72.036338267085497, -35.516459659303514 ], [ -72.025324815802747, -35.51618836060328 ], [ -72.024326823366636, -35.543201427366519 ], [ -72.035343956399828, -35.543472995044048 ], [ -72.036338267085497, -35.516459659303514 ] ] ] } },
{ "type": "Feature", "properties": { "cve": "2867758", "nombre": "IRIS 13", "solicitante": "Varela Echaurren Juan Francisco", "region": "REGIÓN DEL MAULE", "provincia": "Provincia de Linares", "comuna": null, "superficie_ha": 300.0, "datum_original": "PSAD56", "huso": 18, "epsg_origen": 24878, "tipo_publicacion": "pedimento", "fuente_pdf": "http://www.diariooficial.interior.gob.cl/publicaciones/2026/09/10/44547/07/2867758.pdf", "archivo": "gm_pedimento_2867758.pdf", "fecha": "10-09-2026", "edicion": "44547" }, "geometry": { "type": "Polygon", "coordinates": [ [ [ -72.025324815802747, -35.51618836060328 ], [ -72.014311511969922, -35.515916058284823 ], [ -72.013309837980188, -35.542928855077534 ], [ -72.024326823366636, -35.543201427366519 ], [ -72.025324815802747, -35.51618836060328 ] ] ] } },
{ "type": "Feature", "properties": { "cve": "2867759", "nombre": "IRIS 14", "solicitante": "Varela Echaurren Juan Francisco", "region": "REGIÓN DEL MAULE", "provincia": "Provincia de Linares", "comuna": null, "superficie_ha": 200.0, "datum_original": "PSAD56", "huso": 18, "epsg_origen": 24878, "tipo_publicacion": "pedimento", "fuente_pdf": "http://www.diariooficial.interior.gob.cl/publicaciones/2026/09/10/44547/07/2867759.pdf", "archivo": "gm_pedimento_2867759.pdf", "fecha": "10-09-2026", "edicion": "44547" }, "geometry": { "type": "Polygon", "coordinates": [ [ [ -72.035343956399828, -35.543472995044048 ], [ -72.024326823366636, -35.543201427366519 ], [ -72.023660756952552, -35.561210057157908 ], [ -72.034680347201729, -35.561481804251997 ], [ -72.035343956399828, -35.543472995044048 ] ] ] } },
{ "type": "Feature", "properties": { "cve": "2867760", "nombre": "IRIS 15", "solicitante": "Varela Echaurren Juan Francisco", "region": "REGIÓN DEL MAULE", "provincia": "Provincia de Linares", "comuna": null, "superficie_ha": 200.0, "datum_original": "PSAD56", "huso": 18, "epsg_origen": 24878, "tipo_publicacion": "pedimento", "fuente_pdf": "http://www.diariooficial.interior.gob.cl/publicaciones/2026/09/10/44547/07/2867760.pdf", "archivo": "gm_pedimento_2867760.pdf", "fecha": "10-09-2026", "edicion": "44547" }, "geometry": { "type": "Polygon", "coordinates": [ [ [ -72.024326823366636, -35.543201427366519 ], [ -72.013309837980188, -35.542928855077534 ], [ -72.012641314481613, -35.560937304789839 ], [ -72.023660756952552, -35.561210057157908 ], [ -72.024326823366636, -35.543201427366519 ] ] ] } },
{ "type": "Feature", "properties": { "cve": "2867761", "nombre": "IRIS 16", "solicitante": "Varela Echaurren Juan Francisco", "region": "REGIÓN DEL MAULE", "provincia": "Provincia de Linares", "comuna": null, "superficie_ha": 300.0, "datum_original": "PSAD56", "huso": 18, "epsg_origen": 24878, "tipo_publicacion": "pedimento", "fuente_pdf": "http://www.diariooficial.interior.gob.cl/publicaciones/2026/09/10/44547/07/2867761.pdf", "archivo": "gm_pedimento_2867761.pdf", "fecha": "10-09-2026", "edicion": "44547" }, "geometry": { "type": "Polygon", "coordinates": [ [ [ -72.188024983605089, -35.592197443022656 ], [ -72.154949521315018, -35.591420650103352 ], [ -72.15463059969882, -35.600425947380366 ], [ -72.187709757662105, -35.601202996753386 ], [ -72.188024983605089, -35.592197443022656 ] ] ] } },
{ "type": "Feature", "properties": { "cve": "2867762", "nombre": "IRIS 17", "solicitante": "Varela Echaurren Juan Francisco", "region": "REGIÓN DEL MAULE", "provincia": "Provincia de Linares", "comuna": null, "superficie_ha": 300.0, "datum_original": "PSAD56", "huso": 18, "epsg_origen": 24878, "tipo_publicacion": "pedimento", "fuente_pdf": "http://www.diariooficial.interior.gob.cl/publicaciones/2026/09/10/44547/07/2867762.pdf", "archivo": "gm_pedimento_2867762.pdf", "fecha": "10-09-2026", "edicion": "44547" }, "geometry": { "type": "Polygon", "coordinates": [ [ [ -72.187709757662105, -35.601202996753386 ], [ -72.176683231080148, -35.60094498747528 ], [ -72.175733014666335, -35.627961297045417 ], [ -72.186763240382078, -35.628219561894099 ], [ -72.187709757662105, -35.601202996753386 ] ] ] } },
{ "type": "Feature", "properties": { "cve": "2867763", "nombre": "IRIS 18", "solicitante": "Varela Echaurren Juan Francisco", "region": "REGIÓN DEL MAULE", "provincia": "Provincia de Linares", "comuna": null, "superficie_ha": 300.0, "datum_original": "PSAD56", "huso": 18, "epsg_origen": 24878, "tipo_publicacion": "pedimento", "fuente_pdf": "http://www.diariooficial.interior.gob.cl/publicaciones/2026/09/10/44547/07/2867763.pdf", "archivo": "gm_pedimento_2867763.pdf", "fecha": "10-09-2026", "edicion": "44547" }, "geometry": { "type": "Polygon", "coordinates": [ [ [ -72.176683231080148, -35.60094498747528 ], [ -72.165656844910643, -35.600685971003827 ], [ -72.164702929550998, -35.627702024007377 ], [ -72.175733014666335, -35.627961297045417 ], [ -72.176683231080148, -35.60094498747528 ] ] ] } },
{ "type": "Feature", "properties": { "cve": "2867764", "nombre": "IRIS 19", "solicitante": "Varela Echaurren Juan Francisco", "region": "REGIÓN DEL MAULE", "provincia": "Provincia de Linares", "comuna": null, "superficie_ha": 300.0, "datum_original": "PSAD56", "huso": 18, "epsg_origen": 24878, "tipo_publicacion": "pedimento", "fuente_pdf": "http://www.diariooficial.interior.gob.cl/publicaciones/2026/09/10/44547/07/2867764.pdf", "archivo": "gm_pedimento_2867764.pdf", "fecha": "10-09-2026", "edicion": "44547" }, "geometry": { "type": "Polygon", "coordinates": [ [ [ -72.165656844910643, -35.600685971003827 ], [ -72.15463059969882, -35.600425947380366 ], [ -72.153672985581991, -35.627441742821354 ], [ -72.164702929550998, -35.627702024007377 ], [ -72.165656844910643, -35.600685971003827 ] ] ] } },
{ "type": "Feature", "properties": { "cve": "2867747", "nombre": "IRIS 2", "solicitante": "Varela Echaurren Juan Francisco", "region": "REGIÓN DEL MAULE", "provincia": "Provincia de Linares", "comuna": null, "superficie_ha": 200.0, "datum_original": "PSAD56", "huso": 18, "epsg_origen": 24878, "tipo_publicacion": "pedimento", "fuente_pdf": "http://www.diariooficial.interior.gob.cl/publicaciones/2026/09/10/44547/07/2867747.pdf", "archivo": "gm_pedimento_2867747.pdf", "fecha": "10-09-2026", "edicion": "44547" }, "geometry": { "type": "Polygon", "coordinates": [ [ [ -72.027582021730197, -35.454958200646168 ], [ -72.016577044688049, -35.454686509604315 ], [ -72.015911420678663, -35.472695278524164 ], [ -72.026918844177601, -35.472967149258821 ], [ -72.027582021730197, -35.454958200646168 ] ] ] } },
{ "type": "Feature", "properties": { "cve": "2867765", "nombre": "IRIS 20", "solicitante": "Varela Echaurren Juan Francisco", "region": "REGIÓN DEL MAULE", "provincia": "Provincia de Linares", "comuna": null, "superficie_ha": 300.0, "datum_original": "PSAD56", "huso": 18, "epsg_origen": 24878, "tipo_publicacion": "pedimento", "fuente_pdf": "http://www.diariooficial.interior.gob.cl/publicaciones/2026/09/10/44547/07/2867765.pdf", "archivo": "gm_pedimento_2867765.pdf", "fecha": "10-09-2026", "edicion": "44547" }, "geometry": { "type": "Polygon", "coordinates": [ [ [ -72.155905437777974, -35.564404661921273 ], [ -72.122842323959063, -35.563619585973356 ], [ -72.122520136268449, -35.57262467215395 ], [ -72.155586940291627, -35.573410007371002 ], [ -72.155905437777974, -35.564404661921273 ] ] ] } },
{ "type": "Feature", "properties": { "cve": "2867766", "nombre": "IRIS 21", "solicitante": "Varela Echaurren Juan Francisco", "region": "REGIÓN DEL MAULE", "provincia": "Provincia de Linares", "comuna": null, "superficie_ha": 300.0, "datum_original": "PSAD56", "huso": 18, "epsg_origen": 24878, "tipo_publicacion": "pedimento", "fuente_pdf": "http://www.diariooficial.interior.gob.cl/publicaciones/2026/09/10/44547/07/2867766.pdf", "archivo": "gm_pedimento_2867766.pdf", "fecha": "10-09-2026", "edicion": "44547" }, "geometry": { "type": "Polygon", "coordinates": [ [ [ -72.155586940291627, -35.573410007371002 ], [ -72.122520136268449, -35.57262467215395 ], [ -72.122197805631046, -35.581629742222773 ], [ -72.155268301491617, -35.582415336765969 ], [ -72.155586940291627, -35.573410007371002 ] ] ] } },
{ "type": "Feature", "properties": { "cve": "2867767", "nombre": "IRIS 22", "solicitante": "Varela Echaurren Juan Francisco", "region": "REGIÓN DEL MAULE", "provincia": "Provincia de Linares", "comuna": null, "superficie_ha": 300.0, "datum_original": "PSAD56", "huso": 18, "epsg_origen": 24878, "tipo_publicacion": "pedimento", "fuente_pdf": "http://www.diariooficial.interior.gob.cl/publicaciones/2026/09/10/44547/07/2867767.pdf", "archivo": "gm_pedimento_2867767.pdf", "fecha": "10-09-2026", "edicion": "44547" }, "geometry": { "type": "Polygon", "coordinates": [ [ [ -72.155268301491617, -35.582415336765969 ], [ -72.122197805631046, -35.581629742222773 ], [ -72.121875331983176, -35.590634796177049 ], [ -72.154949521315018, -35.591420650103352 ], [ -72.155268301491617, -35.582415336765969 ] ] ] } },
{ "type": "Feature", "properties": { "cve": "2867768", "nombre": "IRIS 23", "solicitante": "Varela Echaurren Juan Francisco", "region": "REGIÓN DEL MAULE", "provincia": "Provincia de Linares", "comuna": null, "superficie_ha": 300.0, "datum_original": "PSAD56", "huso": 18, "epsg_origen": 24878, "tipo_publicacion": "pedimento", "fuente_pdf": "http://www.diariooficial.interior.gob.cl/publicaciones/2026/09/10/44547/07/2867768.pdf", "archivo": "gm_pedimento_2867768.pdf", "fecha": "10-09-2026", "edicion": "44547" }, "geometry": { "type": "Polygon", "coordinates": [ [ [ -72.154949521315018, -35.591420650103352 ], [ -72.121875331983176, -35.590634796177049 ], [ -72.121552715261132, -35.599639834013935 ], [ -72.15463059969882, -35.600425947380366 ], [ -72.154949521315018, -35.591420650103352 ] ] ] } },
{ "type": "Feature", "properties": { "cve": "2867769", "nombre": "IRIS 24", "solicitante": "Varela Echaurren Juan Francisco", "region": "REGIÓN DEL MAULE", "provincia": "Provincia de Linares", "comuna": null, "superficie_ha": 300.0, "datum_original": "PSAD56", "huso": 18, "epsg_origen": 24878, "tipo_publicacion": "pedimento", "fuente_pdf": "http://www.diariooficial.interior.gob.cl/publicaciones/2026/09/10/44547/07/2867769.pdf", "archivo": "gm_pedimento_2867769.pdf", "fecha": "10-09-2026", "edicion": "44547" }, "geometry": { "type": "Polygon", "coordinates": [ [ [ -72.15463059969882, -35.600425947380366 ], [ -72.121552715261132, -35.599639834013935 ], [ -72.121229955401148, -35.608644855730574 ], [ -72.154311536579982, -35.609431228594239 ], [ -72.15463059969882, -35.600425947380366 ] ] ] } },
{ "type": "Feature", "properties": { "cve": "2867770", "nombre": "IRIS 25", "solicitante": "Varela Echaurren Juan Francisco", "region": "REGIÓN DEL MAULE", "provincia": "Provincia de Linares", "comuna": null, "superficie_ha": 300.0, "datum_original": "PSAD56", "huso": 18, "epsg_origen": 24878, "tipo_publicacion": "pedimento", "fuente_pdf": "http://www.diariooficial.interior.gob.cl/publicaciones/2026/09/10/44547/07/2867770.pdf", "archivo": "gm_pedimento_2867770.pdf", "fecha": "10-09-2026", "edicion": "44547" }, "geometry": { "type": "Polygon", "coordinates": [ [ [ -72.154311536579982, -35.609431228594239 ], [ -72.121229955401148, -35.608644855730574 ], [ -72.12090705233939, -35.617649861324182 ], [ -72.15399233189541, -35.618436493742159 ], [ -72.154311536579982, -35.609431228594239 ] ] ] } },
{ "type": "Feature", "properties": { "cve": "2867771", "nombre": "IRIS 26", "solicitante": "Varela Echaurren Juan Francisco", "region": "REGIÓN DEL MAULE", "provincia": "Provincia de Linares", "comuna": null, "superficie_ha": 300.0, "datum_original": "PSAD56", "huso": 18, "epsg_origen": 24878, "tipo_publicacion": "pedimento", "fuente_pdf": "http://www.diariooficial.interior.gob.cl/publicaciones/2026/09/10/44547/07/2867771.pdf", "archivo": "gm_pedimento_2867771.pdf", "fecha": "10-09-2026", "edicion": "44547" }, "geometry": { "type": "Polygon", "coordinates": [ [ [ -72.15399233189541, -35.618436493742159 ], [ -72.12090705233939, -35.617649861324182 ], [ -72.12058400601201, -35.62665485079193 ], [ -72.153672985581991, -35.627441742821354 ], [ -72.15399233189541, -35.618436493742159 ] ] ] } },
{ "type": "Feature", "properties": { "cve": "2867772", "nombre": "IRIS 27", "solicitante": "Varela Echaurren Juan Francisco", "region": "REGIÓN DEL MAULE", "provincia": "Provincia de Linares", "comuna": null, "superficie_ha": 300.0, "datum_original": "PSAD56", "huso": 18, "epsg_origen": 24878, "tipo_publicacion": "pedimento", "fuente_pdf": "http://www.diariooficial.interior.gob.cl/publicaciones/2026/09/10/44547/07/2867772.pdf", "archivo": "gm_pedimento_2867772.pdf", "fecha": "10-09-2026", "edicion": "44547" }, "geometry": { "type": "Polygon", "coordinates": [ [ [ -72.153672985581991, -35.627441742821354 ], [ -72.12058400601201, -35.62665485079193 ], [ -72.120260816355142, -35.635659824130997 ], [ -72.153353497576546, -35.63644697582901 ], [ -72.153672985581991, -35.627441742821354 ] ] ] } },
{ "type": "Feature", "properties": { "cve": "2867773", "nombre": "IRIS 28", "solicitante": "Varela Echaurren Juan Francisco", "region": "REGIÓN DEL MAULE", "provincia": "Provincia de Linares", "comuna": null, "superficie_ha": 300.0, "datum_original": "PSAD56", "huso": 18, "epsg_origen": 24878, "tipo_publicacion": "pedimento", "fuente_pdf": "http://www.diariooficial.interior.gob.cl/publicaciones/2026/09/10/44547/07/2867773.pdf", "archivo": "gm_pedimento_2867773.pdf", "fecha": "10-09-2026", "edicion": "44547" }, "geometry": { "type": "Polygon", "coordinates": [ [ [ -72.153353497576546, -35.63644697582901 ], [ -72.120260816355142, -35.635659824130997 ], [ -72.119937483304781, -35.644664781338562 ], [ -72.153033867815864, -35.645452192762384 ], [ -72.153353497576546, -35.63644697582901 ] ] ] } },
{ "type": "Feature", "properties": { "cve": "2867774", "nombre": "IRIS 29", "solicitante": "Varela Echaurren Juan Francisco", "region": "REGIÓN DEL MAULE", "provincia": "Provincia de Linares", "comuna": null, "superficie_ha": 300.0, "datum_original": "PSAD56", "huso": 18, "epsg_origen": 24878, "tipo_publicacion": "pedimento", "fuente_pdf": "http://www.diariooficial.interior.gob.cl/publicaciones/2026/09/10/44547/07/2867774.pdf", "archivo": "gm_pedimento_2867774.pdf", "fecha": "10-09-2026", "edicion": "44547" }, "geometry": { "type": "Polygon", "coordinates": [ [ [ -72.153033867815864, -35.645452192762384 ], [ -72.119937483304781, -35.644664781338562 ], [ -72.119614006796994, -35.653669722411777 ], [ -72.152714096236664, -35.654457393618621 ], [ -72.153033867815864, -35.645452192762384 ] ] ] } },
{ "type": "Feature", "properties": { "cve": "2867748", "nombre": "IRIS 3", "solicitante": "Varela Echaurren Juan Francisco", "region": "REGIÓN DEL MAULE", "provincia": "Provincia de Linares", "comuna": null, "superficie_ha": 200.0, "datum_original": "PSAD56", "huso": 18, "epsg_origen": 24878, "tipo_publicacion": "pedimento", "fuente_pdf": "http://www.diariooficial.interior.gob.cl/publicaciones/2026/09/10/44547/07/2867748.pdf", "archivo": "gm_pedimento_2867748.pdf", "fecha": "10-09-2026", "edicion": "44547" }, "geometry": { "type": "Polygon", "coordinates": [ [ [ -72.016577044688049, -35.454686509604315 ], [ -72.005572215191947, -35.454413817236407 ], [ -72.004904144856823, -35.472422405802398 ], [ -72.015911420678663, -35.472695278524164 ], [ -72.016577044688049, -35.454686509604315 ] ] ] } },
{ "type": "Feature", "properties": { "cve": "2867775", "nombre": "IRIS 30", "solicitante": "Varela Echaurren Juan Francisco", "region": "REGIÓN DEL MAULE", "provincia": "Provincia de Linares", "comuna": null, "superficie_ha": 300.0, "datum_original": "PSAD56", "huso": 18, "epsg_origen": 24878, "tipo_publicacion": "pedimento", "fuente_pdf": "http://www.diariooficial.interior.gob.cl/publicaciones/2026/09/10/44547/07/2867775.pdf", "archivo": "gm_pedimento_2867775.pdf", "fecha": "10-09-2026", "edicion": "44547" }, "geometry": { "type": "Polygon", "coordinates": [ [ [ -72.122520136268449, -35.57262467215395 ], [ -72.111498153428954, -35.572360881712584 ], [ -72.110527039331515, -35.599375782199196 ], [ -72.121552715261132, -35.599639834013935 ], [ -72.122520136268449, -35.57262467215395 ] ] ] } },
{ "type": "Feature", "properties": { "cve": "2867776", "nombre": "IRIS 31", "solicitante": "Varela Echaurren Juan Francisco", "region": "REGIÓN DEL MAULE", "provincia": "Provincia de Linares", "comuna": null, "superficie_ha": 300.0, "datum_original": "PSAD56", "huso": 18, "epsg_origen": 24878, "tipo_publicacion": "pedimento", "fuente_pdf": "http://www.diariooficial.interior.gob.cl/publicaciones/2026/09/10/44547/07/2867776.pdf", "archivo": "gm_pedimento_2867776.pdf", "fecha": "10-09-2026", "edicion": "44547" }, "geometry": { "type": "Polygon", "coordinates": [ [ [ -72.121552715261132, -35.599639834013935 ], [ -72.110527039331515, -35.599375782199196 ], [ -72.109554632087139, -35.62639053743132 ], [ -72.12058400601201, -35.62665485079193 ], [ -72.121552715261132, -35.599639834013935 ] ] ] } },
{ "type": "Feature", "properties": { "cve": "2867777", "nombre": "IRIS 32", "solicitante": "Varela Echaurren Juan Francisco", "region": "REGIÓN DEL MAULE", "provincia": "Provincia de Linares", "comuna": null, "superficie_ha": 300.0, "datum_original": "PSAD56", "huso": 18, "epsg_origen": 24878, "tipo_publicacion": "pedimento", "fuente_pdf": "http://www.diariooficial.interior.gob.cl/publicaciones/2026/09/10/44547/07/2867777.pdf", "archivo": "gm_pedimento_2867777.pdf", "fecha": "10-09-2026", "edicion": "44547" }, "geometry": { "type": "Polygon", "coordinates": [ [ [ -72.12058400601201, -35.62665485079193 ], [ -72.109554632087139, -35.62639053743132 ], [ -72.108580929965171, -35.653405147332499 ], [ -72.119614006796994, -35.653669722411777 ], [ -72.12058400601201, -35.62665485079193 ] ] ] } },
{ "type": "Feature", "properties": { "cve": "2867778", "nombre": "IRIS 33", "solicitante": "Varela Echaurren Juan Francisco", "region": "REGIÓN DEL MAULE", "provincia": "Provincia de Linares", "comuna": null, "superficie_ha": 300.0, "datum_original": "PSAD56", "huso": 18, "epsg_origen": 24878, "tipo_publicacion": "pedimento", "fuente_pdf": "http://www.diariooficial.interior.gob.cl/publicaciones/2026/09/10/44547/07/2867778.pdf", "archivo": "gm_pedimento_2867778.pdf", "fecha": "10-09-2026", "edicion": "44547" }, "geometry": { "type": "Polygon", "coordinates": [ [ [ -72.109554632087139, -35.62639053743132 ], [ -72.098525402037737, -35.626125216132209 ], [ -72.097547997201531, -35.653139563318383 ], [ -72.108580929965171, -35.653405147332499 ], [ -72.109554632087139, -35.62639053743132 ] ] ] } },
{ "type": "Feature", "properties": { "cve": "2867779", "nombre": "IRIS 34", "solicitante": "Varela Echaurren Juan Francisco", "region": "REGIÓN DEL MAULE", "provincia": "Provincia de Linares", "comuna": null, "superficie_ha": 300.0, "datum_original": "PSAD56", "huso": 18, "epsg_origen": 24878, "tipo_publicacion": "pedimento", "fuente_pdf": "http://www.diariooficial.interior.gob.cl/publicaciones/2026/09/10/44547/07/2867779.pdf", "archivo": "gm_pedimento_2867779.pdf", "fecha": "10-09-2026", "edicion": "44547" }, "geometry": { "type": "Polygon", "coordinates": [ [ [ -72.098525402037737, -35.626125216132209 ], [ -72.065438580599221, -35.625323205028337 ], [ -72.065109222805361, -35.634327738945515 ], [ -72.098199744932543, -35.635130014698539 ], [ -72.098525402037737, -35.626125216132209 ] ] ] } },
{ "type": "Feature", "properties": { "cve": "2867780", "nombre": "IRIS 35", "solicitante": "Varela Echaurren Juan Francisco", "region": "REGIÓN DEL MAULE", "provincia": "Provincia de Linares", "comuna": null, "superficie_ha": 300.0, "datum_original": "PSAD56", "huso": 18, "epsg_origen": 24878, "tipo_publicacion": "pedimento", "fuente_pdf": "http://www.diariooficial.interior.gob.cl/publicaciones/2026/09/10/44547/07/2867780.pdf", "archivo": "gm_pedimento_2867780.pdf", "fecha": "10-09-2026", "edicion": "44547" }, "geometry": { "type": "Polygon", "coordinates": [ [ [ -72.098199744932543, -35.635130014698539 ], [ -72.065109222805361, -35.634327738945515 ], [ -72.064779718888587, -35.643332256634423 ], [ -72.097873943341966, -35.6441347970949 ], [ -72.098199744932543, -35.635130014698539 ] ] ] } },
{ "type": "Feature", "properties": { "cve": "2867781", "nombre": "IRIS 36", "solicitante": "Varela Echaurren Juan Francisco", "region": "REGIÓN DEL MAULE", "provincia": "Provincia de Linares", "comuna": null, "superficie_ha": 300.0, "datum_original": "PSAD56", "huso": 18, "epsg_origen": 24878, "tipo_publicacion": "pedimento", "fuente_pdf": "http://www.diariooficial.interior.gob.cl/publicaciones/2026/09/10/44547/07/2867781.pdf", "archivo": "gm_pedimento_2867781.pdf", "fecha": "10-09-2026", "edicion": "44547" }, "geometry": { "type": "Polygon", "coordinates": [ [ [ -72.097873943341966, -35.6441347970949 ], [ -72.064779718888587, -35.643332256634423 ], [ -72.064450068783685, -35.652336758092176 ], [ -72.097547997201531, -35.653139563318383 ], [ -72.097873943341966, -35.6441347970949 ] ] ] } },
{ "type": "Feature", "properties": { "cve": "2867782", "nombre": "IRIS 37", "solicitante": "Varela Echaurren Juan Francisco", "region": "REGIÓN DEL MAULE", "provincia": "Provincia de Linares", "comuna": null, "superficie_ha": 300.0, "datum_original": "PSAD56", "huso": 18, "epsg_origen": 24878, "tipo_publicacion": "pedimento", "fuente_pdf": "http://www.diariooficial.interior.gob.cl/publicaciones/2026/09/10/44547/07/2867782.pdf", "archivo": "gm_pedimento_2867782.pdf", "fecha": "10-09-2026", "edicion": "44547" }, "geometry": { "type": "Polygon", "coordinates": [ [ [ -72.075482566064423, -35.65260536865555 ], [ -72.064450068783685, -35.652336758092176 ], [ -72.063460240687576, -35.679350165049755 ], [ -72.07449644501672, -35.679619041492415 ], [ -72.075482566064423, -35.65260536865555 ] ] ] } },
{ "type": "Feature", "properties": { "cve": "2867783", "nombre": "IRIS 38", "solicitante": "Varela Echaurren Juan Francisco", "region": "REGIÓN DEL MAULE", "provincia": "Provincia de Linares", "comuna": null, "superficie_ha": 300.0, "datum_original": "PSAD56", "huso": 18, "epsg_origen": 24878, "tipo_publicacion": "pedimento", "fuente_pdf": "http://www.diariooficial.interior.gob.cl/publicaciones/2026/09/10/44547/07/2867783.pdf", "archivo": "gm_pedimento_2867783.pdf", "fecha": "10-09-2026", "edicion": "44547" }, "geometry": { "type": "Polygon", "coordinates": [ [ [ -72.067083180003422, -35.580300292118821 ], [ -72.056060689899098, -35.580031383599383 ], [ -72.055070674217305, -35.607044913594763 ], [ -72.066096858078723, -35.607314088520617 ], [ -72.067083180003422, -35.580300292118821 ] ] ] } },
{ "type": "Feature", "properties": { "cve": "2867784", "nombre": "IRIS 39", "solicitante": "Varela Echaurren Juan Francisco", "region": "REGIÓN DEL MAULE", "provincia": "Provincia de Linares", "comuna": null, "superficie_ha": 300.0, "datum_original": "PSAD56", "huso": 18, "epsg_origen": 24878, "tipo_publicacion": "pedimento", "fuente_pdf": "http://www.diariooficial.interior.gob.cl/publicaciones/2026/09/10/44547/07/2867784.pdf", "archivo": "gm_pedimento_2867784.pdf", "fecha": "10-09-2026", "edicion": "44547" }, "geometry": { "type": "Polygon", "coordinates": [ [ [ -72.056060689899098, -35.580031383599383 ], [ -72.045038346071991, -35.579761469013484 ], [ -72.044044636828744, -35.606774731607501 ], [ -72.055070674217305, -35.607044913594763 ], [ -72.056060689899098, -35.580031383599383 ] ] ] } },
{ "type": "Feature", "properties": { "cve": "2867749", "nombre": "IRIS 4", "solicitante": "Varela Echaurren Juan Francisco", "region": "REGIÓN DEL MAULE", "provincia": "Provincia de Linares", "comuna": null, "superficie_ha": 300.0, "datum_original": "PSAD56", "huso": 18, "epsg_origen": 24878, "tipo_publicacion": "pedimento", "fuente_pdf": "http://www.diariooficial.interior.gob.cl/publicaciones/2026/09/10/44547/07/2867749.pdf", "archivo": "gm_pedimento_2867749.pdf", "fecha": "10-09-2026", "edicion": "44547" }, "geometry": { "type": "Polygon", "coordinates": [ [ [ -72.038322923723399, -35.462432549167943 ], [ -72.027316821300801, -35.462161787892121 ], [ -72.026321481191474, -35.489175147418834 ], [ -72.037331255606176, -35.489446177318577 ], [ -72.038322923723399, -35.462432549167943 ] ] ] } },
{ "type": "Feature", "properties": { "cve": "2867785", "nombre": "IRIS 40", "solicitante": "Varela Echaurren Juan Francisco", "region": "REGIÓN DEL MAULE", "provincia": "Provincia de Linares", "comuna": null, "superficie_ha": 300.0, "datum_original": "PSAD56", "huso": 18, "epsg_origen": 24878, "tipo_publicacion": "pedimento", "fuente_pdf": "http://www.diariooficial.interior.gob.cl/publicaciones/2026/09/10/44547/07/2867785.pdf", "archivo": "gm_pedimento_2867785.pdf", "fecha": "10-09-2026", "edicion": "44547" }, "geometry": { "type": "Polygon", "coordinates": [ [ [ -72.045038346071991, -35.579761469013484 ], [ -72.03401614906636, -35.579490548404181 ], [ -72.033018746458026, -35.606503542601985 ], [ -72.044044636828744, -35.606774731607501 ], [ -72.045038346071991, -35.579761469013484 ] ] ] } },
{ "type": "Feature", "properties": { "cve": "2867786", "nombre": "IRIS 41", "solicitante": "Varela Echaurren Juan Francisco", "region": "REGIÓN DEL MAULE", "provincia": "Provincia de Linares", "comuna": null, "superficie_ha": 300.0, "datum_original": "PSAD56", "huso": 18, "epsg_origen": 24878, "tipo_publicacion": "pedimento", "fuente_pdf": "http://www.diariooficial.interior.gob.cl/publicaciones/2026/09/10/44547/07/2867786.pdf", "archivo": "gm_pedimento_2867786.pdf", "fecha": "10-09-2026", "edicion": "44547" }, "geometry": { "type": "Polygon", "coordinates": [ [ [ -72.03401614906636, -35.579490548404181 ], [ -72.022994099426455, -35.579218621814725 ], [ -72.021993003650124, -35.606231346621506 ], [ -72.033018746458026, -35.606503542601985 ], [ -72.03401614906636, -35.579490548404181 ] ] ] } },
{ "type": "Feature", "properties": { "cve": "2867787", "nombre": "IRIS 42", "solicitante": "Varela Echaurren Juan Francisco", "region": "REGIÓN DEL MAULE", "provincia": "Provincia de Linares", "comuna": null, "superficie_ha": 300.0, "datum_original": "PSAD56", "huso": 18, "epsg_origen": 24878, "tipo_publicacion": "pedimento", "fuente_pdf": "http://www.diariooficial.interior.gob.cl/publicaciones/2026/09/10/44547/07/2867787.pdf", "archivo": "gm_pedimento_2867787.pdf", "fecha": "10-09-2026", "edicion": "44547" }, "geometry": { "type": "Polygon", "coordinates": [ [ [ -72.066096858078723, -35.607314088520617 ], [ -72.055070674217305, -35.607044913594763 ], [ -72.054079340281547, -35.634058297437392 ], [ -72.065109222805361, -35.634327738945515 ], [ -72.066096858078723, -35.607314088520617 ] ] ] } },
{ "type": "Feature", "properties": { "cve": "2867788", "nombre": "IRIS 43", "solicitante": "Varela Echaurren Juan Francisco", "region": "REGIÓN DEL MAULE", "provincia": "Provincia de Linares", "comuna": null, "superficie_ha": 300.0, "datum_original": "PSAD56", "huso": 18, "epsg_origen": 24878, "tipo_publicacion": "pedimento", "fuente_pdf": "http://www.diariooficial.interior.gob.cl/publicaciones/2026/09/10/44547/07/2867788.pdf", "archivo": "gm_pedimento_2867788.pdf", "fecha": "10-09-2026", "edicion": "44547" }, "geometry": { "type": "Polygon", "coordinates": [ [ [ -72.055070674217305, -35.607044913594763 ], [ -72.044044636828744, -35.606774731607501 ], [ -72.043049604426642, -35.633787847872284 ], [ -72.054079340281547, -35.634058297437392 ], [ -72.055070674217305, -35.607044913594763 ] ] ] } },
{ "type": "Feature", "properties": { "cve": "2867789", "nombre": "IRIS 44", "solicitante": "Varela Echaurren Juan Francisco", "region": "REGIÓN DEL MAULE", "provincia": "Provincia de Linares", "comuna": null, "superficie_ha": 300.0, "datum_original": "PSAD56", "huso": 18, "epsg_origen": 24878, "tipo_publicacion": "pedimento", "fuente_pdf": "http://www.diariooficial.interior.gob.cl/publicaciones/2026/09/10/44547/07/2867789.pdf", "archivo": "gm_pedimento_2867789.pdf", "fecha": "10-09-2026", "edicion": "44547" }, "geometry": { "type": "Polygon", "coordinates": [ [ [ -72.044044636828744, -35.606774731607501 ], [ -72.033018746458026, -35.606503542601985 ], [ -72.032020015786358, -35.633516390293366 ], [ -72.043049604426642, -35.633787847872284 ], [ -72.044044636828744, -35.606774731607501 ] ] ] } },
{ "type": "Feature", "properties": { "cve": "2867790", "nombre": "IRIS 45", "solicitante": "Varela Echaurren Juan Francisco", "region": "REGIÓN DEL MAULE", "provincia": "Provincia de Linares", "comuna": null, "superficie_ha": 300.0, "datum_original": "PSAD56", "huso": 18, "epsg_origen": 24878, "tipo_publicacion": "pedimento", "fuente_pdf": "http://www.diariooficial.interior.gob.cl/publicaciones/2026/09/10/44547/07/2867790.pdf", "archivo": "gm_pedimento_2867790.pdf", "fecha": "10-09-2026", "edicion": "44547" }, "geometry": { "type": "Polygon", "coordinates": [ [ [ -72.033018746458026, -35.606503542601985 ], [ -72.021993003650124, -35.606231346621506 ], [ -72.020990574906378, -35.633243924744036 ], [ -72.032020015786358, -35.633516390293366 ], [ -72.033018746458026, -35.606503542601985 ] ] ] } },
{ "type": "Feature", "properties": { "cve": "2867791", "nombre": "IRIS 46", "solicitante": "Varela Echaurren Juan Francisco", "region": "REGIÓN DEL MAULE", "provincia": "Provincia de Linares", "comuna": null, "superficie_ha": 300.0, "datum_original": "PSAD56", "huso": 18, "epsg_origen": 24878, "tipo_publicacion": "pedimento", "fuente_pdf": "http://www.diariooficial.interior.gob.cl/publicaciones/2026/09/10/44547/07/2867791.pdf", "archivo": "gm_pedimento_2867791.pdf", "fecha": "10-09-2026", "edicion": "44547" }, "geometry": { "type": "Polygon", "coordinates": [ [ [ -72.061807597333186, -35.724372185087709 ], [ -72.02868129912892, -35.723558156821312 ], [ -72.028346612238664, -35.73256224378251 ], [ -72.061476628593724, -35.733376540335762 ], [ -72.061807597333186, -35.724372185087709 ] ] ] } },
{ "type": "Feature", "properties": { "cve": "2867792", "nombre": "IRIS 47", "solicitante": "Varela Echaurren Juan Francisco", "region": "REGIÓN DEL MAULE", "provincia": "Provincia de Linares", "comuna": null, "superficie_ha": 300.0, "datum_original": "PSAD56", "huso": 18, "epsg_origen": 24878, "tipo_publicacion": "pedimento", "fuente_pdf": "http://www.diariooficial.interior.gob.cl/publicaciones/2026/09/10/44547/07/2867792.pdf", "archivo": "gm_pedimento_2867792.pdf", "fecha": "10-09-2026", "edicion": "44547" }, "geometry": { "type": "Polygon", "coordinates": [ [ [ -72.061476628593724, -35.733376540335762 ], [ -72.028346612238664, -35.73256224378251 ], [ -72.028011776860652, -35.741566314424531 ], [ -72.061145513011667, -35.742380879323925 ], [ -72.061476628593724, -35.733376540335762 ] ] ] } },
{ "type": "Feature", "properties": { "cve": "2867793", "nombre": "IRIS 48", "solicitante": "Varela Echaurren Juan Francisco", "region": "REGIÓN DEL MAULE", "provincia": "Provincia de Linares", "comuna": null, "superficie_ha": 300.0, "datum_original": "PSAD56", "huso": 18, "epsg_origen": 24878, "tipo_publicacion": "pedimento", "fuente_pdf": "http://www.diariooficial.interior.gob.cl/publicaciones/2026/09/10/44547/07/2867793.pdf", "archivo": "gm_pedimento_2867793.pdf", "fecha": "10-09-2026", "edicion": "44547" }, "geometry": { "type": "Polygon", "coordinates": [ [ [ -72.061145513011667, -35.742380879323925 ], [ -72.028011776860652, -35.741566314424531 ], [ -72.027676792928446, -35.750570368744462 ], [ -72.06081425052129, -35.751385202049342 ], [ -72.061145513011667, -35.742380879323925 ] ] ] } },
{ "type": "Feature", "properties": { "cve": "2867794", "nombre": "IRIS 49", "solicitante": "Varela Echaurren Juan Francisco", "region": "REGIÓN DEL MAULE", "provincia": "Provincia de Linares", "comuna": null, "superficie_ha": 300.0, "datum_original": "PSAD56", "huso": 18, "epsg_origen": 24878, "tipo_publicacion": "pedimento", "fuente_pdf": "http://www.diariooficial.interior.gob.cl/publicaciones/2026/09/10/44547/07/2867794.pdf", "archivo": "gm_pedimento_2867794.pdf", "fecha": "10-09-2026", "edicion": "44547" }, "geometry": { "type": "Polygon", "coordinates": [ [ [ -72.06081425052129, -35.751385202049342 ], [ -72.027676792928446, -35.750570368744462 ], [ -72.027341660375569, -35.759574406739418 ], [ -72.060482841056867, -35.760389508509135 ], [ -72.06081425052129, -35.751385202049342 ] ] ] } },
{ "type": "Feature", "properties": { "cve": "2867750", "nombre": "IRIS 5", "solicitante": "Varela Echaurren Juan Francisco", "region": "REGIÓN DEL MAULE", "provincia": "Provincia de Linares", "comuna": null, "superficie_ha": 200.0, "datum_original": "PSAD56", "huso": 18, "epsg_origen": 24878, "tipo_publicacion": "pedimento", "fuente_pdf": "http://www.diariooficial.interior.gob.cl/publicaciones/2026/09/10/44547/07/2867750.pdf", "archivo": "gm_pedimento_2867750.pdf", "fecha": "10-09-2026", "edicion": "44547" }, "geometry": { "type": "Polygon", "coordinates": [ [ [ -72.026918844177601, -35.472967149258821 ], [ -72.015911420678663, -35.472695278524164 ], [ -72.015245205961762, -35.49070398234543 ], [ -72.026255078082684, -35.490976032851549 ], [ -72.026918844177601, -35.472967149258821 ] ] ] } },
{ "type": "Feature", "properties": { "cve": "2867795", "nombre": "IRIS 50", "solicitante": "Varela Echaurren Juan Francisco", "region": "REGIÓN DEL MAULE", "provincia": "Provincia de Linares", "comuna": null, "superficie_ha": 300.0, "datum_original": "PSAD56", "huso": 18, "epsg_origen": 24878, "tipo_publicacion": "pedimento", "fuente_pdf": "http://www.diariooficial.interior.gob.cl/publicaciones/2026/09/10/44547/07/2867795.pdf", "archivo": "gm_pedimento_2867795.pdf", "fecha": "10-09-2026", "edicion": "44547" }, "geometry": { "type": "Polygon", "coordinates": [ [ [ -72.02868129912892, -35.723558156821312 ], [ -71.995556336718877, -35.722735026915878 ], [ -71.995217932275281, -35.731738842596023 ], [ -72.028346612238664, -35.73256224378251 ], [ -72.02868129912892, -35.723558156821312 ] ] ] } },
{ "type": "Feature", "properties": { "cve": "2867796", "nombre": "IRIS 51", "solicitante": "Varela Echaurren Juan Francisco", "region": "REGIÓN DEL MAULE", "provincia": "Provincia de Linares", "comuna": null, "superficie_ha": 300.0, "datum_original": "PSAD56", "huso": 18, "epsg_origen": 24878, "tipo_publicacion": "pedimento", "fuente_pdf": "http://www.diariooficial.interior.gob.cl/publicaciones/2026/09/10/44547/07/2867796.pdf", "archivo": "gm_pedimento_2867796.pdf", "fecha": "10-09-2026", "edicion": "44547" }, "geometry": { "type": "Polygon", "coordinates": [ [ [ -72.028346612238664, -35.73256224378251 ], [ -71.995217932275281, -35.731738842596023 ], [ -71.994879377699192, -35.740742641897022 ], [ -72.028011776860652, -35.741566314424531 ], [ -72.028346612238664, -35.73256224378251 ] ] ] } },
{ "type": "Feature", "properties": { "cve": "2867797", "nombre": "IRIS 52", "solicitante": "Varela Echaurren Juan Francisco", "region": "REGIÓN DEL MAULE", "provincia": "Provincia de Linares", "comuna": null, "superficie_ha": 300.0, "datum_original": "PSAD56", "huso": 18, "epsg_origen": 24878, "tipo_publicacion": "pedimento", "fuente_pdf": "http://www.diariooficial.interior.gob.cl/publicaciones/2026/09/10/44547/07/2867797.pdf", "archivo": "gm_pedimento_2867797.pdf", "fecha": "10-09-2026", "edicion": "44547" }, "geometry": { "type": "Polygon", "coordinates": [ [ [ -72.028011776860652, -35.741566314424531 ], [ -71.994879377699192, -35.740742641897022 ], [ -71.994540672923449, -35.749746424815946 ], [ -72.027676792928446, -35.750570368744462 ], [ -72.028011776860652, -35.741566314424531 ] ] ] } },
{ "type": "Feature", "properties": { "cve": "2867798", "nombre": "IRIS 53", "solicitante": "Varela Echaurren Juan Francisco", "region": "REGIÓN DEL MAULE", "provincia": "Provincia de Linares", "comuna": null, "superficie_ha": 300.0, "datum_original": "PSAD56", "huso": 18, "epsg_origen": 24878, "tipo_publicacion": "pedimento", "fuente_pdf": "http://www.diariooficial.interior.gob.cl/publicaciones/2026/09/10/44547/07/2867798.pdf", "archivo": "gm_pedimento_2867798.pdf", "fecha": "10-09-2026", "edicion": "44547" }, "geometry": { "type": "Polygon", "coordinates": [ [ [ -72.027676792928446, -35.750570368744462 ], [ -71.994540672923449, -35.749746424815946 ], [ -71.994201817880821, -35.758750191349876 ], [ -72.027341660375569, -35.759574406739418 ], [ -72.027676792928446, -35.750570368744462 ] ] ] } },
{ "type": "Feature", "properties": { "cve": "2867751", "nombre": "IRIS 6", "solicitante": "Varela Echaurren Juan Francisco", "region": "REGIÓN DEL MAULE", "provincia": "Provincia de Linares", "comuna": null, "superficie_ha": 200.0, "datum_original": "PSAD56", "huso": 18, "epsg_origen": 24878, "tipo_publicacion": "pedimento", "fuente_pdf": "http://www.diariooficial.interior.gob.cl/publicaciones/2026/09/10/44547/07/2867751.pdf", "archivo": "gm_pedimento_2867751.pdf", "fecha": "10-09-2026", "edicion": "44547" }, "geometry": { "type": "Polygon", "coordinates": [ [ [ -72.015911420678663, -35.472695278524164 ], [ -72.004904144856823, -35.472422405802398 ], [ -72.004235481649189, -35.490430929190843 ], [ -72.015245205961762, -35.49070398234543 ], [ -72.015911420678663, -35.472695278524164 ] ] ] } },
{ "type": "Feature", "properties": { "cve": "2867752", "nombre": "IRIS 7", "solicitante": "Varela Echaurren Juan Francisco", "region": "REGIÓN DEL MAULE", "provincia": "Provincia de Linares", "comuna": null, "superficie_ha": 300.0, "datum_original": "PSAD56", "huso": 18, "epsg_origen": 24878, "tipo_publicacion": "pedimento", "fuente_pdf": "http://www.diariooficial.interior.gob.cl/publicaciones/2026/09/10/44547/07/2867752.pdf", "archivo": "gm_pedimento_2867752.pdf", "fecha": "10-09-2026", "edicion": "44547" }, "geometry": { "type": "Polygon", "coordinates": [ [ [ -72.091407716259155, -35.517801097023103 ], [ -72.058365609830702, -35.516999245676423 ], [ -72.058036773540252, -35.526003885462295 ], [ -72.091082560870177, -35.526806001754615 ], [ -72.091407716259155, -35.517801097023103 ] ] ] } },
{ "type": "Feature", "properties": { "cve": "2867753", "nombre": "IRIS 8", "solicitante": "Varela Echaurren Juan Francisco", "region": "REGIÓN DEL MAULE", "provincia": "Provincia de Linares", "comuna": null, "superficie_ha": 300.0, "datum_original": "PSAD56", "huso": 18, "epsg_origen": 24878, "tipo_publicacion": "pedimento", "fuente_pdf": "http://www.diariooficial.interior.gob.cl/publicaciones/2026/09/10/44547/07/2867753.pdf", "archivo": "gm_pedimento_2867753.pdf", "fecha": "10-09-2026", "edicion": "44547" }, "geometry": { "type": "Polygon", "coordinates": [ [ [ -72.091082560870177, -35.526806001754615 ], [ -72.058036773540252, -35.526003885462295 ], [ -72.057707791362887, -35.535008509034988 ], [ -72.090757261223018, -35.535810890331021 ], [ -72.091082560870177, -35.526806001754615 ] ] ] } },
{ "type": "Feature", "properties": { "cve": "2867754", "nombre": "IRIS 9", "solicitante": "Varela Echaurren Juan Francisco", "region": "REGIÓN DEL MAULE", "provincia": "Provincia de Linares", "comuna": null, "superficie_ha": 300.0, "datum_original": "PSAD56", "huso": 18, "epsg_origen": 24878, "tipo_publicacion": "pedimento", "fuente_pdf": "http://www.diariooficial.interior.gob.cl/publicaciones/2026/09/10/44547/07/2867754.pdf", "archivo": "gm_pedimento_2867754.pdf", "fecha": "10-09-2026", "edicion": "44547" }, "geometry": { "type": "Polygon", "coordinates": [ [ [ -72.090757261223018, -35.535810890331021 ], [ -72.057707791362887, -35.535008509034988 ], [ -72.057378663233678, -35.544013116391596 ], [ -72.09043181725346, -35.544815762749515 ], [ -72.090757261223018, -35.535810890331021 ] ] ] } }
]
}
