{
"type": "FeatureCollection",
"name": "boletin_mineria_20260804",
"crs": { "type": "name", "properties": { "name": "urn:ogc:def:crs:OGC:1.3:CRS84" } },
"features": [
{ "type": "Feature", "properties": { "cve": "2847960", "nombre": "LA ROSA 1 AL 6", "solicitante": "Pacheco Pacheco Luis Alberto", "region": "REGIÓN DE ATACAMA", "provincia": "Provincia de Copiapó", "comuna": null, "superficie_ha": 24.0, "datum_original": "WGS84", "huso": 19, "epsg_origen": 32719, "tipo_publicacion": "manifestacion", "fuente_pdf": "http://www.diariooficial.interior.gob.cl/publicaciones/2026/08/04/44516/07/2847960.pdf", "archivo": "gm_manifestacion_2847960.pdf", "fecha": "04-08-2026", "edicion": "44516" }, "geometry": { "type": "Polygon", "coordinates": [ [ [ -70.111645269537675, -27.804800788232207 ], [ -70.107585084007468, -27.804833407060038 ], [ -70.107640015674292, -27.810248920715246 ], [ -70.11170040247211, -27.810216294448917 ], [ -70.111645269537675, -27.804800788232207 ] ] ] } },
{ "type": "Feature", "properties": { "cve": "2847892", "nombre": "MARCELA 1 AL 60", "solicitante": "Porzio Honorato Cristóbal", "region": "REGIÓN DE ATACAMA", "provincia": "Provincia de Copiapó", "comuna": "Copiapó", "superficie_ha": 300.0, "datum_original": "PSAD56", "huso": 19, "epsg_origen": 24879, "tipo_publicacion": "manifestacion", "fuente_pdf": "http://www.diariooficial.interior.gob.cl/publicaciones/2026/08/04/44516/07/2847892.pdf", "archivo": "gm_manifestacion_2847892.pdf", "fecha": "04-08-2026", "edicion": "44516" }, "geometry": { "type": "Polygon", "coordinates": [ [ [ -70.402993644112755, -27.818398615844963 ], [ -70.392843035214057, -27.818501380287447 ], [ -70.393188767998069, -27.845575896616413 ], [ -70.403341894482281, -27.845473015022819 ], [ -70.402993644112755, -27.818398615844963 ] ] ] } },
{ "type": "Feature", "properties": { "cve": "2847970", "nombre": "TANIA 1 AL 30", "solicitante": "Porzio Honorato Cristóbal", "region": "REGIÓN DE ATACAMA", "provincia": "Provincia de Copiapó", "comuna": "Copiapó", "superficie_ha": 150.0, "datum_original": "PSAD56", "huso": 19, "epsg_origen": 24879, "tipo_publicacion": "manifestacion", "fuente_pdf": "http://www.diariooficial.interior.gob.cl/publicaciones/2026/08/04/44516/07/2847970.pdf", "archivo": "gm_manifestacion_2847970.pdf", "fecha": "04-08-2026", "edicion": "44516" }, "geometry": { "type": "Polygon", "coordinates": [ [ [ -70.41323184542108, -27.825063686421696 ], [ -70.403080661280768, -27.825167226053964 ], [ -70.403254786457509, -27.838704425644053 ], [ -70.413407229361965, -27.838600827011309 ], [ -70.41323184542108, -27.825063686421696 ] ] ] } },
{ "type": "Feature", "properties": { "cve": "2847961", "nombre": "TATO 1 AL 3", "solicitante": "Pacheco Pacheco Luis Alberto", "region": "REGIÓN DE ATACAMA", "provincia": "Provincia de Copiapó", "comuna": null, "superficie_ha": 3.0, "datum_original": "WGS84", "huso": 19, "epsg_origen": 32719, "tipo_publicacion": "manifestacion", "fuente_pdf": "http://www.diariooficial.interior.gob.cl/publicaciones/2026/08/04/44516/07/2847961.pdf", "archivo": "gm_manifestacion_2847961.pdf", "fecha": "04-08-2026", "edicion": "44516" }, "geometry": { "type": "Polygon", "coordinates": [ [ [ -70.096399150920405, -27.802891667303776 ], [ -70.095384117694167, -27.802899720656928 ], [ -70.09541127689576, -27.805607489918692 ], [ -70.096426335276661, -27.80559943564726 ], [ -70.096399150920405, -27.802891667303776 ] ] ] } },
{ "type": "Feature", "properties": { "cve": "2847962", "nombre": "Tres Amigos 1 al 6", "solicitante": "Pacheco Pacheco Luis Alberto", "region": "REGIÓN DE ATACAMA", "provincia": "Provincia de Copiapó", "comuna": null, "superficie_ha": 30.0, "datum_original": "WGS84", "huso": 19, "epsg_origen": 32719, "tipo_publicacion": "manifestacion", "fuente_pdf": "http://www.diariooficial.interior.gob.cl/publicaciones/2026/08/04/44516/07/2847962.pdf", "archivo": "gm_manifestacion_2847962.pdf", "fecha": "04-08-2026", "edicion": "44516" }, "geometry": { "type": "Polygon", "coordinates": [ [ [ -70.105285757422877, -27.798307540164977 ], [ -70.100210815207674, -27.79834805273725 ], [ -70.100265366235021, -27.803763584965008 ], [ -70.105340559953135, -27.803723063152646 ], [ -70.105285757422877, -27.798307540164977 ] ] ] } },
{ "type": "Feature", "properties": { "cve": "2848042", "nombre": "FORTUNA A 1 AL 8", "solicitante": "Bustamante Mujica Christian Omar", "region": "REGIÓN DE COQUIMBO", "provincia": "Provincia de Elqui", "comuna": null, "superficie_ha": 8.0, "datum_original": "PSAD56", "huso": 19, "epsg_origen": 24879, "tipo_publicacion": "manifestacion", "fuente_pdf": "http://www.diariooficial.interior.gob.cl/publicaciones/2026/08/04/44516/07/2848042.pdf", "archivo": "gm_manifestacion_2848042.pdf", "fecha": "04-08-2026", "edicion": "44516" }, "geometry": { "type": "Polygon", "coordinates": [ [ [ -71.111595613135293, -30.211214224025298 ], [ -71.107442294797394, -30.211281076735652 ], [ -71.107480745042295, -30.213084710247099 ], [ -71.111634139020268, -30.213017852721379 ], [ -71.111595613135293, -30.211214224025298 ] ] ] } },
{ "type": "Feature", "properties": { "cve": "2848081", "nombre": "DESCUBRIDORA I 1 AL 20", "solicitante": "South Minerals SpA", "region": "REGIÓN DE COQUIMBO", "provincia": "Provincia de Choapa", "comuna": "Los Vilos", "superficie_ha": 100.0, "datum_original": "PSAD56", "huso": 19, "epsg_origen": 24879, "tipo_publicacion": "manifestacion", "fuente_pdf": "http://www.diariooficial.interior.gob.cl/publicaciones/2026/08/04/44516/07/2848081.pdf", "archivo": "gm_manifestacion_2848081.pdf", "fecha": "04-08-2026", "edicion": "44516" }, "geometry": { "type": "Polygon", "coordinates": [ [ [ -71.393419536987111, -32.143500339888533 ], [ -71.382825257783168, -32.143700322218471 ], [ -71.383059839821115, -32.152714051380087 ], [ -71.393655159577619, -32.15251399958408 ], [ -71.393419536987111, -32.143500339888533 ] ] ] } },
{ "type": "Feature", "properties": { "cve": "2848082", "nombre": "DESCUBRIDORA II 1 AL 20", "solicitante": "South Minerals SpA", "region": "REGIÓN DE COQUIMBO", "provincia": "Provincia de Choapa", "comuna": "Los Vilos", "superficie_ha": 100.0, "datum_original": "PSAD56", "huso": 19, "epsg_origen": 24879, "tipo_publicacion": "manifestacion", "fuente_pdf": "http://www.diariooficial.interior.gob.cl/publicaciones/2026/08/04/44516/07/2848082.pdf", "archivo": "gm_manifestacion_2848082.pdf", "fecha": "04-08-2026", "edicion": "44516" }, "geometry": { "type": "Polygon", "coordinates": [ [ [ -71.393655159577619, -32.15251399958408 ], [ -71.383059839821115, -32.152714051380087 ], [ -71.383294526767273, -32.161727766059968 ], [ -71.393890887540991, -32.161527644784513 ], [ -71.393655159577619, -32.15251399958408 ] ] ] } },
{ "type": "Feature", "properties": { "cve": "2848083", "nombre": "RINCONADA I 1 AL 10", "solicitante": "South Minerals SpA", "region": "REGIÓN DE COQUIMBO", "provincia": "Provincia de Choapa", "comuna": "Los Vilos", "superficie_ha": 50.0, "datum_original": "PSAD56", "huso": 19, "epsg_origen": 24879, "tipo_publicacion": "manifestacion", "fuente_pdf": "http://www.diariooficial.interior.gob.cl/publicaciones/2026/08/04/44516/07/2848083.pdf", "archivo": "gm_manifestacion_2848083.pdf", "fecha": "04-08-2026", "edicion": "44516" }, "geometry": { "type": "Polygon", "coordinates": [ [ [ -71.301056741570747, -31.912923896204063 ], [ -71.295772518327382, -31.913019519482749 ], [ -71.295996522688057, -31.922034140644556 ], [ -71.301281260418421, -31.921938484014937 ], [ -71.301056741570747, -31.912923896204063 ] ] ] } },
{ "type": "Feature", "properties": { "cve": "2848084", "nombre": "RINCONADA II 1 AL 8", "solicitante": "South Minerals SpA", "region": "REGIÓN DE COQUIMBO", "provincia": "Provincia de Choapa", "comuna": "Los Vilos", "superficie_ha": 40.0, "datum_original": "PSAD56", "huso": 19, "epsg_origen": 24879, "tipo_publicacion": "manifestacion", "fuente_pdf": "http://www.diariooficial.interior.gob.cl/publicaciones/2026/08/04/44516/07/2848084.pdf", "archivo": "gm_manifestacion_2848084.pdf", "fecha": "04-08-2026", "edicion": "44516" }, "geometry": { "type": "Polygon", "coordinates": [ [ [ -71.294821355480067, -31.913036708364761 ], [ -71.29059395523106, -31.913113017361077 ], [ -71.29081745538474, -31.922127671132611 ], [ -71.295045267232027, -31.922051335521616 ], [ -71.294821355480067, -31.913036708364761 ] ] ] } },
{ "type": "Feature", "properties": { "cve": "2848085", "nombre": "RINCONADA III 1 AL 9", "solicitante": "South Minerals SpA", "region": "REGIÓN DE COQUIMBO", "provincia": "Provincia de Choapa", "comuna": "Los Vilos", "superficie_ha": 72.0, "datum_original": "PSAD56", "huso": 19, "epsg_origen": 24879, "tipo_publicacion": "manifestacion", "fuente_pdf": "http://www.diariooficial.interior.gob.cl/publicaciones/2026/08/04/44516/07/2848085.pdf", "archivo": "gm_manifestacion_2848085.pdf", "fecha": "04-08-2026", "edicion": "44516" }, "geometry": { "type": "Polygon", "coordinates": [ [ [ -71.296105388236327, -31.924286838136162 ], [ -71.286592566033065, -31.924458485710787 ], [ -71.286771124653725, -31.931670217089909 ], [ -71.296284688119329, -31.931498521632488 ], [ -71.296105388236327, -31.924286838136162 ] ] ] } },
{ "type": "Feature", "properties": { "cve": "2848086", "nombre": "RINCONADA IV 1 AL 9", "solicitante": "South Minerals SpA", "region": "REGIÓN DE COQUIMBO", "provincia": "Provincia de Choapa", "comuna": "Los Vilos", "superficie_ha": 72.0, "datum_original": "PSAD56", "huso": 19, "epsg_origen": 24879, "tipo_publicacion": "manifestacion", "fuente_pdf": "http://www.diariooficial.interior.gob.cl/publicaciones/2026/08/04/44516/07/2848086.pdf", "archivo": "gm_manifestacion_2848086.pdf", "fecha": "04-08-2026", "edicion": "44516" }, "geometry": { "type": "Polygon", "coordinates": [ [ [ -71.296284688119329, -31.931498521632488 ], [ -71.286771124653725, -31.931670217089909 ], [ -71.286949747228491, -31.938881939315237 ], [ -71.29646405222158, -31.938710195967719 ], [ -71.296284688119329, -31.931498521632488 ] ] ] } },
{ "type": "Feature", "properties": { "cve": "2848087", "nombre": "RINCONADA V 1 AL 8", "solicitante": "South Minerals SpA", "region": "REGIÓN DE COQUIMBO", "provincia": "Provincia de Choapa", "comuna": "Los Vilos", "superficie_ha": 48.0, "datum_original": "PSAD56", "huso": 19, "epsg_origen": 24879, "tipo_publicacion": "manifestacion", "fuente_pdf": "http://www.diariooficial.interior.gob.cl/publicaciones/2026/08/04/44516/07/2848087.pdf", "archivo": "gm_manifestacion_2848087.pdf", "fecha": "04-08-2026", "edicion": "44516" }, "geometry": { "type": "Polygon", "coordinates": [ [ [ -71.307732060554372, -31.924076080546989 ], [ -71.301390254373302, -31.924191170972122 ], [ -71.301569966057471, -31.931402827781227 ], [ -71.307912266389252, -31.931287705250639 ], [ -71.307732060554372, -31.924076080546989 ] ] ] } },
{ "type": "Feature", "properties": { "cve": "2848088", "nombre": "RINCONADA VI 1 AL 8", "solicitante": "South Minerals SpA", "region": "REGIÓN DE COQUIMBO", "provincia": "Provincia de Choapa", "comuna": "Los Vilos", "superficie_ha": 48.0, "datum_original": "PSAD56", "huso": 19, "epsg_origen": 24879, "tipo_publicacion": "manifestacion", "fuente_pdf": "http://www.diariooficial.interior.gob.cl/publicaciones/2026/08/04/44516/07/2848088.pdf", "archivo": "gm_manifestacion_2848088.pdf", "fecha": "04-08-2026", "edicion": "44516" }, "geometry": { "type": "Polygon", "coordinates": [ [ [ -71.307912266389252, -31.931287705250639 ], [ -71.301569966057471, -31.931402827781227 ], [ -71.301749742108143, -31.938614475425162 ], [ -71.30809253676739, -31.938499320784228 ], [ -71.307912266389252, -31.931287705250639 ] ] ] } },
{ "type": "Feature", "properties": { "cve": "2848209", "nombre": "LA REBELDE II, 1 AL 20", "solicitante": "Maya Vega David Alfonso y otros", "region": "REGIÓN DE COQUIMBO", "provincia": "Provincia de Limarí", "comuna": "Monte Patria", "superficie_ha": 100.0, "datum_original": "WGS84", "huso": 19, "epsg_origen": 32719, "tipo_publicacion": "manifestacion", "fuente_pdf": "http://www.diariooficial.interior.gob.cl/publicaciones/2026/08/04/44516/07/2848209.pdf", "archivo": "gm_manifestacion_2848209.pdf", "fecha": "04-08-2026", "edicion": "44516" }, "geometry": { "type": "Polygon", "coordinates": [ [ [ -70.666927853749527, -31.087557032455841 ], [ -70.656447752713007, -31.087692135549563 ], [ -70.656604278448853, -31.096711447237084 ], [ -70.667085368686159, -31.096576296295471 ], [ -70.666927853749527, -31.087557032455841 ] ] ] } },
{ "type": "Feature", "properties": { "cve": "2848206", "nombre": "LA SANTA 1 AL 19", "solicitante": "Cortés Pizarro Pía Constanza", "region": "REGIÓN DE COQUIMBO", "provincia": "Provincia de Limarí", "comuna": "Río Hurtado", "superficie_ha": 114.0, "datum_original": "PSAD56", "huso": 19, "epsg_origen": 24879, "tipo_publicacion": "manifestacion", "fuente_pdf": "http://www.diariooficial.interior.gob.cl/publicaciones/2026/08/04/44516/07/2848206.pdf", "archivo": "gm_manifestacion_2848206.pdf", "fecha": "04-08-2026", "edicion": "44516" }, "geometry": { "type": "Polygon", "coordinates": [ [ [ -70.648380747034338, -30.349133941741378 ], [ -70.642140388115877, -30.349212479963885 ], [ -70.642426727091916, -30.366351185369677 ], [ -70.648668172938699, -30.366272593531164 ], [ -70.648380747034338, -30.349133941741378 ] ] ] } },
{ "type": "Feature", "properties": { "cve": "2848239", "nombre": "LAS LOMAS 1 AL 8", "solicitante": "Peralta Adones Belfor Antonio", "region": "REGIÓN DE COQUIMBO", "provincia": "Provincia de Limarí", "comuna": "Punitaqui", "superficie_ha": 8.0, "datum_original": "PSAD56", "huso": 19, "epsg_origen": 24879, "tipo_publicacion": "manifestacion", "fuente_pdf": "http://www.diariooficial.interior.gob.cl/publicaciones/2026/08/04/44516/07/2848239.pdf", "archivo": "gm_manifestacion_2848239.pdf", "fecha": "04-08-2026", "edicion": "44516" }, "geometry": { "type": "Polygon", "coordinates": [ [ [ -71.325009193910148, -30.829096668264274 ], [ -71.320830126063186, -30.82917163240257 ], [ -71.32087352300006, -30.83097483293259 ], [ -71.325052668819453, -30.830899863460708 ], [ -71.325009193910148, -30.829096668264274 ] ] ] } },
{ "type": "Feature", "properties": { "cve": "2848172", "nombre": "GLORIA 1 al 36", "solicitante": "Plaza Azócar José Augusto", "region": "REGIÓN DE VALPARAÍSO", "provincia": "Provincia de San Antonio", "comuna": null, "superficie_ha": 180.0, "datum_original": "PSAD56", "huso": 19, "epsg_origen": 24879, "tipo_publicacion": "manifestacion", "fuente_pdf": "http://www.diariooficial.interior.gob.cl/publicaciones/2026/08/04/44516/07/2848172.pdf", "archivo": "gm_manifestacion_2848172.pdf", "fecha": "04-08-2026", "edicion": "44516" }, "geometry": { "type": "Polygon", "coordinates": [ [ [ -71.671451023460548, -33.405871263687644 ], [ -71.661782689914446, -33.40607917832326 ], [ -71.662332822800195, -33.424099081971754 ], [ -71.672003148795255, -33.423891025835765 ], [ -71.671451023460548, -33.405871263687644 ] ] ] } },
{ "type": "Feature", "properties": { "cve": "2847905", "nombre": "TILOS, 1 al 105", "solicitante": "Sociedad Agrícola Dos Tilos Limitada", "region": "REGIÓN DE LOS LAGOS", "provincia": "Provincia de Llanquihue", "comuna": null, "superficie_ha": 420.0, "datum_original": "PSAD56", "huso": 18, "epsg_origen": 24878, "tipo_publicacion": "manifestacion", "fuente_pdf": "http://www.diariooficial.interior.gob.cl/publicaciones/2026/08/04/44516/07/2847905.pdf", "archivo": "gm_manifestacion_2847905.pdf", "fecha": "04-08-2026", "edicion": "44516" }, "geometry": { "type": "Polygon", "coordinates": [ [ [ -73.146648163065393, -41.468831827202067 ], [ -73.121512901591075, -41.468423999850913 ], [ -73.12099279906613, -41.48642915868902 ], [ -73.14613501003673, -41.486837242682746 ], [ -73.146648163065393, -41.468831827202067 ] ] ] } },
{ "type": "Feature", "properties": { "cve": "2847780", "nombre": "KAISER II 1 AL 20", "solicitante": "Minera Titanio Limitada", "region": "REGIÓN DE ATACAMA", "provincia": "Provincia de Copiapó", "comuna": null, "superficie_ha": 100.0, "datum_original": "PSAD56", "huso": 19, "epsg_origen": 24879, "tipo_publicacion": "mensura", "fuente_pdf": "http://www.diariooficial.interior.gob.cl/publicaciones/2026/08/04/44516/07/2847780.pdf", "archivo": "gm_mensura_2847780.pdf", "fecha": "04-08-2026", "edicion": "44516" }, "geometry": { "type": "Polygon", "coordinates": [ [ [ -70.776628948653226, -27.426911123392028 ], [ -70.78161286496271, -27.422334742230571 ], [ -70.771500565814975, -27.422463626737954 ], [ -70.771644621713691, -27.431487342909019 ], [ -70.781757742121712, -27.431358408963387 ], [ -70.776628948653226, -27.426911123392028 ] ] ] } },
{ "type": "Feature", "properties": { "cve": "2848216", "nombre": "LA VERDE 1 AL 6", "solicitante": "Gutiérrez Pastén Evelyn Francesca", "region": "REGIÓN DE ATACAMA", "provincia": "Provincia de Copiapó", "comuna": null, "superficie_ha": 36.0, "datum_original": "PSAD56", "huso": 19, "epsg_origen": 24879, "tipo_publicacion": "mensura", "fuente_pdf": "http://www.diariooficial.interior.gob.cl/publicaciones/2026/08/04/44516/07/2848216.pdf", "archivo": "gm_mensura_2848216.pdf", "fecha": "04-08-2026", "edicion": "44516" }, "geometry": { "type": "Polygon", "coordinates": [ [ [ -70.028338328340283, -27.160911594856948 ], [ -70.022283191264279, -27.160955838297308 ], [ -70.022332515229451, -27.166372007646686 ], [ -70.028387944333616, -27.166327753953372 ], [ -70.028338328340283, -27.160911594856948 ] ] ] } },
{ "type": "Feature", "properties": { "cve": "2848260", "nombre": "LOS GEMELOS 1 AL 5", "solicitante": "Flores Echeverría Gilberto del Rosario", "region": "REGIÓN DE ATACAMA", "provincia": "Provincia de Copiapó", "comuna": null, "superficie_ha": 25.0, "datum_original": "PSAD56", "huso": 19, "epsg_origen": 24879, "tipo_publicacion": "mensura", "fuente_pdf": "http://www.diariooficial.interior.gob.cl/publicaciones/2026/08/04/44516/07/2848260.pdf", "archivo": "gm_mensura_2848260.pdf", "fecha": "04-08-2026", "edicion": "44516" }, "geometry": { "type": "Polygon", "coordinates": [ [ [ -69.577843128113486, -27.092618708328139 ], [ -69.57279968909549, -27.092639349385905 ], [ -69.572822652645726, -27.097153363434288 ], [ -69.577866293827981, -27.097132718383037 ], [ -69.577843128113486, -27.092618708328139 ] ] ] } },
{ "type": "Feature", "properties": { "cve": "2848217", "nombre": "LYNA 1 AL 3", "solicitante": "Ossandón Núñez Samuel Segundo", "region": "REGIÓN DE ATACAMA", "provincia": "Provincia de Copiapó", "comuna": null, "superficie_ha": 9.0, "datum_original": "PSAD56", "huso": 19, "epsg_origen": 24879, "tipo_publicacion": "mensura", "fuente_pdf": "http://www.diariooficial.interior.gob.cl/publicaciones/2026/08/04/44516/07/2848217.pdf", "archivo": "gm_mensura_2848217.pdf", "fecha": "04-08-2026", "edicion": "44516" }, "geometry": { "type": "Polygon", "coordinates": [ [ [ -70.135486319117604, -28.037544993269027 ], [ -70.13243467824573, -28.03757018246769 ], [ -70.132463031456069, -28.040277824610794 ], [ -70.135514748693097, -28.040252632555998 ], [ -70.135486319117604, -28.037544993269027 ] ] ] } },
{ "type": "Feature", "properties": { "cve": "2848252", "nombre": "MINA BUENA TIERRA 2 DEL 1 AL 06", "solicitante": "Valenzuela Aranda Mario Ernesto", "region": "REGIÓN DE ATACAMA", "provincia": "Provincia de Copiapó", "comuna": null, "superficie_ha": 60.0, "datum_original": "WGS84", "huso": 19, "epsg_origen": 32719, "tipo_publicacion": "mensura", "fuente_pdf": "http://www.diariooficial.interior.gob.cl/publicaciones/2026/08/04/44516/07/2848252.pdf", "archivo": "gm_mensura_2848252.pdf", "fecha": "04-08-2026", "edicion": "44516" }, "geometry": { "type": "Polygon", "coordinates": [ [ [ -70.745475353813831, -27.449007685514626 ], [ -70.735360431636849, -27.449134077790582 ], [ -70.73544520152835, -27.454548390698164 ], [ -70.74556061719511, -27.454421969354229 ], [ -70.745475353813831, -27.449007685514626 ] ] ] } },
{ "type": "Feature", "properties": { "cve": "2848218", "nombre": "SAN JUAN 1 AL 4", "solicitante": "Ossandón Mondaca Samuel Tercero", "region": "REGIÓN DE ATACAMA", "provincia": "Provincia de Copiapó", "comuna": null, "superficie_ha": 16.0, "datum_original": "PSAD56", "huso": 19, "epsg_origen": 24879, "tipo_publicacion": "mensura", "fuente_pdf": "http://www.diariooficial.interior.gob.cl/publicaciones/2026/08/04/44516/07/2848218.pdf", "archivo": "gm_mensura_2848218.pdf", "fecha": "04-08-2026", "edicion": "44516" }, "geometry": { "type": "Polygon", "coordinates": [ [ [ -70.130018392662436, -28.048746526329662 ], [ -70.125949108109097, -28.04877994714661 ], [ -70.125986714485791, -28.052390138573035 ], [ -70.130056134881698, -28.052356712704704 ], [ -70.130018392662436, -28.048746526329662 ] ] ] } },
{ "type": "Feature", "properties": { "cve": "2847880", "nombre": "ROSITA 1 AL 14", "solicitante": "Daza Contreras Juliano Ignacio", "region": "REGIÓN DE COQUIMBO", "provincia": "Provincia de Elqui", "comuna": null, "superficie_ha": null, "datum_original": "PSAD56", "huso": 19, "epsg_origen": 24879, "tipo_publicacion": "mensura", "fuente_pdf": "http://www.diariooficial.interior.gob.cl/publicaciones/2026/08/04/44516/07/2847880.pdf", "archivo": "gm_mensura_2847880.pdf", "fecha": "04-08-2026", "edicion": "44516" }, "geometry": { "type": "Polygon", "coordinates": [ [ [ -70.842886831844524, -29.646861868249815 ], [ -70.830494924334147, -29.647033549511885 ], [ -70.830609205168912, -29.653347862240917 ], [ -70.843001885262709, -29.653176137181575 ], [ -70.842886831844524, -29.646861868249815 ] ] ] } },
{ "type": "Feature", "properties": { "cve": "2848237", "nombre": "LA FORTUNA 1 AL 24", "solicitante": "SLM La Fortuna Uno de Ovalle", "region": "REGIÓN DE COQUIMBO", "provincia": "Provincia de Limarí", "comuna": null, "superficie_ha": null, "datum_original": "PSAD56", "huso": 19, "epsg_origen": 24879, "tipo_publicacion": "mensura", "fuente_pdf": "http://www.diariooficial.interior.gob.cl/publicaciones/2026/08/04/44516/07/2848237.pdf", "archivo": "gm_mensura_2848237.pdf", "fecha": "04-08-2026", "edicion": "44516" }, "geometry": { "type": "Polygon", "coordinates": [ [ [ -71.271304008217243, -30.49990911213299 ], [ -71.255684863101493, -30.500180412597803 ], [ -71.255788949184023, -30.504688848474782 ], [ -71.271408813522385, -30.504417499440187 ], [ -71.271304008217243, -30.49990911213299 ] ] ] } },
{ "type": "Feature", "properties": { "cve": "2848233", "nombre": "ALICIA 1", "solicitante": "Alegría Olate Héctor", "region": "REGIÓN DE ATACAMA", "provincia": "Provincia de Chañaral", "comuna": "DIEGO DE ALMAGRO", "superficie_ha": 300.0, "datum_original": "PSAD56", "huso": 19, "epsg_origen": 24879, "tipo_publicacion": "pedimento", "fuente_pdf": "http://www.diariooficial.interior.gob.cl/publicaciones/2026/08/04/44516/07/2848233.pdf", "archivo": "gm_pedimento_2848233.pdf", "fecha": "04-08-2026", "edicion": "44516" }, "geometry": { "type": "Polygon", "coordinates": [ [ [ -69.745434177293092, -26.654408180979662 ], [ -69.715290876511631, -26.6545630551845 ], [ -69.715347158465278, -26.663591391146902 ], [ -69.745492830517975, -26.663436456327965 ], [ -69.745434177293092, -26.654408180979662 ] ] ] } },
{ "type": "Feature", "properties": { "cve": "2848234", "nombre": "ALICIA 2", "solicitante": "Alegría Olate Héctor", "region": "REGIÓN DE ATACAMA", "provincia": "Provincia de Chañaral", "comuna": "DIEGO DE ALMAGRO", "superficie_ha": 300.0, "datum_original": "PSAD56", "huso": 19, "epsg_origen": 24879, "tipo_publicacion": "pedimento", "fuente_pdf": "http://www.diariooficial.interior.gob.cl/publicaciones/2026/08/04/44516/07/2848234.pdf", "archivo": "gm_pedimento_2848234.pdf", "fecha": "04-08-2026", "edicion": "44516" }, "geometry": { "type": "Polygon", "coordinates": [ [ [ -69.745492830517975, -26.663436456327965 ], [ -69.715347158465278, -26.663591391146902 ], [ -69.715403466946753, -26.672619715432543 ], [ -69.745551511388229, -26.672464719990227 ], [ -69.745492830517975, -26.663436456327965 ] ] ] } },
{ "type": "Feature", "properties": { "cve": "2848122", "nombre": "ADIRA 1", "solicitante": "Corporación Nacional del Cobre de Chile", "region": "REGIÓN DE COQUIMBO", "provincia": "Provincia de Elqui", "comuna": null, "superficie_ha": 600.0, "datum_original": "WGS84", "huso": 19, "epsg_origen": 32719, "tipo_publicacion": "pedimento", "fuente_pdf": "http://www.diariooficial.interior.gob.cl/publicaciones/2026/08/04/44516/07/2848122.pdf", "archivo": "gm_pedimento_2848122.pdf", "fecha": "04-08-2026", "edicion": "44516" }, "geometry": { "type": "Polygon", "coordinates": [ [ [ -70.215761639413316, -30.221909379075818 ], [ -70.184593921373192, -30.222194808591031 ], [ -70.184810291407359, -30.240239521866773 ], [ -70.215983698960187, -30.23995388668401 ], [ -70.215761639413316, -30.221909379075818 ] ] ] } },
{ "type": "Feature", "properties": { "cve": "2848123", "nombre": "ADIRA 2", "solicitante": "Corporación Nacional del Cobre de Chile", "region": "REGIÓN DE COQUIMBO", "provincia": "Provincia de Elqui", "comuna": null, "superficie_ha": 600.0, "datum_original": "WGS84", "huso": 19, "epsg_origen": 32719, "tipo_publicacion": "pedimento", "fuente_pdf": "http://www.diariooficial.interior.gob.cl/publicaciones/2026/08/04/44516/07/2848123.pdf", "archivo": "gm_pedimento_2848123.pdf", "fecha": "04-08-2026", "edicion": "44516" }, "geometry": { "type": "Polygon", "coordinates": [ [ [ -70.184593921373192, -30.222194808591031 ], [ -70.15342576259485, -30.222472829028327 ], [ -70.153636442779671, -30.240517742634104 ], [ -70.184810291407359, -30.240239521866773 ], [ -70.184593921373192, -30.222194808591031 ] ] ] } },
{ "type": "Feature", "properties": { "cve": "2848124", "nombre": "ADIRA 3", "solicitante": "Corporación Nacional del Cobre de Chile", "region": "REGIÓN DE COQUIMBO", "provincia": "Provincia de Elqui", "comuna": null, "superficie_ha": 600.0, "datum_original": "WGS84", "huso": 19, "epsg_origen": 32719, "tipo_publicacion": "pedimento", "fuente_pdf": "http://www.diariooficial.interior.gob.cl/publicaciones/2026/08/04/44516/07/2848124.pdf", "archivo": "gm_pedimento_2848124.pdf", "fecha": "04-08-2026", "edicion": "44516" }, "geometry": { "type": "Polygon", "coordinates": [ [ [ -70.154058375935136, -30.276607416599536 ], [ -70.12287270200811, -30.276878612775349 ], [ -70.123078249620406, -30.294923568298323 ], [ -70.154269629197728, -30.294652176921215 ], [ -70.154058375935136, -30.276607416599536 ] ] ] } },
{ "type": "Feature", "properties": { "cve": "2848125", "nombre": "ADIRA 4", "solicitante": "Corporación Nacional del Cobre de Chile", "region": "REGIÓN DE COQUIMBO", "provincia": "Provincia de Elqui", "comuna": null, "superficie_ha": 600.0, "datum_original": "WGS84", "huso": 19, "epsg_origen": 32719, "tipo_publicacion": "pedimento", "fuente_pdf": "http://www.diariooficial.interior.gob.cl/publicaciones/2026/08/04/44516/07/2848125.pdf", "archivo": "gm_pedimento_2848125.pdf", "fecha": "04-08-2026", "edicion": "44516" }, "geometry": { "type": "Polygon", "coordinates": [ [ [ -70.185460578309247, -30.294373354734237 ], [ -70.16466666063836, -30.294560061819674 ], [ -70.164986755244428, -30.321627006996241 ], [ -70.185786384638192, -30.32144009838521 ], [ -70.185460578309247, -30.294373354734237 ] ] ] } },
{ "type": "Feature", "properties": { "cve": "2848126", "nombre": "ADIRA 5", "solicitante": "Corporación Nacional del Cobre de Chile", "region": "REGIÓN DE COQUIMBO", "provincia": "Provincia de Elqui", "comuna": null, "superficie_ha": 600.0, "datum_original": "WGS84", "huso": 19, "epsg_origen": 32719, "tipo_publicacion": "pedimento", "fuente_pdf": "http://www.diariooficial.interior.gob.cl/publicaciones/2026/08/04/44516/07/2848126.pdf", "archivo": "gm_pedimento_2848126.pdf", "fecha": "04-08-2026", "edicion": "44516" }, "geometry": { "type": "Polygon", "coordinates": [ [ [ -70.16466666063836, -30.294560061819674 ], [ -70.143872549927536, -30.294743466377138 ], [ -70.144186932588994, -30.321810609515385 ], [ -70.164986755244428, -30.321627006996241 ], [ -70.16466666063836, -30.294560061819674 ] ] ] } },
{ "type": "Feature", "properties": { "cve": "2848127", "nombre": "ADIRA 6", "solicitante": "Corporación Nacional del Cobre de Chile", "region": "REGIÓN DE COQUIMBO", "provincia": "Provincia de Elqui", "comuna": null, "superficie_ha": 600.0, "datum_original": "WGS84", "huso": 19, "epsg_origen": 32719, "tipo_publicacion": "pedimento", "fuente_pdf": "http://www.diariooficial.interior.gob.cl/publicaciones/2026/08/04/44516/07/2848127.pdf", "archivo": "gm_pedimento_2848127.pdf", "fecha": "04-08-2026", "edicion": "44516" }, "geometry": { "type": "Polygon", "coordinates": [ [ [ -70.143872549927536, -30.294743466377138 ], [ -70.123078249620406, -30.294923568298323 ], [ -70.123386920119458, -30.321990905834195 ], [ -70.144186932588994, -30.321810609515385 ], [ -70.143872549927536, -30.294743466377138 ] ] ] } },
{ "type": "Feature", "properties": { "cve": "2848128", "nombre": "ADIRA 7", "solicitante": "Corporación Nacional del Cobre de Chile", "region": "REGIÓN DE COQUIMBO", "provincia": "Provincia de Elqui", "comuna": null, "superficie_ha": 800.0, "datum_original": "WGS84", "huso": 19, "epsg_origen": 32719, "tipo_publicacion": "pedimento", "fuente_pdf": "http://www.diariooficial.interior.gob.cl/publicaciones/2026/08/04/44516/07/2848128.pdf", "archivo": "gm_pedimento_2848128.pdf", "fecha": "04-08-2026", "edicion": "44516" }, "geometry": { "type": "Polygon", "coordinates": [ [ [ -70.123078249620406, -30.294923568298323 ], [ -70.102283763160699, -30.295100367476891 ], [ -70.102687798760385, -30.331190379782992 ], [ -70.123489903445247, -30.3310133261371 ], [ -70.123078249620406, -30.294923568298323 ] ] ] } },
{ "type": "Feature", "properties": { "cve": "2848129", "nombre": "VALQUIRIA 1", "solicitante": "Corporación Nacional del Cobre de Chile", "region": "REGIÓN DE COQUIMBO", "provincia": "Provincia de Elqui", "comuna": null, "superficie_ha": 200.0, "datum_original": "WGS84", "huso": 19, "epsg_origen": 32719, "tipo_publicacion": "pedimento", "fuente_pdf": "http://www.diariooficial.interior.gob.cl/publicaciones/2026/08/04/44516/07/2848129.pdf", "archivo": "gm_pedimento_2848129.pdf", "fecha": "04-08-2026", "edicion": "44516" }, "geometry": { "type": "Polygon", "coordinates": [ [ [ -70.099077694972479, -30.006372935239625 ], [ -70.088710609658648, -30.006459095871794 ], [ -70.08890775300479, -30.024505003907642 ], [ -70.099276714669884, -30.024418780917117 ], [ -70.099077694972479, -30.006372935239625 ] ] ] } },
{ "type": "Feature", "properties": { "cve": "2848138", "nombre": "VALQUIRIA 10", "solicitante": "Corporación Nacional del Cobre de Chile", "region": "REGIÓN DE COQUIMBO", "provincia": "Provincia de Elqui", "comuna": null, "superficie_ha": 800.0, "datum_original": "WGS84", "huso": 19, "epsg_origen": 32719, "tipo_publicacion": "pedimento", "fuente_pdf": "http://www.diariooficial.interior.gob.cl/publicaciones/2026/08/04/44516/07/2848138.pdf", "archivo": "gm_pedimento_2848138.pdf", "fecha": "04-08-2026", "edicion": "44516" }, "geometry": { "type": "Polygon", "coordinates": [ [ [ -70.058760781743885, -30.114988469558195 ], [ -70.038003646485691, -30.115154161420843 ], [ -70.038381388747226, -30.151245924828281 ], [ -70.059146074374041, -30.151079993613227 ], [ -70.058760781743885, -30.114988469558195 ] ] ] } },
{ "type": "Feature", "properties": { "cve": "2848139", "nombre": "VALQUIRIA 11", "solicitante": "Corporación Nacional del Cobre de Chile", "region": "REGIÓN DE COQUIMBO", "provincia": "Provincia de Elqui", "comuna": null, "superficie_ha": 800.0, "datum_original": "WGS84", "huso": 19, "epsg_origen": 32719, "tipo_publicacion": "pedimento", "fuente_pdf": "http://www.diariooficial.interior.gob.cl/publicaciones/2026/08/04/44516/07/2848139.pdf", "archivo": "gm_pedimento_2848139.pdf", "fecha": "04-08-2026", "edicion": "44516" }, "geometry": { "type": "Polygon", "coordinates": [ [ [ -70.038003646485691, -30.115154161420843 ], [ -70.017246340162046, -30.115316573851612 ], [ -70.017616531794303, -30.151408571874871 ], [ -70.038381388747226, -30.151245924828281 ], [ -70.038003646485691, -30.115154161420843 ] ] ] } },
{ "type": "Feature", "properties": { "cve": "2848130", "nombre": "VALQUIRIA 2", "solicitante": "Corporación Nacional del Cobre de Chile", "region": "REGIÓN DE COQUIMBO", "provincia": "Provincia de Elqui", "comuna": null, "superficie_ha": 200.0, "datum_original": "WGS84", "huso": 19, "epsg_origen": 32719, "tipo_publicacion": "pedimento", "fuente_pdf": "http://www.diariooficial.interior.gob.cl/publicaciones/2026/08/04/44516/07/2848130.pdf", "archivo": "gm_pedimento_2848130.pdf", "fecha": "04-08-2026", "edicion": "44516" }, "geometry": { "type": "Polygon", "coordinates": [ [ [ -70.099276714669884, -30.024418780917117 ], [ -70.08890775300479, -30.024505003907642 ], [ -70.089105075281012, -30.042550861232673 ], [ -70.099475914999857, -30.042464575861725 ], [ -70.099276714669884, -30.024418780917117 ] ] ] } },
{ "type": "Feature", "properties": { "cve": "2848131", "nombre": "VALQUIRIA 3", "solicitante": "Corporación Nacional del Cobre de Chile", "region": "REGIÓN DE COQUIMBO", "provincia": "Provincia de Elqui", "comuna": null, "superficie_ha": 800.0, "datum_original": "WGS84", "huso": 19, "epsg_origen": 32719, "tipo_publicacion": "pedimento", "fuente_pdf": "http://www.diariooficial.interior.gob.cl/publicaciones/2026/08/04/44516/07/2848131.pdf", "archivo": "gm_pedimento_2848131.pdf", "fecha": "04-08-2026", "edicion": "44516" }, "geometry": { "type": "Polygon", "coordinates": [ [ [ -70.099475914999857, -30.042464575861725 ], [ -70.078734190795672, -30.042636329173071 ], [ -70.079125611393522, -30.078728015259209 ], [ -70.099874858106205, -30.078556013475886 ], [ -70.099475914999857, -30.042464575861725 ] ] ] } },
{ "type": "Feature", "properties": { "cve": "2848132", "nombre": "VALQUIRIA 4", "solicitante": "Corporación Nacional del Cobre de Chile", "region": "REGIÓN DE COQUIMBO", "provincia": "Provincia de Elqui", "comuna": null, "superficie_ha": 800.0, "datum_original": "WGS84", "huso": 19, "epsg_origen": 32719, "tipo_publicacion": "pedimento", "fuente_pdf": "http://www.diariooficial.interior.gob.cl/publicaciones/2026/08/04/44516/07/2848132.pdf", "archivo": "gm_pedimento_2848132.pdf", "fecha": "04-08-2026", "edicion": "44516" }, "geometry": { "type": "Polygon", "coordinates": [ [ [ -70.099874858106205, -30.078556013475886 ], [ -70.058376187049205, -30.078896742540657 ], [ -70.058568397220952, -30.096942631410286 ], [ -70.10007460115736, -30.096601656107349 ], [ -70.099874858106205, -30.078556013475886 ] ] ] } },
{ "type": "Feature", "properties": { "cve": "2848133", "nombre": "VALQUIRIA 5", "solicitante": "Corporación Nacional del Cobre de Chile", "region": "REGIÓN DE COQUIMBO", "provincia": "Provincia de Elqui", "comuna": null, "superficie_ha": 800.0, "datum_original": "WGS84", "huso": 19, "epsg_origen": 32719, "tipo_publicacion": "pedimento", "fuente_pdf": "http://www.diariooficial.interior.gob.cl/publicaciones/2026/08/04/44516/07/2848133.pdf", "archivo": "gm_pedimento_2848133.pdf", "fecha": "04-08-2026", "edicion": "44516" }, "geometry": { "type": "Polygon", "coordinates": [ [ [ -70.10007460115736, -30.096601656107349 ], [ -70.058568397220952, -30.096942631410286 ], [ -70.058760781743885, -30.114988469558195 ], [ -70.100274525390674, -30.114647247929664 ], [ -70.10007460115736, -30.096601656107349 ] ] ] } },
{ "type": "Feature", "properties": { "cve": "2848134", "nombre": "VALQUIRIA 6", "solicitante": "Corporación Nacional del Cobre de Chile", "region": "REGIÓN DE COQUIMBO", "provincia": "Provincia de Elqui", "comuna": null, "superficie_ha": 800.0, "datum_original": "WGS84", "huso": 19, "epsg_origen": 32719, "tipo_publicacion": "pedimento", "fuente_pdf": "http://www.diariooficial.interior.gob.cl/publicaciones/2026/08/04/44516/07/2848134.pdf", "archivo": "gm_pedimento_2848134.pdf", "fecha": "04-08-2026", "edicion": "44516" }, "geometry": { "type": "Polygon", "coordinates": [ [ [ -70.100274525390674, -30.114647247929664 ], [ -70.058760781743885, -30.114988469558195 ], [ -70.05895334075062, -30.133034256965473 ], [ -70.100474630943992, -30.132692788923844 ], [ -70.100274525390674, -30.114647247929664 ] ] ] } },
{ "type": "Feature", "properties": { "cve": "2848136", "nombre": "VALQUIRIA 8", "solicitante": "Corporación Nacional del Cobre de Chile", "region": "REGIÓN DE COQUIMBO", "provincia": "Provincia de Elqui", "comuna": null, "superficie_ha": 600.0, "datum_original": "WGS84", "huso": 19, "epsg_origen": 32719, "tipo_publicacion": "pedimento", "fuente_pdf": "http://www.diariooficial.interior.gob.cl/publicaciones/2026/08/04/44516/07/2848136.pdf", "archivo": "gm_pedimento_2848136.pdf", "fecha": "04-08-2026", "edicion": "44516" }, "geometry": { "type": "Polygon", "coordinates": [ [ [ -70.058568397220952, -30.096942631410286 ], [ -70.027438285102647, -30.097189760892299 ], [ -70.027625014493395, -30.115235777571229 ], [ -70.058760781743885, -30.114988469558195 ], [ -70.058568397220952, -30.096942631410286 ] ] ] } },
{ "type": "Feature", "properties": { "cve": "2848137", "nombre": "VALQUIRIA 9", "solicitante": "Corporación Nacional del Cobre de Chile", "region": "REGIÓN DE COQUIMBO", "provincia": "Provincia de Elqui", "comuna": null, "superficie_ha": 200.0, "datum_original": "WGS84", "huso": 19, "epsg_origen": 32719, "tipo_publicacion": "pedimento", "fuente_pdf": "http://www.diariooficial.interior.gob.cl/publicaciones/2026/08/04/44516/07/2848137.pdf", "archivo": "gm_pedimento_2848137.pdf", "fecha": "04-08-2026", "edicion": "44516" }, "geometry": { "type": "Polygon", "coordinates": [ [ [ -70.027438285102647, -30.097189760892299 ], [ -70.017061495880171, -30.097270498845859 ], [ -70.017246340162046, -30.115316573851612 ], [ -70.027625014493395, -30.115235777571229 ], [ -70.027438285102647, -30.097189760892299 ] ] ] } },
{ "type": "Feature", "properties": { "cve": "2848232", "nombre": "BALCON 4", "solicitante": "Romero Canales Romina", "region": "REGIÓN DE COQUIMBO", "provincia": "Provincia de Limarí", "comuna": "Ovalle", "superficie_ha": 100.0, "datum_original": "PSAD56", "huso": 19, "epsg_origen": 24879, "tipo_publicacion": "pedimento", "fuente_pdf": "http://www.diariooficial.interior.gob.cl/publicaciones/2026/08/04/44516/07/2848232.pdf", "archivo": "gm_pedimento_2848232.pdf", "fecha": "04-08-2026", "edicion": "44516" }, "geometry": { "type": "Polygon", "coordinates": [ [ [ -71.458380403993587, -30.648406773712587 ], [ -71.447953196181786, -30.648603645020025 ], [ -71.44818046630219, -30.657619058854294 ], [ -71.45860863981251, -30.65742211726791 ], [ -71.458380403993587, -30.648406773712587 ] ] ] } },
{ "type": "Feature", "properties": { "cve": "2848231", "nombre": "BALCON 5", "solicitante": "Romero Canales Romina", "region": "REGIÓN DE COQUIMBO", "provincia": "Provincia de Limarí", "comuna": "Ovalle", "superficie_ha": 100.0, "datum_original": "PSAD56", "huso": 19, "epsg_origen": 24879, "tipo_publicacion": "pedimento", "fuente_pdf": "http://www.diariooficial.interior.gob.cl/publicaciones/2026/08/04/44516/07/2848231.pdf", "archivo": "gm_pedimento_2848231.pdf", "fecha": "04-08-2026", "edicion": "44516" }, "geometry": { "type": "Polygon", "coordinates": [ [ [ -71.45466533508646, -30.66651635171597 ], [ -71.444236154358535, -30.666713029288729 ], [ -71.444463242960197, -30.675728442885315 ], [ -71.454893390272801, -30.675531695127304 ], [ -71.45466533508646, -30.66651635171597 ] ] ] } }
]
}
