{
"type": "FeatureCollection",
"name": "boletin_mineria_20260609",
"crs": { "type": "name", "properties": { "name": "urn:ogc:def:crs:OGC:1.3:CRS84" } },
"features": [
{ "type": "Feature", "properties": { "cve": "2820057", "nombre": "CAMAN 50 C, 1 al 200", "solicitante": "AR Caman SpA", "region": "REGIÓN DE LOS RÍOS", "provincia": "Provincia de Valdivia", "comuna": null, "superficie_ha": 200.0, "datum_original": "PSAD56", "huso": 18, "epsg_origen": 24878, "tipo_publicacion": "manifestacion", "fuente_pdf": "http://www.diariooficial.interior.gob.cl/publicaciones/2026/06/09/44470/07/2820057.pdf", "archivo": "gm_manifestacion_2820057.pdf", "fecha": "09-06-2026", "edicion": "44470" }, "geometry": { "type": "Polygon", "coordinates": [ [ [ -72.906081983734026, -39.973024470088802 ], [ -72.894379413650867, -39.972812412067576 ], [ -72.893826388565998, -39.990819792805496 ], [ -72.905532026746798, -39.991031985354901 ], [ -72.906081983734026, -39.973024470088802 ] ] ] } },
{ "type": "Feature", "properties": { "cve": "2820256", "nombre": "ALGODÓN 101, 1 al 190", "solicitante": "Piñones Jiménez Beatriz del Pilar", "region": "REGIÓN DE COQUIMBO", "provincia": "Provincia de Elqui", "comuna": null, "superficie_ha": 190.0, "datum_original": "WGS84", "huso": 19, "epsg_origen": 32719, "tipo_publicacion": "mensura", "fuente_pdf": "http://www.diariooficial.interior.gob.cl/publicaciones/2026/06/09/44470/07/2820256.pdf", "archivo": "gm_mensura_2820256.pdf", "fecha": "09-06-2026", "edicion": "44470" }, "geometry": { "type": "Polygon", "coordinates": [ [ [ -70.845379507643855, -29.998927218035163 ], [ -70.835016663895672, -29.999072113086701 ], [ -70.83533219827325, -30.016210025773908 ], [ -70.84569682147189, -30.016065031117723 ], [ -70.845379507643855, -29.998927218035163 ] ] ] } },
{ "type": "Feature", "properties": { "cve": "2820257", "nombre": "ALGODÓN 102,1 al 300", "solicitante": "Piñones Jiménez Beatriz del Pilar", "region": "REGIÓN DE COQUIMBO", "provincia": "Provincia de Elqui", "comuna": null, "superficie_ha": 282.0, "datum_original": "WGS84", "huso": 19, "epsg_origen": 32719, "tipo_publicacion": "mensura", "fuente_pdf": "http://www.diariooficial.interior.gob.cl/publicaciones/2026/06/09/44470/07/2820257.pdf", "archivo": "gm_mensura_2820257.pdf", "fecha": "09-06-2026", "edicion": "44470" }, "geometry": { "type": "Polygon", "coordinates": [ [ [ -70.84569682147189, -30.016065031117723 ], [ -70.83533219827325, -30.016210025773908 ], [ -70.835830964291532, -30.043269790823786 ], [ -70.846198400269557, -30.043124638828949 ], [ -70.845997686872622, -30.032300810024015 ], [ -70.842887801692001, -30.032344422433376 ], [ -70.842787654703613, -30.026932491431655 ], [ -70.845897371119307, -30.026888888481189 ], [ -70.84569682147189, -30.016065031117723 ] ] ] } },
{ "type": "Feature", "properties": { "cve": "2820259", "nombre": "ALGODÓN 104, 1 al 300", "solicitante": "Piñones Jiménez Beatriz del Pilar", "region": "REGIÓN DE COQUIMBO", "provincia": "Provincia de Elqui", "comuna": null, "superficie_ha": 300.0, "datum_original": "WGS84", "huso": 19, "epsg_origen": 32719, "tipo_publicacion": "mensura", "fuente_pdf": "http://www.diariooficial.interior.gob.cl/publicaciones/2026/06/09/44470/07/2820259.pdf", "archivo": "gm_mensura_2820259.pdf", "fecha": "09-06-2026", "edicion": "44470" }, "geometry": { "type": "Polygon", "coordinates": [ [ [ -70.866425840144046, -30.015772595030697 ], [ -70.856061368903667, -30.015919220862838 ], [ -70.856565760394503, -30.042978670350855 ], [ -70.866933044241335, -30.042831885410948 ], [ -70.866425840144046, -30.015772595030697 ] ] ] } },
{ "type": "Feature", "properties": { "cve": "2820260", "nombre": "ALGODÓN 105, 1 al 300", "solicitante": "Piñones Jiménez Beatriz del Pilar", "region": "REGIÓN DE COQUIMBO", "provincia": "Provincia de Elqui", "comuna": null, "superficie_ha": 300.0, "datum_original": "WGS84", "huso": 19, "epsg_origen": 32719, "tipo_publicacion": "mensura", "fuente_pdf": "http://www.diariooficial.interior.gob.cl/publicaciones/2026/06/09/44470/07/2820260.pdf", "archivo": "gm_mensura_2820260.pdf", "fecha": "09-06-2026", "edicion": "44470" }, "geometry": { "type": "Polygon", "coordinates": [ [ [ -70.876790234768535, -30.015625153642837 ], [ -70.866425840144046, -30.015772595030697 ], [ -70.866933044241335, -30.042831885410948 ], [ -70.877300251385051, -30.042684284030813 ], [ -70.876790234768535, -30.015625153642837 ] ] ] } },
{ "type": "Feature", "properties": { "cve": "2820261", "nombre": "ALGODÓN 108, 1", "solicitante": "Piñones Jiménez Beatriz del Pilar", "region": "REGIÓN DE COQUIMBO", "provincia": "Provincia de Elqui", "comuna": null, "superficie_ha": 1.0, "datum_original": "WGS84", "huso": 19, "epsg_origen": 32719, "tipo_publicacion": "mensura", "fuente_pdf": "http://www.diariooficial.interior.gob.cl/publicaciones/2026/06/09/44470/07/2820261.pdf", "archivo": "gm_mensura_2820261.pdf", "fecha": "09-06-2026", "edicion": "44470" }, "geometry": { "type": "Polygon", "coordinates": [ [ [ -70.905671436805136, -30.043178378589626 ], [ -70.904634731421439, -30.043193399292267 ], [ -70.904651991900693, -30.044095353920749 ], [ -70.905688706665515, -30.044080332675254 ], [ -70.905671436805136, -30.043178378589626 ] ] ] } },
{ "type": "Feature", "properties": { "cve": "2820262", "nombre": "ALGODÓN 108, 2 al 4", "solicitante": "Piñones Jiménez Beatriz del Pilar", "region": "REGIÓN DE COQUIMBO", "provincia": "Provincia de Elqui", "comuna": null, "superficie_ha": 3.0, "datum_original": "WGS84", "huso": 19, "epsg_origen": 32719, "tipo_publicacion": "mensura", "fuente_pdf": "http://www.diariooficial.interior.gob.cl/publicaciones/2026/06/09/44470/07/2820262.pdf", "archivo": "gm_mensura_2820262.pdf", "fecha": "09-06-2026", "edicion": "44470" }, "geometry": { "type": "Polygon", "coordinates": [ [ [ -70.89934658062343, -30.0568029703538 ], [ -70.898309729513528, -30.056817947331044 ], [ -70.898361369681496, -30.059523815165093 ], [ -70.899398248955748, -30.059508836564444 ], [ -70.89934658062343, -30.0568029703538 ] ] ] } },
{ "type": "Feature", "properties": { "cve": "2820263", "nombre": "ALGODÓN 109, 1 al 110", "solicitante": "Piñones Jiménez Beatriz del Pilar", "region": "REGIÓN DE COQUIMBO", "provincia": "Provincia de Elqui", "comuna": null, "superficie_ha": 64.0, "datum_original": "WGS84", "huso": 19, "epsg_origen": 32719, "tipo_publicacion": "mensura", "fuente_pdf": "http://www.diariooficial.interior.gob.cl/publicaciones/2026/06/09/44470/07/2820263.pdf", "archivo": "gm_mensura_2820263.pdf", "fecha": "09-06-2026", "edicion": "44470" }, "geometry": { "type": "Polygon", "coordinates": [ [ [ -70.918768304430031, -30.042085714543823 ], [ -70.908401408348126, -30.042236581466653 ], [ -70.908418702284322, -30.043138534245116 ], [ -70.909455404808256, -30.04312348374442 ], [ -70.909472708909533, -30.044025435846109 ], [ -70.911546130365494, -30.043995309264584 ], [ -70.911615429672395, -30.047603111987765 ], [ -70.912652176750541, -30.047588034271556 ], [ -70.912686849883301, -30.049391933746204 ], [ -70.913723614942043, -30.04937684677445 ], [ -70.913706268599228, -30.048474897648742 ], [ -70.914743023488143, -30.048459803056669 ], [ -70.914777735727455, -30.050263700084273 ], [ -70.91788805197325, -30.050218364039068 ], [ -70.917922823666515, -30.052022257258567 ], [ -70.918959612941535, -30.052007127818165 ], [ -70.918768304430031, -30.042085714543823 ] ] ] } },
{ "type": "Feature", "properties": { "cve": "2820264", "nombre": "ALGODÓN 111, 1 al 210", "solicitante": "Piñones Jiménez Beatriz del Pilar", "region": "REGIÓN DE COQUIMBO", "provincia": "Provincia de Elqui", "comuna": null, "superficie_ha": 90.0, "datum_original": "WGS84", "huso": 19, "epsg_origen": 32719, "tipo_publicacion": "mensura", "fuente_pdf": "http://www.diariooficial.interior.gob.cl/publicaciones/2026/06/09/44470/07/2820264.pdf", "archivo": "gm_mensura_2820264.pdf", "fecha": "09-06-2026", "edicion": "44470" }, "geometry": { "type": "Polygon", "coordinates": [ [ [ -70.855708702911414, -29.996977535387213 ], [ -70.8453461220913, -29.997123234935756 ], [ -70.845446287834733, -30.002535182648469 ], [ -70.846171710280743, -30.002525007999331 ], [ -70.846422342263253, -30.016054850947366 ], [ -70.848495256763002, -30.016025742725258 ], [ -70.848244343794931, -30.002495915564072 ], [ -70.855809430352934, -30.002389451473729 ], [ -70.855708702911414, -29.996977535387213 ] ] ] } },
{ "type": "Feature", "properties": { "cve": "2820265", "nombre": "ALGODÓN 112, 1", "solicitante": "Piñones Jiménez Beatriz del Pilar", "region": "REGIÓN DE COQUIMBO", "provincia": "Provincia de Elqui", "comuna": null, "superficie_ha": 1.0, "datum_original": "WGS84", "huso": 19, "epsg_origen": 32719, "tipo_publicacion": "mensura", "fuente_pdf": "http://www.diariooficial.interior.gob.cl/publicaciones/2026/06/09/44470/07/2820265.pdf", "archivo": "gm_mensura_2820265.pdf", "fecha": "09-06-2026", "edicion": "44470" }, "geometry": { "type": "Polygon", "coordinates": [ [ [ -70.904220117458777, -30.040492789357529 ], [ -70.903183439159776, -30.040507797411585 ], [ -70.903200684628729, -30.041409753170775 ], [ -70.904237372307634, -30.041394744574287 ], [ -70.904220117458777, -30.040492789357529 ] ] ] } },
{ "type": "Feature", "properties": { "cve": "2820464", "nombre": "LIMONITA 1 AL 9", "solicitante": "Medina Granifo Manuel Filomeno", "region": "REGIÓN METROPOLITANA DE SANTIAGO", "provincia": "Provincia de Maipo", "comuna": null, "superficie_ha": 36.0, "datum_original": "WGS84", "huso": 19, "epsg_origen": 32719, "tipo_publicacion": "mensura", "fuente_pdf": "http://www.diariooficial.interior.gob.cl/publicaciones/2026/06/09/44470/07/2820464.pdf", "archivo": "gm_mensura_2820464.pdf", "fecha": "09-06-2026", "edicion": "44470" }, "geometry": { "type": "Polygon", "coordinates": [ [ [ -70.962937591466826, -33.852184851729753 ], [ -70.956455431273454, -33.852287936634895 ], [ -70.95657879676132, -33.857696251600075 ], [ -70.963061365052397, -33.857593145781024 ], [ -70.962937591466826, -33.852184851729753 ] ] ] } },
{ "type": "Feature", "properties": { "cve": "2820055", "nombre": "CANTERA LA TUNA 1 AL 20", "solicitante": "Soto Pavez Ricardo Segundo", "region": "REGIÓN DEL LIBERTADOR GENERAL BERNARDO O’HIGGINS", "provincia": "Provincia de Colchagua", "comuna": null, "superficie_ha": 100.0, "datum_original": "PSAD56", "huso": 19, "epsg_origen": 24879, "tipo_publicacion": "mensura", "fuente_pdf": "http://www.diariooficial.interior.gob.cl/publicaciones/2026/06/09/44470/07/2820055.pdf", "archivo": "gm_mensura_2820055.pdf", "fecha": "09-06-2026", "edicion": "44470" }, "geometry": { "type": "Polygon", "coordinates": [ [ [ -71.055893348059897, -34.645848140129935 ], [ -71.044988530826615, -34.646031552424972 ], [ -71.045209923175761, -34.655043679569324 ], [ -71.056115918952443, -34.654860205945091 ], [ -71.055893348059897, -34.645848140129935 ] ] ] } },
{ "type": "Feature", "properties": { "cve": "2820050", "nombre": "EL PEUMO", "solicitante": "Newen Quiñenco SpA", "region": "REGIÓN DEL BIOBÍO", "provincia": "Provincia de Concepción", "comuna": null, "superficie_ha": 100.0, "datum_original": "PSAD56", "huso": 18, "epsg_origen": 24878, "tipo_publicacion": "pedimento", "fuente_pdf": "http://www.diariooficial.interior.gob.cl/publicaciones/2026/06/09/44470/07/2820050.pdf", "archivo": "gm_pedimento_2820050.pdf", "fecha": "09-06-2026", "edicion": "44470" }, "geometry": { "type": "Polygon", "coordinates": [ [ [ -73.129937017415529, -36.981584349572017 ], [ -73.118706811175301, -36.981406875211299 ], [ -73.118484883982532, -36.990416443989531 ], [ -73.129716413108582, -36.990593976072304 ], [ -73.129937017415529, -36.981584349572017 ] ] ] } }
]
}
