{
"type": "FeatureCollection",
"name": "boletin_mineria_20260728",
"crs": { "type": "name", "properties": { "name": "urn:ogc:def:crs:OGC:1.3:CRS84" } },
"features": [
{ "type": "Feature", "properties": { "cve": "2843300", "nombre": "ANTELOPE 1, 1 AL 20", "solicitante": "Gold Hart Chile SpA", "region": "REGIÓN DE ATACAMA", "provincia": "Provincia de Copiapó", "comuna": "Tierra Amarilla", "superficie_ha": 100.0, "datum_original": "PSAD56", "huso": 19, "epsg_origen": 24879, "tipo_publicacion": "manifestacion", "fuente_pdf": "http://www.diariooficial.interior.gob.cl/publicaciones/2026/07/28/44510/07/2843300.pdf", "archivo": "gm_manifestacion_2843300.pdf", "fecha": "28-07-2026", "edicion": "44510" }, "geometry": { "type": "Polygon", "coordinates": [ [ [ -69.397951090823568, -27.843007563732687 ], [ -69.387795400599543, -27.843036470810418 ], [ -69.387827508156079, -27.852063760365009 ], [ -69.397984039168037, -27.852034842307891 ], [ -69.397951090823568, -27.843007563732687 ] ] ] } },
{ "type": "Feature", "properties": { "cve": "2843301", "nombre": "ANTELOPE 9, 1 AL 60", "solicitante": "Gold Hart Chile SpA", "region": "REGIÓN DE ATACAMA", "provincia": "Provincia de Copiapó", "comuna": "Tierra Amarilla", "superficie_ha": 300.0, "datum_original": "PSAD56", "huso": 19, "epsg_origen": 24879, "tipo_publicacion": "manifestacion", "fuente_pdf": "http://www.diariooficial.interior.gob.cl/publicaciones/2026/07/28/44510/07/2843301.pdf", "archivo": "gm_manifestacion_2843301.pdf", "fecha": "28-07-2026", "edicion": "44510" }, "geometry": { "type": "Polygon", "coordinates": [ [ [ -69.357313454709868, -27.838605043929949 ], [ -69.326847433551009, -27.838680542637199 ], [ -69.326874489998147, -27.847707898074574 ], [ -69.357343033010565, -27.847632370688494 ], [ -69.357313454709868, -27.838605043929949 ] ] ] } },
{ "type": "Feature", "properties": { "cve": "2843306", "nombre": "LA IGUANA 1 AL 100", "solicitante": "Contreras Miranda Juan Ilderino", "region": "REGIÓN DE ATACAMA", "provincia": "Provincia de Huasco", "comuna": null, "superficie_ha": 100.0, "datum_original": "WGS84", "huso": 19, "epsg_origen": 32719, "tipo_publicacion": "manifestacion", "fuente_pdf": "http://www.diariooficial.interior.gob.cl/publicaciones/2026/07/28/44510/07/2843306.pdf", "archivo": "gm_manifestacion_2843306.pdf", "fecha": "28-07-2026", "edicion": "44510" }, "geometry": { "type": "Polygon", "coordinates": [ [ [ -70.628854039424681, -28.843619345355101 ], [ -70.60835911742042, -28.843865338557862 ], [ -70.608428530914921, -28.848376641043718 ], [ -70.628924336490755, -28.848130602223364 ], [ -70.628854039424681, -28.843619345355101 ] ] ] } },
{ "type": "Feature", "properties": { "cve": "2843307", "nombre": "LA LEONA 1 AL 16", "solicitante": "Contreras Miranda Juan Ilderino", "region": "REGIÓN DE ATACAMA", "provincia": "Provincia de Huasco", "comuna": null, "superficie_ha": 16.0, "datum_original": "WGS84", "huso": 19, "epsg_origen": 32719, "tipo_publicacion": "manifestacion", "fuente_pdf": "http://www.diariooficial.interior.gob.cl/publicaciones/2026/07/28/44510/07/2843307.pdf", "archivo": "gm_manifestacion_2843307.pdf", "fecha": "28-07-2026", "edicion": "44510" }, "geometry": { "type": "Polygon", "coordinates": [ [ [ -70.513790146154804, -28.64741149262974 ], [ -70.509698609005198, -28.647457159086894 ], [ -70.509750311491757, -28.651066476053604 ], [ -70.513841988633544, -28.651020802791223 ], [ -70.513790146154804, -28.64741149262974 ] ] ] } },
{ "type": "Feature", "properties": { "cve": "2843327", "nombre": "LA MUÑECA 1 1 AL 10", "solicitante": "Pacific Mineral RYV SpA", "region": "REGIÓN DE ATACAMA", "provincia": "Provincia de Huasco", "comuna": null, "superficie_ha": 10.0, "datum_original": "PSAD56", "huso": 19, "epsg_origen": 24879, "tipo_publicacion": "manifestacion", "fuente_pdf": "http://www.diariooficial.interior.gob.cl/publicaciones/2026/07/28/44510/07/2843327.pdf", "archivo": "gm_manifestacion_2843327.pdf", "fecha": "28-07-2026", "edicion": "44510" }, "geometry": { "type": "Polygon", "coordinates": [ [ [ -70.891285833774305, -28.884187025060552 ], [ -70.890260841831946, -28.884201408788233 ], [ -70.890424263811738, -28.893222584513065 ], [ -70.891449344240712, -28.893208195455813 ], [ -70.891285833774305, -28.884187025060552 ] ] ] } },
{ "type": "Feature", "properties": { "cve": "2843609", "nombre": "MINA DARIA GLORIA 1, DEL 1 AL 24", "solicitante": "Broderick Marc Thomas", "region": "REGIÓN DE COQUIMBO", "provincia": "Provincia de Elqui", "comuna": null, "superficie_ha": 24.0, "datum_original": "PSAD56", "huso": 19, "epsg_origen": 24879, "tipo_publicacion": "manifestacion", "fuente_pdf": "http://www.diariooficial.interior.gob.cl/publicaciones/2026/07/28/44510/07/2843609.pdf", "archivo": "gm_manifestacion_2843609.pdf", "fecha": "28-07-2026", "edicion": "44510" }, "geometry": { "type": "Polygon", "coordinates": [ [ [ -70.958669111580008, -29.330314643705677 ], [ -70.952492814141053, -29.330405154344412 ], [ -70.952561571938446, -29.334013252237831 ], [ -70.958738086539654, -29.333922728316583 ], [ -70.958669111580008, -29.330314643705677 ] ] ] } },
{ "type": "Feature", "properties": { "cve": "2843612", "nombre": "MINA DARIA GLORIA 2, DEL 1 AL 24", "solicitante": "Broderick Marc Thomas", "region": "REGIÓN DE COQUIMBO", "provincia": "Provincia de Elqui", "comuna": null, "superficie_ha": 24.0, "datum_original": "PSAD56", "huso": 19, "epsg_origen": 24879, "tipo_publicacion": "manifestacion", "fuente_pdf": "http://www.diariooficial.interior.gob.cl/publicaciones/2026/07/28/44510/07/2843612.pdf", "archivo": "gm_manifestacion_2843612.pdf", "fecha": "28-07-2026", "edicion": "44510" }, "geometry": { "type": "Polygon", "coordinates": [ [ [ -70.952492814141053, -29.330405154344412 ], [ -70.946316488472704, -29.33049537948467 ], [ -70.946385029103652, -29.334103490618762 ], [ -70.952561571938446, -29.334013252237831 ], [ -70.952492814141053, -29.330405154344412 ] ] ] } },
{ "type": "Feature", "properties": { "cve": "2843610", "nombre": "MINA DARIA GLORIA 3, DEL 1 AL 18", "solicitante": "Broderick Marc Thomas", "region": "REGIÓN DE COQUIMBO", "provincia": "Provincia de Elqui", "comuna": null, "superficie_ha": 18.0, "datum_original": "PSAD56", "huso": 19, "epsg_origen": 24879, "tipo_publicacion": "manifestacion", "fuente_pdf": "http://www.diariooficial.interior.gob.cl/publicaciones/2026/07/28/44510/07/2843610.pdf", "archivo": "gm_manifestacion_2843610.pdf", "fecha": "28-07-2026", "edicion": "44510" }, "geometry": { "type": "Polygon", "coordinates": [ [ [ -70.946299355269232, -29.329593351370978 ], [ -70.943211209019978, -29.329638355226624 ], [ -70.943313857089365, -29.335050531834678 ], [ -70.946402166215805, -29.335005518072101 ], [ -70.946299355269232, -29.329593351370978 ] ] ] } },
{ "type": "Feature", "properties": { "cve": "2843611", "nombre": "MINA DARIA GLORIA 4, DEL 1 AL 25", "solicitante": "Thomas Broderick Marc", "region": "REGIÓN DE COQUIMBO", "provincia": "Provincia de Elqui", "comuna": null, "superficie_ha": 25.0, "datum_original": "PSAD56", "huso": 19, "epsg_origen": 24879, "tipo_publicacion": "manifestacion", "fuente_pdf": "http://www.diariooficial.interior.gob.cl/publicaciones/2026/07/28/44510/07/2843611.pdf", "archivo": "gm_manifestacion_2843611.pdf", "fecha": "28-07-2026", "edicion": "44510" }, "geometry": { "type": "Polygon", "coordinates": [ [ [ -70.954200340366171, -29.338951774617357 ], [ -70.94905298028182, -29.3390270677742 ], [ -70.949138808324335, -29.343537193196589 ], [ -70.954286394725429, -29.343461886230497 ], [ -70.954200340366171, -29.338951774617357 ] ] ] } },
{ "type": "Feature", "properties": { "cve": "2843729", "nombre": "HIPALLE 1", "solicitante": "González Mejías Juan Francisco", "region": "REGIÓN METROPOLITANA DE SANTIAGO", "provincia": "Provincia Cordillera", "comuna": null, "superficie_ha": 1.0, "datum_original": "PSAD56", "huso": 19, "epsg_origen": 24879, "tipo_publicacion": "manifestacion", "fuente_pdf": "http://www.diariooficial.interior.gob.cl/publicaciones/2026/07/28/44510/07/2843729.pdf", "archivo": "gm_manifestacion_2843729.pdf", "fecha": "28-07-2026", "edicion": "44510" }, "geometry": { "type": "Polygon", "coordinates": [ [ [ -70.525191923548206, -33.711910725215553 ], [ -70.524113081352823, -33.711924042999158 ], [ -70.524129011812889, -33.712825650879111 ], [ -70.525207865273998, -33.712812332644184 ], [ -70.525191923548206, -33.711910725215553 ] ] ] } },
{ "type": "Feature", "properties": { "cve": "2843296", "nombre": "AMPARITO DOS 1 AL 20", "solicitante": "Gómez Navarro Raúl Alejandro", "region": "REGIÓN METROPOLITANA DE SANTIAGO", "provincia": "Provincia de Melipilla", "comuna": null, "superficie_ha": 100.0, "datum_original": "WGS84", "huso": 19, "epsg_origen": 32719, "tipo_publicacion": "manifestacion", "fuente_pdf": "http://www.diariooficial.interior.gob.cl/publicaciones/2026/07/28/44510/07/2843296.pdf", "archivo": "gm_manifestacion_2843296.pdf", "fecha": "28-07-2026", "edicion": "44510" }, "geometry": { "type": "Polygon", "coordinates": [ [ [ -71.030960333600945, -33.833499407051612 ], [ -71.020159513264886, -33.833676901543654 ], [ -71.020371684588511, -33.842690435124979 ], [ -71.031173637406184, -33.842512880599536 ], [ -71.030960333600945, -33.833499407051612 ] ] ] } },
{ "type": "Feature", "properties": { "cve": "2843295", "nombre": "AMPARITO UNO 1 AL 20", "solicitante": "Gómez Navarro Raúl Alejandro", "region": "REGIÓN METROPOLITANA DE SANTIAGO", "provincia": "Provincia de Melipilla", "comuna": null, "superficie_ha": 100.0, "datum_original": "WGS84", "huso": 19, "epsg_origen": 32719, "tipo_publicacion": "manifestacion", "fuente_pdf": "http://www.diariooficial.interior.gob.cl/publicaciones/2026/07/28/44510/07/2843295.pdf", "archivo": "gm_manifestacion_2843295.pdf", "fecha": "28-07-2026", "edicion": "44510" }, "geometry": { "type": "Polygon", "coordinates": [ [ [ -71.051921758621447, -33.834847423653265 ], [ -71.041120909548255, -33.83502676042842 ], [ -71.041335292370903, -33.844040174728562 ], [ -71.052137273942094, -33.8438607772989 ], [ -71.051921758621447, -33.834847423653265 ] ] ] } },
{ "type": "Feature", "properties": { "cve": "2843604", "nombre": "EL LITRE 1 AL 3", "solicitante": "Zúñiga Adrián Agustín Demetrio", "region": "REGIÓN METROPOLITANA DE SANTIAGO", "provincia": "Provincia de Melipilla", "comuna": null, "superficie_ha": 9.0, "datum_original": "PSAD56", "huso": 19, "epsg_origen": 24879, "tipo_publicacion": "manifestacion", "fuente_pdf": "http://www.diariooficial.interior.gob.cl/publicaciones/2026/07/28/44510/07/2843604.pdf", "archivo": "gm_manifestacion_2843604.pdf", "fecha": "28-07-2026", "edicion": "44510" }, "geometry": { "type": "Polygon", "coordinates": [ [ [ -71.127596892130882, -33.766255337310788 ], [ -71.124359409918114, -33.766311120891721 ], [ -71.124426155604866, -33.769015014829698 ], [ -71.127663739349813, -33.768959225583558 ], [ -71.127596892130882, -33.766255337310788 ] ] ] } },
{ "type": "Feature", "properties": { "cve": "2843644", "nombre": "Santa Marta 1 del 1 al 200", "solicitante": "Consorcio Santa Marta S.A.", "region": "REGIÓN METROPOLITANA DE SANTIAGO", "provincia": "Provincia de Talagante", "comuna": null, "superficie_ha": 200.0, "datum_original": "PSAD56", "huso": 19, "epsg_origen": 24879, "tipo_publicacion": "manifestacion", "fuente_pdf": "http://www.diariooficial.interior.gob.cl/publicaciones/2026/07/28/44510/07/2843644.pdf", "archivo": "gm_manifestacion_2843644.pdf", "fecha": "28-07-2026", "edicion": "44510" }, "geometry": { "type": "Polygon", "coordinates": [ [ [ -70.819656456177313, -33.678300669026591 ], [ -70.808873817914503, -33.678458998513264 ], [ -70.809251619183385, -33.69648861205701 ], [ -70.820036506486062, -33.696330175195293 ], [ -70.819656456177313, -33.678300669026591 ] ] ] } },
{ "type": "Feature", "properties": { "cve": "2843741", "nombre": "RECUPERADA I 1 AL 7", "solicitante": "Espinoza Namasay Liliana Karina", "region": "REGIÓN DE ATACAMA", "provincia": "Provincia de Copiapó", "comuna": null, "superficie_ha": 28.0, "datum_original": "PSAD56", "huso": 19, "epsg_origen": 24879, "tipo_publicacion": "mensura", "fuente_pdf": "http://www.diariooficial.interior.gob.cl/publicaciones/2026/07/28/44510/07/2843741.pdf", "archivo": "gm_mensura_2843741.pdf", "fecha": "28-07-2026", "edicion": "44510" }, "geometry": { "type": "Polygon", "coordinates": [ [ [ -70.338986387809442, -27.422776078468932 ], [ -70.334940606703739, -27.422814878918839 ], [ -70.335016596523218, -27.429132791884168 ], [ -70.339062607762472, -27.429093981014123 ], [ -70.338986387809442, -27.422776078468932 ] ] ] } },
{ "type": "Feature", "properties": { "cve": "2843372", "nombre": "ARENOSA V", "solicitante": "Ghiglino Saltori Sergio", "region": "REGIÓN DE ATACAMA", "provincia": "Provincia de Copiapó", "comuna": null, "superficie_ha": 200.0, "datum_original": "PSAD56", "huso": 19, "epsg_origen": 24879, "tipo_publicacion": "pedimento", "fuente_pdf": "http://www.diariooficial.interior.gob.cl/publicaciones/2026/07/28/44510/07/2843372.pdf", "archivo": "gm_pedimento_2843372.pdf", "fecha": "28-07-2026", "edicion": "44510" }, "geometry": { "type": "Polygon", "coordinates": [ [ [ -70.52318397645189, -27.111279861797218 ], [ -70.513098467618804, -27.111388854250389 ], [ -70.513341365248365, -27.129439426918413 ], [ -70.523428491586586, -27.12933035017279 ], [ -70.52318397645189, -27.111279861797218 ] ] ] } },
{ "type": "Feature", "properties": { "cve": "2843373", "nombre": "ARENOSA VI", "solicitante": "Ghiglino Saltori Sergio", "region": "REGIÓN DE ATACAMA", "provincia": "Provincia de Copiapó", "comuna": null, "superficie_ha": 200.0, "datum_original": "PSAD56", "huso": 19, "epsg_origen": 24879, "tipo_publicacion": "pedimento", "fuente_pdf": "http://www.diariooficial.interior.gob.cl/publicaciones/2026/07/28/44510/07/2843373.pdf", "archivo": "gm_pedimento_2843373.pdf", "fecha": "28-07-2026", "edicion": "44510" }, "geometry": { "type": "Polygon", "coordinates": [ [ [ -70.543354822122964, -27.111059706424271 ], [ -70.52318397645189, -27.111279861797218 ], [ -70.523306205406428, -27.120305112086939 ], [ -70.543478668144942, -27.120084871589157 ], [ -70.543354822122964, -27.111059706424271 ] ] ] } },
{ "type": "Feature", "properties": { "cve": "2843311", "nombre": "NICANOR III 1", "solicitante": "Hasbún Ozzano Esteban", "region": "REGIÓN DE ATACAMA", "provincia": "Provincia de Copiapó", "comuna": "Copiapó", "superficie_ha": 100.0, "datum_original": "PSAD56", "huso": 19, "epsg_origen": 24879, "tipo_publicacion": "pedimento", "fuente_pdf": "http://www.diariooficial.interior.gob.cl/publicaciones/2026/07/28/44510/07/2843311.pdf", "archivo": "gm_pedimento_2843311.pdf", "fecha": "28-07-2026", "edicion": "44510" }, "geometry": { "type": "Polygon", "coordinates": [ [ [ -70.770945241310798, -27.97210707728107 ], [ -70.760782092724753, -27.972237539428722 ], [ -70.76092865121494, -27.981260585798054 ], [ -70.771092644654672, -27.981130074274997 ], [ -70.770945241310798, -27.97210707728107 ] ] ] } },
{ "type": "Feature", "properties": { "cve": "2843312", "nombre": "NICANOR III 2", "solicitante": "Hasbún Ozzano Esteban", "region": "REGIÓN DE ATACAMA", "provincia": "Provincia de Copiapó", "comuna": "Copiapó", "superficie_ha": 100.0, "datum_original": "PSAD56", "huso": 19, "epsg_origen": 24879, "tipo_publicacion": "pedimento", "fuente_pdf": "http://www.diariooficial.interior.gob.cl/publicaciones/2026/07/28/44510/07/2843312.pdf", "archivo": "gm_pedimento_2843312.pdf", "fecha": "28-07-2026", "edicion": "44510" }, "geometry": { "type": "Polygon", "coordinates": [ [ [ -70.760782092724753, -27.972237539428722 ], [ -70.750618876305879, -27.972367251504661 ], [ -70.75076458991829, -27.981390346965629 ], [ -70.76092865121494, -27.981260585798054 ], [ -70.760782092724753, -27.972237539428722 ] ] ] } },
{ "type": "Feature", "properties": { "cve": "2843313", "nombre": "NICANOR III 3", "solicitante": "Hasbún Ozzano Esteban", "region": "REGIÓN DE ATACAMA", "provincia": "Provincia de Copiapó", "comuna": "Copiapó", "superficie_ha": 100.0, "datum_original": "PSAD56", "huso": 19, "epsg_origen": 24879, "tipo_publicacion": "pedimento", "fuente_pdf": "http://www.diariooficial.interior.gob.cl/publicaciones/2026/07/28/44510/07/2843313.pdf", "archivo": "gm_pedimento_2843313.pdf", "fecha": "28-07-2026", "edicion": "44510" }, "geometry": { "type": "Polygon", "coordinates": [ [ [ -70.772126380365918, -28.044290698868604 ], [ -70.761956461997372, -28.044421556243933 ], [ -70.762103564020506, -28.053444501395969 ], [ -70.772274330373847, -28.053313594581052 ], [ -70.772126380365918, -28.044290698868604 ] ] ] } },
{ "type": "Feature", "properties": { "cve": "2843740", "nombre": "SAN MARCO", "solicitante": "Aguirre Fuentes Eduardo Omar", "region": "REGIÓN DE ATACAMA", "provincia": "Provincia de Copiapó", "comuna": null, "superficie_ha": 200.0, "datum_original": "PSAD56", "huso": 19, "epsg_origen": 24879, "tipo_publicacion": "pedimento", "fuente_pdf": "http://www.diariooficial.interior.gob.cl/publicaciones/2026/07/28/44510/07/2843740.pdf", "archivo": "gm_pedimento_2843740.pdf", "fecha": "28-07-2026", "edicion": "44510" }, "geometry": { "type": "Polygon", "coordinates": [ [ [ -70.377629133206057, -27.414726999766756 ], [ -70.367515560057001, -27.414826557198943 ], [ -70.367737962440714, -27.432877499000121 ], [ -70.377853179121175, -27.432777865154865 ], [ -70.377629133206057, -27.414726999766756 ] ] ] } },
{ "type": "Feature", "properties": { "cve": "2843319", "nombre": "SAN PIETRO 52 N", "solicitante": "New Golden Explorations Chile SpA", "region": "REGIÓN DE ATACAMA", "provincia": "Provincia de Chañaral", "comuna": "Diego de Almagro", "superficie_ha": 100.0, "datum_original": "PSAD56", "huso": 19, "epsg_origen": 24879, "tipo_publicacion": "pedimento", "fuente_pdf": "http://www.diariooficial.interior.gob.cl/publicaciones/2026/07/28/44510/07/2843319.pdf", "archivo": "gm_pedimento_2843319.pdf", "fecha": "28-07-2026", "edicion": "44510" }, "geometry": { "type": "Polygon", "coordinates": [ [ [ -70.074635552506919, -26.399509626853977 ], [ -70.064610891709563, -26.399584561158552 ], [ -70.06469373023792, -26.408612363866727 ], [ -70.074719170700789, -26.408537400037659 ], [ -70.074635552506919, -26.399509626853977 ] ] ] } },
{ "type": "Feature", "properties": { "cve": "2843406", "nombre": "MARIA PAZ", "solicitante": "Exploraciones Huasco SpA", "region": "REGIÓN DE ATACAMA", "provincia": "Provincia de Huasco", "comuna": null, "superficie_ha": 200.0, "datum_original": "WGS84", "huso": 19, "epsg_origen": 32719, "tipo_publicacion": "pedimento", "fuente_pdf": "http://www.diariooficial.interior.gob.cl/publicaciones/2026/07/28/44510/07/2843406.pdf", "archivo": "gm_pedimento_2843406.pdf", "fecha": "28-07-2026", "edicion": "44510" }, "geometry": { "type": "Polygon", "coordinates": [ [ [ -71.132882312070748, -28.88395896728936 ], [ -71.112385381274237, -28.884281941956118 ], [ -71.112568021595209, -28.893301901525732 ], [ -71.133066721329882, -28.892978807210273 ], [ -71.132882312070748, -28.88395896728936 ] ] ] } },
{ "type": "Feature", "properties": { "cve": "2843787", "nombre": "CARMEN", "solicitante": "Ariztía Tagle José Ricardo", "region": "REGIÓN METROPOLITANA DE SANTIAGO", "provincia": "Provincia de Talagante", "comuna": null, "superficie_ha": 200.0, "datum_original": "PSAD56", "huso": 19, "epsg_origen": 24879, "tipo_publicacion": "pedimento", "fuente_pdf": "http://www.diariooficial.interior.gob.cl/publicaciones/2026/07/28/44510/07/2843787.pdf", "archivo": "gm_pedimento_2843787.pdf", "fecha": "28-07-2026", "edicion": "44510" }, "geometry": { "type": "Polygon", "coordinates": [ [ [ -70.932707597414762, -33.669370108569673 ], [ -70.911145853335682, -33.669705474629232 ], [ -70.911345320064626, -33.678719777113905 ], [ -70.932909311151391, -33.678384297339598 ], [ -70.932707597414762, -33.669370108569673 ] ] ] } }
]
}
