{
"type": "FeatureCollection",
"name": "boletin_mineria_20260929",
"crs": { "type": "name", "properties": { "name": "urn:ogc:def:crs:OGC:1.3:CRS84" } },
"features": [
{ "type": "Feature", "properties": { "cve": "2877462", "nombre": "ASU 1, 1 AL 300", "solicitante": "Inversiones e Inmobiliaria Santa Inés Limitada", "region": "REGIÓN DE COQUIMBO", "provincia": "Provincia de Elqui", "comuna": "Andacollo", "superficie_ha": 300.0, "datum_original": "PSAD56", "huso": 19, "epsg_origen": 24879, "tipo_publicacion": "manifestacion", "fuente_pdf": "http://www.diariooficial.interior.gob.cl/publicaciones/2026/09/29/44561/07/2877462.pdf", "archivo": "gm_manifestacion_2877462.pdf", "fecha": "29-09-2026", "edicion": "44561" }, "geometry": { "type": "Polygon", "coordinates": [ [ [ -71.120588572279431, -30.177690422833479 ], [ -71.110208827045724, -30.177857852891385 ], [ -71.110785929734348, -30.204912389065271 ], [ -71.121168508458837, -30.204744777942437 ], [ -71.120588572279431, -30.177690422833479 ] ] ] } },
{ "type": "Feature", "properties": { "cve": "2877463", "nombre": "ASU 2, 1 AL 200", "solicitante": "Inversiones e Inmobiliaria Santa Inés Limitada", "region": "REGIÓN DE COQUIMBO", "provincia": "Provincia de Elqui", "comuna": "Andacollo", "superficie_ha": 200.0, "datum_original": "PSAD56", "huso": 19, "epsg_origen": 24879, "tipo_publicacion": "manifestacion", "fuente_pdf": "http://www.diariooficial.interior.gob.cl/publicaciones/2026/09/29/44561/07/2877463.pdf", "archivo": "gm_manifestacion_2877463.pdf", "fecha": "29-09-2026", "edicion": "44561" }, "geometry": { "type": "Polygon", "coordinates": [ [ [ -71.110304956396746, -30.182366950764557 ], [ -71.09992465211522, -30.18253359050113 ], [ -71.100307498167012, -30.200570068070434 ], [ -71.110689691508668, -30.200403308214959 ], [ -71.110304956396746, -30.182366950764557 ] ] ] } },
{ "type": "Feature", "properties": { "cve": "2877464", "nombre": "ASU 3, 1 AL 150", "solicitante": "Inversiones e Inmobiliaria Santa Inés Limitada", "region": "REGIÓN DE COQUIMBO", "provincia": "Provincia de Elqui", "comuna": "Andacollo", "superficie_ha": 150.0, "datum_original": "PSAD56", "huso": 19, "epsg_origen": 24879, "tipo_publicacion": "manifestacion", "fuente_pdf": "http://www.diariooficial.interior.gob.cl/publicaciones/2026/09/29/44561/07/2877464.pdf", "archivo": "gm_manifestacion_2877464.pdf", "fecha": "29-09-2026", "edicion": "44561" }, "geometry": { "type": "Polygon", "coordinates": [ [ [ -71.121023450556123, -30.197981200665296 ], [ -71.110641580564788, -30.198148766512816 ], [ -71.110930327925516, -30.211676003955048 ], [ -71.121313615623563, -30.211508347550875 ], [ -71.121023450556123, -30.197981200665296 ] ] ] } },
{ "type": "Feature", "properties": { "cve": "2877465", "nombre": "ASU 4, 1 AL 126", "solicitante": "Inversiones e Inmobiliaria Santa Inés Limitada", "region": "REGIÓN DE COQUIMBO", "provincia": "Provincia de Elqui", "comuna": "Andacollo", "superficie_ha": 126.0, "datum_original": "PSAD56", "huso": 19, "epsg_origen": 24879, "tipo_publicacion": "manifestacion", "fuente_pdf": "http://www.diariooficial.interior.gob.cl/publicaciones/2026/09/29/44561/07/2877465.pdf", "archivo": "gm_manifestacion_2877465.pdf", "fecha": "29-09-2026", "edicion": "44561" }, "geometry": { "type": "Polygon", "coordinates": [ [ [ -71.110631959029476, -30.197697858070246 ], [ -71.101288244051503, -30.197847962667101 ], [ -71.101556538527362, -30.210473461899415 ], [ -71.110901444364885, -30.210323281590149 ], [ -71.110631959029476, -30.197697858070246 ] ] ] } },
{ "type": "Feature", "properties": { "cve": "2877466", "nombre": "ASU 5, 1 AL 9", "solicitante": "Inversiones e Inmobiliaria Santa Inés Limitada", "region": "REGIÓN DE COQUIMBO", "provincia": "Provincia de Elqui", "comuna": "Andacollo", "superficie_ha": 9.0, "datum_original": "PSAD56", "huso": 19, "epsg_origen": 24879, "tipo_publicacion": "manifestacion", "fuente_pdf": "http://www.diariooficial.interior.gob.cl/publicaciones/2026/09/29/44561/07/2877466.pdf", "archivo": "gm_manifestacion_2877466.pdf", "fecha": "29-09-2026", "edicion": "44561" }, "geometry": { "type": "Polygon", "coordinates": [ [ [ -71.099010942478898, -30.188412074419812 ], [ -71.095896647551783, -30.188461893392475 ], [ -71.095953955921658, -30.191167373026509 ], [ -71.099068335851044, -30.191117548668629 ], [ -71.099010942478898, -30.188412074419812 ] ] ] } },
{ "type": "Feature", "properties": { "cve": "2877467", "nombre": "ASU 5, 10 AL 25", "solicitante": "Inversiones e Inmobiliaria Santa Inés Limitada", "region": "REGIÓN DE COQUIMBO", "provincia": "Provincia de Elqui", "comuna": "Andacollo", "superficie_ha": 16.0, "datum_original": "PSAD56", "huso": 19, "epsg_origen": 24879, "tipo_publicacion": "manifestacion", "fuente_pdf": "http://www.diariooficial.interior.gob.cl/publicaciones/2026/09/29/44561/07/2877467.pdf", "archivo": "gm_manifestacion_2877467.pdf", "fecha": "29-09-2026", "edicion": "44561" }, "geometry": { "type": "Polygon", "coordinates": [ [ [ -71.100173462611394, -30.194257307112764 ], [ -71.096020825525954, -30.194323764385491 ], [ -71.096097260907669, -30.197931066755146 ], [ -71.100250049155775, -30.197864599905149 ], [ -71.100173462611394, -30.194257307112764 ] ] ] } },
{ "type": "Feature", "properties": { "cve": "2877249", "nombre": "SANTA MARIA DOS DEL 1 AL 1", "solicitante": "Ramos Santa María Wilson Alejandro", "region": "REGIÓN DE COQUIMBO", "provincia": "Provincia de Elqui", "comuna": null, "superficie_ha": 1.0, "datum_original": "PSAD56", "huso": 19, "epsg_origen": 24879, "tipo_publicacion": "manifestacion", "fuente_pdf": "http://www.diariooficial.interior.gob.cl/publicaciones/2026/09/29/44561/07/2877249.pdf", "archivo": "gm_manifestacion_2877249.pdf", "fecha": "29-09-2026", "edicion": "44561" }, "geometry": { "type": "Polygon", "coordinates": [ [ [ -71.200676532373564, -30.188549313330608 ], [ -71.199638502872631, -30.188566732475444 ], [ -71.199658549932948, -30.18946849767697 ], [ -71.200696588875644, -30.189451077904561 ], [ -71.200676532373564, -30.188549313330608 ] ] ] } },
{ "type": "Feature", "properties": { "cve": "2877248", "nombre": "SANTA MARIA UNO DEL 1 AL 1", "solicitante": "Ramos Santa María Wilson Alejandro", "region": "REGIÓN DE COQUIMBO", "provincia": "Provincia de Elqui", "comuna": null, "superficie_ha": 1.0, "datum_original": "PSAD56", "huso": 19, "epsg_origen": 24879, "tipo_publicacion": "manifestacion", "fuente_pdf": "http://www.diariooficial.interior.gob.cl/publicaciones/2026/09/29/44561/07/2877248.pdf", "archivo": "gm_manifestacion_2877248.pdf", "fecha": "29-09-2026", "edicion": "44561" }, "geometry": { "type": "Polygon", "coordinates": [ [ [ -71.201195546783524, -30.188540600681232 ], [ -71.200157517736571, -30.188558023928682 ], [ -71.200177569517777, -30.189459788816464 ], [ -71.201215608006493, -30.189442364941264 ], [ -71.201195546783524, -30.188540600681232 ] ] ] } },
{ "type": "Feature", "properties": { "cve": "2877301", "nombre": "ESCALONES NORTE 1", "solicitante": "Culpeo Mining Chile SpA", "region": "REGIÓN METROPOLITANA DE SANTIAGO", "provincia": "Provincia Cordillera", "comuna": null, "superficie_ha": 300.0, "datum_original": "PSAD56", "huso": 19, "epsg_origen": 24879, "tipo_publicacion": "pedimento", "fuente_pdf": "http://www.diariooficial.interior.gob.cl/publicaciones/2026/09/29/44561/07/2877301.pdf", "archivo": "gm_pedimento_2877301.pdf", "fecha": "29-09-2026", "edicion": "44561" }, "geometry": { "type": "Polygon", "coordinates": [ [ [ -69.97121428767349, -34.007140329360851 ], [ -69.93873040795701, -34.007392514858331 ], [ -69.938829651987319, -34.016410138090407 ], [ -69.971316964655884, -34.016157867469005 ], [ -69.97121428767349, -34.007140329360851 ] ] ] } },
{ "type": "Feature", "properties": { "cve": "2877302", "nombre": "ESCALONES NORTE 3", "solicitante": "Culpeo Mining Chile SpA", "region": "REGIÓN METROPOLITANA DE SANTIAGO", "provincia": "Provincia Cordillera", "comuna": null, "superficie_ha": 200.0, "datum_original": "PSAD56", "huso": 19, "epsg_origen": 24879, "tipo_publicacion": "pedimento", "fuente_pdf": "http://www.diariooficial.interior.gob.cl/publicaciones/2026/09/29/44561/07/2877302.pdf", "archivo": "gm_pedimento_2877302.pdf", "fecha": "29-09-2026", "edicion": "44561" }, "geometry": { "type": "Polygon", "coordinates": [ [ [ -69.98204215696218, -34.007054361817708 ], [ -69.97121428767349, -34.007140329360851 ], [ -69.97141968730547, -34.02517539196343 ], [ -69.982249845660249, -34.025089366378651 ], [ -69.98204215696218, -34.007054361817708 ] ] ] } },
{ "type": "Feature", "properties": { "cve": "2877303", "nombre": "ESCALONES NORTE 5", "solicitante": "Culpeo Mining Chile SpA", "region": "REGIÓN METROPOLITANA DE SANTIAGO", "provincia": "Provincia Cordillera", "comuna": null, "superficie_ha": 300.0, "datum_original": "PSAD56", "huso": 19, "epsg_origen": 24879, "tipo_publicacion": "pedimento", "fuente_pdf": "http://www.diariooficial.interior.gob.cl/publicaciones/2026/09/29/44561/07/2877303.pdf", "archivo": "gm_pedimento_2877303.pdf", "fecha": "29-09-2026", "edicion": "44561" }, "geometry": { "type": "Polygon", "coordinates": [ [ [ -69.884683254847744, -34.016811524810358 ], [ -69.852194913339176, -34.017040917702211 ], [ -69.85228504208709, -34.026058740229224 ], [ -69.884776818513686, -34.025829269915874 ], [ -69.884683254847744, -34.016811524810358 ] ] ] } },
{ "type": "Feature", "properties": { "cve": "2877186", "nombre": "ECLIPSE 1", "solicitante": "Herrera Arellano David Ivanov", "region": "REGIÓN DEL MAULE", "provincia": "Provincia de Talca", "comuna": null, "superficie_ha": 300.0, "datum_original": "WGS84", "huso": 19, "epsg_origen": 32719, "tipo_publicacion": "pedimento", "fuente_pdf": "http://www.diariooficial.interior.gob.cl/publicaciones/2026/09/29/44561/07/2877186.pdf", "archivo": "gm_pedimento_2877186.pdf", "fecha": "29-09-2026", "edicion": "44561" }, "geometry": { "type": "Polygon", "coordinates": [ [ [ -70.459903867128716, -35.62646101323314 ], [ -70.44886389289185, -35.626594317456814 ], [ -70.449352179190129, -35.653635096662896 ], [ -70.460395870833665, -35.653501660319542 ], [ -70.459903867128716, -35.62646101323314 ] ] ] } },
{ "type": "Feature", "properties": { "cve": "2877188", "nombre": "ECLIPSE 14", "solicitante": "Herrera Arellano David Ivanov", "region": "REGIÓN DEL MAULE", "provincia": "Provincia de Talca", "comuna": null, "superficie_ha": 100.0, "datum_original": "WGS84", "huso": 19, "epsg_origen": 32719, "tipo_publicacion": "pedimento", "fuente_pdf": "http://www.diariooficial.interior.gob.cl/publicaciones/2026/09/29/44561/07/2877188.pdf", "archivo": "gm_pedimento_2877188.pdf", "fecha": "29-09-2026", "edicion": "44561" }, "geometry": { "type": "Polygon", "coordinates": [ [ [ -70.423631519950675, -35.635910786658506 ], [ -70.412590070787189, -35.636040796590599 ], [ -70.412748743501027, -35.64505453262214 ], [ -70.423791431905613, -35.644924479752213 ], [ -70.423631519950675, -35.635910786658506 ] ] ] } },
{ "type": "Feature", "properties": { "cve": "2877187", "nombre": "ECLIPSE 8", "solicitante": "Herrera Arellano David Ivanov", "region": "REGIÓN DEL MAULE", "provincia": "Provincia de Talca", "comuna": null, "superficie_ha": 300.0, "datum_original": "WGS84", "huso": 19, "epsg_origen": 32719, "tipo_publicacion": "pedimento", "fuente_pdf": "http://www.diariooficial.interior.gob.cl/publicaciones/2026/09/29/44561/07/2877187.pdf", "archivo": "gm_pedimento_2877187.pdf", "fecha": "29-09-2026", "edicion": "44561" }, "geometry": { "type": "Polygon", "coordinates": [ [ [ -70.461664506943691, -35.662501777269725 ], [ -70.428529516444002, -35.662899484465299 ], [ -70.42869013789597, -35.671913117850799 ], [ -70.461828850840917, -35.671515279350238 ], [ -70.461664506943691, -35.662501777269725 ] ] ] } },
{ "type": "Feature", "properties": { "cve": "2877260", "nombre": "LOLENCO 1", "solicitante": "Consorcio Cosemar & Wiliam Ives S.A.", "region": "REGIÓN DE LA ARAUCANÍA", "provincia": "Provincia de Malleco", "comuna": null, "superficie_ha": 200.0, "datum_original": "PSAD56", "huso": 18, "epsg_origen": 24878, "tipo_publicacion": "pedimento", "fuente_pdf": "http://www.diariooficial.interior.gob.cl/publicaciones/2026/09/29/44561/07/2877260.pdf", "archivo": "gm_pedimento_2877260.pdf", "fecha": "29-09-2026", "edicion": "44561" }, "geometry": { "type": "Polygon", "coordinates": [ [ [ -72.526893476456351, -37.899819870270683 ], [ -72.51552977746671, -37.899580438072533 ], [ -72.514923803108005, -37.917589487849853 ], [ -72.526290266852357, -37.917829074367333 ], [ -72.526893476456351, -37.899819870270683 ] ] ] } },
{ "type": "Feature", "properties": { "cve": "2877261", "nombre": "LOLENCO 2", "solicitante": "Consorcio Cosemar & Wiliam Ives S.A.", "region": "REGIÓN DE LA ARAUCANÍA", "provincia": "Provincia de Malleco", "comuna": null, "superficie_ha": 100.0, "datum_original": "PSAD56", "huso": 18, "epsg_origen": 24878, "tipo_publicacion": "pedimento", "fuente_pdf": "http://www.diariooficial.interior.gob.cl/publicaciones/2026/09/29/44561/07/2877261.pdf", "archivo": "gm_pedimento_2877261.pdf", "fecha": "29-09-2026", "edicion": "44561" }, "geometry": { "type": "Polygon", "coordinates": [ [ [ -72.515226857787013, -37.908584970945732 ], [ -72.503861911726915, -37.908344365572226 ], [ -72.503557474427325, -37.917348804954777 ], [ -72.514923803108005, -37.917589487849853 ], [ -72.515226857787013, -37.908584970945732 ] ] ] } }
]
}
