{
"type": "FeatureCollection",
"name": "boletin_mineria_20260901",
"crs": { "type": "name", "properties": { "name": "urn:ogc:def:crs:OGC:1.3:CRS84" } },
"features": [
{ "type": "Feature", "properties": { "cve": "2862678", "nombre": "RESERVA II 1 AL 45", "solicitante": "Smoje Ticó Sergio Óscar", "region": "REGIÓN DE ATACAMA", "provincia": "Provincia de Copiapó", "comuna": "Caldera", "superficie_ha": 45.0, "datum_original": "PSAD56", "huso": 19, "epsg_origen": 24879, "tipo_publicacion": "manifestacion", "fuente_pdf": "http://www.diariooficial.interior.gob.cl/publicaciones/2026/09/01/44539/07/2862678.pdf", "archivo": "gm_manifestacion_2862678.pdf", "fecha": "01-09-2026", "edicion": "44539" }, "geometry": { "type": "Polygon", "coordinates": [ [ [ -70.309381327751836, -26.941467686017983 ], [ -70.300317173949693, -26.941551513598174 ], [ -70.300368961923695, -26.946064684395544 ], [ -70.309433476475036, -26.945980840537317 ], [ -70.309381327751836, -26.941467686017983 ] ] ] } },
{ "type": "Feature", "properties": { "cve": "2862844", "nombre": "NUEVA HUALTATA 1, 1 AL 100", "solicitante": "Briceño Díaz Andrés Hernán", "region": "REGIÓN DE ATACAMA", "provincia": "Provincia de Huasco", "comuna": null, "superficie_ha": 100.0, "datum_original": "PSAD56", "huso": 19, "epsg_origen": 24879, "tipo_publicacion": "manifestacion", "fuente_pdf": "http://www.diariooficial.interior.gob.cl/publicaciones/2026/09/01/44539/07/2862844.pdf", "archivo": "gm_manifestacion_2862844.pdf", "fecha": "01-09-2026", "edicion": "44539" }, "geometry": { "type": "Polygon", "coordinates": [ [ [ -71.164246892671329, -28.207954939926857 ], [ -71.154063914037877, -28.208115675762997 ], [ -71.154244977010606, -28.217136284338849 ], [ -71.16442880996388, -28.216975488023913 ], [ -71.164246892671329, -28.207954939926857 ] ] ] } },
{ "type": "Feature", "properties": { "cve": "2862845", "nombre": "NUEVA HUALTATA 2, 1 AL 100", "solicitante": "Briceño Díaz Andrés Hernán", "region": "REGIÓN DE ATACAMA", "provincia": "Provincia de Huasco", "comuna": null, "superficie_ha": 100.0, "datum_original": "PSAD56", "huso": 19, "epsg_origen": 24879, "tipo_publicacion": "manifestacion", "fuente_pdf": "http://www.diariooficial.interior.gob.cl/publicaciones/2026/09/01/44539/07/2862845.pdf", "archivo": "gm_manifestacion_2862845.pdf", "fecha": "01-09-2026", "edicion": "44539" }, "geometry": { "type": "Polygon", "coordinates": [ [ [ -71.143844965959318, -28.204489053639172 ], [ -71.13366217940586, -28.204648253503269 ], [ -71.133841502242035, -28.213668987423034 ], [ -71.144025143009529, -28.213509727652358 ], [ -71.143844965959318, -28.204489053639172 ] ] ] } },
{ "type": "Feature", "properties": { "cve": "2862643", "nombre": "MINA VENTANAS 1 AL 70", "solicitante": "Cortés Alfaro Roberto Carlos", "region": "REGIÓN DE COQUIMBO", "provincia": "Provincia de Elqui", "comuna": null, "superficie_ha": 70.0, "datum_original": "PSAD56", "huso": 19, "epsg_origen": 24879, "tipo_publicacion": "manifestacion", "fuente_pdf": "http://www.diariooficial.interior.gob.cl/publicaciones/2026/09/01/44539/07/2862643.pdf", "archivo": "gm_manifestacion_2862643.pdf", "fecha": "01-09-2026", "edicion": "44539" }, "geometry": { "type": "Polygon", "coordinates": [ [ [ -70.903909416563792, -30.13049252715502 ], [ -70.896646096124641, -30.130597665709981 ], [ -70.896818596876059, -30.139617103934842 ], [ -70.904082576946152, -30.13951192744511 ], [ -70.903909416563792, -30.13049252715502 ] ] ] } },
{ "type": "Feature", "properties": { "cve": "2862874", "nombre": "SOLITARIA 1/9", "solicitante": "Barrera Carvajal Francisco Herman", "region": "REGIÓN DE COQUIMBO", "provincia": "Provincia de Elqui", "comuna": "La Higuera", "superficie_ha": 90.0, "datum_original": "PSAD56", "huso": 19, "epsg_origen": 24879, "tipo_publicacion": "manifestacion", "fuente_pdf": "http://www.diariooficial.interior.gob.cl/publicaciones/2026/09/01/44539/07/2862874.pdf", "archivo": "gm_manifestacion_2862874.pdf", "fecha": "01-09-2026", "edicion": "44539" }, "geometry": { "type": "Polygon", "coordinates": [ [ [ -71.167660033018464, -29.42632623017137 ], [ -71.158388097330956, -29.426476837041999 ], [ -71.158578882433744, -29.435495778983359 ], [ -71.167851636128461, -29.435345116977 ], [ -71.167660033018464, -29.42632623017137 ] ] ] } },
{ "type": "Feature", "properties": { "cve": "2862875", "nombre": "SRA DIAMANTINA 1/4", "solicitante": "Contreras Díaz José Luis", "region": "REGIÓN DE COQUIMBO", "provincia": "Provincia de Elqui", "comuna": "La Serena", "superficie_ha": 16.0, "datum_original": "PSAD56", "huso": 19, "epsg_origen": 24879, "tipo_publicacion": "manifestacion", "fuente_pdf": "http://www.diariooficial.interior.gob.cl/publicaciones/2026/09/01/44539/07/2862875.pdf", "archivo": "gm_manifestacion_2862875.pdf", "fecha": "01-09-2026", "edicion": "44539" }, "geometry": { "type": "Polygon", "coordinates": [ [ [ -71.015535103053821, -29.732315422028631 ], [ -71.011401403960136, -29.732378318367491 ], [ -71.01147340229403, -29.735986067470616 ], [ -71.015607249109948, -29.735923161980612 ], [ -71.015535103053821, -29.732315422028631 ] ] ] } },
{ "type": "Feature", "properties": { "cve": "2862929", "nombre": "RUTITA 1 AL 5", "solicitante": "Gómez Rojas Jorge Antonio", "region": "REGIÓN DE COQUIMBO", "provincia": "Provincia de Choapa", "comuna": null, "superficie_ha": 30.0, "datum_original": "PSAD56", "huso": 19, "epsg_origen": 24879, "tipo_publicacion": "manifestacion", "fuente_pdf": "http://www.diariooficial.interior.gob.cl/publicaciones/2026/09/01/44539/07/2862929.pdf", "archivo": "gm_manifestacion_2862929.pdf", "fecha": "01-09-2026", "edicion": "44539" }, "geometry": { "type": "Polygon", "coordinates": [ [ [ -71.060671058921244, -31.727688754481292 ], [ -71.055396529303579, -31.727773938922027 ], [ -71.055515990914017, -31.733183737231599 ], [ -71.06079082656413, -31.733098534904212 ], [ -71.060671058921244, -31.727688754481292 ] ] ] } },
{ "type": "Feature", "properties": { "cve": "2862629", "nombre": "DON DIABLO 1 AL 20", "solicitante": "Michea García Abraham Eduardo", "region": "REGIÓN DE COQUIMBO", "provincia": "Provincia de Limarí", "comuna": "Combarbalá", "superficie_ha": 100.0, "datum_original": "PSAD56", "huso": 19, "epsg_origen": 24879, "tipo_publicacion": "manifestacion", "fuente_pdf": "http://www.diariooficial.interior.gob.cl/publicaciones/2026/09/01/44539/07/2862629.pdf", "archivo": "gm_manifestacion_2862629.pdf", "fecha": "01-09-2026", "edicion": "44539" }, "geometry": { "type": "Polygon", "coordinates": [ [ [ -70.88167588978483, -31.115945791354271 ], [ -70.87119392753965, -31.116098455780172 ], [ -70.871370916654783, -31.125116648561153 ], [ -70.881853868926541, -31.124963930101028 ], [ -70.88167588978483, -31.115945791354271 ] ] ] } },
{ "type": "Feature", "properties": { "cve": "2862956", "nombre": "DOCAS NORTE 1 AL 6", "solicitante": "Minera Los Placeres SpA", "region": "REGIÓN DE LOS LAGOS", "provincia": "Provincia de Llanquihue", "comuna": "Los Muermos", "superficie_ha": 12.0, "datum_original": "PSAD56", "huso": 18, "epsg_origen": 24878, "tipo_publicacion": "manifestacion", "fuente_pdf": "http://www.diariooficial.interior.gob.cl/publicaciones/2026/09/01/44539/07/2862956.pdf", "archivo": "gm_manifestacion_2862956.pdf", "fecha": "01-09-2026", "edicion": "44539" }, "geometry": { "type": "Polygon", "coordinates": [ [ [ -73.795327204623788, -41.517132222420102 ], [ -73.792930842779867, -41.517107094804196 ], [ -73.792830431204436, -41.522510311571878 ], [ -73.795226992275104, -41.522535443931091 ], [ -73.795327204623788, -41.517132222420102 ] ] ] } },
{ "type": "Feature", "properties": { "cve": "2862957", "nombre": "DOCAS SUR 1 AL 6", "solicitante": "Minera Los Placeres SpA", "region": "REGIÓN DE LOS LAGOS", "provincia": "Provincia de Llanquihue", "comuna": "Los Muermos", "superficie_ha": 12.0, "datum_original": "PSAD56", "huso": 18, "epsg_origen": 24878, "tipo_publicacion": "manifestacion", "fuente_pdf": "http://www.diariooficial.interior.gob.cl/publicaciones/2026/09/01/44539/07/2862957.pdf", "archivo": "gm_manifestacion_2862957.pdf", "fecha": "01-09-2026", "edicion": "44539" }, "geometry": { "type": "Polygon", "coordinates": [ [ [ -73.793561382008548, -41.522517982232813 ], [ -73.791164823053435, -41.522492815176115 ], [ -73.79106424557456, -41.527896023312607 ], [ -73.793461003810108, -41.527921195119944 ], [ -73.793561382008548, -41.522517982232813 ] ] ] } },
{ "type": "Feature", "properties": { "cve": "2862646", "nombre": "ARENAL 1 A ARENAL 20", "solicitante": "Quijano Fernández Juan José", "region": "REGIÓN DE AYSÉN DEL GENERAL CARLOS IBÁÑEZ DEL CAMPO", "provincia": "Provincia de Aysén", "comuna": null, "superficie_ha": 100.0, "datum_original": "WGS84", "huso": 18, "epsg_origen": 32718, "tipo_publicacion": "manifestacion", "fuente_pdf": "http://www.diariooficial.interior.gob.cl/publicaciones/2026/09/01/44539/07/2862646.pdf", "archivo": "gm_manifestacion_2862646.pdf", "fecha": "01-09-2026", "edicion": "44539" }, "geometry": { "type": "Polygon", "coordinates": [ [ [ -74.811109702642952, -44.563680107055525 ], [ -74.798517091284637, -44.563658586785834 ], [ -74.798486010867691, -44.572661141698291 ], [ -74.811080564712114, -44.572682668687087 ], [ -74.811109702642952, -44.563680107055525 ] ] ] } },
{ "type": "Feature", "properties": { "cve": "2862647", "nombre": "CHIFLON 1 A CHIFLON 36", "solicitante": "Quijano Fernández Juan José", "region": "REGIÓN DE AYSÉN DEL GENERAL CARLOS IBÁÑEZ DEL CAMPO", "provincia": "Provincia de Aysén", "comuna": null, "superficie_ha": 144.0, "datum_original": "WGS84", "huso": 18, "epsg_origen": 32718, "tipo_publicacion": "manifestacion", "fuente_pdf": "http://www.diariooficial.interior.gob.cl/publicaciones/2026/09/01/44539/07/2862647.pdf", "archivo": "gm_manifestacion_2862647.pdf", "fecha": "01-09-2026", "edicion": "44539" }, "geometry": { "type": "Polygon", "coordinates": [ [ [ -74.805217592592925, -44.631189436988038 ], [ -74.797653273402275, -44.631176285814533 ], [ -74.797578159476572, -44.652782136000368 ], [ -74.805145286603832, -44.652795297030174 ], [ -74.805217592592925, -44.631189436988038 ] ] ] } },
{ "type": "Feature", "properties": { "cve": "2862650", "nombre": "ESTRELLA DO SUL 1 A ESTRELLA DO SUL 60", "solicitante": "Quijano Fernández Juan José", "region": "REGIÓN DE AYSÉN DEL GENERAL CARLOS IBÁÑEZ DEL CAMPO", "provincia": "Provincia de Aysén", "comuna": null, "superficie_ha": 300.0, "datum_original": "WGS84", "huso": 18, "epsg_origen": 32718, "tipo_publicacion": "manifestacion", "fuente_pdf": "http://www.diariooficial.interior.gob.cl/publicaciones/2026/09/01/44539/07/2862650.pdf", "archivo": "gm_manifestacion_2862650.pdf", "fecha": "01-09-2026", "edicion": "44539" }, "geometry": { "type": "Polygon", "coordinates": [ [ [ -74.785560390921702, -44.662662918707021 ], [ -74.772946392297641, -44.662638538105384 ], [ -74.772840905087392, -44.689645644860612 ], [ -74.785460763957133, -44.689670048304265 ], [ -74.785560390921702, -44.662662918707021 ] ] ] } },
{ "type": "Feature", "properties": { "cve": "2862649", "nombre": "HENRIQUEZ INTERIOR 1 A HENRIQUEZ INTERIOR 60", "solicitante": "Quijano Fernández Juan José", "region": "REGIÓN DE AYSÉN DEL GENERAL CARLOS IBÁÑEZ DEL CAMPO", "provincia": "Provincia de Aysén", "comuna": null, "superficie_ha": 300.0, "datum_original": "WGS84", "huso": 18, "epsg_origen": 32718, "tipo_publicacion": "manifestacion", "fuente_pdf": "http://www.diariooficial.interior.gob.cl/publicaciones/2026/09/01/44539/07/2862649.pdf", "archivo": "gm_manifestacion_2862649.pdf", "fecha": "01-09-2026", "edicion": "44539" }, "geometry": { "type": "Polygon", "coordinates": [ [ [ -74.785659877961393, -44.63565566068759 ], [ -74.773051731352538, -44.635631302906972 ], [ -74.772946392297641, -44.662638538105384 ], [ -74.785560390921702, -44.662662918707021 ], [ -74.785659877961393, -44.63565566068759 ] ] ] } },
{ "type": "Feature", "properties": { "cve": "2862656", "nombre": "PUNTA CHABRANAL 1 A PUNTA CHABRANAL 60", "solicitante": "Quijano Fernández Juan José", "region": "REGIÓN DE AYSÉN DEL GENERAL CARLOS IBÁÑEZ DEL CAMPO", "provincia": "Provincia de Aysén", "comuna": null, "superficie_ha": 300.0, "datum_original": "WGS84", "huso": 18, "epsg_origen": 32718, "tipo_publicacion": "manifestacion", "fuente_pdf": "http://www.diariooficial.interior.gob.cl/publicaciones/2026/09/01/44539/07/2862656.pdf", "archivo": "gm_manifestacion_2862656.pdf", "fecha": "01-09-2026", "edicion": "44539" }, "geometry": { "type": "Polygon", "coordinates": [ [ [ -74.7607725503713, -44.555483404566878 ], [ -74.723000204848631, -44.555398042177586 ], [ -74.722957487701805, -44.564400560525833 ], [ -74.760735658089274, -44.564485949567228 ], [ -74.7607725503713, -44.555483404566878 ] ] ] } },
{ "type": "Feature", "properties": { "cve": "2862648", "nombre": "SUR 1 A SUR 20", "solicitante": "Quijano Fernández Juan José", "region": "REGIÓN DE AYSÉN DEL GENERAL CARLOS IBÁÑEZ DEL CAMPO", "provincia": "Provincia de Aysén", "comuna": null, "superficie_ha": 100.0, "datum_original": "WGS84", "huso": 18, "epsg_origen": 32718, "tipo_publicacion": "manifestacion", "fuente_pdf": "http://www.diariooficial.interior.gob.cl/publicaciones/2026/09/01/44539/07/2862648.pdf", "archivo": "gm_manifestacion_2862648.pdf", "fecha": "01-09-2026", "edicion": "44539" }, "geometry": { "type": "Polygon", "coordinates": [ [ [ -74.735186447991239, -44.64455227910878 ], [ -74.722576422876941, -44.644522344643327 ], [ -74.722533507274179, -44.653524721601457 ], [ -74.735145483019537, -44.653554665412585 ], [ -74.735186447991239, -44.64455227910878 ] ] ] } },
{ "type": "Feature", "properties": { "cve": "2863002", "nombre": "CUMBRES DEL CHECO 1 AL 170", "solicitante": "SLM Cumbres del Checo una de la Sierra Checo Plata", "region": "REGIÓN DE ATACAMA", "provincia": "Provincia de Copiapó", "comuna": null, "superficie_ha": 170.0, "datum_original": "PSAD56", "huso": 19, "epsg_origen": 24879, "tipo_publicacion": "mensura", "fuente_pdf": "http://www.diariooficial.interior.gob.cl/publicaciones/2026/09/01/44539/07/2863002.pdf", "archivo": "gm_mensura_2863002.pdf", "fecha": "01-09-2026", "edicion": "44539" }, "geometry": { "type": "Polygon", "coordinates": [ [ [ -71.106887641151374, -27.471042138331104 ], [ -71.096772851585612, -27.47119485971227 ], [ -71.097114631768804, -27.489238677858495 ], [ -71.103184502550207, -27.489147062953919 ], [ -71.103098780705267, -27.484636130743088 ], [ -71.106133581847658, -27.48459023293281 ], [ -71.105961951160154, -27.475568376500291 ], [ -71.106973467655237, -27.475553068408015 ], [ -71.106887641151374, -27.471042138331104 ] ] ] } },
{ "type": "Feature", "properties": { "cve": "2863021", "nombre": "SALCAR 1 AL 24", "solicitante": "SLM Salcar Una del sector Viñita Blanca", "region": "REGIÓN DE ATACAMA", "provincia": "Provincia de Copiapó", "comuna": null, "superficie_ha": 96.0, "datum_original": "PSAD56", "huso": 19, "epsg_origen": 24879, "tipo_publicacion": "mensura", "fuente_pdf": "http://www.diariooficial.interior.gob.cl/publicaciones/2026/09/01/44539/07/2863021.pdf", "archivo": "gm_mensura_2863021.pdf", "fecha": "01-09-2026", "edicion": "44539" }, "geometry": { "type": "Polygon", "coordinates": [ [ [ -70.335887186266845, -28.303751571284181 ], [ -70.327729918552535, -28.303831144710966 ], [ -70.327864406268802, -28.314660486202246 ], [ -70.336022499647555, -28.314580876911105 ], [ -70.335887186266845, -28.303751571284181 ] ] ] } },
{ "type": "Feature", "properties": { "cve": "2862988", "nombre": "TRINIDAD 1 AL 12", "solicitante": "Donoso Vargas Fernando Sebastián", "region": "REGIÓN DE ATACAMA", "provincia": "Provincia de Huasco", "comuna": null, "superficie_ha": 96.0, "datum_original": "PSAD56", "huso": 19, "epsg_origen": 24879, "tipo_publicacion": "mensura", "fuente_pdf": "http://www.diariooficial.interior.gob.cl/publicaciones/2026/09/01/44539/07/2862988.pdf", "archivo": "gm_mensura_2862988.pdf", "fecha": "01-09-2026", "edicion": "44539" }, "geometry": { "type": "Polygon", "coordinates": [ [ [ -70.084552512604887, -28.408875033371466 ], [ -70.076386449553468, -28.408939810503764 ], [ -70.076495960671892, -28.419769984621158 ], [ -70.084662854139737, -28.419705178361973 ], [ -70.084552512604887, -28.408875033371466 ] ] ] } },
{ "type": "Feature", "properties": { "cve": "2863032", "nombre": "RALLIV III", "solicitante": "Villar Luna Erick Francisco Ignacio", "region": "REGIÓN DE ANTOFAGASTA", "provincia": "Provincia de Antofagasta", "comuna": null, "superficie_ha": 300.0, "datum_original": "PSAD56", "huso": 19, "epsg_origen": 24879, "tipo_publicacion": "pedimento", "fuente_pdf": "http://www.diariooficial.interior.gob.cl/publicaciones/2026/09/01/44539/07/2863032.pdf", "archivo": "gm_pedimento_2863032.pdf", "fecha": "01-09-2026", "edicion": "44539" }, "geometry": { "type": "Polygon", "coordinates": [ [ [ -68.654317655618655, -25.238230215855733 ], [ -68.644388857403143, -25.238206654160017 ], [ -68.644309984087144, -25.265298228649659 ], [ -68.654240984367149, -25.265321819124921 ], [ -68.654317655618655, -25.238230215855733 ] ] ] } },
{ "type": "Feature", "properties": { "cve": "2863033", "nombre": "RALLIV IV", "solicitante": "Villar Luna Erick Francisco Ignacio", "region": "REGIÓN DE ANTOFAGASTA", "provincia": "Provincia de Antofagasta", "comuna": null, "superficie_ha": 300.0, "datum_original": "PSAD56", "huso": 19, "epsg_origen": 24879, "tipo_publicacion": "pedimento", "fuente_pdf": "http://www.diariooficial.interior.gob.cl/publicaciones/2026/09/01/44539/07/2863033.pdf", "archivo": "gm_pedimento_2863033.pdf", "fecha": "01-09-2026", "edicion": "44539" }, "geometry": { "type": "Polygon", "coordinates": [ [ [ -68.644388857403143, -25.238206654160017 ], [ -68.634460071855585, -25.238182425328915 ], [ -68.634378996487342, -25.265273970224165 ], [ -68.644309984087144, -25.265298228649659 ], [ -68.644388857403143, -25.238206654160017 ] ] ] } },
{ "type": "Feature", "properties": { "cve": "2863034", "nombre": "RALLIV IX", "solicitante": "Villar Luna Erick Francisco Ignacio", "region": "REGIÓN DE ANTOFAGASTA", "provincia": "Provincia de Antofagasta", "comuna": null, "superficie_ha": 300.0, "datum_original": "PSAD56", "huso": 19, "epsg_origen": 24879, "tipo_publicacion": "pedimento", "fuente_pdf": "http://www.diariooficial.interior.gob.cl/publicaciones/2026/09/01/44539/07/2863034.pdf", "archivo": "gm_pedimento_2863034.pdf", "fecha": "01-09-2026", "edicion": "44539" }, "geometry": { "type": "Polygon", "coordinates": [ [ [ -68.664194349034702, -25.257217262820443 ], [ -68.654263997385783, -25.257194348689374 ], [ -68.654187248491766, -25.284285881641857 ], [ -68.664119804447083, -25.284308823746041 ], [ -68.664194349034702, -25.257217262820443 ] ] ] } },
{ "type": "Feature", "properties": { "cve": "2863035", "nombre": "RALLIV V", "solicitante": "Villar Luna Erick Francisco Ignacio", "region": "REGIÓN DE ANTOFAGASTA", "provincia": "Provincia de Antofagasta", "comuna": null, "superficie_ha": 300.0, "datum_original": "PSAD56", "huso": 19, "epsg_origen": 24879, "tipo_publicacion": "pedimento", "fuente_pdf": "http://www.diariooficial.interior.gob.cl/publicaciones/2026/09/01/44539/07/2863035.pdf", "archivo": "gm_pedimento_2863035.pdf", "fecha": "01-09-2026", "edicion": "44539" }, "geometry": { "type": "Polygon", "coordinates": [ [ [ -68.634460071855585, -25.238182425328915 ], [ -68.624531299329632, -25.238157529365822 ], [ -68.624448021921808, -25.265249043851796 ], [ -68.634378996487342, -25.265273970224165 ], [ -68.634460071855585, -25.238182425328915 ] ] ] } },
{ "type": "Feature", "properties": { "cve": "2863036", "nombre": "RALLIV VI", "solicitante": "Villar Luna Erick Francisco Ignacio", "region": "REGIÓN DE ANTOFAGASTA", "provincia": "Provincia de Antofagasta", "comuna": null, "superficie_ha": 300.0, "datum_original": "PSAD56", "huso": 19, "epsg_origen": 24879, "tipo_publicacion": "pedimento", "fuente_pdf": "http://www.diariooficial.interior.gob.cl/publicaciones/2026/09/01/44539/07/2863036.pdf", "archivo": "gm_pedimento_2863036.pdf", "fecha": "01-09-2026", "edicion": "44539" }, "geometry": { "type": "Polygon", "coordinates": [ [ [ -68.624531299329632, -25.238157529365822 ], [ -68.614602540178964, -25.238131966274167 ], [ -68.614517060744518, -25.26522344953603 ], [ -68.624448021921808, -25.265249043851796 ], [ -68.624531299329632, -25.238157529365822 ] ] ] } },
{ "type": "Feature", "properties": { "cve": "2863037", "nombre": "RALLIV VII", "solicitante": "Villar Luna Erick Francisco Ignacio", "region": "REGIÓN DE ANTOFAGASTA", "provincia": "Provincia de Antofagasta", "comuna": null, "superficie_ha": 300.0, "datum_original": "PSAD56", "huso": 19, "epsg_origen": 24879, "tipo_publicacion": "pedimento", "fuente_pdf": "http://www.diariooficial.interior.gob.cl/publicaciones/2026/09/01/44539/07/2863037.pdf", "archivo": "gm_pedimento_2863037.pdf", "fecha": "01-09-2026", "edicion": "44539" }, "geometry": { "type": "Polygon", "coordinates": [ [ [ -68.614602540178964, -25.238131966274167 ], [ -68.60467379475719, -25.238105736057552 ], [ -68.604586113309452, -25.265197187280442 ], [ -68.614517060744518, -25.26522344953603 ], [ -68.614602540178964, -25.238131966274167 ] ] ] } },
{ "type": "Feature", "properties": { "cve": "2863038", "nombre": "RALLIV VIII", "solicitante": "Villar Luna Erick Francisco Ignacio", "region": "REGIÓN DE ANTOFAGASTA", "provincia": "Provincia de Antofagasta", "comuna": null, "superficie_ha": 300.0, "datum_original": "PSAD56", "huso": 19, "epsg_origen": 24879, "tipo_publicacion": "pedimento", "fuente_pdf": "http://www.diariooficial.interior.gob.cl/publicaciones/2026/09/01/44539/07/2863038.pdf", "archivo": "gm_pedimento_2863038.pdf", "fecha": "01-09-2026", "edicion": "44539" }, "geometry": { "type": "Polygon", "coordinates": [ [ [ -68.674124712652372, -25.257239509239312 ], [ -68.664194349034702, -25.257217262820443 ], [ -68.664119804447083, -25.284308823746041 ], [ -68.674052372382747, -25.284331097322916 ], [ -68.674124712652372, -25.257239509239312 ] ] ] } },
{ "type": "Feature", "properties": { "cve": "2862676", "nombre": "COPPER RESOURCES", "solicitante": "Smoje Ticó Sergio Óscar", "region": "REGIÓN DE ATACAMA", "provincia": "Provincia de Copiapó", "comuna": "Caldera", "superficie_ha": 200.0, "datum_original": "PSAD56", "huso": 19, "epsg_origen": 24879, "tipo_publicacion": "pedimento", "fuente_pdf": "http://www.diariooficial.interior.gob.cl/publicaciones/2026/09/01/44539/07/2862676.pdf", "archivo": "gm_pedimento_2862676.pdf", "fecha": "01-09-2026", "edicion": "44539" }, "geometry": { "type": "Polygon", "coordinates": [ [ [ -70.319184752284727, -26.918356819831722 ], [ -70.30911555952845, -26.918450551242248 ], [ -70.309323978287225, -26.936503212576568 ], [ -70.319394772988062, -26.936409408309412 ], [ -70.319184752284727, -26.918356819831722 ] ] ] } },
{ "type": "Feature", "properties": { "cve": "2862677", "nombre": "COPPER RESOURCES II", "solicitante": "Smoje Ticó Sergio Óscar", "region": "REGIÓN DE ATACAMA", "provincia": "Provincia de Copiapó", "comuna": "Caldera", "superficie_ha": 200.0, "datum_original": "PSAD56", "huso": 19, "epsg_origen": 24879, "tipo_publicacion": "pedimento", "fuente_pdf": "http://www.diariooficial.interior.gob.cl/publicaciones/2026/09/01/44539/07/2862677.pdf", "archivo": "gm_pedimento_2862677.pdf", "fecha": "01-09-2026", "edicion": "44539" }, "geometry": { "type": "Polygon", "coordinates": [ [ [ -70.319394772988062, -26.936409408309412 ], [ -70.309323978287225, -26.936503212576568 ], [ -70.309532592762963, -26.954555825845397 ], [ -70.319604990912111, -26.954461948699041 ], [ -70.319394772988062, -26.936409408309412 ] ] ] } },
{ "type": "Feature", "properties": { "cve": "2863054", "nombre": "MARICUNGA ENERGY XXIV", "solicitante": "Villar García Rodolfo Francisco", "region": "REGIÓN DE ATACAMA", "provincia": "Provincia de Copiapó", "comuna": null, "superficie_ha": 200.0, "datum_original": "WGS84", "huso": 19, "epsg_origen": 32719, "tipo_publicacion": "pedimento", "fuente_pdf": "http://www.diariooficial.interior.gob.cl/publicaciones/2026/09/01/44539/07/2863054.pdf", "archivo": "gm_pedimento_2863054.pdf", "fecha": "01-09-2026", "edicion": "44539" }, "geometry": { "type": "Polygon", "coordinates": [ [ [ -69.171428905093236, -27.055554440223649 ], [ -69.161344885144032, -27.055566365953286 ], [ -69.161370729962059, -27.073623319217148 ], [ -69.171456365187993, -27.073611384248583 ], [ -69.171428905093236, -27.055554440223649 ] ] ] } },
{ "type": "Feature", "properties": { "cve": "2862843", "nombre": "NUEVA ANDI 1", "solicitante": "Briceño Díaz Andrés Hernán", "region": "REGIÓN DE ATACAMA", "provincia": "Provincia de Huasco", "comuna": null, "superficie_ha": 300.0, "datum_original": "PSAD56", "huso": 19, "epsg_origen": 24879, "tipo_publicacion": "pedimento", "fuente_pdf": "http://www.diariooficial.interior.gob.cl/publicaciones/2026/09/01/44539/07/2862843.pdf", "archivo": "gm_pedimento_2862843.pdf", "fecha": "01-09-2026", "edicion": "44539" }, "geometry": { "type": "Polygon", "coordinates": [ [ [ -71.119117036030858, -28.616874918730694 ], [ -71.088449396974283, -28.617350979615679 ], [ -71.088627965377739, -28.626371426105298 ], [ -71.119298221855331, -28.625895187781218 ], [ -71.119117036030858, -28.616874918730694 ] ] ] } },
{ "type": "Feature", "properties": { "cve": "2863045", "nombre": "SKY 5", "solicitante": "Araya Cortés Sebastián Ignacio", "region": "REGIÓN DE ATACAMA", "provincia": "Provincia de Huasco", "comuna": "Vallenar", "superficie_ha": 300.0, "datum_original": "PSAD56", "huso": 19, "epsg_origen": 24879, "tipo_publicacion": "pedimento", "fuente_pdf": "http://www.diariooficial.interior.gob.cl/publicaciones/2026/09/01/44539/07/2863045.pdf", "archivo": "gm_pedimento_2863045.pdf", "fecha": "01-09-2026", "edicion": "44539" }, "geometry": { "type": "Polygon", "coordinates": [ [ [ -70.930014487366407, -28.89942869962789 ], [ -70.919763268683226, -28.89957520181316 ], [ -70.920261727574882, -28.926638162213862 ], [ -70.930515603927461, -28.9264914972103 ], [ -70.930014487366407, -28.89942869962789 ] ] ] } },
{ "type": "Feature", "properties": { "cve": "2863046", "nombre": "SKY 6", "solicitante": "Araya Cortés Sebastián Ignacio", "region": "REGIÓN DE ATACAMA", "provincia": "Provincia de Huasco", "comuna": "Vallenar", "superficie_ha": 200.0, "datum_original": "PSAD56", "huso": 19, "epsg_origen": 24879, "tipo_publicacion": "pedimento", "fuente_pdf": "http://www.diariooficial.interior.gob.cl/publicaciones/2026/09/01/44539/07/2863046.pdf", "archivo": "gm_pedimento_2863046.pdf", "fecha": "01-09-2026", "edicion": "44539" }, "geometry": { "type": "Polygon", "coordinates": [ [ [ -71.011082982346963, -28.849517698472191 ], [ -71.000837160229935, -28.849670128639492 ], [ -71.001182703368286, -28.867711372591955 ], [ -71.011430292030667, -28.867558829375799 ], [ -71.011082982346963, -28.849517698472191 ] ] ] } },
{ "type": "Feature", "properties": { "cve": "2862904", "nombre": "LA FORTUNA DOS", "solicitante": "Medina G. Miguel y otra", "region": "REGIÓN DEL MAULE", "provincia": "Provincia de Linares", "comuna": null, "superficie_ha": 100.0, "datum_original": "PSAD56", "huso": 19, "epsg_origen": 24879, "tipo_publicacion": "pedimento", "fuente_pdf": "http://www.diariooficial.interior.gob.cl/publicaciones/2026/09/01/44539/07/2862904.pdf", "archivo": "gm_pedimento_2862904.pdf", "fecha": "01-09-2026", "edicion": "44539" }, "geometry": { "type": "Polygon", "coordinates": [ [ [ -71.927886964814888, -35.752676359059947 ], [ -71.916840530283437, -35.752944916341264 ], [ -71.917169441214824, -35.761949425524186 ], [ -71.928217117040191, -35.761680779759864 ], [ -71.927886964814888, -35.752676359059947 ] ] ] } }
]
}
