{
"type": "FeatureCollection",
"name": "boletin_mineria_20260723",
"crs": { "type": "name", "properties": { "name": "urn:ogc:def:crs:OGC:1.3:CRS84" } },
"features": [
{ "type": "Feature", "properties": { "cve": "2841532", "nombre": "NUEVA MIA ISABEL 2 DEL 1 AL 20", "solicitante": "Barrios Díaz Iván Sebastián", "region": "REGIÓN DE ARICA Y PARINACOTA", "provincia": "Provincia de Arica", "comuna": null, "superficie_ha": 200.0, "datum_original": "WGS84", "huso": 19, "epsg_origen": 32719, "tipo_publicacion": "manifestacion", "fuente_pdf": "http://www.diariooficial.interior.gob.cl/publicaciones/2026/07/23/44506/07/2841532.pdf", "archivo": "gm_manifestacion_2841532.pdf", "fecha": "23-07-2026", "edicion": "44506" }, "geometry": { "type": "Polygon", "coordinates": [ [ [ -70.244155706297477, -18.554602000677992 ], [ -70.234681663987686, -18.554664209524688 ], [ -70.234811689759127, -18.57273620432203 ], [ -70.24428672916639, -18.572673930583647 ], [ -70.244155706297477, -18.554602000677992 ] ] ] } },
{ "type": "Feature", "properties": { "cve": "2841639", "nombre": "ANTURI C 1, 1 AL 30", "solicitante": "Antofagasta Minerals S.A.", "region": "REGIÓN DE ATACAMA", "provincia": "Provincia de Copiapó", "comuna": null, "superficie_ha": 300.0, "datum_original": "PSAD56", "huso": 19, "epsg_origen": 24879, "tipo_publicacion": "manifestacion", "fuente_pdf": "http://www.diariooficial.interior.gob.cl/publicaciones/2026/07/23/44506/07/2841639.pdf", "archivo": "gm_manifestacion_2841639.pdf", "fecha": "23-07-2026", "edicion": "44506" }, "geometry": { "type": "Polygon", "coordinates": [ [ [ -69.609659348132979, -27.562385528183761 ], [ -69.59952992800595, -27.562429601686791 ], [ -69.599677149925114, -27.589511675463644 ], [ -69.609809057082842, -27.58946755138906 ], [ -69.609659348132979, -27.562385528183761 ] ] ] } },
{ "type": "Feature", "properties": { "cve": "2841640", "nombre": "ANTURI C 2, 1 AL 20", "solicitante": "Antofagasta Minerals S.A.", "region": "REGIÓN DE ATACAMA", "provincia": "Provincia de Copiapó", "comuna": null, "superficie_ha": 200.0, "datum_original": "PSAD56", "huso": 19, "epsg_origen": 24879, "tipo_publicacion": "manifestacion", "fuente_pdf": "http://www.diariooficial.interior.gob.cl/publicaciones/2026/07/23/44506/07/2841640.pdf", "archivo": "gm_manifestacion_2841640.pdf", "fecha": "23-07-2026", "edicion": "44506" }, "geometry": { "type": "Polygon", "coordinates": [ [ [ -69.599505410999384, -27.55791591230231 ], [ -69.589376382216628, -27.557959239198674 ], [ -69.58947282722329, -27.576014012017122 ], [ -69.599603513270992, -27.575970651976455 ], [ -69.599505410999384, -27.55791591230231 ] ] ] } },
{ "type": "Feature", "properties": { "cve": "2841535", "nombre": "ATENEA 1/10", "solicitante": "Cepeda Alafaro Diego Alonso", "region": "REGIÓN DE ATACAMA", "provincia": "Provincia de Copiapó", "comuna": "Copiapó", "superficie_ha": 100.0, "datum_original": "PSAD56", "huso": 19, "epsg_origen": 24879, "tipo_publicacion": "manifestacion", "fuente_pdf": "http://www.diariooficial.interior.gob.cl/publicaciones/2026/07/23/44506/07/2841535.pdf", "archivo": "gm_manifestacion_2841535.pdf", "fecha": "23-07-2026", "edicion": "44506" }, "geometry": { "type": "Polygon", "coordinates": [ [ [ -70.907397776347949, -27.936675378683535 ], [ -70.897238722185904, -27.936815755634715 ], [ -70.897396399347059, -27.945838159763252 ], [ -70.907556296570789, -27.945697729643157 ], [ -70.907397776347949, -27.936675378683535 ] ] ] } },
{ "type": "Feature", "properties": { "cve": "2841617", "nombre": "LA CHARITO 1 AL 9", "solicitante": "Gárate Torres Javier Omar", "region": "REGIÓN DE ATACAMA", "provincia": "Provincia de Copiapó", "comuna": "Copiapó", "superficie_ha": 9.0, "datum_original": "PSAD56", "huso": 19, "epsg_origen": 24879, "tipo_publicacion": "manifestacion", "fuente_pdf": "http://www.diariooficial.interior.gob.cl/publicaciones/2026/07/23/44506/07/2841617.pdf", "archivo": "gm_manifestacion_2841617.pdf", "fecha": "23-07-2026", "edicion": "44506" }, "geometry": { "type": "Polygon", "coordinates": [ [ [ -70.840246311719056, -28.072273508197572 ], [ -70.837194668037114, -28.072314394551402 ], [ -70.837240728944252, -28.075021156211335 ], [ -70.840292449029775, -28.07498026522682 ], [ -70.840246311719056, -28.072273508197572 ] ] ] } },
{ "type": "Feature", "properties": { "cve": "2841634", "nombre": "SAN PIETRO SUR 1 AL 7", "solicitante": "Muñoz Cortés Ramón Segundo", "region": "REGIÓN DE ATACAMA", "provincia": "Provincia de Copiapó", "comuna": "Copiapó", "superficie_ha": 21.0, "datum_original": "PSAD56", "huso": 19, "epsg_origen": 24879, "tipo_publicacion": "manifestacion", "fuente_pdf": "http://www.diariooficial.interior.gob.cl/publicaciones/2026/07/23/44506/07/2841634.pdf", "archivo": "gm_manifestacion_2841634.pdf", "fecha": "23-07-2026", "edicion": "44506" }, "geometry": { "type": "Polygon", "coordinates": [ [ [ -70.147595637980658, -28.100122221925286 ], [ -70.144542241680796, -28.100147732027512 ], [ -70.144609288540607, -28.106465477269744 ], [ -70.147662863611743, -28.106439960428133 ], [ -70.147595637980658, -28.100122221925286 ] ] ] } },
{ "type": "Feature", "properties": { "cve": "2841388", "nombre": "Marsella 1 al 13", "solicitante": "Rojas González Raúl Enrique", "region": "REGIÓN DE COQUIMBO", "provincia": "Provincia de Elqui", "comuna": null, "superficie_ha": 65.0, "datum_original": "PSAD56", "huso": 19, "epsg_origen": 24879, "tipo_publicacion": "manifestacion", "fuente_pdf": "http://www.diariooficial.interior.gob.cl/publicaciones/2026/07/23/44506/07/2841388.pdf", "archivo": "gm_manifestacion_2841388.pdf", "fecha": "23-07-2026", "edicion": "44506" }, "geometry": { "type": "Polygon", "coordinates": [ [ [ -70.725515043843103, -29.18148789317442 ], [ -70.7203749016861, -29.181554042907983 ], [ -70.720570652571737, -29.193282145903478 ], [ -70.725711378887468, -29.193215964511566 ], [ -70.725515043843103, -29.18148789317442 ] ] ] } },
{ "type": "Feature", "properties": { "cve": "2841607", "nombre": "LA OLVIDADA 1 AL 20", "solicitante": "Varas Varas Fernando Manuel", "region": "REGIÓN DE VALPARAÍSO", "provincia": "Provincia de San Felipe de Aconcagua", "comuna": "SAN FELIPE", "superficie_ha": 42.0, "datum_original": "PSAD56", "huso": 19, "epsg_origen": 24879, "tipo_publicacion": "manifestacion", "fuente_pdf": "http://www.diariooficial.interior.gob.cl/publicaciones/2026/07/23/44506/07/2841607.pdf", "archivo": "gm_manifestacion_2841607.pdf", "fecha": "23-07-2026", "edicion": "44506" }, "geometry": { "type": "Polygon", "coordinates": [ [ [ -70.7939937147558, -32.708239522481385 ], [ -70.783329137824552, -32.708391653510887 ], [ -70.78340449527964, -32.712178525278738 ], [ -70.794069522272338, -32.71202637225614 ], [ -70.7939937147558, -32.708239522481385 ] ] ] } },
{ "type": "Feature", "properties": { "cve": "2841572", "nombre": "MALLOGA I, 1 AL 16", "solicitante": "Abusleme Donoso Pablo Andrés", "region": "REGIÓN DEL BIOBÍO", "provincia": "Provincia de Arauco", "comuna": null, "superficie_ha": 96.0, "datum_original": "PSAD56", "huso": 18, "epsg_origen": 24878, "tipo_publicacion": "mensura", "fuente_pdf": "http://www.diariooficial.interior.gob.cl/publicaciones/2026/07/23/44506/07/2841572.pdf", "archivo": "gm_mensura_2841572.pdf", "fecha": "23-07-2026", "edicion": "44506" }, "geometry": { "type": "Polygon", "coordinates": [ [ [ -73.268697759728184, -37.315866045247482 ], [ -73.261929385971229, -37.315766806532196 ], [ -73.261597286476118, -37.330182430558928 ], [ -73.268366951912668, -37.330281720750158 ], [ -73.268697759728184, -37.315866045247482 ] ] ] } },
{ "type": "Feature", "properties": { "cve": "2841573", "nombre": "MALLOGA II, 1 AL 12", "solicitante": "Abusleme Donoso Pablo Andrés", "region": "REGIÓN DEL BIOBÍO", "provincia": "Provincia de Arauco", "comuna": null, "superficie_ha": 48.0, "datum_original": "PSAD56", "huso": 18, "epsg_origen": 24878, "tipo_publicacion": "mensura", "fuente_pdf": "http://www.diariooficial.interior.gob.cl/publicaciones/2026/07/23/44506/07/2841573.pdf", "archivo": "gm_mensura_2841573.pdf", "fecha": "23-07-2026", "edicion": "44506" }, "geometry": { "type": "Polygon", "coordinates": [ [ [ -73.276819818343256, -37.330810731297412 ], [ -73.263280365089486, -37.330612728633398 ], [ -73.263197382364694, -37.334216631660759 ], [ -73.276737481767697, -37.334414659993854 ], [ -73.276819818343256, -37.330810731297412 ] ] ] } },
{ "type": "Feature", "properties": { "cve": "2841464", "nombre": "NUEVA UNION 1", "solicitante": "SCM Minera Nueva Unión", "region": "REGIÓN DE ATACAMA", "provincia": "Provincia de Copiapó", "comuna": "Copiapó", "superficie_ha": 300.0, "datum_original": "PSAD56", "huso": 19, "epsg_origen": 24879, "tipo_publicacion": "pedimento", "fuente_pdf": "http://www.diariooficial.interior.gob.cl/publicaciones/2026/07/23/44506/07/2841464.pdf", "archivo": "gm_pedimento_2841464.pdf", "fecha": "23-07-2026", "edicion": "44506" }, "geometry": { "type": "Polygon", "coordinates": [ [ [ -70.008323088339154, -27.392429833654184 ], [ -69.977984275616237, -27.392645792963517 ], [ -69.978063711491686, -27.40167256043474 ], [ -70.008404987454398, -27.40145651819719 ], [ -70.008323088339154, -27.392429833654184 ] ] ] } },
{ "type": "Feature", "properties": { "cve": "2841465", "nombre": "NUEVA UNIÓN 2", "solicitante": "SCM Minera Nueva Unión", "region": "REGIÓN DE ATACAMA", "provincia": "Provincia de Copiapó", "comuna": "Copiapó", "superficie_ha": 300.0, "datum_original": "PSAD56", "huso": 19, "epsg_origen": 24879, "tipo_publicacion": "pedimento", "fuente_pdf": "http://www.diariooficial.interior.gob.cl/publicaciones/2026/07/23/44506/07/2841465.pdf", "archivo": "gm_pedimento_2841465.pdf", "fecha": "23-07-2026", "edicion": "44506" }, "geometry": { "type": "Polygon", "coordinates": [ [ [ -70.008404987454398, -27.40145651819719 ], [ -69.978063711491686, -27.40167256043474 ], [ -69.978143184425988, -27.41069931591333 ], [ -70.008486924777429, -27.410483190734439 ], [ -70.008404987454398, -27.40145651819719 ] ] ] } },
{ "type": "Feature", "properties": { "cve": "2841466", "nombre": "NUEVA UNION 3", "solicitante": "SCM Minera Nueva Unión", "region": "REGIÓN DE ATACAMA", "provincia": "Provincia de Copiapó", "comuna": "Copiapó", "superficie_ha": 300.0, "datum_original": "PSAD56", "huso": 19, "epsg_origen": 24879, "tipo_publicacion": "pedimento", "fuente_pdf": "http://www.diariooficial.interior.gob.cl/publicaciones/2026/07/23/44506/07/2841466.pdf", "archivo": "gm_pedimento_2841466.pdf", "fecha": "23-07-2026", "edicion": "44506" }, "geometry": { "type": "Polygon", "coordinates": [ [ [ -70.008486924777429, -27.410483190734439 ], [ -69.978143184425988, -27.41069931591333 ], [ -69.978222694432048, -27.419726059396577 ], [ -70.008568900321521, -27.419509851263207 ], [ -70.008486924777429, -27.410483190734439 ] ] ] } },
{ "type": "Feature", "properties": { "cve": "2841467", "nombre": "NUEVA UNION 4", "solicitante": "SCM Minera Nueva Unión", "region": "REGIÓN DE ATACAMA", "provincia": "Provincia de Copiapó", "comuna": "Copiapó", "superficie_ha": 300.0, "datum_original": "PSAD56", "huso": 19, "epsg_origen": 24879, "tipo_publicacion": "pedimento", "fuente_pdf": "http://www.diariooficial.interior.gob.cl/publicaciones/2026/07/23/44506/07/2841467.pdf", "archivo": "gm_pedimento_2841467.pdf", "fecha": "23-07-2026", "edicion": "44506" }, "geometry": { "type": "Polygon", "coordinates": [ [ [ -70.008467746867737, -27.419510582924385 ], [ -69.97812153984853, -27.41972676904944 ], [ -69.978201078716779, -27.42875350080698 ], [ -70.008549752424145, -27.428537231722753 ], [ -70.008467746867737, -27.419510582924385 ] ] ] } },
{ "type": "Feature", "properties": { "cve": "2841468", "nombre": "NUEVA UNIÓN 5", "solicitante": "SCM Minera Nueva Unión", "region": "REGIÓN DE ATACAMA", "provincia": "Provincia de Copiapó", "comuna": "Copiapó", "superficie_ha": 300.0, "datum_original": "PSAD56", "huso": 19, "epsg_origen": 24879, "tipo_publicacion": "pedimento", "fuente_pdf": "http://www.diariooficial.interior.gob.cl/publicaciones/2026/07/23/44506/07/2841468.pdf", "archivo": "gm_pedimento_2841468.pdf", "fecha": "23-07-2026", "edicion": "44506" }, "geometry": { "type": "Polygon", "coordinates": [ [ [ -70.008549752424145, -27.428537231722753 ], [ -69.978201078716779, -27.42875350080698 ], [ -69.978280654678812, -27.437780220563816 ], [ -70.008631796224449, -27.437563868507276 ], [ -70.008549752424145, -27.428537231722753 ] ] ] } },
{ "type": "Feature", "properties": { "cve": "2841469", "nombre": "NUEVA UNIÓN 6", "solicitante": "SCM Minera Nueva Unión", "region": "REGIÓN DE ATACAMA", "provincia": "Provincia de Copiapó", "comuna": "Copiapó", "superficie_ha": 300.0, "datum_original": "PSAD56", "huso": 19, "epsg_origen": 24879, "tipo_publicacion": "pedimento", "fuente_pdf": "http://www.diariooficial.interior.gob.cl/publicaciones/2026/07/23/44506/07/2841469.pdf", "archivo": "gm_pedimento_2841469.pdf", "fecha": "23-07-2026", "edicion": "44506" }, "geometry": { "type": "Polygon", "coordinates": [ [ [ -69.97798983492153, -27.393277667076809 ], [ -69.967876765280437, -27.39334818985915 ], [ -69.968112727332723, -27.420428535027316 ], [ -69.978228261521139, -27.420357930991116 ], [ -69.97798983492153, -27.393277667076809 ] ] ] } },
{ "type": "Feature", "properties": { "cve": "2841584", "nombre": "PUNTA CACHOS SEPTIMA 1", "solicitante": "Rumman Moreno Evelyn del Carmen", "region": "REGIÓN DE ATACAMA", "provincia": "Provincia de Copiapó", "comuna": null, "superficie_ha": 300.0, "datum_original": "PSAD56", "huso": 19, "epsg_origen": 24879, "tipo_publicacion": "pedimento", "fuente_pdf": "http://www.diariooficial.interior.gob.cl/publicaciones/2026/07/23/44506/07/2841584.pdf", "archivo": "gm_pedimento_2841584.pdf", "fecha": "23-07-2026", "edicion": "44506" }, "geometry": { "type": "Polygon", "coordinates": [ [ [ -71.039918069697805, -27.679604546376126 ], [ -71.029783707755968, -27.679753432829813 ], [ -71.03028453907794, -27.706819466638809 ], [ -71.040421397366202, -27.706670409937502 ], [ -71.039918069697805, -27.679604546376126 ] ] ] } },
{ "type": "Feature", "properties": { "cve": "2841586", "nombre": "PUNTA CACHOS SEPTIMA 16", "solicitante": "Rumman Moreno Evelyn del Carmen", "region": "REGIÓN DE ATACAMA", "provincia": "Provincia de Copiapó", "comuna": null, "superficie_ha": 200.0, "datum_original": "PSAD56", "huso": 19, "epsg_origen": 24879, "tipo_publicacion": "pedimento", "fuente_pdf": "http://www.diariooficial.interior.gob.cl/publicaciones/2026/07/23/44506/07/2841586.pdf", "archivo": "gm_pedimento_2841586.pdf", "fecha": "23-07-2026", "edicion": "44506" }, "geometry": { "type": "Polygon", "coordinates": [ [ [ -71.05013660880735, -27.683965876204258 ], [ -71.040001908945626, -27.684115531628258 ], [ -71.040337460713147, -27.702159440670439 ], [ -71.050473824750966, -27.702009671183866 ], [ -71.05013660880735, -27.683965876204258 ] ] ] } },
{ "type": "Feature", "properties": { "cve": "2841585", "nombre": "PUNTA CACHOS SEPTIMA 3", "solicitante": "Rumman Moreno Evelyn del Carmen", "region": "REGIÓN DE ATACAMA", "provincia": "Provincia de Copiapó", "comuna": null, "superficie_ha": 300.0, "datum_original": "PSAD56", "huso": 19, "epsg_origen": 24879, "tipo_publicacion": "pedimento", "fuente_pdf": "http://www.diariooficial.interior.gob.cl/publicaciones/2026/07/23/44506/07/2841585.pdf", "archivo": "gm_pedimento_2841585.pdf", "fecha": "23-07-2026", "edicion": "44506" }, "geometry": { "type": "Polygon", "coordinates": [ [ [ -71.040421397366202, -27.706670409937502 ], [ -71.03028453907794, -27.706819466638809 ], [ -71.030786068610638, -27.733885385395972 ], [ -71.040925426722367, -27.733736158365193 ], [ -71.040421397366202, -27.706670409937502 ] ] ] } },
{ "type": "Feature", "properties": { "cve": "2841587", "nombre": "SALADO SEXTA 4", "solicitante": "Rumman Moreno Evelyn del Carmen", "region": "REGIÓN DE ATACAMA", "provincia": "Provincia de Copiapó", "comuna": null, "superficie_ha": 200.0, "datum_original": "PSAD56", "huso": 19, "epsg_origen": 24879, "tipo_publicacion": "pedimento", "fuente_pdf": "http://www.diariooficial.interior.gob.cl/publicaciones/2026/07/23/44506/07/2841587.pdf", "archivo": "gm_pedimento_2841587.pdf", "fecha": "23-07-2026", "edicion": "44506" }, "geometry": { "type": "Polygon", "coordinates": [ [ [ -70.961559141420864, -27.662687038312363 ], [ -70.941292494951767, -27.662972448424604 ], [ -70.941451975760259, -27.671994979601429 ], [ -70.961720284582825, -27.671709460669923 ], [ -70.961559141420864, -27.662687038312363 ] ] ] } },
{ "type": "Feature", "properties": { "cve": "2841588", "nombre": "SALADO SEXTA 5", "solicitante": "Rumman Moreno Evelyn del Carmen", "region": "REGIÓN DE ATACAMA", "provincia": "Provincia de Copiapó", "comuna": null, "superficie_ha": 100.0, "datum_original": "PSAD56", "huso": 19, "epsg_origen": 24879, "tipo_publicacion": "pedimento", "fuente_pdf": "http://www.diariooficial.interior.gob.cl/publicaciones/2026/07/23/44506/07/2841588.pdf", "archivo": "gm_pedimento_2841588.pdf", "fecha": "23-07-2026", "edicion": "44506" }, "geometry": { "type": "Polygon", "coordinates": [ [ [ -70.941212782331675, -27.658461178076742 ], [ -70.931079763237733, -27.658602746006114 ], [ -70.931238375976662, -27.66762533751124 ], [ -70.941372226093534, -27.667483715599616 ], [ -70.941212782331675, -27.658461178076742 ] ] ] } }
]
}
