{
"type": "FeatureCollection",
"name": "boletin_mineria_20260715",
"crs": { "type": "name", "properties": { "name": "urn:ogc:def:crs:OGC:1.3:CRS84" } },
"features": [
{ "type": "Feature", "properties": { "cve": "2838144", "nombre": "CELIA 1 AL 3", "solicitante": "Alcaíno Iturriaga Álvaro Claudio", "region": "REGIÓN DE ARICA Y PARINACOTA", "provincia": "Provincia de Arica", "comuna": null, "superficie_ha": 15.0, "datum_original": "WGS84", "huso": 19, "epsg_origen": 32719, "tipo_publicacion": "manifestacion", "fuente_pdf": "http://www.diariooficial.interior.gob.cl/publicaciones/2026/07/15/44500/07/2838144.pdf", "archivo": "gm_manifestacion_2838144.pdf", "fecha": "15-07-2026", "edicion": "44500" }, "geometry": { "type": "Polygon", "coordinates": [ [ [ -70.305906965950157, -18.401652121411178 ], [ -70.301174261823746, -18.401684574982539 ], [ -70.301194624286893, -18.404395350166414 ], [ -70.305927402425596, -18.404362891481227 ], [ -70.305906965950157, -18.401652121411178 ] ] ] } },
{ "type": "Feature", "properties": { "cve": "2838102", "nombre": "Curika 1 al 57", "solicitante": "Aciar Cortés Naómy Isabella", "region": "REGIÓN DE ATACAMA", "provincia": "Provincia de Copiapó", "comuna": null, "superficie_ha": 285.0, "datum_original": "PSAD56", "huso": 19, "epsg_origen": 24879, "tipo_publicacion": "manifestacion", "fuente_pdf": "http://www.diariooficial.interior.gob.cl/publicaciones/2026/07/15/44500/07/2838102.pdf", "archivo": "gm_manifestacion_2838102.pdf", "fecha": "15-07-2026", "edicion": "44500" }, "geometry": { "type": "Polygon", "coordinates": [ [ [ -69.671713524080161, -26.933304825912391 ], [ -69.656604774350242, -26.933375923303931 ], [ -69.656704150944094, -26.95052928188116 ], [ -69.671815186956437, -26.950458131999756 ], [ -69.671713524080161, -26.933304825912391 ] ] ] } },
{ "type": "Feature", "properties": { "cve": "2838204", "nombre": "FIORELLA 1 AL 20", "solicitante": "Gallegos Riff Ramón Selim y otro", "region": "REGIÓN DE ATACAMA", "provincia": "Provincia de Copiapó", "comuna": null, "superficie_ha": 100.0, "datum_original": "PSAD56", "huso": 19, "epsg_origen": 24879, "tipo_publicacion": "manifestacion", "fuente_pdf": "http://www.diariooficial.interior.gob.cl/publicaciones/2026/07/15/44500/07/2838204.pdf", "archivo": "gm_manifestacion_2838204.pdf", "fecha": "15-07-2026", "edicion": "44500" }, "geometry": { "type": "Polygon", "coordinates": [ [ [ -70.16453244432158, -27.829190778917276 ], [ -70.154379885559536, -27.829276046294581 ], [ -70.154475401372608, -27.838301721796618 ], [ -70.164628799717889, -27.83821642202847 ], [ -70.16453244432158, -27.829190778917276 ] ] ] } },
{ "type": "Feature", "properties": { "cve": "2838213", "nombre": "PASCUAL 1 AL 10", "solicitante": "Minera Titanio Limitada", "region": "REGIÓN DE ATACAMA", "provincia": "Provincia de Copiapó", "comuna": "Copiapó", "superficie_ha": 100.0, "datum_original": "PSAD56", "huso": 19, "epsg_origen": 24879, "tipo_publicacion": "manifestacion", "fuente_pdf": "http://www.diariooficial.interior.gob.cl/publicaciones/2026/07/15/44500/07/2838213.pdf", "archivo": "gm_manifestacion_2838213.pdf", "fecha": "15-07-2026", "edicion": "44500" }, "geometry": { "type": "Polygon", "coordinates": [ [ [ -70.738632871166715, -27.616457020270946 ], [ -70.728502568829185, -27.616583604072385 ], [ -70.728644294939016, -27.625607274138659 ], [ -70.738775426879144, -27.625480642013354 ], [ -70.738632871166715, -27.616457020270946 ] ] ] } },
{ "type": "Feature", "properties": { "cve": "2838224", "nombre": "WOS Y APOLO 1 AL 4", "solicitante": "Escobar González Debbie", "region": "REGIÓN DE ATACAMA", "provincia": "Provincia de Copiapó", "comuna": null, "superficie_ha": 4.0, "datum_original": "PSAD56", "huso": 19, "epsg_origen": 24879, "tipo_publicacion": "manifestacion", "fuente_pdf": "http://www.diariooficial.interior.gob.cl/publicaciones/2026/07/15/44500/07/2838224.pdf", "archivo": "gm_manifestacion_2838224.pdf", "fecha": "15-07-2026", "edicion": "44500" }, "geometry": { "type": "Polygon", "coordinates": [ [ [ -70.42217508411845, -27.216679047335049 ], [ -70.420156000514964, -27.216699526631754 ], [ -70.420178892227298, -27.218504634065802 ], [ -70.42219800834998, -27.218484153189657 ], [ -70.42217508411845, -27.216679047335049 ] ] ] } },
{ "type": "Feature", "properties": { "cve": "2837869", "nombre": "GOTA 1 AL 6", "solicitante": "Compañía Minera Teck Carmen de Andacollo", "region": "REGIÓN DE COQUIMBO", "provincia": "Provincia de Elqui", "comuna": "COQUIMBO", "superficie_ha": 6.0, "datum_original": "PSAD56", "huso": 19, "epsg_origen": 24879, "tipo_publicacion": "manifestacion", "fuente_pdf": "http://www.diariooficial.interior.gob.cl/publicaciones/2026/07/15/44500/07/2837869.pdf", "archivo": "gm_manifestacion_2837869.pdf", "fecha": "15-07-2026", "edicion": "44500" }, "geometry": { "type": "Polygon", "coordinates": [ [ [ -71.242020532937843, -30.083656872702338 ], [ -71.239946725187608, -30.08369224596639 ], [ -71.240007713340233, -30.086397510662017 ], [ -71.242081577439819, -30.086362133566524 ], [ -71.242020532937843, -30.083656872702338 ] ] ] } },
{ "type": "Feature", "properties": { "cve": "2837844", "nombre": "LA CODICIADA 1 AL 110", "solicitante": "Ortiz Díaz Miguel Antonio", "region": "REGIÓN DE COQUIMBO", "provincia": "Provincia de Elqui", "comuna": "Vicuña", "superficie_ha": 110.0, "datum_original": "PSAD56", "huso": 19, "epsg_origen": 24879, "tipo_publicacion": "manifestacion", "fuente_pdf": "http://www.diariooficial.interior.gob.cl/publicaciones/2026/07/15/44500/07/2837844.pdf", "archivo": "gm_manifestacion_2837844.pdf", "fecha": "15-07-2026", "edicion": "44500" }, "geometry": { "type": "Polygon", "coordinates": [ [ [ -69.942033586421005, -29.785191325792425 ], [ -69.931688888503587, -29.785264618842557 ], [ -69.931780826470458, -29.795190666554586 ], [ -69.942126544824561, -29.795117344195351 ], [ -69.942033586421005, -29.785191325792425 ] ] ] } },
{ "type": "Feature", "properties": { "cve": "2837845", "nombre": "SRA BEATRIZ 1/20", "solicitante": "Contreras Díaz José Luis", "region": "REGIÓN DE COQUIMBO", "provincia": "Provincia de Elqui", "comuna": "La Serena", "superficie_ha": 100.0, "datum_original": "PSAD56", "huso": 19, "epsg_origen": 24879, "tipo_publicacion": "manifestacion", "fuente_pdf": "http://www.diariooficial.interior.gob.cl/publicaciones/2026/07/15/44500/07/2837845.pdf", "archivo": "gm_manifestacion_2837845.pdf", "fecha": "15-07-2026", "edicion": "44500" }, "geometry": { "type": "Polygon", "coordinates": [ [ [ -71.101203257451829, -29.676400455351839 ], [ -71.090875262846637, -29.676563863591518 ], [ -71.091061970536558, -29.685582859157254 ], [ -71.101390885744337, -29.685419391409862 ], [ -71.101203257451829, -29.676400455351839 ] ] ] } },
{ "type": "Feature", "properties": { "cve": "2838149", "nombre": "REINA AMALIA 1 AL 10", "solicitante": "Aguilera Aguilera Diego Armando", "region": "REGIÓN DE COQUIMBO", "provincia": "Provincia de Choapa", "comuna": null, "superficie_ha": 100.0, "datum_original": "PSAD56", "huso": 19, "epsg_origen": 24879, "tipo_publicacion": "manifestacion", "fuente_pdf": "http://www.diariooficial.interior.gob.cl/publicaciones/2026/07/15/44500/07/2838149.pdf", "archivo": "gm_manifestacion_2838149.pdf", "fecha": "15-07-2026", "edicion": "44500" }, "geometry": { "type": "Polygon", "coordinates": [ [ [ -71.288835875492737, -32.014874905469753 ], [ -71.278255630248353, -32.015065455307152 ], [ -71.278478808457905, -32.024080040857186 ], [ -71.289060087943128, -32.023889424678202 ], [ -71.288835875492737, -32.014874905469753 ] ] ] } },
{ "type": "Feature", "properties": { "cve": "2838153", "nombre": "CARMONA IV 13, 1 AL 30", "solicitante": "Compañía Minera Kairos Chile SpA", "region": "REGIÓN DE COQUIMBO", "provincia": "Provincia de Limarí", "comuna": "Monte Patria", "superficie_ha": 300.0, "datum_original": "PSAD56", "huso": 19, "epsg_origen": 24879, "tipo_publicacion": "manifestacion", "fuente_pdf": "http://www.diariooficial.interior.gob.cl/publicaciones/2026/07/15/44500/07/2838153.pdf", "archivo": "gm_manifestacion_2838153.pdf", "fecha": "15-07-2026", "edicion": "44500" }, "geometry": { "type": "Polygon", "coordinates": [ [ [ -70.691939966961868, -30.612470822432876 ], [ -70.681511555319091, -30.612606064240801 ], [ -70.681979510089775, -30.639665512414961 ], [ -70.69241082053226, -30.639530125573263 ], [ -70.691939966961868, -30.612470822432876 ] ] ] } },
{ "type": "Feature", "properties": { "cve": "2838136", "nombre": "LUIS ALQUIMIDES 1 AL 10", "solicitante": "Tapia Alfaro José Ignacio", "region": "REGIÓN DE COQUIMBO", "provincia": "Provincia de Limarí", "comuna": "Ovalle", "superficie_ha": 50.0, "datum_original": "PSAD56", "huso": 19, "epsg_origen": 24879, "tipo_publicacion": "manifestacion", "fuente_pdf": "http://www.diariooficial.interior.gob.cl/publicaciones/2026/07/15/44500/07/2838136.pdf", "archivo": "gm_manifestacion_2838136.pdf", "fecha": "15-07-2026", "edicion": "44500" }, "geometry": { "type": "Polygon", "coordinates": [ [ [ -71.394611350167807, -30.890153949757941 ], [ -71.389384464538267, -30.890250611296747 ], [ -71.389608436213194, -30.899266077308877 ], [ -71.394835810650363, -30.899169381422748 ], [ -71.394611350167807, -30.890153949757941 ] ] ] } },
{ "type": "Feature", "properties": { "cve": "2838028", "nombre": "GRAN PAPA, DEL 1 al 20", "solicitante": "Servicios Geológicos Integrales Limitada y otro", "region": "REGIÓN METROPOLITANA DE SANTIAGO", "provincia": "Provincia de Melipilla", "comuna": null, "superficie_ha": 100.0, "datum_original": "WGS84", "huso": 19, "epsg_origen": 32719, "tipo_publicacion": "manifestacion", "fuente_pdf": "http://www.diariooficial.interior.gob.cl/publicaciones/2026/07/15/44500/07/2838028.pdf", "archivo": "gm_manifestacion_2838028.pdf", "fecha": "15-07-2026", "edicion": "44500" }, "geometry": { "type": "Polygon", "coordinates": [ [ [ -71.161603730105611, -34.041544080841433 ], [ -71.150777511559653, -34.041734032812194 ], [ -71.15100517036889, -34.050746510793473 ], [ -71.161832532694632, -34.050556494774938 ], [ -71.161603730105611, -34.041544080841433 ] ] ] } },
{ "type": "Feature", "properties": { "cve": "2837806", "nombre": "SANTA EMMA, 1 AL 20", "solicitante": "Agrícola Santa Teresa SpA", "region": "REGIÓN METROPOLITANA DE SANTIAGO", "provincia": "Provincia de Talagante", "comuna": null, "superficie_ha": 100.0, "datum_original": "PSAD56", "huso": 19, "epsg_origen": 24879, "tipo_publicacion": "manifestacion", "fuente_pdf": "http://www.diariooficial.interior.gob.cl/publicaciones/2026/07/15/44500/07/2837806.pdf", "archivo": "gm_manifestacion_2837806.pdf", "fecha": "15-07-2026", "edicion": "44500" }, "geometry": { "type": "Polygon", "coordinates": [ [ [ -70.819253434151292, -33.556568382664125 ], [ -70.808485941490659, -33.556726175662376 ], [ -70.808673892704093, -33.565741170411279 ], [ -70.819442502901722, -33.565583323815247 ], [ -70.819253434151292, -33.556568382664125 ] ] ] } },
{ "type": "Feature", "properties": { "cve": "2837669", "nombre": "COTI 10C 1 AL 80", "solicitante": "Quilleco SpA", "region": "REGIÓN DEL BIOBÍO", "provincia": "Provincia de Biobío", "comuna": null, "superficie_ha": 80.0, "datum_original": "PSAD56", "huso": 18, "epsg_origen": 24878, "tipo_publicacion": "manifestacion", "fuente_pdf": "http://www.diariooficial.interior.gob.cl/publicaciones/2026/07/15/44500/07/2837669.pdf", "archivo": "gm_manifestacion_2837669.pdf", "fecha": "15-07-2026", "edicion": "44500" }, "geometry": { "type": "Polygon", "coordinates": [ [ [ -72.050646434041795, -37.272349036991365 ], [ -72.028118072106736, -37.271785187534611 ], [ -72.027976414896571, -37.275385925171335 ], [ -72.050505846853412, -37.275949847703522 ], [ -72.050646434041795, -37.272349036991365 ] ] ] } },
{ "type": "Feature", "properties": { "cve": "2837670", "nombre": "COTI 12C 1 AL 200", "solicitante": "Quilleco SpA", "region": "REGIÓN DEL BIOBÍO", "provincia": "Provincia de Biobío", "comuna": null, "superficie_ha": 200.0, "datum_original": "PSAD56", "huso": 18, "epsg_origen": 24878, "tipo_publicacion": "manifestacion", "fuente_pdf": "http://www.diariooficial.interior.gob.cl/publicaciones/2026/07/15/44500/07/2837670.pdf", "archivo": "gm_manifestacion_2837670.pdf", "fecha": "15-07-2026", "edicion": "44500" }, "geometry": { "type": "Polygon", "coordinates": [ [ [ -72.101786438958968, -37.261898869213752 ], [ -72.079260154639783, -37.261344882964721 ], [ -72.078912185630443, -37.270347152761055 ], [ -72.10144114447111, -37.270901318542514 ], [ -72.101786438958968, -37.261898869213752 ] ] ] } },
{ "type": "Feature", "properties": { "cve": "2837667", "nombre": "COTI 4C 1 AL 260", "solicitante": "Quilleco SpA", "region": "REGIÓN DEL BIOBÍO", "provincia": "Provincia de Biobío", "comuna": null, "superficie_ha": 260.0, "datum_original": "PSAD56", "huso": 18, "epsg_origen": 24878, "tipo_publicacion": "manifestacion", "fuente_pdf": "http://www.diariooficial.interior.gob.cl/publicaciones/2026/07/15/44500/07/2837667.pdf", "archivo": "gm_manifestacion_2837667.pdf", "fecha": "15-07-2026", "edicion": "44500" }, "geometry": { "type": "Polygon", "coordinates": [ [ [ -72.096243183150932, -37.288795605141857 ], [ -72.066948859634465, -37.288072774100812 ], [ -72.066599087267704, -37.297074903735876 ], [ -72.095896892158393, -37.297797968963245 ], [ -72.096243183150932, -37.288795605141857 ] ] ] } },
{ "type": "Feature", "properties": { "cve": "2837668", "nombre": "COTI 6C 1 AL 200", "solicitante": "Quilleco SpA", "region": "REGIÓN DEL BIOBÍO", "provincia": "Provincia de Biobío", "comuna": null, "superficie_ha": 200.0, "datum_original": "PSAD56", "huso": 18, "epsg_origen": 24878, "tipo_publicacion": "manifestacion", "fuente_pdf": "http://www.diariooficial.interior.gob.cl/publicaciones/2026/07/15/44500/07/2837668.pdf", "archivo": "gm_manifestacion_2837668.pdf", "fecha": "15-07-2026", "edicion": "44500" }, "geometry": { "type": "Polygon", "coordinates": [ [ [ -72.101095696433092, -37.279903751311821 ], [ -72.078564061884933, -37.279349405955919 ], [ -72.078215783331075, -37.288351642546559 ], [ -72.100750094773318, -37.288906167518988 ], [ -72.101095696433092, -37.279903751311821 ] ] ] } },
{ "type": "Feature", "properties": { "cve": "2838101", "nombre": "DON PEDRO, 1 AL 80", "solicitante": "Solar PDV SpA", "region": "REGIÓN DE ANTOFAGASTA", "provincia": "Provincia de Tocopilla", "comuna": null, "superficie_ha": 400.0, "datum_original": "PSAD56", "huso": 19, "epsg_origen": 24879, "tipo_publicacion": "mensura", "fuente_pdf": "http://www.diariooficial.interior.gob.cl/publicaciones/2026/07/15/44500/07/2838101.pdf", "archivo": "gm_mensura_2838101.pdf", "fecha": "15-07-2026", "edicion": "44500" }, "geometry": { "type": "Polygon", "coordinates": [ [ [ -69.595083921933593, -22.554933056557186 ], [ -69.575632540469883, -22.555003846881117 ], [ -69.575707527827589, -22.573070694023233 ], [ -69.595161442854291, -22.572999840881607 ], [ -69.595083921933593, -22.554933056557186 ] ] ] } },
{ "type": "Feature", "properties": { "cve": "2838123", "nombre": "SAN FRANCISCO 1 AL 14", "solicitante": "Requena Paredes Juan Esteban", "region": "REGIÓN DE ATACAMA", "provincia": "Provincia de Copiapó", "comuna": null, "superficie_ha": 84.0, "datum_original": "PSAD56", "huso": 19, "epsg_origen": 24879, "tipo_publicacion": "mensura", "fuente_pdf": "http://www.diariooficial.interior.gob.cl/publicaciones/2026/07/15/44500/07/2838123.pdf", "archivo": "gm_mensura_2838123.pdf", "fecha": "15-07-2026", "edicion": "44500" }, "geometry": { "type": "Polygon", "coordinates": [ [ [ -70.913113315111758, -27.9525153376878 ], [ -70.90701702251846, -27.952599950550002 ], [ -70.907239075956753, -27.965231211679704 ], [ -70.913336077349612, -27.965146553966346 ], [ -70.913113315111758, -27.9525153376878 ] ] ] } },
{ "type": "Feature", "properties": { "cve": "2838124", "nombre": "SAN PABLO 1 AL 10", "solicitante": "Requena Paredes Juan Esteban", "region": "REGIÓN DE ATACAMA", "provincia": "Provincia de Copiapó", "comuna": null, "superficie_ha": 60.0, "datum_original": "PSAD56", "huso": 19, "epsg_origen": 24879, "tipo_publicacion": "mensura", "fuente_pdf": "http://www.diariooficial.interior.gob.cl/publicaciones/2026/07/15/44500/07/2838124.pdf", "archivo": "gm_mensura_2838124.pdf", "fecha": "15-07-2026", "edicion": "44500" }, "geometry": { "type": "Polygon", "coordinates": [ [ [ -70.916464287668163, -27.969615258490172 ], [ -70.910367046276576, -27.969700067182099 ], [ -70.910526034091902, -27.978722358862349 ], [ -70.916623782162446, -27.978637518074002 ], [ -70.916464287668163, -27.969615258490172 ] ] ] } },
{ "type": "Feature", "properties": { "cve": "2838229", "nombre": "CERRO IMAN", "solicitante": "Asesorías Mineras ABS SpA", "region": "REGIÓN DE ATACAMA", "provincia": "Provincia de Copiapó", "comuna": null, "superficie_ha": 100.0, "datum_original": "PSAD56", "huso": 19, "epsg_origen": 24879, "tipo_publicacion": "pedimento", "fuente_pdf": "http://www.diariooficial.interior.gob.cl/publicaciones/2026/07/15/44500/07/2838229.pdf", "archivo": "gm_pedimento_2838229.pdf", "fecha": "15-07-2026", "edicion": "44500" }, "geometry": { "type": "Polygon", "coordinates": [ [ [ -70.422110573202772, -27.25451047992998 ], [ -70.41201172051845, -27.254612711409909 ], [ -70.412125729143455, -27.26363822630465 ], [ -70.422225396561615, -27.263535955437696 ], [ -70.422110573202772, -27.25451047992998 ] ] ] } },
{ "type": "Feature", "properties": { "cve": "2838208", "nombre": "CISNE NEGRO I", "solicitante": "Olivares Estay Erwin Juan Carlos", "region": "REGIÓN DE ATACAMA", "provincia": "Provincia de Copiapó", "comuna": "Copiapó", "superficie_ha": 100.0, "datum_original": "PSAD56", "huso": 19, "epsg_origen": 24879, "tipo_publicacion": "pedimento", "fuente_pdf": "http://www.diariooficial.interior.gob.cl/publicaciones/2026/07/15/44500/07/2838208.pdf", "archivo": "gm_pedimento_2838208.pdf", "fecha": "15-07-2026", "edicion": "44500" }, "geometry": { "type": "Polygon", "coordinates": [ [ [ -70.429265124312494, -27.261117317220823 ], [ -70.419165706278179, -27.261220087633891 ], [ -70.41928032483878, -27.270245565972928 ], [ -70.429380557875518, -27.270142755971911 ], [ -70.429265124312494, -27.261117317220823 ] ] ] } },
{ "type": "Feature", "properties": { "cve": "2838209", "nombre": "CISNE NEGRO II", "solicitante": "Olivares Estay Erwin Juan Carlos", "region": "REGIÓN DE ATACAMA", "provincia": "Provincia de Copiapó", "comuna": "Copiapó", "superficie_ha": 100.0, "datum_original": "PSAD56", "huso": 19, "epsg_origen": 24879, "tipo_publicacion": "pedimento", "fuente_pdf": "http://www.diariooficial.interior.gob.cl/publicaciones/2026/07/15/44500/07/2838209.pdf", "archivo": "gm_pedimento_2838209.pdf", "fecha": "15-07-2026", "edicion": "44500" }, "geometry": { "type": "Polygon", "coordinates": [ [ [ -70.425110309749783, -27.252133045972805 ], [ -70.415011684883993, -27.252235485610154 ], [ -70.415125924052546, -27.261260991884395 ], [ -70.425225363547654, -27.261158512777499 ], [ -70.425110309749783, -27.252133045972805 ] ] ] } },
{ "type": "Feature", "properties": { "cve": "2838046", "nombre": "AMELIA 1", "solicitante": "Pérez Vargas Miguel Ángel y otra", "region": "REGIÓN DE ATACAMA", "provincia": "Provincia de Chañaral", "comuna": "Diego de Almagro", "superficie_ha": 300.0, "datum_original": "PSAD56", "huso": 19, "epsg_origen": 24879, "tipo_publicacion": "pedimento", "fuente_pdf": "http://www.diariooficial.interior.gob.cl/publicaciones/2026/07/15/44500/07/2838046.pdf", "archivo": "gm_pedimento_2838046.pdf", "fecha": "15-07-2026", "edicion": "44500" }, "geometry": { "type": "Polygon", "coordinates": [ [ [ -68.762686857806699, -25.67190313460657 ], [ -68.752722324658393, -25.671886593509758 ], [ -68.752666400197583, -25.698976824806302 ], [ -68.762633186877778, -25.698993385857413 ], [ -68.762686857806699, -25.67190313460657 ] ] ] } },
{ "type": "Feature", "properties": { "cve": "2838047", "nombre": "AMELIA 2", "solicitante": "Pérez Vargas Miguel Ángel y otra", "region": "REGIÓN DE ATACAMA", "provincia": "Provincia de Chañaral", "comuna": "DIEGO DE ALMAGRO", "superficie_ha": 300.0, "datum_original": "PSAD56", "huso": 19, "epsg_origen": 24879, "tipo_publicacion": "pedimento", "fuente_pdf": "http://www.diariooficial.interior.gob.cl/publicaciones/2026/07/15/44500/07/2838047.pdf", "archivo": "gm_pedimento_2838047.pdf", "fecha": "15-07-2026", "edicion": "44500" }, "geometry": { "type": "Polygon", "coordinates": [ [ [ -68.752722324658393, -25.671886593509758 ], [ -68.742757800425849, -25.671869372165535 ], [ -68.742699622441961, -25.698959582687177 ], [ -68.752666400197583, -25.698976824806302 ], [ -68.752722324658393, -25.671886593509758 ] ] ] } },
{ "type": "Feature", "properties": { "cve": "2838048", "nombre": "AMELIA 3", "solicitante": "Pérez Vargas Miguel Ángel y otra", "region": "REGIÓN DE ATACAMA", "provincia": "Provincia de Chañaral", "comuna": "Diego de Almagro", "superficie_ha": 200.0, "datum_original": "PSAD56", "huso": 19, "epsg_origen": 24879, "tipo_publicacion": "pedimento", "fuente_pdf": "http://www.diariooficial.interior.gob.cl/publicaciones/2026/07/15/44500/07/2838048.pdf", "archivo": "gm_pedimento_2838048.pdf", "fecha": "15-07-2026", "edicion": "44500" }, "geometry": { "type": "Polygon", "coordinates": [ [ [ -68.772634268582578, -25.68094909686215 ], [ -68.762668976057086, -25.6809332296381 ], [ -68.762633186877778, -25.698993385857413 ], [ -68.772599982122912, -25.699009265838189 ], [ -68.772634268582578, -25.68094909686215 ] ] ] } },
{ "type": "Feature", "properties": { "cve": "2838049", "nombre": "AMELIA 4", "solicitante": "Pérez Vargas Miguel Ángel y otra", "region": "REGIÓN DE ATACAMA", "provincia": "Provincia de Chañaral", "comuna": "Diego de Almagro", "superficie_ha": 200.0, "datum_original": "PSAD56", "huso": 19, "epsg_origen": 24879, "tipo_publicacion": "pedimento", "fuente_pdf": "http://www.diariooficial.interior.gob.cl/publicaciones/2026/07/15/44500/07/2838049.pdf", "archivo": "gm_pedimento_2838049.pdf", "fecha": "15-07-2026", "edicion": "44500" }, "geometry": { "type": "Polygon", "coordinates": [ [ [ -68.782599569308061, -25.680964283560773 ], [ -68.772634268582578, -25.68094909686215 ], [ -68.772599982122912, -25.699009265838189 ], [ -68.782566785573394, -25.699024464746415 ], [ -68.782599569308061, -25.680964283560773 ] ] ] } },
{ "type": "Feature", "properties": { "cve": "2838814", "nombre": "JAZMIN 5", "solicitante": "Sáez Aguilera Gabriela Jazmín", "region": "REGIÓN DE COQUIMBO", "provincia": "Provincia de Elqui", "comuna": "Coquimbo", "superficie_ha": 300.0, "datum_original": "PSAD56", "huso": 19, "epsg_origen": 24879, "tipo_publicacion": "pedimento", "fuente_pdf": "http://www.diariooficial.interior.gob.cl/publicaciones/2026/07/15/44500/07/2838814.pdf", "archivo": "gm_pedimento_2838814.pdf", "fecha": "15-07-2026", "edicion": "44500" }, "geometry": { "type": "Polygon", "coordinates": [ [ [ -71.220225219165343, -30.083124894757237 ], [ -71.189117425331048, -30.083646895755226 ], [ -71.189316139388126, -30.092664750542706 ], [ -71.220426751372216, -30.092142561058257 ], [ -71.220225219165343, -30.083124894757237 ] ] ] } },
{ "type": "Feature", "properties": { "cve": "2837924", "nombre": "LA VINILLA 1", "solicitante": "Leo Inversiones S.A.", "region": "REGIÓN DE VALPARAÍSO", "provincia": "Provincia de Valparaíso", "comuna": "Casablanca", "superficie_ha": 300.0, "datum_original": "PSAD56", "huso": 19, "epsg_origen": 24879, "tipo_publicacion": "pedimento", "fuente_pdf": "http://www.diariooficial.interior.gob.cl/publicaciones/2026/07/15/44500/07/2837924.pdf", "archivo": "gm_pedimento_2837924.pdf", "fecha": "15-07-2026", "edicion": "44500" }, "geometry": { "type": "Polygon", "coordinates": [ [ [ -71.302201722327922, -33.369995279292304 ], [ -71.269977822573182, -33.370588928259906 ], [ -71.270212055299552, -33.379601602212674 ], [ -71.302439273037891, -33.37900775108713 ], [ -71.302201722327922, -33.369995279292304 ] ] ] } },
{ "type": "Feature", "properties": { "cve": "2837925", "nombre": "LA VINILLA 2", "solicitante": "Leo Inversiones S.A.", "region": "REGIÓN DE VALPARAÍSO", "provincia": "Provincia de Valparaíso", "comuna": "Casablanca", "superficie_ha": 300.0, "datum_original": "PSAD56", "huso": 19, "epsg_origen": 24879, "tipo_publicacion": "pedimento", "fuente_pdf": "http://www.diariooficial.interior.gob.cl/publicaciones/2026/07/15/44500/07/2837925.pdf", "archivo": "gm_pedimento_2837925.pdf", "fecha": "15-07-2026", "edicion": "44500" }, "geometry": { "type": "Polygon", "coordinates": [ [ [ -71.269509669761888, -33.352563536386747 ], [ -71.25877037142223, -33.352759429372142 ], [ -71.259469440187701, -33.379797695420635 ], [ -71.270212055299552, -33.379601602212674 ], [ -71.269509669761888, -33.352563536386747 ] ] ] } },
{ "type": "Feature", "properties": { "cve": "2837926", "nombre": "LA VINILLA 3", "solicitante": "Leo Inversiones S.A.", "region": "REGIÓN DE VALPARAÍSO", "provincia": "Provincia de Valparaíso", "comuna": "Casablanca", "superficie_ha": 300.0, "datum_original": "PSAD56", "huso": 19, "epsg_origen": 24879, "tipo_publicacion": "pedimento", "fuente_pdf": "http://www.diariooficial.interior.gob.cl/publicaciones/2026/07/15/44500/07/2837926.pdf", "archivo": "gm_pedimento_2837926.pdf", "fecha": "15-07-2026", "edicion": "44500" }, "geometry": { "type": "Polygon", "coordinates": [ [ [ -71.25877037142223, -33.352759429372142 ], [ -71.248030969432776, -33.352954394670753 ], [ -71.248726721295739, -33.379992859994516 ], [ -71.259469440187701, -33.379797695420635 ], [ -71.25877037142223, -33.352759429372142 ] ] ] } },
{ "type": "Feature", "properties": { "cve": "2837927", "nombre": "LA VINILLA 4", "solicitante": "Leo Inversiones S.A.", "region": "REGIÓN DE VALPARAÍSO", "provincia": "Provincia de Valparaíso", "comuna": "Casablanca", "superficie_ha": 300.0, "datum_original": "PSAD56", "huso": 19, "epsg_origen": 24879, "tipo_publicacion": "pedimento", "fuente_pdf": "http://www.diariooficial.interior.gob.cl/publicaciones/2026/07/15/44500/07/2837927.pdf", "archivo": "gm_pedimento_2837927.pdf", "fecha": "15-07-2026", "edicion": "44500" }, "geometry": { "type": "Polygon", "coordinates": [ [ [ -71.248030969432776, -33.352954394670753 ], [ -71.237291464284567, -33.353148432252539 ], [ -71.237983899115378, -33.380187095904219 ], [ -71.248726721295739, -33.379992859994516 ], [ -71.248030969432776, -33.352954394670753 ] ] ] } },
{ "type": "Feature", "properties": { "cve": "2837928", "nombre": "LA VINILLA 5", "solicitante": "Leo Inversiones S.A.", "region": "REGIÓN DE VALPARAÍSO", "provincia": "Provincia de Valparaíso", "comuna": "Casablanca", "superficie_ha": 300.0, "datum_original": "PSAD56", "huso": 19, "epsg_origen": 24879, "tipo_publicacion": "pedimento", "fuente_pdf": "http://www.diariooficial.interior.gob.cl/publicaciones/2026/07/15/44500/07/2837928.pdf", "archivo": "gm_pedimento_2837928.pdf", "fecha": "15-07-2026", "edicion": "44500" }, "geometry": { "type": "Polygon", "coordinates": [ [ [ -71.280954566139656, -33.379404580400802 ], [ -71.248726721295739, -33.379992859994516 ], [ -71.248958845103047, -33.389005652507748 ], [ -71.281190009668151, -33.388417172610559 ], [ -71.280954566139656, -33.379404580400802 ] ] ] } },
{ "type": "Feature", "properties": { "cve": "2837988", "nombre": "NOGALES 1", "solicitante": "Bess El Olivo SpA", "region": "REGIÓN DE VALPARAÍSO", "provincia": "Provincia de Quillota", "comuna": "Nogales", "superficie_ha": 300.0, "datum_original": "PSAD56", "huso": 19, "epsg_origen": 24879, "tipo_publicacion": "pedimento", "fuente_pdf": "http://www.diariooficial.interior.gob.cl/publicaciones/2026/07/15/44500/07/2837988.pdf", "archivo": "gm_pedimento_2837988.pdf", "fecha": "15-07-2026", "edicion": "44500" }, "geometry": { "type": "Polygon", "coordinates": [ [ [ -71.240295436038011, -32.710149478624842 ], [ -71.208309499550751, -32.710717012061821 ], [ -71.208531709363243, -32.719731027766365 ], [ -71.240520857898829, -32.719163299028317 ], [ -71.240295436038011, -32.710149478624842 ] ] ] } },
{ "type": "Feature", "properties": { "cve": "2837989", "nombre": "NOGALES 2", "solicitante": "Bess El Olivo SpA", "region": "REGIÓN DE VALPARAÍSO", "provincia": "Provincia de Quillota", "comuna": "Nogales", "superficie_ha": 300.0, "datum_original": "PSAD56", "huso": 19, "epsg_origen": 24879, "tipo_publicacion": "pedimento", "fuente_pdf": "http://www.diariooficial.interior.gob.cl/publicaciones/2026/07/15/44500/07/2837989.pdf", "archivo": "gm_pedimento_2837989.pdf", "fecha": "15-07-2026", "edicion": "44500" }, "geometry": { "type": "Polygon", "coordinates": [ [ [ -71.240520857898829, -32.719163299028317 ], [ -71.208531709363243, -32.719731027766365 ], [ -71.208754018320491, -32.728745029054281 ], [ -71.240746380335594, -32.728177104976687 ], [ -71.240520857898829, -32.719163299028317 ] ] ] } },
{ "type": "Feature", "properties": { "cve": "2837739", "nombre": "ENELDO 1", "solicitante": "Corporación Nacional del Cobre de Chile", "region": "REGIÓN METROPOLITANA DE SANTIAGO", "provincia": "Provincia Cordillera", "comuna": "SAN JOSE DE MAIPO", "superficie_ha": 200.0, "datum_original": "WGS84", "huso": 19, "epsg_origen": 32719, "tipo_publicacion": "pedimento", "fuente_pdf": "http://www.diariooficial.interior.gob.cl/publicaciones/2026/07/15/44500/07/2837739.pdf", "archivo": "gm_pedimento_2837739.pdf", "fecha": "15-07-2026", "edicion": "44500" }, "geometry": { "type": "Polygon", "coordinates": [ [ [ -69.936704672625567, -34.004045597346746 ], [ -69.925876964535163, -34.004127576906626 ], [ -69.926072775672267, -34.022163015844399 ], [ -69.936902772872827, -34.02208098093336 ], [ -69.936704672625567, -34.004045597346746 ] ] ] } },
{ "type": "Feature", "properties": { "cve": "2837740", "nombre": "ENELDO 2", "solicitante": "Corporación Nacional del Cobre de Chile", "region": "REGIÓN METROPOLITANA DE SANTIAGO", "provincia": "Provincia Cordillera", "comuna": "SAN JOSE DE MAIPO", "superficie_ha": 800.0, "datum_original": "WGS84", "huso": 19, "epsg_origen": 32719, "tipo_publicacion": "pedimento", "fuente_pdf": "http://www.diariooficial.interior.gob.cl/publicaciones/2026/07/15/44500/07/2837740.pdf", "archivo": "gm_pedimento_2837740.pdf", "fecha": "15-07-2026", "edicion": "44500" }, "geometry": { "type": "Polygon", "coordinates": [ [ [ -69.925876964535163, -34.004127576906626 ], [ -69.882565702089423, -34.004445966113821 ], [ -69.882752356418493, -34.022481620023399 ], [ -69.926072775672267, -34.022163015844399 ], [ -69.925876964535163, -34.004127576906626 ] ] ] } },
{ "type": "Feature", "properties": { "cve": "2837741", "nombre": "ENELDO 3", "solicitante": "Corporación Nacional del Cobre de Chile", "region": "REGIÓN METROPOLITANA DE SANTIAGO", "provincia": "Provincia Cordillera", "comuna": "SAN JOSE DE MAIPO", "superficie_ha": 800.0, "datum_original": "WGS84", "huso": 19, "epsg_origen": 32719, "tipo_publicacion": "pedimento", "fuente_pdf": "http://www.diariooficial.interior.gob.cl/publicaciones/2026/07/15/44500/07/2837741.pdf", "archivo": "gm_pedimento_2837741.pdf", "fecha": "15-07-2026", "edicion": "44500" }, "geometry": { "type": "Polygon", "coordinates": [ [ [ -69.920657760707357, -34.022203675725486 ], [ -69.877337256635911, -34.022520372780292 ], [ -69.877522931377086, -34.040555998960293 ], [ -69.920852600474177, -34.04023908813155 ], [ -69.920657760707357, -34.022203675725486 ] ] ] } },
{ "type": "Feature", "properties": { "cve": "2837742", "nombre": "ENELDO 4", "solicitante": "Corporación Nacional del Cobre de Chile", "region": "REGIÓN METROPOLITANA DE SANTIAGO", "provincia": "Provincia Cordillera", "comuna": "SAN JOSE DE MAIPO", "superficie_ha": 200.0, "datum_original": "WGS84", "huso": 19, "epsg_origen": 32719, "tipo_publicacion": "pedimento", "fuente_pdf": "http://www.diariooficial.interior.gob.cl/publicaciones/2026/07/15/44500/07/2837742.pdf", "archivo": "gm_pedimento_2837742.pdf", "fecha": "15-07-2026", "edicion": "44500" }, "geometry": { "type": "Polygon", "coordinates": [ [ [ -69.93148777974865, -34.022122117579826 ], [ -69.920657760707357, -34.022203675725486 ], [ -69.920852600474177, -34.04023908813155 ], [ -69.931684910680445, -34.040157474933537 ], [ -69.93148777974865, -34.022122117579826 ] ] ] } },
{ "type": "Feature", "properties": { "cve": "2837746", "nombre": "ENELDO 5", "solicitante": "Corporación Nacional del Cobre de Chile", "region": "REGIÓN METROPOLITANA DE SANTIAGO", "provincia": "Provincia Cordillera", "comuna": "SAN JOSE DE MAIPO", "superficie_ha": 800.0, "datum_original": "WGS84", "huso": 19, "epsg_origen": 32719, "tipo_publicacion": "pedimento", "fuente_pdf": "http://www.diariooficial.interior.gob.cl/publicaciones/2026/07/15/44500/07/2837746.pdf", "archivo": "gm_pedimento_2837746.pdf", "fecha": "15-07-2026", "edicion": "44500" }, "geometry": { "type": "Polygon", "coordinates": [ [ [ -69.920852600474177, -34.04023908813155 ], [ -69.877522931377086, -34.040555998960293 ], [ -69.877708771312925, -34.058591571248797 ], [ -69.921047613587831, -34.058274446557292 ], [ -69.920852600474177, -34.04023908813155 ] ] ] } },
{ "type": "Feature", "properties": { "cve": "2837743", "nombre": "VALENTIN 1", "solicitante": "Corporación Nacional del Cobre de Chile", "region": "REGIÓN METROPOLITANA DE SANTIAGO", "provincia": "Provincia Cordillera", "comuna": "SAN JOSE DE MAIPO", "superficie_ha": 200.0, "datum_original": "WGS84", "huso": 19, "epsg_origen": 32719, "tipo_publicacion": "pedimento", "fuente_pdf": "http://www.diariooficial.interior.gob.cl/publicaciones/2026/07/15/44500/07/2837743.pdf", "archivo": "gm_pedimento_2837743.pdf", "fecha": "15-07-2026", "edicion": "44500" }, "geometry": { "type": "Polygon", "coordinates": [ [ [ -70.00989201135917, -33.319836055813141 ], [ -69.999149908189636, -33.319922919139451 ], [ -69.999355822430587, -33.337959968895817 ], [ -70.010100138521594, -33.337873046320922 ], [ -70.00989201135917, -33.319836055813141 ] ] ] } },
{ "type": "Feature", "properties": { "cve": "2837744", "nombre": "VALENTIN 2", "solicitante": "Corporación Nacional del Cobre de Chile", "region": "REGIÓN METROPOLITANA DE SANTIAGO", "provincia": "Provincia Cordillera", "comuna": "SAN JOSE DE MAIPO", "superficie_ha": 200.0, "datum_original": "WGS84", "huso": 19, "epsg_origen": 32719, "tipo_publicacion": "pedimento", "fuente_pdf": "http://www.diariooficial.interior.gob.cl/publicaciones/2026/07/15/44500/07/2837744.pdf", "archivo": "gm_pedimento_2837744.pdf", "fecha": "15-07-2026", "edicion": "44500" }, "geometry": { "type": "Polygon", "coordinates": [ [ [ -70.021033874549474, -33.354018386219231 ], [ -70.01028761154835, -33.354106291936994 ], [ -70.010496091254822, -33.372143180561991 ], [ -70.021244570885884, -33.372055214916344 ], [ -70.021033874549474, -33.354018386219231 ] ] ] } },
{ "type": "Feature", "properties": { "cve": "2837938", "nombre": "DORADO DOS", "solicitante": "Agrícola e Inmobiliaria Invergaf Limitada y otro", "region": "REGIÓN METROPOLITANA DE SANTIAGO", "provincia": "Provincia de Melipilla", "comuna": null, "superficie_ha": 100.0, "datum_original": "PSAD56", "huso": 19, "epsg_origen": 24879, "tipo_publicacion": "pedimento", "fuente_pdf": "http://www.diariooficial.interior.gob.cl/publicaciones/2026/07/15/44500/07/2837938.pdf", "archivo": "gm_pedimento_2837938.pdf", "fecha": "15-07-2026", "edicion": "44500" }, "geometry": { "type": "Polygon", "coordinates": [ [ [ -71.162404161113585, -34.049671449616369 ], [ -71.151576993398749, -34.04986149121541 ], [ -71.151804781809147, -34.058873887173064 ], [ -71.162633093628457, -34.058683781502303 ], [ -71.162404161113585, -34.049671449616369 ] ] ] } },
{ "type": "Feature", "properties": { "cve": "2837940", "nombre": "DORADO TRES", "solicitante": "Agrícola e Inmobiliaria Invergaf Limitada y otro", "region": "REGIÓN METROPOLITANA DE SANTIAGO", "provincia": "Provincia de Melipilla", "comuna": null, "superficie_ha": 100.0, "datum_original": "PSAD56", "huso": 19, "epsg_origen": 24879, "tipo_publicacion": "pedimento", "fuente_pdf": "http://www.diariooficial.interior.gob.cl/publicaciones/2026/07/15/44500/07/2837940.pdf", "archivo": "gm_pedimento_2837940.pdf", "fecha": "15-07-2026", "edicion": "44500" }, "geometry": { "type": "Polygon", "coordinates": [ [ [ -71.932089153245272, -34.039124612621414 ], [ -71.92126979579443, -34.039382347334545 ], [ -71.921578889442571, -34.048389379784815 ], [ -71.93239938767465, -34.048131558216369 ], [ -71.932089153245272, -34.039124612621414 ] ] ] } },
{ "type": "Feature", "properties": { "cve": "2838033", "nombre": "SHALOM UNO", "solicitante": "Servicios Geológicos Integrales Limitada y otro", "region": "REGIÓN METROPOLITANA DE SANTIAGO", "provincia": "Provincia de Melipilla", "comuna": null, "superficie_ha": 100.0, "datum_original": "WGS84", "huso": 19, "epsg_origen": 32719, "tipo_publicacion": "pedimento", "fuente_pdf": "http://www.diariooficial.interior.gob.cl/publicaciones/2026/07/15/44500/07/2838033.pdf", "archivo": "gm_pedimento_2838033.pdf", "fecha": "15-07-2026", "edicion": "44500" }, "geometry": { "type": "Polygon", "coordinates": [ [ [ -71.172775323000934, -34.042158546551164 ], [ -71.161949106251114, -34.042349485246255 ], [ -71.162177952305242, -34.051361895940325 ], [ -71.173005312835841, -34.051170892865791 ], [ -71.172775323000934, -34.042158546551164 ] ] ] } },
{ "type": "Feature", "properties": { "cve": "2838180", "nombre": "CUPRITA 100", "solicitante": "Fürst Gwinner Paul Javier", "region": "REGIÓN DEL LIBERTADOR GENERAL BERNARDO O’HIGGINS", "provincia": "Provincia de Colchagua", "comuna": null, "superficie_ha": 300.0, "datum_original": "PSAD56", "huso": 19, "epsg_origen": 24879, "tipo_publicacion": "pedimento", "fuente_pdf": "http://www.diariooficial.interior.gob.cl/publicaciones/2026/07/15/44500/07/2838180.pdf", "archivo": "gm_pedimento_2838180.pdf", "fecha": "15-07-2026", "edicion": "44500" }, "geometry": { "type": "Polygon", "coordinates": [ [ [ -70.518616181181812, -34.641822412284725 ], [ -70.507708702985752, -34.641957764208932 ], [ -70.508198571066927, -34.669002010187334 ], [ -70.519109589890846, -34.668866522410603 ], [ -70.518616181181812, -34.641822412284725 ] ] ] } },
{ "type": "Feature", "properties": { "cve": "2838181", "nombre": "CUPRITA 102", "solicitante": "Fürst Gwinner Paul Javier", "region": "REGIÓN DEL LIBERTADOR GENERAL BERNARDO O’HIGGINS", "provincia": "Provincia de Colchagua", "comuna": null, "superficie_ha": 200.0, "datum_original": "PSAD56", "huso": 19, "epsg_origen": 24879, "tipo_publicacion": "pedimento", "fuente_pdf": "http://www.diariooficial.interior.gob.cl/publicaciones/2026/07/15/44500/07/2838181.pdf", "archivo": "gm_pedimento_2838181.pdf", "fecha": "15-07-2026", "edicion": "44500" }, "geometry": { "type": "Polygon", "coordinates": [ [ [ -70.528696807712024, -34.596612513786937 ], [ -70.517795292938402, -34.596748612828996 ], [ -70.518123429485172, -34.614778174986533 ], [ -70.529027298858722, -34.614641984830513 ], [ -70.528696807712024, -34.596612513786937 ] ] ] } },
{ "type": "Feature", "properties": { "cve": "2838182", "nombre": "CUPRITA 103", "solicitante": "Fürst Gwinner Paul Javier", "region": "REGIÓN DEL LIBERTADOR GENERAL BERNARDO O’HIGGINS", "provincia": "Provincia de Colchagua", "comuna": null, "superficie_ha": 300.0, "datum_original": "PSAD56", "huso": 19, "epsg_origen": 24879, "tipo_publicacion": "pedimento", "fuente_pdf": "http://www.diariooficial.interior.gob.cl/publicaciones/2026/07/15/44500/07/2838182.pdf", "archivo": "gm_pedimento_2838182.pdf", "fecha": "15-07-2026", "edicion": "44500" }, "geometry": { "type": "Polygon", "coordinates": [ [ [ -70.507708702985752, -34.641957764208932 ], [ -70.496801152312074, -34.642092141136544 ], [ -70.497287479670803, -34.669136521989273 ], [ -70.508198571066927, -34.669002010187334 ], [ -70.507708702985752, -34.641957764208932 ] ] ] } },
{ "type": "Feature", "properties": { "cve": "2838183", "nombre": "CUPRITA 105", "solicitante": "Fürst Gwinner Paul Javier", "region": "REGIÓN DEL LIBERTADOR GENERAL BERNARDO O’HIGGINS", "provincia": "Provincia de Colchagua", "comuna": null, "superficie_ha": 300.0, "datum_original": "PSAD56", "huso": 19, "epsg_origen": 24879, "tipo_publicacion": "pedimento", "fuente_pdf": "http://www.diariooficial.interior.gob.cl/publicaciones/2026/07/15/44500/07/2838183.pdf", "archivo": "gm_pedimento_2838183.pdf", "fecha": "15-07-2026", "edicion": "44500" }, "geometry": { "type": "Polygon", "coordinates": [ [ [ -70.496801152312074, -34.642092141136544 ], [ -70.485893529684262, -34.642225543046386 ], [ -70.486376316226668, -34.669270057795259 ], [ -70.497287479670803, -34.669136521989273 ], [ -70.496801152312074, -34.642092141136544 ] ] ] } },
{ "type": "Feature", "properties": { "cve": "2838184", "nombre": "CUPRITA 106", "solicitante": "Fürst Gwinner Paul Javier", "region": "REGIÓN DEL LIBERTADOR GENERAL BERNARDO O’HIGGINS", "provincia": "Provincia de Colchagua", "comuna": null, "superficie_ha": 300.0, "datum_original": "PSAD56", "huso": 19, "epsg_origen": 24879, "tipo_publicacion": "pedimento", "fuente_pdf": "http://www.diariooficial.interior.gob.cl/publicaciones/2026/07/15/44500/07/2838184.pdf", "archivo": "gm_pedimento_2838184.pdf", "fecha": "15-07-2026", "edicion": "44500" }, "geometry": { "type": "Polygon", "coordinates": [ [ [ -70.485893529684262, -34.642225543046386 ], [ -70.474985835625873, -34.642357969917477 ], [ -70.475465081258747, -34.669402617584268 ], [ -70.486376316226668, -34.669270057795259 ], [ -70.485893529684262, -34.642225543046386 ] ] ] } },
{ "type": "Feature", "properties": { "cve": "2838185", "nombre": "CUPRITA 107", "solicitante": "Fürst Gwinner Paul Javier", "region": "REGIÓN DEL LIBERTADOR GENERAL BERNARDO O’HIGGINS", "provincia": "Provincia de Colchagua", "comuna": null, "superficie_ha": 300.0, "datum_original": "PSAD56", "huso": 19, "epsg_origen": 24879, "tipo_publicacion": "pedimento", "fuente_pdf": "http://www.diariooficial.interior.gob.cl/publicaciones/2026/07/15/44500/07/2838185.pdf", "archivo": "gm_pedimento_2838185.pdf", "fecha": "15-07-2026", "edicion": "44500" }, "geometry": { "type": "Polygon", "coordinates": [ [ [ -70.474985835625873, -34.642357969917477 ], [ -70.464078070660435, -34.642489421728975 ], [ -70.464553775291265, -34.669534201335409 ], [ -70.475465081258747, -34.669402617584268 ], [ -70.474985835625873, -34.642357969917477 ] ] ] } },
{ "type": "Feature", "properties": { "cve": "2838186", "nombre": "CUPRITA 109", "solicitante": "Fürst Gwinner Paul Javier", "region": "REGIÓN DEL LIBERTADOR GENERAL BERNARDO O’HIGGINS", "provincia": "Provincia de Colchagua", "comuna": null, "superficie_ha": 300.0, "datum_original": "PSAD56", "huso": 19, "epsg_origen": 24879, "tipo_publicacion": "pedimento", "fuente_pdf": "http://www.diariooficial.interior.gob.cl/publicaciones/2026/07/15/44500/07/2838186.pdf", "archivo": "gm_pedimento_2838186.pdf", "fecha": "15-07-2026", "edicion": "44500" }, "geometry": { "type": "Polygon", "coordinates": [ [ [ -70.453170235311561, -34.642619898460183 ], [ -70.442262330102821, -34.642749400090565 ], [ -70.44273095245471, -34.669794440641404 ], [ -70.453642398848501, -34.669664809027985 ], [ -70.453170235311561, -34.642619898460183 ] ] ] } },
{ "type": "Feature", "properties": { "cve": "2838187", "nombre": "CUPRITA 112", "solicitante": "Fürst Gwinner Paul Javier", "region": "REGIÓN DEL LIBERTADOR GENERAL BERNARDO O’HIGGINS", "provincia": "Provincia de Colchagua", "comuna": null, "superficie_ha": 300.0, "datum_original": "PSAD56", "huso": 19, "epsg_origen": 24879, "tipo_publicacion": "pedimento", "fuente_pdf": "http://www.diariooficial.interior.gob.cl/publicaciones/2026/07/15/44500/07/2838187.pdf", "archivo": "gm_pedimento_2838187.pdf", "fecha": "15-07-2026", "edicion": "44500" }, "geometry": { "type": "Polygon", "coordinates": [ [ [ -70.464553775291265, -34.669534201335409 ], [ -70.453642398848501, -34.669664809027985 ], [ -70.454115191946798, -34.696709592881952 ], [ -70.46503011420198, -34.696578854144434 ], [ -70.464553775291265, -34.669534201335409 ] ] ] } },
{ "type": "Feature", "properties": { "cve": "2838188", "nombre": "CUPRITA 114", "solicitante": "Fürst Gwinner Paul Javier", "region": "REGIÓN DEL LIBERTADOR GENERAL BERNARDO O’HIGGINS", "provincia": "Provincia de Colchagua", "comuna": null, "superficie_ha": 300.0, "datum_original": "PSAD56", "huso": 19, "epsg_origen": 24879, "tipo_publicacion": "pedimento", "fuente_pdf": "http://www.diariooficial.interior.gob.cl/publicaciones/2026/07/15/44500/07/2838188.pdf", "archivo": "gm_pedimento_2838188.pdf", "fecha": "15-07-2026", "edicion": "44500" }, "geometry": { "type": "Polygon", "coordinates": [ [ [ -70.44273095245471, -34.669794440641404 ], [ -70.4318194366342, -34.669923096155266 ], [ -70.432285137834285, -34.696968139162259 ], [ -70.443200199649226, -34.696839354561369 ], [ -70.44273095245471, -34.669794440641404 ] ] ] } },
{ "type": "Feature", "properties": { "cve": "2838189", "nombre": "CUPRITA 118", "solicitante": "Fürst Gwinner Paul Javier", "region": "REGIÓN DEL LIBERTADOR GENERAL BERNARDO O’HIGGINS", "provincia": "Provincia de Colchagua", "comuna": null, "superficie_ha": 300.0, "datum_original": "PSAD56", "huso": 19, "epsg_origen": 24879, "tipo_publicacion": "pedimento", "fuente_pdf": "http://www.diariooficial.interior.gob.cl/publicaciones/2026/07/15/44500/07/2838189.pdf", "archivo": "gm_pedimento_2838189.pdf", "fecha": "15-07-2026", "edicion": "44500" }, "geometry": { "type": "Polygon", "coordinates": [ [ [ -70.430889893797087, -34.615832630546883 ], [ -70.398176169604582, -34.616211978244763 ], [ -70.398327386257293, -34.625227217921108 ], [ -70.431044645620986, -34.624847743283262 ], [ -70.430889893797087, -34.615832630546883 ] ] ] } },
{ "type": "Feature", "properties": { "cve": "2838190", "nombre": "CUPRITA 120", "solicitante": "Fürst Gwinner Paul Javier", "region": "REGIÓN DEL LIBERTADOR GENERAL BERNARDO O’HIGGINS", "provincia": "Provincia de Colchagua", "comuna": null, "superficie_ha": 300.0, "datum_original": "PSAD56", "huso": 19, "epsg_origen": 24879, "tipo_publicacion": "pedimento", "fuente_pdf": "http://www.diariooficial.interior.gob.cl/publicaciones/2026/07/15/44500/07/2838190.pdf", "archivo": "gm_pedimento_2838190.pdf", "fecha": "15-07-2026", "edicion": "44500" }, "geometry": { "type": "Polygon", "coordinates": [ [ [ -70.431199466197967, -34.633862841968188 ], [ -70.398478670093411, -34.634242443572944 ], [ -70.398630021142083, -34.643257655198411 ], [ -70.431354355557872, -34.642877926599738 ], [ -70.431199466197967, -34.633862841968188 ] ] ] } },
{ "type": "Feature", "properties": { "cve": "2838191", "nombre": "CUPRITA 122", "solicitante": "Fürst Gwinner Paul Javier", "region": "REGIÓN DEL LIBERTADOR GENERAL BERNARDO O’HIGGINS", "provincia": "Provincia de Colchagua", "comuna": null, "superficie_ha": 300.0, "datum_original": "PSAD56", "huso": 19, "epsg_origen": 24879, "tipo_publicacion": "pedimento", "fuente_pdf": "http://www.diariooficial.interior.gob.cl/publicaciones/2026/07/15/44500/07/2838191.pdf", "archivo": "gm_pedimento_2838191.pdf", "fecha": "15-07-2026", "edicion": "44500" }, "geometry": { "type": "Polygon", "coordinates": [ [ [ -70.431509313730587, -34.651892997176027 ], [ -70.39878143943254, -34.652272852795591 ], [ -70.398932924994028, -34.66128803636262 ], [ -70.431664340746067, -34.660908053695174 ], [ -70.431509313730587, -34.651892997176027 ] ] ] } },
{ "type": "Feature", "properties": { "cve": "2838175", "nombre": "CUPRITA 85", "solicitante": "Fürst Gwinner Paul Javier", "region": "REGIÓN DEL LIBERTADOR GENERAL BERNARDO O’HIGGINS", "provincia": "Provincia de Colchagua", "comuna": null, "superficie_ha": 200.0, "datum_original": "PSAD56", "huso": 19, "epsg_origen": 24879, "tipo_publicacion": "pedimento", "fuente_pdf": "http://www.diariooficial.interior.gob.cl/publicaciones/2026/07/15/44500/07/2838175.pdf", "archivo": "gm_pedimento_2838175.pdf", "fecha": "15-07-2026", "edicion": "44500" }, "geometry": { "type": "Polygon", "coordinates": [ [ [ -70.506730922876883, -34.58786889104713 ], [ -70.49583043951931, -34.588002998483702 ], [ -70.496153723049133, -34.606032769119942 ], [ -70.507056560087719, -34.605898571891132 ], [ -70.506730922876883, -34.58786889104713 ] ] ] } },
{ "type": "Feature", "properties": { "cve": "2838176", "nombre": "CUPRITA 92", "solicitante": "Fürst Gwinner Paul Javier", "region": "REGIÓN DEL LIBERTADOR GENERAL BERNARDO O’HIGGINS", "provincia": "Provincia de Colchagua", "comuna": null, "superficie_ha": 300.0, "datum_original": "PSAD56", "huso": 19, "epsg_origen": 24879, "tipo_publicacion": "pedimento", "fuente_pdf": "http://www.diariooficial.interior.gob.cl/publicaciones/2026/07/15/44500/07/2838176.pdf", "archivo": "gm_pedimento_2838176.pdf", "fecha": "15-07-2026", "edicion": "44500" }, "geometry": { "type": "Polygon", "coordinates": [ [ [ -70.507219487205532, -34.614913391144782 ], [ -70.496315472542662, -34.615047633283972 ], [ -70.496801152312074, -34.642092141136544 ], [ -70.507708702985752, -34.641957764208932 ], [ -70.507219487205532, -34.614913391144782 ] ] ] } },
{ "type": "Feature", "properties": { "cve": "2838177", "nombre": "CUPRITA 94", "solicitante": "Fürst Gwinner Paul Javier", "region": "REGIÓN DEL LIBERTADOR GENERAL BERNARDO O’HIGGINS", "provincia": "Provincia de Colchagua", "comuna": null, "superficie_ha": 300.0, "datum_original": "PSAD56", "huso": 19, "epsg_origen": 24879, "tipo_publicacion": "pedimento", "fuente_pdf": "http://www.diariooficial.interior.gob.cl/publicaciones/2026/07/15/44500/07/2838177.pdf", "archivo": "gm_pedimento_2838177.pdf", "fecha": "15-07-2026", "edicion": "44500" }, "geometry": { "type": "Polygon", "coordinates": [ [ [ -70.485411386019351, -34.615180901382978 ], [ -70.474507228158473, -34.615313195420846 ], [ -70.474985835625873, -34.642357969917477 ], [ -70.485893529684262, -34.642225543046386 ], [ -70.485411386019351, -34.615180901382978 ] ] ] } },
{ "type": "Feature", "properties": { "cve": "2838178", "nombre": "CUPRITA 96", "solicitante": "Fürst Gwinner Paul Javier", "region": "REGIÓN DEL LIBERTADOR GENERAL BERNARDO O’HIGGINS", "provincia": "Provincia de Colchagua", "comuna": null, "superficie_ha": 300.0, "datum_original": "PSAD56", "huso": 19, "epsg_origen": 24879, "tipo_publicacion": "pedimento", "fuente_pdf": "http://www.diariooficial.interior.gob.cl/publicaciones/2026/07/15/44500/07/2838178.pdf", "archivo": "gm_pedimento_2838178.pdf", "fecha": "15-07-2026", "edicion": "44500" }, "geometry": { "type": "Polygon", "coordinates": [ [ [ -70.463602999482902, -34.615444515376751 ], [ -70.452698700515526, -34.615574861230051 ], [ -70.453170235311561, -34.642619898460183 ], [ -70.464078070660435, -34.642489421728975 ], [ -70.463602999482902, -34.615444515376751 ] ] ] } },
{ "type": "Feature", "properties": { "cve": "2838179", "nombre": "CUPRITA 98", "solicitante": "Fürst Gwinner Paul Javier", "region": "REGIÓN DEL LIBERTADOR GENERAL BERNARDO O’HIGGINS", "provincia": "Provincia de Colchagua", "comuna": null, "superficie_ha": 300.0, "datum_original": "PSAD56", "huso": 19, "epsg_origen": 24879, "tipo_publicacion": "pedimento", "fuente_pdf": "http://www.diariooficial.interior.gob.cl/publicaciones/2026/07/15/44500/07/2838179.pdf", "archivo": "gm_pedimento_2838179.pdf", "fecha": "15-07-2026", "edicion": "44500" }, "geometry": { "type": "Polygon", "coordinates": [ [ [ -70.441794331779278, -34.615704232960205 ], [ -70.430889893797087, -34.615832630546883 ], [ -70.431354355557872, -34.642877926599738 ], [ -70.442262330102821, -34.642749400090565 ], [ -70.441794331779278, -34.615704232960205 ] ] ] } },
{ "type": "Feature", "properties": { "cve": "2837637", "nombre": "FRT-01", "solicitante": "Minera Newmont (Chile) Limitada", "region": "REGIÓN DE AYSÉN DEL GENERAL CARLOS IBÁÑEZ DEL CAMPO", "provincia": "Provincia de Coihaique", "comuna": null, "superficie_ha": 300.0, "datum_original": "WGS84", "huso": 19, "epsg_origen": 32719, "tipo_publicacion": "pedimento", "fuente_pdf": "http://www.diariooficial.interior.gob.cl/publicaciones/2026/07/15/44500/07/2837637.pdf", "archivo": "gm_pedimento_2837637.pdf", "fecha": "15-07-2026", "edicion": "44500" }, "geometry": { "type": "Polygon", "coordinates": [ [ [ -71.720519872527149, -45.112061288577188 ], [ -71.68242393555677, -45.112963071563208 ], [ -71.682845567181857, -45.121954931314093 ], [ -71.72094747429982, -45.121052867140229 ], [ -71.720519872527149, -45.112061288577188 ] ] ] } },
{ "type": "Feature", "properties": { "cve": "2837638", "nombre": "FRT-02", "solicitante": "Minera Newmont (Chile) Limitada", "region": "REGIÓN DE AYSÉN DEL GENERAL CARLOS IBÁÑEZ DEL CAMPO", "provincia": "Provincia de Coihaique", "comuna": null, "superficie_ha": 300.0, "datum_original": "WGS84", "huso": 19, "epsg_origen": 32719, "tipo_publicacion": "pedimento", "fuente_pdf": "http://www.diariooficial.interior.gob.cl/publicaciones/2026/07/15/44500/07/2837638.pdf", "archivo": "gm_pedimento_2837638.pdf", "fecha": "15-07-2026", "edicion": "44500" }, "geometry": { "type": "Polygon", "coordinates": [ [ [ -71.72094747429982, -45.121052867140229 ], [ -71.682845567181857, -45.121954931314093 ], [ -71.683267397201973, -45.130946773750907 ], [ -71.721375277268265, -45.130044428301701 ], [ -71.72094747429982, -45.121052867140229 ] ] ] } },
{ "type": "Feature", "properties": { "cve": "2837639", "nombre": "FRT-03", "solicitante": "Minera Newmont (Chile) Limitada", "region": "REGIÓN DE AYSÉN DEL GENERAL CARLOS IBÁÑEZ DEL CAMPO", "provincia": "Provincia de Coihaique", "comuna": null, "superficie_ha": 300.0, "datum_original": "WGS84", "huso": 19, "epsg_origen": 32719, "tipo_publicacion": "pedimento", "fuente_pdf": "http://www.diariooficial.interior.gob.cl/publicaciones/2026/07/15/44500/07/2837639.pdf", "archivo": "gm_pedimento_2837639.pdf", "fecha": "15-07-2026", "edicion": "44500" }, "geometry": { "type": "Polygon", "coordinates": [ [ [ -71.721375277268265, -45.130044428301701 ], [ -71.683267397201973, -45.130946773750907 ], [ -71.683689425731131, -45.139938598871787 ], [ -71.721803281548134, -45.139035972059681 ], [ -71.721375277268265, -45.130044428301701 ] ] ] } },
{ "type": "Feature", "properties": { "cve": "2837640", "nombre": "FRT-04", "solicitante": "Minera Newmont (Chile) Limitada", "region": "REGIÓN DE AYSÉN DEL GENERAL CARLOS IBÁÑEZ DEL CAMPO", "provincia": "Provincia de Coihaique", "comuna": null, "superficie_ha": 300.0, "datum_original": "WGS84", "huso": 19, "epsg_origen": 32719, "tipo_publicacion": "pedimento", "fuente_pdf": "http://www.diariooficial.interior.gob.cl/publicaciones/2026/07/15/44500/07/2837640.pdf", "archivo": "gm_pedimento_2837640.pdf", "fecha": "15-07-2026", "edicion": "44500" }, "geometry": { "type": "Polygon", "coordinates": [ [ [ -71.721803281548134, -45.139035972059681 ], [ -71.683689425731131, -45.139938598871787 ], [ -71.684111652883473, -45.148930406674843 ], [ -71.722231487255144, -45.148027498412205 ], [ -71.721803281548134, -45.139035972059681 ] ] ] } },
{ "type": "Feature", "properties": { "cve": "2837641", "nombre": "FRT-05", "solicitante": "Minera Newmont (Chile) Limitada", "region": "REGIÓN DE AYSÉN DEL GENERAL CARLOS IBÁÑEZ DEL CAMPO", "provincia": "Provincia de Coihaique", "comuna": null, "superficie_ha": 300.0, "datum_original": "WGS84", "huso": 19, "epsg_origen": 32719, "tipo_publicacion": "pedimento", "fuente_pdf": "http://www.diariooficial.interior.gob.cl/publicaciones/2026/07/15/44500/07/2837641.pdf", "archivo": "gm_pedimento_2837641.pdf", "fecha": "15-07-2026", "edicion": "44500" }, "geometry": { "type": "Polygon", "coordinates": [ [ [ -71.722231487255144, -45.148027498412205 ], [ -71.684111652883473, -45.148930406674843 ], [ -71.684534078773225, -45.157922197158193 ], [ -71.722659894505128, -45.157019007357349 ], [ -71.722231487255144, -45.148027498412205 ] ] ] } },
{ "type": "Feature", "properties": { "cve": "2837642", "nombre": "FRT-06", "solicitante": "Minera Newmont (Chile) Limitada", "region": "REGIÓN DE AYSÉN DEL GENERAL CARLOS IBÁÑEZ DEL CAMPO", "provincia": "Provincia de Coihaique", "comuna": null, "superficie_ha": 300.0, "datum_original": "WGS84", "huso": 19, "epsg_origen": 32719, "tipo_publicacion": "pedimento", "fuente_pdf": "http://www.diariooficial.interior.gob.cl/publicaciones/2026/07/15/44500/07/2837642.pdf", "archivo": "gm_pedimento_2837642.pdf", "fecha": "15-07-2026", "edicion": "44500" }, "geometry": { "type": "Polygon", "coordinates": [ [ [ -71.731501769873219, -45.075791763473561 ], [ -71.718811475084806, -45.076094800348088 ], [ -71.720092471834704, -45.103069692614518 ], [ -71.732788727689083, -45.102766372184178 ], [ -71.731501769873219, -45.075791763473561 ] ] ] } },
{ "type": "Feature", "properties": { "cve": "2837643", "nombre": "FRT-07", "solicitante": "Minera Newmont (Chile) Limitada", "region": "REGIÓN DE AYSÉN DEL GENERAL CARLOS IBÁÑEZ DEL CAMPO", "provincia": "Provincia de Coihaique", "comuna": null, "superficie_ha": 300.0, "datum_original": "WGS84", "huso": 19, "epsg_origen": 32719, "tipo_publicacion": "pedimento", "fuente_pdf": "http://www.diariooficial.interior.gob.cl/publicaciones/2026/07/15/44500/07/2837643.pdf", "archivo": "gm_pedimento_2837643.pdf", "fecha": "15-07-2026", "edicion": "44500" }, "geometry": { "type": "Polygon", "coordinates": [ [ [ -71.732788727689083, -45.102766372184178 ], [ -71.720092471834704, -45.103069692614518 ], [ -71.721375277268265, -45.130044428301701 ], [ -71.734077502579623, -45.129740824050884 ], [ -71.732788727689083, -45.102766372184178 ] ] ] } },
{ "type": "Feature", "properties": { "cve": "2837644", "nombre": "FRT-08", "solicitante": "Minera Newmont (Chile) Limitada", "region": "REGIÓN DE AYSÉN DEL GENERAL CARLOS IBÁÑEZ DEL CAMPO", "provincia": "Provincia de Coihaique", "comuna": null, "superficie_ha": 300.0, "datum_original": "WGS84", "huso": 19, "epsg_origen": 32719, "tipo_publicacion": "pedimento", "fuente_pdf": "http://www.diariooficial.interior.gob.cl/publicaciones/2026/07/15/44500/07/2837644.pdf", "archivo": "gm_pedimento_2837644.pdf", "fecha": "15-07-2026", "edicion": "44500" }, "geometry": { "type": "Polygon", "coordinates": [ [ [ -71.734077502579623, -45.129740824050884 ], [ -71.721375277268265, -45.130044428301701 ], [ -71.722659894505128, -45.157019007357349 ], [ -71.735368097678887, -45.156715119020923 ], [ -71.734077502579623, -45.129740824050884 ] ] ] } },
{ "type": "Feature", "properties": { "cve": "2837645", "nombre": "FRT-09", "solicitante": "Minera Newmont (Chile) Limitada", "region": "REGIÓN DE AYSÉN DEL GENERAL CARLOS IBÁÑEZ DEL CAMPO", "provincia": "Provincia de Coihaique", "comuna": null, "superficie_ha": 300.0, "datum_original": "WGS84", "huso": 19, "epsg_origen": 32719, "tipo_publicacion": "pedimento", "fuente_pdf": "http://www.diariooficial.interior.gob.cl/publicaciones/2026/07/15/44500/07/2837645.pdf", "archivo": "gm_pedimento_2837645.pdf", "fecha": "15-07-2026", "edicion": "44500" }, "geometry": { "type": "Polygon", "coordinates": [ [ [ -71.735368097678887, -45.156715119020923 ], [ -71.697242884116619, -45.157622546485086 ], [ -71.697667503695655, -45.166614226211024 ], [ -71.73579870107892, -45.165706515802526 ], [ -71.735368097678887, -45.156715119020923 ] ] ] } },
{ "type": "Feature", "properties": { "cve": "2837646", "nombre": "FRT-10", "solicitante": "Minera Newmont (Chile) Limitada", "region": "REGIÓN DE AYSÉN DEL GENERAL CARLOS IBÁÑEZ DEL CAMPO", "provincia": "Provincia de Coihaique", "comuna": null, "superficie_ha": 200.0, "datum_original": "WGS84", "huso": 19, "epsg_origen": 32719, "tipo_publicacion": "pedimento", "fuente_pdf": "http://www.diariooficial.interior.gob.cl/publicaciones/2026/07/15/44500/07/2837646.pdf", "archivo": "gm_pedimento_2837646.pdf", "fecha": "15-07-2026", "edicion": "44500" }, "geometry": { "type": "Polygon", "coordinates": [ [ [ -71.697242884116619, -45.157622546485086 ], [ -71.671825074578123, -45.158220435159116 ], [ -71.672245704367583, -45.1672123013172 ], [ -71.697667503695655, -45.166614226211024 ], [ -71.697242884116619, -45.157622546485086 ] ] ] } },
{ "type": "Feature", "properties": { "cve": "2837647", "nombre": "FRT-11", "solicitante": "Minera Newmont (Chile) Limitada", "region": "REGIÓN DE AYSÉN DEL GENERAL CARLOS IBÁÑEZ DEL CAMPO", "provincia": "Provincia de Coihaique", "comuna": null, "superficie_ha": 300.0, "datum_original": "WGS84", "huso": 19, "epsg_origen": 32719, "tipo_publicacion": "pedimento", "fuente_pdf": "http://www.diariooficial.interior.gob.cl/publicaciones/2026/07/15/44500/07/2837647.pdf", "archivo": "gm_pedimento_2837647.pdf", "fecha": "15-07-2026", "edicion": "44500" }, "geometry": { "type": "Polygon", "coordinates": [ [ [ -71.683267397201973, -45.130946773750907 ], [ -71.670564372249558, -45.131244732936651 ], [ -71.671825074578123, -45.158220435159116 ], [ -71.684534078773225, -45.157922197158193 ], [ -71.683267397201973, -45.130946773750907 ] ] ] } },
{ "type": "Feature", "properties": { "cve": "2837648", "nombre": "FRT-12", "solicitante": "Minera Newmont (Chile) Limitada", "region": "REGIÓN DE AYSÉN DEL GENERAL CARLOS IBÁÑEZ DEL CAMPO", "provincia": "Provincia de Coihaique", "comuna": null, "superficie_ha": 300.0, "datum_original": "WGS84", "huso": 19, "epsg_origen": 32719, "tipo_publicacion": "pedimento", "fuente_pdf": "http://www.diariooficial.interior.gob.cl/publicaciones/2026/07/15/44500/07/2837648.pdf", "archivo": "gm_pedimento_2837648.pdf", "fecha": "15-07-2026", "edicion": "44500" }, "geometry": { "type": "Polygon", "coordinates": [ [ [ -71.682002502212754, -45.103971194500168 ], [ -71.669305448094221, -45.104268875131012 ], [ -71.670564372249558, -45.131244732936651 ], [ -71.683267397201973, -45.130946773750907 ], [ -71.682002502212754, -45.103971194500168 ] ] ] } },
{ "type": "Feature", "properties": { "cve": "2837649", "nombre": "FRT-13", "solicitante": "Minera Newmont (Chile) Limitada", "region": "REGIÓN DE AYSÉN DEL GENERAL CARLOS IBÁÑEZ DEL CAMPO", "provincia": "Provincia de Coihaique", "comuna": null, "superficie_ha": 300.0, "datum_original": "WGS84", "huso": 19, "epsg_origen": 32719, "tipo_publicacion": "pedimento", "fuente_pdf": "http://www.diariooficial.interior.gob.cl/publicaciones/2026/07/15/44500/07/2837649.pdf", "archivo": "gm_pedimento_2837649.pdf", "fecha": "15-07-2026", "edicion": "44500" }, "geometry": { "type": "Polygon", "coordinates": [ [ [ -71.680739390729073, -45.076995459456825 ], [ -71.668048299050071, -45.077292861792522 ], [ -71.669305448094221, -45.104268875131012 ], [ -71.682002502212754, -45.103971194500168 ], [ -71.680739390729073, -45.076995459456825 ] ] ] } }
]
}
