{
"type": "FeatureCollection",
"name": "boletin_mineria_20261006",
"crs": { "type": "name", "properties": { "name": "urn:ogc:def:crs:OGC:1.3:CRS84" } },
"features": [
{ "type": "Feature", "properties": { "cve": "2881080", "nombre": "EL DESQUITE 1 AL 7", "solicitante": "Fritis Castillo Luis", "region": "REGIÓN DE ATACAMA", "provincia": "Provincia de Copiapó", "comuna": null, "superficie_ha": 49.0, "datum_original": "PSAD56", "huso": 19, "epsg_origen": 24879, "tipo_publicacion": "manifestacion", "fuente_pdf": "http://www.diariooficial.interior.gob.cl/publicaciones/2026/10/06/44567/07/2881080.pdf", "archivo": "gm_manifestacion_2881080.pdf", "fecha": "06-10-2026", "edicion": "44567" }, "geometry": { "type": "Polygon", "coordinates": [ [ [ -70.770886299077262, -27.96849787494212 ], [ -70.763772338688682, -27.968589263366699 ], [ -70.763875080889548, -27.974905390344549 ], [ -70.770989455149362, -27.974813977707331 ], [ -70.770886299077262, -27.96849787494212 ] ] ] } },
{ "type": "Feature", "properties": { "cve": "2880915", "nombre": "FE LIPE 1 AL 50", "solicitante": "Sociedad Minera Rajo SpA", "region": "REGIÓN DE ATACAMA", "provincia": "Provincia de Copiapó", "comuna": null, "superficie_ha": 50.0, "datum_original": "PSAD56", "huso": 19, "epsg_origen": 24879, "tipo_publicacion": "manifestacion", "fuente_pdf": "http://www.diariooficial.interior.gob.cl/publicaciones/2026/10/06/44567/07/2880915.pdf", "archivo": "gm_manifestacion_2880915.pdf", "fecha": "06-10-2026", "edicion": "44567" }, "geometry": { "type": "Polygon", "coordinates": [ [ [ -70.191276248440957, -27.721096147525021 ], [ -70.186205037851991, -27.721139702208472 ], [ -70.186302738837341, -27.730165417237071 ], [ -70.191374366872893, -27.730121845964959 ], [ -70.191276248440957, -27.721096147525021 ] ] ] } },
{ "type": "Feature", "properties": { "cve": "2880764", "nombre": "LOS CRISTALES 1 AL 4", "solicitante": "Jorquera Galaz Luis Alberto y otro", "region": "REGIÓN DE ATACAMA", "provincia": "Provincia de Copiapó", "comuna": null, "superficie_ha": 12.0, "datum_original": "WGS84", "huso": 19, "epsg_origen": 32719, "tipo_publicacion": "manifestacion", "fuente_pdf": "http://www.diariooficial.interior.gob.cl/publicaciones/2026/10/06/44567/07/2880764.pdf", "archivo": "gm_manifestacion_2880764.pdf", "fecha": "06-10-2026", "edicion": "44567" }, "geometry": { "type": "Polygon", "coordinates": [ [ [ -70.566452107764363, -27.666585099946506 ], [ -70.563411374877731, -27.666619443270385 ], [ -70.563462760387822, -27.670229185965333 ], [ -70.56650359311638, -27.670194837403727 ], [ -70.566452107764363, -27.666585099946506 ] ] ] } },
{ "type": "Feature", "properties": { "cve": "2880677", "nombre": "SAN JORGE 1 AL 22", "solicitante": "Aguirre Rodríguez Francisco Javier", "region": "REGIÓN DE ATACAMA", "provincia": "Provincia de Copiapó", "comuna": null, "superficie_ha": 198.0, "datum_original": "PSAD56", "huso": 19, "epsg_origen": 24879, "tipo_publicacion": "manifestacion", "fuente_pdf": "http://www.diariooficial.interior.gob.cl/publicaciones/2026/10/06/44567/07/2880677.pdf", "archivo": "gm_manifestacion_2880677.pdf", "fecha": "06-10-2026", "edicion": "44567" }, "geometry": { "type": "Polygon", "coordinates": [ [ [ -70.387528444060621, -27.397478415014664 ], [ -70.369326876607175, -27.3976582789325 ], [ -70.369449244546644, -27.407586320072628 ], [ -70.387652437293326, -27.407406380199983 ], [ -70.387528444060621, -27.397478415014664 ] ] ] } },
{ "type": "Feature", "properties": { "cve": "2880899", "nombre": "LA FORTUNA 3 1 AL 10", "solicitante": "Jara Maldonado Ruperto Isaác", "region": "REGIÓN DE VALPARAÍSO", "provincia": "Provincia de Petorca", "comuna": null, "superficie_ha": 50.0, "datum_original": "WGS84", "huso": 19, "epsg_origen": 32719, "tipo_publicacion": "manifestacion", "fuente_pdf": "http://www.diariooficial.interior.gob.cl/publicaciones/2026/10/06/44567/07/2880899.pdf", "archivo": "gm_manifestacion_2880899.pdf", "fecha": "06-10-2026", "edicion": "44567" }, "geometry": { "type": "Polygon", "coordinates": [ [ [ -70.828238091755253, -32.23905547480733 ], [ -70.822933469515903, -32.239132131649967 ], [ -70.823113636703695, -32.24814901606122 ], [ -70.828418782507285, -32.248072332625512 ], [ -70.828238091755253, -32.23905547480733 ] ] ] } },
{ "type": "Feature", "properties": { "cve": "2880713", "nombre": "SAN JUAN 3, 1 AL 14", "solicitante": "Rivera Duclos Juan Andrés", "region": "REGIÓN DE VALPARAÍSO", "provincia": "Provincia de Valparaíso", "comuna": null, "superficie_ha": 56.0, "datum_original": "PSAD56", "huso": 19, "epsg_origen": 24879, "tipo_publicacion": "mensura", "fuente_pdf": "http://www.diariooficial.interior.gob.cl/publicaciones/2026/10/06/44567/07/2880713.pdf", "archivo": "gm_mensura_2880713.pdf", "fecha": "06-10-2026", "edicion": "44567" }, "geometry": { "type": "Polygon", "coordinates": [ [ [ -71.634937326212196, -33.099743692994025 ], [ -71.636889977974008, -33.093390968266242 ], [ -71.632608097159064, -33.093481519220695 ], [ -71.632984423182975, -33.106096395286706 ], [ -71.63726691435572, -33.10600580098577 ], [ -71.634937326212196, -33.099743692994025 ] ] ] } },
{ "type": "Feature", "properties": { "cve": "2880714", "nombre": "SAN JUAN 4, 1 AL 8", "solicitante": "Rivera Duclos Juan Andrés", "region": "REGIÓN DE VALPARAÍSO", "provincia": "Provincia de Valparaíso", "comuna": null, "superficie_ha": 40.0, "datum_original": "PSAD56", "huso": 19, "epsg_origen": 24879, "tipo_publicacion": "mensura", "fuente_pdf": "http://www.diariooficial.interior.gob.cl/publicaciones/2026/10/06/44567/07/2880714.pdf", "archivo": "gm_mensura_2880714.pdf", "fecha": "06-10-2026", "edicion": "44567" }, "geometry": { "type": "Polygon", "coordinates": [ [ [ -71.628113214356745, -33.108002526964931 ], [ -71.633412673162908, -33.106087342467518 ], [ -71.622706366260516, -33.106313222212627 ], [ -71.622813512371025, -33.109917496735385 ], [ -71.63352025543081, -33.109691586105704 ], [ -71.628113214356745, -33.108002526964931 ] ] ] } },
{ "type": "Feature", "properties": { "cve": "2880686", "nombre": "PARAISO, 1 AL 208", "solicitante": "SLM Paraíso, 1 al 208", "region": "REGIÓN DEL MAULE", "provincia": "Provincia de Talca", "comuna": null, "superficie_ha": 208.0, "datum_original": "PSAD56", "huso": 18, "epsg_origen": 24878, "tipo_publicacion": "mensura", "fuente_pdf": "http://www.diariooficial.interior.gob.cl/publicaciones/2026/10/06/44567/07/2880686.pdf", "archivo": "gm_mensura_2880686.pdf", "fecha": "06-10-2026", "edicion": "44567" }, "geometry": { "type": "Polygon", "coordinates": [ [ [ -72.378852670756814, -35.520248041195956 ], [ -72.361225215771626, -35.519863482140799 ], [ -72.360841642413234, -35.531572530414671 ], [ -72.378471652552903, -35.531957254695783 ], [ -72.378852670756814, -35.520248041195956 ] ] ] } },
{ "type": "Feature", "properties": { "cve": "2880882", "nombre": "GABY 2", "solicitante": "Terminal Gas Caldera S.A.", "region": "REGIÓN DE ATACAMA", "provincia": "Provincia de Copiapó", "comuna": null, "superficie_ha": 100.0, "datum_original": "PSAD56", "huso": 19, "epsg_origen": 24879, "tipo_publicacion": "pedimento", "fuente_pdf": "http://www.diariooficial.interior.gob.cl/publicaciones/2026/10/06/44567/07/2880882.pdf", "archivo": "gm_pedimento_2880882.pdf", "fecha": "06-10-2026", "edicion": "44567" }, "geometry": { "type": "Polygon", "coordinates": [ [ [ -70.806557107416069, -27.044740483872602 ], [ -70.796479001921014, -27.044869522579859 ], [ -70.796622743860127, -27.053893606065429 ], [ -70.80670165466988, -27.053764517386362 ], [ -70.806557107416069, -27.044740483872602 ] ] ] } },
{ "type": "Feature", "properties": { "cve": "2880673", "nombre": "INFANTE IX", "solicitante": "Aguirre Rodríguez Francisco Javier", "region": "REGIÓN DE ATACAMA", "provincia": "Provincia de Copiapó", "comuna": "Copiapo", "superficie_ha": 200.0, "datum_original": "PSAD56", "huso": 19, "epsg_origen": 24879, "tipo_publicacion": "pedimento", "fuente_pdf": "http://www.diariooficial.interior.gob.cl/publicaciones/2026/10/06/44567/07/2880673.pdf", "archivo": "gm_pedimento_2880673.pdf", "fecha": "06-10-2026", "edicion": "44567" }, "geometry": { "type": "Polygon", "coordinates": [ [ [ -70.407712194651822, -27.394116908658848 ], [ -70.397600626295031, -27.39421857749829 ], [ -70.397827720789849, -27.412269343337623 ], [ -70.407940930845484, -27.412167596425395 ], [ -70.407712194651822, -27.394116908658848 ] ] ] } },
{ "type": "Feature", "properties": { "cve": "2880674", "nombre": "INFANTE X", "solicitante": "Aguirre Rodríguez Francisco Javier", "region": "REGIÓN DE ATACAMA", "provincia": "Provincia de Copiapó", "comuna": "Copiapo", "superficie_ha": 300.0, "datum_original": "PSAD56", "huso": 19, "epsg_origen": 24879, "tipo_publicacion": "pedimento", "fuente_pdf": "http://www.diariooficial.interior.gob.cl/publicaciones/2026/10/06/44567/07/2880674.pdf", "archivo": "gm_pedimento_2880674.pdf", "fecha": "06-10-2026", "edicion": "44567" }, "geometry": { "type": "Polygon", "coordinates": [ [ [ -70.397600626295031, -27.39421857749829 ], [ -70.38748900500579, -27.394319513904385 ], [ -70.387827263015481, -27.42139576061864 ], [ -70.39794134748243, -27.421294707937598 ], [ -70.397600626295031, -27.39421857749829 ] ] ] } },
{ "type": "Feature", "properties": { "cve": "2881150", "nombre": "PACIFICO NORTE I", "solicitante": "Tesoro Andes SpA", "region": "REGIÓN DE ATACAMA", "provincia": "Provincia de Copiapó", "comuna": null, "superficie_ha": 200.0, "datum_original": "PSAD56", "huso": 19, "epsg_origen": 24879, "tipo_publicacion": "pedimento", "fuente_pdf": "http://www.diariooficial.interior.gob.cl/publicaciones/2026/10/06/44567/07/2881150.pdf", "archivo": "gm_pedimento_2881150.pdf", "fecha": "06-10-2026", "edicion": "44567" }, "geometry": { "type": "Polygon", "coordinates": [ [ [ -70.264294507425376, -28.113086483837968 ], [ -70.25411571668792, -28.11317995000034 ], [ -70.254325793636369, -28.131229874426896 ], [ -70.264506288320419, -28.13113633773213 ], [ -70.264294507425376, -28.113086483837968 ] ] ] } },
{ "type": "Feature", "properties": { "cve": "2881151", "nombre": "PACIFICO SUR I", "solicitante": "Tesoro Andes SpA", "region": "REGIÓN DE ATACAMA", "provincia": "Provincia de Copiapó", "comuna": null, "superficie_ha": 400.0, "datum_original": "PSAD56", "huso": 19, "epsg_origen": 24879, "tipo_publicacion": "pedimento", "fuente_pdf": "http://www.diariooficial.interior.gob.cl/publicaciones/2026/10/06/44567/07/2881151.pdf", "archivo": "gm_pedimento_2881151.pdf", "fecha": "06-10-2026", "edicion": "44567" }, "geometry": { "type": "Polygon", "coordinates": [ [ [ -70.254430904956607, -28.140254818126635 ], [ -70.244249509121715, -28.140347634105115 ], [ -70.244667026181375, -28.176447425434759 ], [ -70.254851836282498, -28.176354469439509 ], [ -70.254430904956607, -28.140254818126635 ] ] ] } },
{ "type": "Feature", "properties": { "cve": "2880941", "nombre": "PAJARITOS 1", "solicitante": "Austral Exploraciones SpA", "region": "REGIÓN DE ATACAMA", "provincia": "Provincia de Copiapó", "comuna": null, "superficie_ha": 100.0, "datum_original": "PSAD56", "huso": 19, "epsg_origen": 24879, "tipo_publicacion": "pedimento", "fuente_pdf": "http://www.diariooficial.interior.gob.cl/publicaciones/2026/10/06/44567/07/2880941.pdf", "archivo": "gm_pedimento_2880941.pdf", "fecha": "06-10-2026", "edicion": "44567" }, "geometry": { "type": "Polygon", "coordinates": [ [ [ -70.53802952647824, -27.927524370891991 ], [ -70.527869357267804, -27.927637464393325 ], [ -70.527996295571313, -27.936661627082291 ], [ -70.538157308099471, -27.936548490728114 ], [ -70.53802952647824, -27.927524370891991 ] ] ] } },
{ "type": "Feature", "properties": { "cve": "2881128", "nombre": "POMPEYA I", "solicitante": "Martínez Pérez Leonel Yony", "region": "REGIÓN DE ATACAMA", "provincia": "Provincia de Copiapó", "comuna": null, "superficie_ha": 200.0, "datum_original": "PSAD56", "huso": 19, "epsg_origen": 24879, "tipo_publicacion": "pedimento", "fuente_pdf": "http://www.diariooficial.interior.gob.cl/publicaciones/2026/10/06/44567/07/2881128.pdf", "archivo": "gm_pedimento_2881128.pdf", "fecha": "06-10-2026", "edicion": "44567" }, "geometry": { "type": "Polygon", "coordinates": [ [ [ -70.443535866134894, -27.81346777010727 ], [ -70.423235866970202, -27.813678478692083 ], [ -70.4233535468464, -27.8227032180001 ], [ -70.443655223100151, -27.822492429350934 ], [ -70.443535866134894, -27.81346777010727 ] ] ] } },
{ "type": "Feature", "properties": { "cve": "2881129", "nombre": "POMPEYA II", "solicitante": "Martínez Pérez Leonel Yony", "region": "REGIÓN DE ATACAMA", "provincia": "Provincia de Copiapó", "comuna": null, "superficie_ha": 100.0, "datum_original": "PSAD56", "huso": 19, "epsg_origen": 24879, "tipo_publicacion": "pedimento", "fuente_pdf": "http://www.diariooficial.interior.gob.cl/publicaciones/2026/10/06/44567/07/2881129.pdf", "archivo": "gm_pedimento_2881129.pdf", "fecha": "06-10-2026", "edicion": "44567" }, "geometry": { "type": "Polygon", "coordinates": [ [ [ -70.443655223100151, -27.822492429350934 ], [ -70.433504412467514, -27.822598196571395 ], [ -70.4336229858867, -27.831622883628604 ], [ -70.443774635443035, -27.831517076227907 ], [ -70.443655223100151, -27.822492429350934 ] ] ] } },
{ "type": "Feature", "properties": { "cve": "2880675", "nombre": "REY SALOMON", "solicitante": "Aguirre Rodríguez Francisco Javier", "region": "REGIÓN DE ATACAMA", "provincia": "Provincia de Copiapó", "comuna": "Copiapó", "superficie_ha": 300.0, "datum_original": "PSAD56", "huso": 19, "epsg_origen": 24879, "tipo_publicacion": "pedimento", "fuente_pdf": "http://www.diariooficial.interior.gob.cl/publicaciones/2026/10/06/44567/07/2880675.pdf", "archivo": "gm_pedimento_2880675.pdf", "fecha": "06-10-2026", "edicion": "44567" }, "geometry": { "type": "Polygon", "coordinates": [ [ [ -70.387466471293337, -27.392514426884528 ], [ -70.377354961547212, -27.392614623149427 ], [ -70.377690725008364, -27.419690992615195 ], [ -70.387804697757531, -27.419590680922532 ], [ -70.387466471293337, -27.392514426884528 ] ] ] } },
{ "type": "Feature", "properties": { "cve": "2880676", "nombre": "ROSARIO", "solicitante": "Aguirre Rodríguez Francisco Javier", "region": "REGIÓN DE ATACAMA", "provincia": "Provincia de Copiapó", "comuna": "Copiapo", "superficie_ha": 200.0, "datum_original": "PSAD56", "huso": 19, "epsg_origen": 24879, "tipo_publicacion": "pedimento", "fuente_pdf": "http://www.diariooficial.interior.gob.cl/publicaciones/2026/10/06/44567/07/2880676.pdf", "archivo": "gm_pedimento_2880676.pdf", "fecha": "06-10-2026", "edicion": "44567" }, "geometry": { "type": "Polygon", "coordinates": [ [ [ -70.377377331166599, -27.394419717862789 ], [ -70.367265605159986, -27.394519189359212 ], [ -70.367487774337988, -27.412570186043084 ], [ -70.377601142153324, -27.412470638160801 ], [ -70.377377331166599, -27.394419717862789 ] ] ] } },
{ "type": "Feature", "properties": { "cve": "2881103", "nombre": "MARTA 1", "solicitante": "Vergara Gallegos Luis Eduardo", "region": "REGIÓN DE ATACAMA", "provincia": "Provincia de Huasco", "comuna": null, "superficie_ha": 100.0, "datum_original": "PSAD56", "huso": 19, "epsg_origen": 24879, "tipo_publicacion": "pedimento", "fuente_pdf": "http://www.diariooficial.interior.gob.cl/publicaciones/2026/10/06/44567/07/2881103.pdf", "archivo": "gm_pedimento_2881103.pdf", "fecha": "06-10-2026", "edicion": "44567" }, "geometry": { "type": "Polygon", "coordinates": [ [ [ -71.182855398752451, -29.269094229542663 ], [ -71.172569148813281, -29.269261889969105 ], [ -71.172759958808911, -29.278280961351115 ], [ -71.183047110412446, -29.27811323933771 ], [ -71.182855398752451, -29.269094229542663 ] ] ] } },
{ "type": "Feature", "properties": { "cve": "2881047", "nombre": "SKY 7", "solicitante": "Araya Cortés Sebastián Ignacio", "region": "REGIÓN DE ATACAMA", "provincia": "Provincia de Huasco", "comuna": "Vallenar", "superficie_ha": 200.0, "datum_original": "PSAD56", "huso": 19, "epsg_origen": 24879, "tipo_publicacion": "pedimento", "fuente_pdf": "http://www.diariooficial.interior.gob.cl/publicaciones/2026/10/06/44567/07/2881047.pdf", "archivo": "gm_pedimento_2881047.pdf", "fecha": "06-10-2026", "edicion": "44567" }, "geometry": { "type": "Polygon", "coordinates": [ [ [ -70.955253388001296, -28.878311125436451 ], [ -70.934755327357735, -28.878606994515177 ], [ -70.934922556099764, -28.887627942922148 ], [ -70.955422385736128, -28.887331964204876 ], [ -70.955253388001296, -28.878311125436451 ] ] ] } },
{ "type": "Feature", "properties": { "cve": "2880848", "nombre": "WHITE SCRATCH", "solicitante": "Lechuza Blanca Inversiones SpA", "region": "REGIÓN DE COQUIMBO", "provincia": "Provincia de Elqui", "comuna": "Vicuña", "superficie_ha": 100.0, "datum_original": "PSAD56", "huso": 19, "epsg_origen": 24879, "tipo_publicacion": "pedimento", "fuente_pdf": "http://www.diariooficial.interior.gob.cl/publicaciones/2026/10/06/44567/07/2880848.pdf", "archivo": "gm_pedimento_2880848.pdf", "fecha": "06-10-2026", "edicion": "44567" }, "geometry": { "type": "Polygon", "coordinates": [ [ [ -70.857451233683108, -29.82079340294009 ], [ -70.847106908208175, -29.820938449544162 ], [ -70.847272822646971, -29.829958571115888 ], [ -70.857618075991198, -29.82981347184236 ], [ -70.857451233683108, -29.82079340294009 ] ] ] } }
]
}
