{
"type": "FeatureCollection",
"name": "boletin_mineria_20260611",
"crs": { "type": "name", "properties": { "name": "urn:ogc:def:crs:OGC:1.3:CRS84" } },
"features": [
{ "type": "Feature", "properties": { "cve": "2823657", "nombre": "AMARGU I 1, 1 AL 20", "solicitante": "Antofagasta Minerals S.A.", "region": "REGIÓN DE ANTOFAGASTA", "provincia": "Provincia de Antofagasta", "comuna": null, "superficie_ha": 200.0, "datum_original": "PSAD56", "huso": 19, "epsg_origen": 24879, "tipo_publicacion": "manifestacion", "fuente_pdf": "http://www.diariooficial.interior.gob.cl/publicaciones/2026/06/11/44472/07/2823657.pdf", "archivo": "gm_manifestacion_2823657.pdf", "fecha": "11-06-2026", "edicion": "44472" }, "geometry": { "type": "Polygon", "coordinates": [ [ [ -68.972496792016827, -23.143212648113064 ], [ -68.962728671449838, -23.143210641554607 ], [ -68.962723674869068, -23.16127705468255 ], [ -68.972493104946281, -23.161279062985997 ], [ -68.972496792016827, -23.143212648113064 ] ] ] } },
{ "type": "Feature", "properties": { "cve": "2821547", "nombre": "Astap II 1/ 9", "solicitante": "Espinoza Rodríguez Almendra Marion", "region": "REGIÓN DE ATACAMA", "provincia": "Provincia de Copiapó", "comuna": null, "superficie_ha": 9.0, "datum_original": "PSAD56", "huso": 19, "epsg_origen": 24879, "tipo_publicacion": "manifestacion", "fuente_pdf": "http://www.diariooficial.interior.gob.cl/publicaciones/2026/06/11/44472/07/2821547.pdf", "archivo": "gm_manifestacion_2821547.pdf", "fecha": "11-06-2026", "edicion": "44472" }, "geometry": { "type": "Polygon", "coordinates": [ [ [ -70.398689661492284, -27.419671459115087 ], [ -70.395655487025095, -27.419701866544663 ], [ -70.395689527306658, -27.42240947681104 ], [ -70.398723775719148, -27.422379065881632 ], [ -70.398689661492284, -27.419671459115087 ] ] ] } },
{ "type": "Feature", "properties": { "cve": "2821548", "nombre": "Astap III 1/16", "solicitante": "Espinoza Rodríguez Almendra Marion", "region": "REGIÓN DE ATACAMA", "provincia": "Provincia de Copiapó", "comuna": null, "superficie_ha": 16.0, "datum_original": "PSAD56", "huso": 19, "epsg_origen": 24879, "tipo_publicacion": "manifestacion", "fuente_pdf": "http://www.diariooficial.interior.gob.cl/publicaciones/2026/06/11/44472/07/2821548.pdf", "archivo": "gm_manifestacion_2821548.pdf", "fecha": "11-06-2026", "edicion": "44472" }, "geometry": { "type": "Polygon", "coordinates": [ [ [ -70.565112647224794, -27.653453077523984 ], [ -70.561058816509956, -27.653498788986575 ], [ -70.56111008974392, -27.657108543311477 ], [ -70.565164053475172, -27.657062824874735 ], [ -70.565112647224794, -27.653453077523984 ] ] ] } },
{ "type": "Feature", "properties": { "cve": "2821885", "nombre": "MELANY 1 AL 8", "solicitante": "Villalobos Naveas Juan Patricio", "region": "REGIÓN DE ATACAMA", "provincia": "Provincia de Copiapó", "comuna": null, "superficie_ha": 60.0, "datum_original": "PSAD56", "huso": 19, "epsg_origen": 24879, "tipo_publicacion": "manifestacion", "fuente_pdf": "http://www.diariooficial.interior.gob.cl/publicaciones/2026/06/11/44472/07/2821885.pdf", "archivo": "gm_manifestacion_2821885.pdf", "fecha": "11-06-2026", "edicion": "44472" }, "geometry": { "type": "Polygon", "coordinates": [ [ [ -70.458255179258572, -26.887199717846602 ], [ -70.450202513345531, -26.887282605679996 ], [ -70.450288950006865, -26.894051986236633 ], [ -70.458342095470798, -26.893969074226987 ], [ -70.458255179258572, -26.887199717846602 ] ] ] } },
{ "type": "Feature", "properties": { "cve": "2821828", "nombre": "PILAR 1 AL 14", "solicitante": "Requena Paredes Francisco Jacob", "region": "REGIÓN DE ATACAMA", "provincia": "Provincia de Copiapó", "comuna": null, "superficie_ha": 98.0, "datum_original": "PSAD56", "huso": 19, "epsg_origen": 24879, "tipo_publicacion": "manifestacion", "fuente_pdf": "http://www.diariooficial.interior.gob.cl/publicaciones/2026/06/11/44472/07/2821828.pdf", "archivo": "gm_manifestacion_2821828.pdf", "fecha": "11-06-2026", "edicion": "44472" }, "geometry": { "type": "Polygon", "coordinates": [ [ [ -70.907128031246401, -27.958915584239907 ], [ -70.900015243081882, -27.959013984414472 ], [ -70.900236541276698, -27.971645285194601 ], [ -70.907350156658438, -27.971546832868388 ], [ -70.907128031246401, -27.958915584239907 ] ] ] } },
{ "type": "Feature", "properties": { "cve": "2821910", "nombre": "PUERTO EL MORADO I 1 al 10", "solicitante": "Baeza Urrea Juan Eduardo", "region": "REGIÓN DE ATACAMA", "provincia": "Provincia de Copiapó", "comuna": "Caldera", "superficie_ha": 100.0, "datum_original": "PSAD56", "huso": 19, "epsg_origen": 24879, "tipo_publicacion": "manifestacion", "fuente_pdf": "http://www.diariooficial.interior.gob.cl/publicaciones/2026/06/11/44472/07/2821910.pdf", "archivo": "gm_manifestacion_2821910.pdf", "fecha": "11-06-2026", "edicion": "44472" }, "geometry": { "type": "Polygon", "coordinates": [ [ [ -70.802416701627692, -26.848026308246279 ], [ -70.792356051838368, -26.84815418799446 ], [ -70.792498251575822, -26.857178545550106 ], [ -70.802559698494036, -26.857050616026537 ], [ -70.802416701627692, -26.848026308246279 ] ] ] } },
{ "type": "Feature", "properties": { "cve": "2821911", "nombre": "PUERTO EL MORADO II 1 al 10", "solicitante": "Baeza Urrea Juan Eduardo", "region": "REGIÓN DE ATACAMA", "provincia": "Provincia de Copiapó", "comuna": "Caldera", "superficie_ha": 100.0, "datum_original": "PSAD56", "huso": 19, "epsg_origen": 24879, "tipo_publicacion": "manifestacion", "fuente_pdf": "http://www.diariooficial.interior.gob.cl/publicaciones/2026/06/11/44472/07/2821911.pdf", "archivo": "gm_manifestacion_2821911.pdf", "fecha": "11-06-2026", "edicion": "44472" }, "geometry": { "type": "Polygon", "coordinates": [ [ [ -70.802273771923055, -26.839001988149324 ], [ -70.792213918888464, -26.839129818129809 ], [ -70.792356051838368, -26.84815418799446 ], [ -70.802416701627692, -26.848026308246279 ], [ -70.802273771923055, -26.839001988149324 ] ] ] } },
{ "type": "Feature", "properties": { "cve": "2821912", "nombre": "PUERTO EL MORADO III 1 al 10", "solicitante": "Baeza Urrea Juan Eduardo", "region": "REGIÓN DE ATACAMA", "provincia": "Provincia de Copiapó", "comuna": "Caldera", "superficie_ha": 100.0, "datum_original": "PSAD56", "huso": 19, "epsg_origen": 24879, "tipo_publicacion": "manifestacion", "fuente_pdf": "http://www.diariooficial.interior.gob.cl/publicaciones/2026/06/11/44472/07/2821912.pdf", "archivo": "gm_manifestacion_2821912.pdf", "fecha": "11-06-2026", "edicion": "44472" }, "geometry": { "type": "Polygon", "coordinates": [ [ [ -70.802130909357231, -26.829977655738681 ], [ -70.792071852703359, -26.830105435959162 ], [ -70.792213918888464, -26.839129818129809 ], [ -70.802273771923055, -26.839001988149324 ], [ -70.802130909357231, -26.829977655738681 ] ] ] } },
{ "type": "Feature", "properties": { "cve": "2821921", "nombre": "RELINCHO 1-20", "solicitante": "Araya Cortés Gabriel Fernando", "region": "REGIÓN DE ATACAMA", "provincia": "Provincia de Copiapó", "comuna": null, "superficie_ha": 100.0, "datum_original": "WGS84", "huso": 19, "epsg_origen": 32719, "tipo_publicacion": "manifestacion", "fuente_pdf": "http://www.diariooficial.interior.gob.cl/publicaciones/2026/06/11/44472/07/2821921.pdf", "archivo": "gm_manifestacion_2821921.pdf", "fecha": "11-06-2026", "edicion": "44472" }, "geometry": { "type": "Polygon", "coordinates": [ [ [ -70.516302355836459, -27.705503057006702 ], [ -70.506162725725531, -27.705613750191628 ], [ -70.506286708462355, -27.714638295046445 ], [ -70.516427172459771, -27.71452755969381 ], [ -70.516302355836459, -27.705503057006702 ] ] ] } },
{ "type": "Feature", "properties": { "cve": "2821834", "nombre": "VIVA CHILE 8", "solicitante": "SLM Viva Chile Una de la Sierra Mineral Cachiyuyo de Llampos", "region": "REGIÓN DE ATACAMA", "provincia": "Provincia de Copiapó", "comuna": null, "superficie_ha": 2.0, "datum_original": "WGS84", "huso": 19, "epsg_origen": 32719, "tipo_publicacion": "manifestacion", "fuente_pdf": "http://www.diariooficial.interior.gob.cl/publicaciones/2026/06/11/44472/07/2821834.pdf", "archivo": "gm_manifestacion_2821834.pdf", "fecha": "11-06-2026", "edicion": "44472" }, "geometry": { "type": "Polygon", "coordinates": [ [ [ -69.994359214702058, -27.071482326875504 ], [ -69.992342421623889, -27.071496573531853 ], [ -69.992350371005031, -27.072399287860922 ], [ -69.994367180232686, -27.072385040653113 ], [ -69.994359214702058, -27.071482326875504 ] ] ] } },
{ "type": "Feature", "properties": { "cve": "2821450", "nombre": "EMILIO 1/5", "solicitante": "Quevedo Cubillos Emilio Enrique", "region": "REGIÓN DE ATACAMA", "provincia": "Provincia de Chañaral", "comuna": "Chañaral", "superficie_ha": 25.0, "datum_original": "PSAD56", "huso": 19, "epsg_origen": 24879, "tipo_publicacion": "manifestacion", "fuente_pdf": "http://www.diariooficial.interior.gob.cl/publicaciones/2026/06/11/44472/07/2821450.pdf", "archivo": "gm_manifestacion_2821450.pdf", "fecha": "11-06-2026", "edicion": "44472" }, "geometry": { "type": "Polygon", "coordinates": [ [ [ -70.443516108226149, -26.031538715381107 ], [ -70.438520229516243, -26.03158853791939 ], [ -70.438575288015016, -26.036102027277312 ], [ -70.4435713577776, -26.036052194826834 ], [ -70.443516108226149, -26.031538715381107 ] ] ] } },
{ "type": "Feature", "properties": { "cve": "2821451", "nombre": "NANCY MARINA 1/5", "solicitante": "Figueroa Romeo Gabriel Eduardo", "region": "REGIÓN DE ATACAMA", "provincia": "Provincia de Chañaral", "comuna": "Chañaral", "superficie_ha": 25.0, "datum_original": "PSAD56", "huso": 19, "epsg_origen": 24879, "tipo_publicacion": "manifestacion", "fuente_pdf": "http://www.diariooficial.interior.gob.cl/publicaciones/2026/06/11/44472/07/2821451.pdf", "archivo": "gm_manifestacion_2821451.pdf", "fecha": "11-06-2026", "edicion": "44472" }, "geometry": { "type": "Polygon", "coordinates": [ [ [ -70.446524700931533, -26.032411433940212 ], [ -70.441528791892694, -26.032461362028204 ], [ -70.441583967647688, -26.036974844852573 ], [ -70.446580067746979, -26.036924906831626 ], [ -70.446524700931533, -26.032411433940212 ] ] ] } },
{ "type": "Feature", "properties": { "cve": "2821875", "nombre": "CLARITA 1 AL 5", "solicitante": "Cepeda Alfaro Diego Alonso", "region": "REGIÓN DE ATACAMA", "provincia": "Provincia de Huasco", "comuna": "Freirina", "superficie_ha": 50.0, "datum_original": "PSAD56", "huso": 19, "epsg_origen": 24879, "tipo_publicacion": "manifestacion", "fuente_pdf": "http://www.diariooficial.interior.gob.cl/publicaciones/2026/06/11/44472/07/2821875.pdf", "archivo": "gm_manifestacion_2821875.pdf", "fecha": "11-06-2026", "edicion": "44472" }, "geometry": { "type": "Polygon", "coordinates": [ [ [ -71.302258785495994, -29.156121582303619 ], [ -71.297121729568616, -29.156209795337993 ], [ -71.297322541792695, -29.165228252145504 ], [ -71.302460045830514, -29.16514000663042 ], [ -71.302258785495994, -29.156121582303619 ] ] ] } },
{ "type": "Feature", "properties": { "cve": "2821776", "nombre": "FRANCO 1, 1 AL 12", "solicitante": "Aurenor Gold & Minerals SpA", "region": "REGIÓN DE COQUIMBO", "provincia": "Provincia de Elqui", "comuna": null, "superficie_ha": 60.0, "datum_original": "PSAD56", "huso": 19, "epsg_origen": 24879, "tipo_publicacion": "manifestacion", "fuente_pdf": "http://www.diariooficial.interior.gob.cl/publicaciones/2026/06/11/44472/07/2821776.pdf", "archivo": "gm_manifestacion_2821776.pdf", "fecha": "11-06-2026", "edicion": "44472" }, "geometry": { "type": "Polygon", "coordinates": [ [ [ -70.832930904998307, -29.3813487768013 ], [ -70.828811023896932, -29.381405359657855 ], [ -70.829053101942634, -29.39493657958419 ], [ -70.833173527645286, -29.394879965618248 ], [ -70.832930904998307, -29.3813487768013 ] ] ] } },
{ "type": "Feature", "properties": { "cve": "2821850", "nombre": "SAN ANDRES  A 1 al 60", "solicitante": "Álvarez Durán Andrés Silvino", "region": "REGIÓN DE COQUIMBO", "provincia": "Provincia de Elqui", "comuna": null, "superficie_ha": 60.0, "datum_original": "PSAD56", "huso": 19, "epsg_origen": 24879, "tipo_publicacion": "manifestacion", "fuente_pdf": "http://www.diariooficial.interior.gob.cl/publicaciones/2026/06/11/44472/07/2821850.pdf", "archivo": "gm_manifestacion_2821850.pdf", "fecha": "11-06-2026", "edicion": "44472" }, "geometry": { "type": "Polygon", "coordinates": [ [ [ -71.173337774832035, -30.215617522290717 ], [ -71.162954409443614, -30.215789319608405 ], [ -71.163072829339583, -30.221200018566886 ], [ -71.17345676211994, -30.221028184129274 ], [ -71.173337774832035, -30.215617522290717 ] ] ] } },
{ "type": "Feature", "properties": { "cve": "2821851", "nombre": "SAN ANDRES B 1 al 50", "solicitante": "Álvarez Durán Andrés Silvino", "region": "REGIÓN DE COQUIMBO", "provincia": "Provincia de Elqui", "comuna": null, "superficie_ha": 50.0, "datum_original": "PSAD56", "huso": 19, "epsg_origen": 24879, "tipo_publicacion": "manifestacion", "fuente_pdf": "http://www.diariooficial.interior.gob.cl/publicaciones/2026/06/11/44472/07/2821851.pdf", "archivo": "gm_manifestacion_2821851.pdf", "fecha": "11-06-2026", "edicion": "44472" }, "geometry": { "type": "Polygon", "coordinates": [ [ [ -71.162993879168681, -30.217592886475146 ], [ -71.157802068389501, -30.217678483240892 ], [ -71.157998997697874, -30.226696340190124 ], [ -71.16319128140195, -30.226610712599786 ], [ -71.162993879168681, -30.217592886475146 ] ] ] } },
{ "type": "Feature", "properties": { "cve": "2821852", "nombre": "SAN ANDRES C 1 al 45", "solicitante": "Álvarez Durán Andrés Silvino", "region": "REGIÓN DE COQUIMBO", "provincia": "Provincia de Elqui", "comuna": null, "superficie_ha": 45.0, "datum_original": "PSAD56", "huso": 19, "epsg_origen": 24879, "tipo_publicacion": "manifestacion", "fuente_pdf": "http://www.diariooficial.interior.gob.cl/publicaciones/2026/06/11/44472/07/2821852.pdf", "archivo": "gm_manifestacion_2821852.pdf", "fecha": "11-06-2026", "edicion": "44472" }, "geometry": { "type": "Polygon", "coordinates": [ [ [ -71.157341941332589, -30.220392391065324 ], [ -71.15214996418959, -30.220477771123676 ], [ -71.152326752367088, -30.228593869741481 ], [ -71.15751915519904, -30.228508462012947 ], [ -71.157341941332589, -30.220392391065324 ] ] ] } },
{ "type": "Feature", "properties": { "cve": "2821853", "nombre": "SAN ANDRES D 1 al 28", "solicitante": "Álvarez Durán Andrés Silvino", "region": "REGIÓN DE COQUIMBO", "provincia": "Provincia de Elqui", "comuna": null, "superficie_ha": 28.0, "datum_original": "PSAD56", "huso": 19, "epsg_origen": 24879, "tipo_publicacion": "manifestacion", "fuente_pdf": "http://www.diariooficial.interior.gob.cl/publicaciones/2026/06/11/44472/07/2821853.pdf", "archivo": "gm_manifestacion_2821853.pdf", "fecha": "11-06-2026", "edicion": "44472" }, "geometry": { "type": "Polygon", "coordinates": [ [ [ -71.152708452401114, -30.22227282017494 ], [ -71.148554780791756, -30.222340997664872 ], [ -71.148692057153383, -30.228653532889414 ], [ -71.152845993651624, -30.2285853382153 ], [ -71.152708452401114, -30.22227282017494 ] ] ] } },
{ "type": "Feature", "properties": { "cve": "2821899", "nombre": "LUIS UNO 1/20", "solicitante": "Cuevas Valdivia Freddy William", "region": "REGIÓN METROPOLITANA DE SANTIAGO", "provincia": "Provincia de Chacabuco", "comuna": null, "superficie_ha": 100.0, "datum_original": "PSAD56", "huso": 19, "epsg_origen": 24879, "tipo_publicacion": "manifestacion", "fuente_pdf": "http://www.diariooficial.interior.gob.cl/publicaciones/2026/06/11/44472/07/2821899.pdf", "archivo": "gm_manifestacion_2821899.pdf", "fecha": "11-06-2026", "edicion": "44472" }, "geometry": { "type": "Polygon", "coordinates": [ [ [ -70.683080962739439, -33.085755766589678 ], [ -70.672370426602413, -33.085899917329975 ], [ -70.672541156126883, -33.094916254176411 ], [ -70.683252784430337, -33.094772054112099 ], [ -70.683080962739439, -33.085755766589678 ] ] ] } },
{ "type": "Feature", "properties": { "cve": "2821780", "nombre": "YUMBEL 2, 1 AL 60", "solicitante": "FRV Services Chile SpA", "region": "REGIÓN DEL BIOBÍO", "provincia": "Provincia de Concepción", "comuna": null, "superficie_ha": 300.0, "datum_original": "PSAD56", "huso": 18, "epsg_origen": 24878, "tipo_publicacion": "manifestacion", "fuente_pdf": "http://www.diariooficial.interior.gob.cl/publicaciones/2026/06/11/44472/07/2821780.pdf", "archivo": "gm_manifestacion_2821780.pdf", "fecha": "11-06-2026", "edicion": "44472" }, "geometry": { "type": "Polygon", "coordinates": [ [ [ -72.73939196867353, -37.034270309331802 ], [ -72.728156789641275, -37.034055639562894 ], [ -72.727350965525943, -37.061077359412018 ], [ -72.738590121383254, -37.061292238522974 ], [ -72.73939196867353, -37.034270309331802 ] ] ] } },
{ "type": "Feature", "properties": { "cve": "2821826", "nombre": "GUIA 1", "solicitante": "Requena Paredes Francisco Jacob", "region": "REGIÓN DE ATACAMA", "provincia": "Provincia de Copiapó", "comuna": null, "superficie_ha": 300.0, "datum_original": "PSAD56", "huso": 19, "epsg_origen": 24879, "tipo_publicacion": "pedimento", "fuente_pdf": "http://www.diariooficial.interior.gob.cl/publicaciones/2026/06/11/44472/07/2821826.pdf", "archivo": "gm_pedimento_2821826.pdf", "fecha": "11-06-2026", "edicion": "44472" }, "geometry": { "type": "Polygon", "coordinates": [ [ [ -70.913381208960871, -27.979224136293471 ], [ -70.882891982150014, -27.979644929484362 ], [ -70.883048749802114, -27.988667351882174 ], [ -70.913540511368836, -27.988246399475155 ], [ -70.913381208960871, -27.979224136293471 ] ] ] } },
{ "type": "Feature", "properties": { "cve": "2821827", "nombre": "GUIA 2", "solicitante": "Requena Paredes Francisco Jacob", "region": "REGIÓN DE ATACAMA", "provincia": "Provincia de Copiapó", "comuna": null, "superficie_ha": 300.0, "datum_original": "PSAD56", "huso": 19, "epsg_origen": 24879, "tipo_publicacion": "pedimento", "fuente_pdf": "http://www.diariooficial.interior.gob.cl/publicaciones/2026/06/11/44472/07/2821827.pdf", "archivo": "gm_pedimento_2821827.pdf", "fecha": "11-06-2026", "edicion": "44472" }, "geometry": { "type": "Polygon", "coordinates": [ [ [ -70.903218206555081, -27.979365150781071 ], [ -70.872728760932162, -27.979783693659979 ], [ -70.872884683613918, -27.988806168562455 ], [ -70.903376664070407, -27.988387467318482 ], [ -70.903218206555081, -27.979365150781071 ] ] ] } },
{ "type": "Feature", "properties": { "cve": "2821860", "nombre": "INCA 3", "solicitante": "Pizarro Urqueta Félix", "region": "REGIÓN DE ATACAMA", "provincia": "Provincia de Copiapó", "comuna": "Tierra Amarilla", "superficie_ha": 300.0, "datum_original": "PSAD56", "huso": 19, "epsg_origen": 24879, "tipo_publicacion": "pedimento", "fuente_pdf": "http://www.diariooficial.interior.gob.cl/publicaciones/2026/06/11/44472/07/2821860.pdf", "archivo": "gm_pedimento_2821860.pdf", "fecha": "11-06-2026", "edicion": "44472" }, "geometry": { "type": "Polygon", "coordinates": [ [ [ -69.438410501845624, -27.802261772416529 ], [ -69.428258653703622, -27.802293613778136 ], [ -69.42836489308398, -27.829375471009936 ], [ -69.438519259430322, -27.829343593325248 ], [ -69.438410501845624, -27.802261772416529 ] ] ] } },
{ "type": "Feature", "properties": { "cve": "2821861", "nombre": "INCA 4", "solicitante": "Pizarro Urqueta Félix", "region": "REGIÓN DE ATACAMA", "provincia": "Provincia de Copiapó", "comuna": "Tierra Amarilla", "superficie_ha": 300.0, "datum_original": "PSAD56", "huso": 19, "epsg_origen": 24879, "tipo_publicacion": "pedimento", "fuente_pdf": "http://www.diariooficial.interior.gob.cl/publicaciones/2026/06/11/44472/07/2821861.pdf", "archivo": "gm_pedimento_2821861.pdf", "fecha": "11-06-2026", "edicion": "44472" }, "geometry": { "type": "Polygon", "coordinates": [ [ [ -69.428258653703622, -27.802293613778136 ], [ -69.418106789137795, -27.802324709229033 ], [ -69.418210510296362, -27.829406601933034 ], [ -69.42836489308398, -27.829375471009936 ], [ -69.428258653703622, -27.802293613778136 ] ] ] } },
{ "type": "Feature", "properties": { "cve": "2821864", "nombre": "INCA 7", "solicitante": "Pizarro Urqueta Félix", "region": "REGIÓN DE ATACAMA", "provincia": "Provincia de Copiapó", "comuna": "Tierra Amarilla", "superficie_ha": 200.0, "datum_original": "PSAD56", "huso": 19, "epsg_origen": 24879, "tipo_publicacion": "pedimento", "fuente_pdf": "http://www.diariooficial.interior.gob.cl/publicaciones/2026/06/11/44472/07/2821864.pdf", "archivo": "gm_pedimento_2821864.pdf", "fecha": "11-06-2026", "edicion": "44472" }, "geometry": { "type": "Polygon", "coordinates": [ [ [ -69.407988627191116, -27.811382379810389 ], [ -69.397835891916458, -27.81141199468161 ], [ -69.397901696956154, -27.829466623476719 ], [ -69.408056111457185, -27.829436986090069 ], [ -69.407988627191116, -27.811382379810389 ] ] ] } },
{ "type": "Feature", "properties": { "cve": "2821866", "nombre": "INCA 9", "solicitante": "Pizarro Urqueta Félix", "region": "REGIÓN DE ATACAMA", "provincia": "Provincia de Copiapó", "comuna": "Tierra Amarilla", "superficie_ha": 200.0, "datum_original": "PSAD56", "huso": 19, "epsg_origen": 24879, "tipo_publicacion": "pedimento", "fuente_pdf": "http://www.diariooficial.interior.gob.cl/publicaciones/2026/06/11/44472/07/2821866.pdf", "archivo": "gm_pedimento_2821866.pdf", "fecha": "11-06-2026", "edicion": "44472" }, "geometry": { "type": "Polygon", "coordinates": [ [ [ -69.397868786802803, -27.820439315047707 ], [ -69.38771519684299, -27.820468194684757 ], [ -69.387779352405573, -27.838522821554843 ], [ -69.397934622381882, -27.838493919966123 ], [ -69.397868786802803, -27.820439315047707 ] ] ] } },
{ "type": "Feature", "properties": { "cve": "2821789", "nombre": "ALTO 1", "solicitante": "Hernández Cortés Marcelo Patricio", "region": "REGIÓN DE ATACAMA", "provincia": "Provincia de Huasco", "comuna": "Alto del Carmen", "superficie_ha": 300.0, "datum_original": "PSAD56", "huso": 19, "epsg_origen": 24879, "tipo_publicacion": "pedimento", "fuente_pdf": "http://www.diariooficial.interior.gob.cl/publicaciones/2026/06/11/44472/07/2821789.pdf", "archivo": "gm_pedimento_2821789.pdf", "fecha": "11-06-2026", "edicion": "44472" }, "geometry": { "type": "Polygon", "coordinates": [ [ [ -70.054344339392813, -29.51379542614535 ], [ -70.023394305553964, -29.514037233712468 ], [ -70.023485105239885, -29.52306103893385 ], [ -70.054437883869213, -29.522819142960156 ], [ -70.054344339392813, -29.51379542614535 ] ] ] } },
{ "type": "Feature", "properties": { "cve": "2821790", "nombre": "ALTO 2", "solicitante": "Hernández Cortés Marcelo Patricio", "region": "REGIÓN DE ATACAMA", "provincia": "Provincia de Huasco", "comuna": "Alto del Carmen", "superficie_ha": 300.0, "datum_original": "PSAD56", "huso": 19, "epsg_origen": 24879, "tipo_publicacion": "pedimento", "fuente_pdf": "http://www.diariooficial.interior.gob.cl/publicaciones/2026/06/11/44472/07/2821790.pdf", "archivo": "gm_pedimento_2821790.pdf", "fecha": "11-06-2026", "edicion": "44472" }, "geometry": { "type": "Polygon", "coordinates": [ [ [ -70.054250837528897, -29.504771696710058 ], [ -70.023303547230526, -29.505013415885937 ], [ -70.023394305553964, -29.514037233712468 ], [ -70.054344339392813, -29.51379542614535 ], [ -70.054250837528897, -29.504771696710058 ] ] ] } },
{ "type": "Feature", "properties": { "cve": "2821791", "nombre": "ALTO 3", "solicitante": "Hernández Cortés Marcelo Patricio", "region": "REGIÓN DE ATACAMA", "provincia": "Provincia de Huasco", "comuna": "Alto del Carmen", "superficie_ha": 200.0, "datum_original": "PSAD56", "huso": 19, "epsg_origen": 24879, "tipo_publicacion": "pedimento", "fuente_pdf": "http://www.diariooficial.interior.gob.cl/publicaciones/2026/06/11/44472/07/2821791.pdf", "archivo": "gm_pedimento_2821791.pdf", "fecha": "11-06-2026", "edicion": "44472" }, "geometry": { "type": "Polygon", "coordinates": [ [ [ -70.043842570951128, -29.495829297821484 ], [ -70.023212830254124, -29.495989585456655 ], [ -70.023303547230526, -29.505013415885937 ], [ -70.043935116137135, -29.504853069625842 ], [ -70.043842570951128, -29.495829297821484 ] ] ] } },
{ "type": "Feature", "properties": { "cve": "2821792", "nombre": "ALTO 4", "solicitante": "Hernández Cortés Marcelo Patricio", "region": "REGIÓN DE ATACAMA", "provincia": "Provincia de Huasco", "comuna": "Alto del Carmen", "superficie_ha": 300.0, "datum_original": "PSAD56", "huso": 19, "epsg_origen": 24879, "tipo_publicacion": "pedimento", "fuente_pdf": "http://www.diariooficial.interior.gob.cl/publicaciones/2026/06/11/44472/07/2821792.pdf", "archivo": "gm_pedimento_2821792.pdf", "fecha": "11-06-2026", "edicion": "44472" }, "geometry": { "type": "Polygon", "coordinates": [ [ [ -70.085293989721308, -29.51354641737478 ], [ -70.054344339392813, -29.51379542614535 ], [ -70.054437883869213, -29.522819142960156 ], [ -70.085390278844997, -29.522570043150647 ], [ -70.085293989721308, -29.51354641737478 ] ] ] } },
{ "type": "Feature", "properties": { "cve": "2821793", "nombre": "ALTO 5", "solicitante": "Hernández Cortés Marcelo Patricio", "region": "REGIÓN DE ATACAMA", "provincia": "Provincia de Huasco", "comuna": "Alto del Carmen", "superficie_ha": 300.0, "datum_original": "PSAD56", "huso": 19, "epsg_origen": 24879, "tipo_publicacion": "pedimento", "fuente_pdf": "http://www.diariooficial.interior.gob.cl/publicaciones/2026/06/11/44472/07/2821793.pdf", "archivo": "gm_pedimento_2821793.pdf", "fecha": "11-06-2026", "edicion": "44472" }, "geometry": { "type": "Polygon", "coordinates": [ [ [ -70.085197744460046, -29.504522778962695 ], [ -70.054250837528897, -29.504771696710058 ], [ -70.054344339392813, -29.51379542614535 ], [ -70.085293989721308, -29.51354641737478 ], [ -70.085197744460046, -29.504522778962695 ] ] ] } },
{ "type": "Feature", "properties": { "cve": "2821621", "nombre": "ARIES 1", "solicitante": "Veth Raffo Daniela", "region": "REGIÓN DE VALPARAÍSO", "provincia": "Provincia de Petorca", "comuna": "Cabildo", "superficie_ha": 300.0, "datum_original": "PSAD56", "huso": 19, "epsg_origen": 24879, "tipo_publicacion": "pedimento", "fuente_pdf": "http://www.diariooficial.interior.gob.cl/publicaciones/2026/06/11/44472/07/2821621.pdf", "archivo": "gm_pedimento_2821621.pdf", "fecha": "11-06-2026", "edicion": "44472" }, "geometry": { "type": "Polygon", "coordinates": [ [ [ -70.477092061771131, -32.225375244773176 ], [ -70.466482565875651, -32.22549879324685 ], [ -70.466917321816553, -32.252554175534641 ], [ -70.477529960242663, -32.252430498398724 ], [ -70.477092061771131, -32.225375244773176 ] ] ] } },
{ "type": "Feature", "properties": { "cve": "2821622", "nombre": "ARIES 2", "solicitante": "Veth Raffo Daniela", "region": "REGIÓN DE VALPARAÍSO", "provincia": "Provincia de Petorca", "comuna": null, "superficie_ha": 300.0, "datum_original": "PSAD56", "huso": 19, "epsg_origen": 24879, "tipo_publicacion": "pedimento", "fuente_pdf": "http://www.diariooficial.interior.gob.cl/publicaciones/2026/06/11/44472/07/2821622.pdf", "archivo": "gm_pedimento_2821622.pdf", "fecha": "11-06-2026", "edicion": "44472" }, "geometry": { "type": "Polygon", "coordinates": [ [ [ -70.466482565875651, -32.22549879324685 ], [ -70.455873005215949, -32.225621451716393 ], [ -70.456304618547449, -32.252676961739915 ], [ -70.466917321816553, -32.252554175534641 ], [ -70.466482565875651, -32.22549879324685 ] ] ] } },
{ "type": "Feature", "properties": { "cve": "2821623", "nombre": "ARIES 3", "solicitante": "Veth Raffo Daniela", "region": "REGIÓN DE VALPARAÍSO", "provincia": "Provincia de Petorca", "comuna": "Cabildo", "superficie_ha": 300.0, "datum_original": "PSAD56", "huso": 19, "epsg_origen": 24879, "tipo_publicacion": "pedimento", "fuente_pdf": "http://www.diariooficial.interior.gob.cl/publicaciones/2026/06/11/44472/07/2821623.pdf", "archivo": "gm_pedimento_2821623.pdf", "fecha": "11-06-2026", "edicion": "44472" }, "geometry": { "type": "Polygon", "coordinates": [ [ [ -70.455873005215949, -32.225621451716393 ], [ -70.445263380259959, -32.225743220163231 ], [ -70.445691850903728, -32.252798856995994 ], [ -70.456304618547449, -32.252676961739915 ], [ -70.455873005215949, -32.225621451716393 ] ] ] } },
{ "type": "Feature", "properties": { "cve": "2821624", "nombre": "ARIES 3", "solicitante": "Veth Raffo Daniela", "region": "REGIÓN DE VALPARAÍSO", "provincia": "Provincia de Petorca", "comuna": "Cabildo", "superficie_ha": 300.0, "datum_original": "PSAD56", "huso": 19, "epsg_origen": 24879, "tipo_publicacion": "pedimento", "fuente_pdf": "http://www.diariooficial.interior.gob.cl/publicaciones/2026/06/11/44472/07/2821624.pdf", "archivo": "gm_pedimento_2821624.pdf", "fecha": "11-06-2026", "edicion": "44472" }, "geometry": { "type": "Polygon", "coordinates": [ [ [ -70.47694622611381, -32.216356799754351 ], [ -70.445120684403875, -32.216724647458058 ], [ -70.445263380259959, -32.225743220163231 ], [ -70.477092061771131, -32.225375244773176 ], [ -70.47694622611381, -32.216356799754351 ] ] ] } }
]
}
