{
"type": "FeatureCollection",
"name": "boletin_mineria_20260825",
"crs": { "type": "name", "properties": { "name": "urn:ogc:def:crs:OGC:1.3:CRS84" } },
"features": [
{ "type": "Feature", "properties": { "cve": "2859047", "nombre": "ASTAP IV 1 A 16", "solicitante": "Astorga Tapia Maximiliano Agustín", "region": "REGIÓN DE ATACAMA", "provincia": "Provincia de Copiapó", "comuna": null, "superficie_ha": 16.0, "datum_original": "PSAD56", "huso": 19, "epsg_origen": 24879, "tipo_publicacion": "manifestacion", "fuente_pdf": "http://www.diariooficial.interior.gob.cl/publicaciones/2026/08/25/44533/07/2859047.pdf", "archivo": "gm_manifestacion_2859047.pdf", "fecha": "25-08-2026", "edicion": "44533" }, "geometry": { "type": "Polygon", "coordinates": [ [ [ -70.489751160408659, -27.664807788414748 ], [ -70.485696768335359, -27.664851312854974 ], [ -70.485745590348543, -27.668461188013374 ], [ -70.48980011553472, -27.668417656934302 ], [ -70.489751160408659, -27.664807788414748 ] ] ] } },
{ "type": "Feature", "properties": { "cve": "2859200", "nombre": "LA PATRONA 1 AL 30", "solicitante": "Kincade Pefaur Daniel Etienne", "region": "REGIÓN DE ATACAMA", "provincia": "Provincia de Copiapó", "comuna": "Copiapó", "superficie_ha": 120.0, "datum_original": "PSAD56", "huso": 19, "epsg_origen": 24879, "tipo_publicacion": "manifestacion", "fuente_pdf": "http://www.diariooficial.interior.gob.cl/publicaciones/2026/08/25/44533/07/2859200.pdf", "archivo": "gm_manifestacion_2859200.pdf", "fecha": "25-08-2026", "edicion": "44533" }, "geometry": { "type": "Polygon", "coordinates": [ [ [ -70.477328094550757, -27.457935169223404 ], [ -70.469234440238836, -27.4580207814864 ], [ -70.469413955890786, -27.471558310183259 ], [ -70.477508598236213, -27.471472648695094 ], [ -70.477328094550757, -27.457935169223404 ] ] ] } },
{ "type": "Feature", "properties": { "cve": "2859039", "nombre": "LA PINTA 1 AL 5", "solicitante": "Jiménez Torres Víctor Manuel", "region": "REGIÓN DE ATACAMA", "provincia": "Provincia de Copiapó", "comuna": "Tierra Amarilla", "superficie_ha": 5.0, "datum_original": "PSAD56", "huso": 19, "epsg_origen": 24879, "tipo_publicacion": "manifestacion", "fuente_pdf": "http://www.diariooficial.interior.gob.cl/publicaciones/2026/08/25/44533/07/2859039.pdf", "archivo": "gm_manifestacion_2859039.pdf", "fecha": "25-08-2026", "edicion": "44533" }, "geometry": { "type": "Polygon", "coordinates": [ [ [ -70.382129477718536, -27.598568855610885 ], [ -70.381116442626222, -27.598578938656349 ], [ -70.3811730171889, -27.603091532716725 ], [ -70.382186093745887, -27.603081447745556 ], [ -70.382129477718536, -27.598568855610885 ] ] ] } },
{ "type": "Feature", "properties": { "cve": "2859134", "nombre": "TOLEDO 1/5", "solicitante": "Ghiglino Saltori Sergio", "region": "REGIÓN DE ATACAMA", "provincia": "Provincia de Copiapó", "comuna": null, "superficie_ha": 25.0, "datum_original": "WGS84", "huso": 19, "epsg_origen": 32719, "tipo_publicacion": "manifestacion", "fuente_pdf": "http://www.diariooficial.interior.gob.cl/publicaciones/2026/08/25/44533/07/2859134.pdf", "archivo": "gm_manifestacion_2859134.pdf", "fecha": "25-08-2026", "edicion": "44533" }, "geometry": { "type": "Polygon", "coordinates": [ [ [ -70.458772562159965, -27.342815483013194 ], [ -70.453719230497356, -27.342868174984329 ], [ -70.453778140806008, -27.347380791504278 ], [ -70.458831677072368, -27.347328089406453 ], [ -70.458772562159965, -27.342815483013194 ] ] ] } },
{ "type": "Feature", "properties": { "cve": "2859084", "nombre": "LA PROTEGIDA 1 AL 10", "solicitante": "Tapia Herrera Gloria Alejandra", "region": "REGIÓN DE COQUIMBO", "provincia": "Provincia de Limarí", "comuna": null, "superficie_ha": 50.0, "datum_original": "WGS84", "huso": 19, "epsg_origen": 32719, "tipo_publicacion": "manifestacion", "fuente_pdf": "http://www.diariooficial.interior.gob.cl/publicaciones/2026/08/25/44533/07/2859084.pdf", "archivo": "gm_manifestacion_2859084.pdf", "fecha": "25-08-2026", "edicion": "44533" }, "geometry": { "type": "Polygon", "coordinates": [ [ [ -71.072347495821262, -30.664023161633843 ], [ -71.067131656719809, -30.66410626664269 ], [ -71.06732372818712, -30.6731240597206 ], [ -71.072540051083493, -30.673040925047211 ], [ -71.072347495821262, -30.664023161633843 ] ] ] } },
{ "type": "Feature", "properties": { "cve": "2858906", "nombre": "LAS CABRAS, del 1 al 10", "solicitante": "SG Minerals SpA y otro", "region": "REGIÓN DEL LIBERTADOR GENERAL BERNARDO O’HIGGINS", "provincia": "Provincia de Cachapoal", "comuna": null, "superficie_ha": 40.0, "datum_original": "PSAD56", "huso": 19, "epsg_origen": 24879, "tipo_publicacion": "manifestacion", "fuente_pdf": "http://www.diariooficial.interior.gob.cl/publicaciones/2026/08/25/44533/07/2858906.pdf", "archivo": "gm_manifestacion_2858906.pdf", "fecha": "25-08-2026", "edicion": "44533" }, "geometry": { "type": "Polygon", "coordinates": [ [ [ -71.280774770374592, -34.267430803856328 ], [ -71.272091478948553, -34.267592147140803 ], [ -71.272212722251581, -34.2720978185639 ], [ -71.280896476057691, -34.271936448168944 ], [ -71.280774770374592, -34.267430803856328 ] ] ] } },
{ "type": "Feature", "properties": { "cve": "2858961", "nombre": "LA RUA 2, 1 AL 300", "solicitante": "Engie Energía Chile S.A.", "region": "REGIÓN DEL BIOBÍO", "provincia": "Provincia de Biobío", "comuna": null, "superficie_ha": 300.0, "datum_original": "PSAD56", "huso": 18, "epsg_origen": 24878, "tipo_publicacion": "manifestacion", "fuente_pdf": "http://www.diariooficial.interior.gob.cl/publicaciones/2026/08/25/44533/07/2858961.pdf", "archivo": "gm_manifestacion_2858961.pdf", "fecha": "25-08-2026", "edicion": "44533" }, "geometry": { "type": "Polygon", "coordinates": [ [ [ -72.38848854287086, -37.284795315742883 ], [ -72.354680885751634, -37.284044162086424 ], [ -72.354365446452235, -37.293048506747581 ], [ -72.388177123695812, -37.29379990383601 ], [ -72.38848854287086, -37.284795315742883 ] ] ] } },
{ "type": "Feature", "properties": { "cve": "2858962", "nombre": "LA RUA 4, 1 AL 260", "solicitante": "Engie Energía Chile S.A.", "region": "REGIÓN DEL BIOBÍO", "provincia": "Provincia de Biobío", "comuna": null, "superficie_ha": 260.0, "datum_original": "PSAD56", "huso": 18, "epsg_origen": 24878, "tipo_publicacion": "manifestacion", "fuente_pdf": "http://www.diariooficial.interior.gob.cl/publicaciones/2026/08/25/44533/07/2858962.pdf", "archivo": "gm_manifestacion_2858962.pdf", "fecha": "25-08-2026", "edicion": "44533" }, "geometry": { "type": "Polygon", "coordinates": [ [ [ -72.373775538839425, -37.302492464839084 ], [ -72.344468981076176, -37.301838116404305 ], [ -72.34415212114871, -37.310842359264655 ], [ -72.373462165934797, -37.311496919719573 ], [ -72.373775538839425, -37.302492464839084 ] ] ] } },
{ "type": "Feature", "properties": { "cve": "2858963", "nombre": "LA RUA 6, 1 AL 400", "solicitante": "Engie Energía Chile S.A.", "region": "REGIÓN DEL BIOBÍO", "provincia": "Provincia de Biobío", "comuna": null, "superficie_ha": 400.0, "datum_original": "PSAD56", "huso": 18, "epsg_origen": 24878, "tipo_publicacion": "manifestacion", "fuente_pdf": "http://www.diariooficial.interior.gob.cl/publicaciones/2026/08/25/44533/07/2858963.pdf", "archivo": "gm_manifestacion_2858963.pdf", "fecha": "25-08-2026", "edicion": "44533" }, "geometry": { "type": "Polygon", "coordinates": [ [ [ -72.344754034554313, -37.293734284037193 ], [ -72.322213588900027, -37.293226156331151 ], [ -72.321574618656882, -37.311234325612944 ], [ -72.344120427404889, -37.311742782663337 ], [ -72.344754034554313, -37.293734284037193 ] ] ] } },
{ "type": "Feature", "properties": { "cve": "2858964", "nombre": "LA RUA 8, 1 AL 270", "solicitante": "Engie Energía Chile S.A.", "region": "REGIÓN DEL BIOBÍO", "provincia": "Provincia de Biobío", "comuna": null, "superficie_ha": 270.0, "datum_original": "PSAD56", "huso": 18, "epsg_origen": 24878, "tipo_publicacion": "manifestacion", "fuente_pdf": "http://www.diariooficial.interior.gob.cl/publicaciones/2026/08/25/44533/07/2858964.pdf", "archivo": "gm_manifestacion_2858964.pdf", "fecha": "25-08-2026", "edicion": "44533" }, "geometry": { "type": "Polygon", "coordinates": [ [ [ -72.351573218833181, -37.260094383941805 ], [ -72.340307876549133, -37.259841698939297 ], [ -72.339451991828327, -37.284153209423486 ], [ -72.350720948921804, -37.284406115620918 ], [ -72.351573218833181, -37.260094383941805 ] ] ] } },
{ "type": "Feature", "properties": { "cve": "2859034", "nombre": "AR 1 AL 30", "solicitante": "Reid Yáñez Alejandro Alberto", "region": "REGIÓN DE ATACAMA", "provincia": "Provincia de Copiapó", "comuna": null, "superficie_ha": 96.0, "datum_original": "WGS84", "huso": 19, "epsg_origen": 32719, "tipo_publicacion": "mensura", "fuente_pdf": "http://www.diariooficial.interior.gob.cl/publicaciones/2026/08/25/44533/07/2859034.pdf", "archivo": "gm_mensura_2859034.pdf", "fecha": "25-08-2026", "edicion": "44533" }, "geometry": { "type": "Polygon", "coordinates": [ [ [ -70.559274937152068, -27.625147173649786 ], [ -70.551169331568062, -27.625238062815264 ], [ -70.551322041484255, -27.636067412805772 ], [ -70.559428444264796, -27.63597648201036 ], [ -70.559274937152068, -27.625147173649786 ] ] ] } },
{ "type": "Feature", "properties": { "cve": "2859113", "nombre": "IMAN 1 AL 7", "solicitante": "Asesorías Mineras ABS SpA", "region": "REGIÓN DE ATACAMA", "provincia": "Provincia de Copiapó", "comuna": null, "superficie_ha": 49.0, "datum_original": "PSAD56", "huso": 19, "epsg_origen": 24879, "tipo_publicacion": "mensura", "fuente_pdf": "http://www.diariooficial.interior.gob.cl/publicaciones/2026/08/25/44533/07/2859113.pdf", "archivo": "gm_mensura_2859113.pdf", "fecha": "25-08-2026", "edicion": "44533" }, "geometry": { "type": "Polygon", "coordinates": [ [ [ -70.398651751038088, -27.236242076189331 ], [ -70.391583642696929, -27.23631248682214 ], [ -70.391662227239308, -27.242630420528833 ], [ -70.398730734409355, -27.242559990898389 ], [ -70.398651751038088, -27.236242076189331 ] ] ] } },
{ "type": "Feature", "properties": { "cve": "2859120", "nombre": "MARTINA 1 AL 90", "solicitante": "Smoje Ticó Sergio Óscar", "region": "REGIÓN DE ATACAMA", "provincia": "Provincia de Copiapó", "comuna": null, "superficie_ha": 90.0, "datum_original": "PSAD56", "huso": 19, "epsg_origen": 24879, "tipo_publicacion": "mensura", "fuente_pdf": "http://www.diariooficial.interior.gob.cl/publicaciones/2026/08/25/44533/07/2859120.pdf", "archivo": "gm_mensura_2859120.pdf", "fecha": "25-08-2026", "edicion": "44533" }, "geometry": { "type": "Polygon", "coordinates": [ [ [ -70.310171970415396, -26.966285319539647 ], [ -70.300098482673832, -26.96637856078965 ], [ -70.300191794011624, -26.974502237940236 ], [ -70.310266004250522, -26.97440896411921 ], [ -70.310171970415396, -26.966285319539647 ] ] ] } },
{ "type": "Feature", "properties": { "cve": "2859188", "nombre": "OLVIDADA 1/20", "solicitante": "Arancibia González Heraldo", "region": "REGIÓN DE ATACAMA", "provincia": "Provincia de Copiapó", "comuna": null, "superficie_ha": 45.0, "datum_original": "PSAD56", "huso": 19, "epsg_origen": 24879, "tipo_publicacion": "mensura", "fuente_pdf": "http://www.diariooficial.interior.gob.cl/publicaciones/2026/08/25/44533/07/2859188.pdf", "archivo": "gm_mensura_2859188.pdf", "fecha": "25-08-2026", "edicion": "44533" }, "geometry": { "type": "Polygon", "coordinates": [ [ [ -70.488398140114668, -27.150458263440832 ], [ -70.480326796521922, -27.150543631111788 ], [ -70.480398184529889, -27.155958858867546 ], [ -70.487460952404959, -27.155884170216027 ], [ -70.487425085745684, -27.15317656553966 ], [ -70.488434026043521, -27.153165867974909 ], [ -70.488398140114668, -27.150458263440832 ] ] ] } },
{ "type": "Feature", "properties": { "cve": "2859028", "nombre": "Trinidad 1/10", "solicitante": "Gallardo Álvarez Erick Eduardo", "region": "REGIÓN DE ATACAMA", "provincia": "Provincia de Copiapó", "comuna": null, "superficie_ha": 50.0, "datum_original": "PSAD56", "huso": 19, "epsg_origen": 24879, "tipo_publicacion": "mensura", "fuente_pdf": "http://www.diariooficial.interior.gob.cl/publicaciones/2026/08/25/44533/07/2859028.pdf", "archivo": "gm_mensura_2859028.pdf", "fecha": "25-08-2026", "edicion": "44533" }, "geometry": { "type": "Polygon", "coordinates": [ [ [ -70.399208543821587, -27.226659156015138 ], [ -70.394160331012856, -27.226709489482456 ], [ -70.394272764085613, -27.235735109803645 ], [ -70.399321383687919, -27.23568475693034 ], [ -70.399208543821587, -27.226659156015138 ] ] ] } },
{ "type": "Feature", "properties": { "cve": "2859022", "nombre": "ELVIRA 1 AL 8", "solicitante": "Godoy Mena Genaro Segundo", "region": "REGIÓN DE ATACAMA", "provincia": "Provincia de Huasco", "comuna": null, "superficie_ha": 8.0, "datum_original": "WGS84", "huso": 19, "epsg_origen": 32719, "tipo_publicacion": "mensura", "fuente_pdf": "http://www.diariooficial.interior.gob.cl/publicaciones/2026/08/25/44533/07/2859022.pdf", "archivo": "gm_mensura_2859022.pdf", "fecha": "25-08-2026", "edicion": "44533" }, "geometry": { "type": "Polygon", "coordinates": [ [ [ -70.116751242689602, -28.494762996976508 ], [ -70.112664955320952, -28.494796508006655 ], [ -70.11268388775963, -28.496601494766463 ], [ -70.116770244622927, -28.496567981230303 ], [ -70.116751242689602, -28.494762996976508 ] ] ] } },
{ "type": "Feature", "properties": { "cve": "2858615", "nombre": "EL TAMBILLO III 1 AL 112", "solicitante": "Arellano Espinoza Mariana", "region": "REGIÓN DE COQUIMBO", "provincia": "Provincia de Elqui", "comuna": "COQUIMBO", "superficie_ha": 112.0, "datum_original": "PSAD56", "huso": 19, "epsg_origen": 24879, "tipo_publicacion": "mensura", "fuente_pdf": "http://www.diariooficial.interior.gob.cl/publicaciones/2026/08/25/44533/07/2858615.pdf", "archivo": "gm_mensura_2858615.pdf", "fecha": "25-08-2026", "edicion": "44533" }, "geometry": { "type": "Polygon", "coordinates": [ [ [ -71.27829182045194, -30.100262789706434 ], [ -71.271032445978733, -30.100388518513984 ], [ -71.271362546395807, -30.114816236161587 ], [ -71.278622973815544, -30.114690434740769 ], [ -71.27829182045194, -30.100262789706434 ] ] ] } },
{ "type": "Feature", "properties": { "cve": "2859209", "nombre": "El Cateador del 1-4", "solicitante": "Núñez Guerra Guillermo", "region": "REGIÓN DE VALPARAÍSO", "provincia": "Provincia de Petorca", "comuna": null, "superficie_ha": null, "datum_original": "PSAD56", "huso": 19, "epsg_origen": 24879, "tipo_publicacion": "mensura", "fuente_pdf": "http://www.diariooficial.interior.gob.cl/publicaciones/2026/08/25/44533/07/2859209.pdf", "archivo": "gm_mensura_2859209.pdf", "fecha": "25-08-2026", "edicion": "44533" }, "geometry": { "type": "Polygon", "coordinates": [ [ [ -70.975418258210325, -32.257062161993836 ], [ -70.964807858995314, -32.257227672259461 ], [ -70.964885567743607, -32.260834102473297 ], [ -70.975496385939607, -32.260668569250406 ], [ -70.975418258210325, -32.257062161993836 ] ] ] } },
{ "type": "Feature", "properties": { "cve": "2859243", "nombre": "Isabel del 1-10", "solicitante": "SLM Isabel 1 de La Ligua", "region": "REGIÓN DE VALPARAÍSO", "provincia": "Provincia de Petorca", "comuna": null, "superficie_ha": 8.0, "datum_original": "PSAD56", "huso": 19, "epsg_origen": 24879, "tipo_publicacion": "mensura", "fuente_pdf": "http://www.diariooficial.interior.gob.cl/publicaciones/2026/08/25/44533/07/2859243.pdf", "archivo": "gm_mensura_2859243.pdf", "fecha": "25-08-2026", "edicion": "44533" }, "geometry": { "type": "Polygon", "coordinates": [ [ [ -71.194732121038669, -32.310997487785279 ], [ -71.184116920061911, -32.311181686839682 ], [ -71.184290052784647, -32.318393479452055 ], [ -71.186413268695148, -32.318356700788421 ], [ -71.186434935637294, -32.319258172948388 ], [ -71.192804623117382, -32.3191476190581 ], [ -71.192826354029165, -32.320049087246232 ], [ -71.19494959642654, -32.320012163312128 ], [ -71.194732121038669, -32.310997487785279 ] ] ] } },
{ "type": "Feature", "properties": { "cve": "2859208", "nombre": "La Desquite del 1-5", "solicitante": "Núñez Guerra Guillermo", "region": "REGIÓN DE VALPARAÍSO", "provincia": "Provincia de Petorca", "comuna": null, "superficie_ha": null, "datum_original": "PSAD56", "huso": 19, "epsg_origen": 24879, "tipo_publicacion": "mensura", "fuente_pdf": "http://www.diariooficial.interior.gob.cl/publicaciones/2026/08/25/44533/07/2859208.pdf", "archivo": "gm_mensura_2859208.pdf", "fecha": "25-08-2026", "edicion": "44533" }, "geometry": { "type": "Polygon", "coordinates": [ [ [ -70.984938905804015, -32.255109080738585 ], [ -70.97432879468424, -32.255275381606651 ], [ -70.974426395953188, -32.259783394577902 ], [ -70.985037030748174, -32.259617064875115 ], [ -70.984938905804015, -32.255109080738585 ] ] ] } },
{ "type": "Feature", "properties": { "cve": "2859236", "nombre": "La Reposo del 1-10", "solicitante": "Báez Reinoso Celestino Arnoldo", "region": "REGIÓN DE VALPARAÍSO", "provincia": "Provincia de Petorca", "comuna": null, "superficie_ha": 8.0, "datum_original": "PSAD56", "huso": 19, "epsg_origen": 24879, "tipo_publicacion": "mensura", "fuente_pdf": "http://www.diariooficial.interior.gob.cl/publicaciones/2026/08/25/44533/07/2859236.pdf", "archivo": "gm_mensura_2859236.pdf", "fecha": "25-08-2026", "edicion": "44533" }, "geometry": { "type": "Polygon", "coordinates": [ [ [ -70.747977370468234, -32.180067849671893 ], [ -70.739495113271772, -32.180184800084746 ], [ -70.739529409697099, -32.181988267741986 ], [ -70.737408795961159, -32.182017418565415 ], [ -70.737545845271754, -32.189231291778938 ], [ -70.748149718583647, -32.189085141829004 ], [ -70.747977370468234, -32.180067849671893 ] ] ] } },
{ "type": "Feature", "properties": { "cve": "2859162", "nombre": "MACHALI DOS D 1 AL 10", "solicitante": "Inmobiliaria Santa Rosa de Apoquindo S.A.", "region": "REGIÓN DEL LIBERTADOR GENERAL BERNARDO O’HIGGINS", "provincia": "Provincia de Cachapoal", "comuna": null, "superficie_ha": 50.0, "datum_original": "PSAD56", "huso": 19, "epsg_origen": 24879, "tipo_publicacion": "mensura", "fuente_pdf": "http://www.diariooficial.interior.gob.cl/publicaciones/2026/08/25/44533/07/2859162.pdf", "archivo": "gm_mensura_2859162.pdf", "fecha": "25-08-2026", "edicion": "44533" }, "geometry": { "type": "Polygon", "coordinates": [ [ [ -70.688218001661681, -34.163052655588039 ], [ -70.67737336766352, -34.163201362953636 ], [ -70.677462536620695, -34.167708729672853 ], [ -70.688307746452864, -34.167559997274118 ], [ -70.688218001661681, -34.163052655588039 ] ] ] } },
{ "type": "Feature", "properties": { "cve": "2859161", "nombre": "MACHALI UNO D 1 AL 6", "solicitante": "Inmobiliaria Santa Rosa de Apoquindo S.A.", "region": "REGIÓN DEL LIBERTADOR GENERAL BERNARDO O’HIGGINS", "provincia": "Provincia de Cachapoal", "comuna": null, "superficie_ha": 6.0, "datum_original": "PSAD56", "huso": 19, "epsg_origen": 24879, "tipo_publicacion": "mensura", "fuente_pdf": "http://www.diariooficial.interior.gob.cl/publicaciones/2026/08/25/44533/07/2859161.pdf", "archivo": "gm_mensura_2859161.pdf", "fecha": "25-08-2026", "edicion": "44533" }, "geometry": { "type": "Polygon", "coordinates": [ [ [ -70.680173846529783, -34.167671636353496 ], [ -70.676920274044136, -34.167716141154244 ], [ -70.676955935656665, -34.169519087348377 ], [ -70.691054997557728, -34.169325597709324 ], [ -70.680173846529783, -34.167671636353496 ] ] ] } },
{ "type": "Feature", "properties": { "cve": "2859100", "nombre": "EL RENACER 1 AL 40", "solicitante": "Lanas Figueroa Christian Andrés", "region": "REGIÓN DEL BIOBÍO", "provincia": "Provincia de Arauco", "comuna": null, "superficie_ha": 200.0, "datum_original": "PSAD56", "huso": 19, "epsg_origen": 24879, "tipo_publicacion": "mensura", "fuente_pdf": "http://www.diariooficial.interior.gob.cl/publicaciones/2026/08/25/44533/07/2859100.pdf", "archivo": "gm_mensura_2859100.pdf", "fecha": "25-08-2026", "edicion": "44533" }, "geometry": { "type": "Polygon", "coordinates": [ [ [ -67.051114550910754, -37.51010026377562 ], [ -67.039806569277658, -37.509913093976131 ], [ -67.039335086885174, -37.52792912508913 ], [ -67.050645784199489, -37.528116416005922 ], [ -67.051114550910754, -37.51010026377562 ] ] ] } },
{ "type": "Feature", "properties": { "cve": "2859101", "nombre": "LA VICTORIA 1 AL 20", "solicitante": "Lanas Figueroa Christian Andrés", "region": "REGIÓN DEL BIOBÍO", "provincia": "Provincia de Arauco", "comuna": null, "superficie_ha": 200.0, "datum_original": "PSAD56", "huso": 19, "epsg_origen": 24879, "tipo_publicacion": "mensura", "fuente_pdf": "http://www.diariooficial.interior.gob.cl/publicaciones/2026/08/25/44533/07/2859101.pdf", "archivo": "gm_mensura_2859101.pdf", "fecha": "25-08-2026", "edicion": "44533" }, "geometry": { "type": "Polygon", "coordinates": [ [ [ -67.045667183797292, -37.528106205624368 ], [ -67.023045964947215, -37.527729588010331 ], [ -67.022808108923925, -37.53673749291255 ], [ -67.04543204518373, -37.537114232344713 ], [ -67.045667183797292, -37.528106205624368 ] ] ] } },
{ "type": "Feature", "properties": { "cve": "2859216", "nombre": "BENTONITA 3", "solicitante": "Ingeniería en Procesamiento de Minerales SpA", "region": "REGIÓN DE TARAPACÁ", "provincia": "Provincia de Iquique", "comuna": "Iquique", "superficie_ha": 300.0, "datum_original": "WGS84", "huso": 19, "epsg_origen": 32719, "tipo_publicacion": "pedimento", "fuente_pdf": "http://www.diariooficial.interior.gob.cl/publicaciones/2026/08/25/44533/07/2859216.pdf", "archivo": "gm_pedimento_2859216.pdf", "fecha": "25-08-2026", "edicion": "44533" }, "geometry": { "type": "Polygon", "coordinates": [ [ [ -70.050243091979553, -21.212252623363977 ], [ -70.040609043351907, -21.212312271010788 ], [ -70.040799145325565, -21.239414001157463 ], [ -70.050434953148624, -21.239354270106123 ], [ -70.050243091979553, -21.212252623363977 ] ] ] } },
{ "type": "Feature", "properties": { "cve": "2859217", "nombre": "BENTONITA 4", "solicitante": "Ingeniería en Procesamiento de Minerales SpA", "region": "REGIÓN DE TARAPACÁ", "provincia": "Provincia de Iquique", "comuna": "Iquique", "superficie_ha": 300.0, "datum_original": "WGS84", "huso": 19, "epsg_origen": 32719, "tipo_publicacion": "pedimento", "fuente_pdf": "http://www.diariooficial.interior.gob.cl/publicaciones/2026/08/25/44533/07/2859217.pdf", "archivo": "gm_pedimento_2859217.pdf", "fecha": "25-08-2026", "edicion": "44533" }, "geometry": { "type": "Polygon", "coordinates": [ [ [ -70.040609043351907, -21.212312271010788 ], [ -70.030974961297758, -21.212371369194663 ], [ -70.031163304048363, -21.239473181977626 ], [ -70.040799145325565, -21.239414001157463 ], [ -70.040609043351907, -21.212312271010788 ] ] ] } },
{ "type": "Feature", "properties": { "cve": "2859218", "nombre": "BENTONITA 5", "solicitante": "Ingeniería en Procesamiento de Minerales SpA", "region": "REGIÓN DE TARAPACÁ", "provincia": "Provincia de Iquique", "comuna": "Iquique", "superficie_ha": 300.0, "datum_original": "WGS84", "huso": 19, "epsg_origen": 32719, "tipo_publicacion": "pedimento", "fuente_pdf": "http://www.diariooficial.interior.gob.cl/publicaciones/2026/08/25/44533/07/2859218.pdf", "archivo": "gm_pedimento_2859218.pdf", "fecha": "25-08-2026", "edicion": "44533" }, "geometry": { "type": "Polygon", "coordinates": [ [ [ -70.030974961297758, -21.212371369194663 ], [ -70.02134084612635, -21.212429917907684 ], [ -70.021527429626587, -21.239531812558671 ], [ -70.031163304048363, -21.239473181977626 ], [ -70.030974961297758, -21.212371369194663 ] ] ] } },
{ "type": "Feature", "properties": { "cve": "2859219", "nombre": "BENTONITA 6", "solicitante": "Ingeniería en Procesamiento de Minerales SpA", "region": "REGIÓN DE TARAPACÁ", "provincia": "Provincia de Iquique", "comuna": "Iquique", "superficie_ha": 300.0, "datum_original": "WGS84", "huso": 19, "epsg_origen": 32719, "tipo_publicacion": "pedimento", "fuente_pdf": "http://www.diariooficial.interior.gob.cl/publicaciones/2026/08/25/44533/07/2859219.pdf", "archivo": "gm_pedimento_2859219.pdf", "fecha": "25-08-2026", "edicion": "44533" }, "geometry": { "type": "Polygon", "coordinates": [ [ [ -70.02134084612635, -21.212429917907684 ], [ -70.011706698147009, -21.212487917142006 ], [ -70.011891522369737, -21.239589892892759 ], [ -70.021527429626587, -21.239531812558671 ], [ -70.02134084612635, -21.212429917907684 ] ] ] } },
{ "type": "Feature", "properties": { "cve": "2859220", "nombre": "BENTONITA 7", "solicitante": "Ingeniería en Procesamiento de Minerales SpA", "region": "REGIÓN DE TARAPACÁ", "provincia": "Provincia de Iquique", "comuna": "Iquique", "superficie_ha": 300.0, "datum_original": "WGS84", "huso": 19, "epsg_origen": 32719, "tipo_publicacion": "pedimento", "fuente_pdf": "http://www.diariooficial.interior.gob.cl/publicaciones/2026/08/25/44533/07/2859220.pdf", "archivo": "gm_pedimento_2859220.pdf", "fecha": "25-08-2026", "edicion": "44533" }, "geometry": { "type": "Polygon", "coordinates": [ [ [ -70.040799145325565, -21.239414001157463 ], [ -70.011891522369737, -21.239589892892759 ], [ -70.011953195483045, -21.248623865136892 ], [ -70.040862579546101, -21.248447891514267 ], [ -70.040799145325565, -21.239414001157463 ] ] ] } },
{ "type": "Feature", "properties": { "cve": "2859221", "nombre": "BENTONITA 8", "solicitante": "Ingeniería en Procesamiento de Minerales SpA", "region": "REGIÓN DE TARAPACÁ", "provincia": "Provincia de Iquique", "comuna": "Iquique", "superficie_ha": 200.0, "datum_original": "WGS84", "huso": 19, "epsg_origen": 32719, "tipo_publicacion": "pedimento", "fuente_pdf": "http://www.diariooficial.interior.gob.cl/publicaciones/2026/08/25/44533/07/2859221.pdf", "archivo": "gm_pedimento_2859221.pdf", "fecha": "25-08-2026", "edicion": "44533" }, "geometry": { "type": "Polygon", "coordinates": [ [ [ -70.088911509496825, -21.230076085129863 ], [ -70.069641306332088, -21.230199341319516 ], [ -70.069706467194209, -21.239233157341971 ], [ -70.088977843708932, -21.23910984375004 ], [ -70.088911509496825, -21.230076085129863 ] ] ] } },
{ "type": "Feature", "properties": { "cve": "2859222", "nombre": "BENTONITA 9", "solicitante": "Ingeniería en Procesamiento de Minerales SpA", "region": "REGIÓN DE TARAPACÁ", "provincia": "Provincia de Iquique", "comuna": "Iquique", "superficie_ha": 300.0, "datum_original": "WGS84", "huso": 19, "epsg_origen": 32719, "tipo_publicacion": "pedimento", "fuente_pdf": "http://www.diariooficial.interior.gob.cl/publicaciones/2026/08/25/44533/07/2859222.pdf", "archivo": "gm_pedimento_2859222.pdf", "fecha": "25-08-2026", "edicion": "44533" }, "geometry": { "type": "Polygon", "coordinates": [ [ [ -70.088977843708932, -21.23910984375004 ], [ -70.060070727208014, -21.239293988831601 ], [ -70.06013533545412, -21.248327823316131 ], [ -70.089044212922772, -21.248143592505187 ], [ -70.088977843708932, -21.23910984375004 ] ] ] } },
{ "type": "Feature", "properties": { "cve": "2859186", "nombre": "ALCALDE 6", "solicitante": "FQM Exploration (Chile) S.A.", "region": "REGIÓN DE ANTOFAGASTA", "provincia": "Provincia de Antofagasta", "comuna": "Antofagasta", "superficie_ha": 200.0, "datum_original": "PSAD56", "huso": 19, "epsg_origen": 24879, "tipo_publicacion": "pedimento", "fuente_pdf": "http://www.diariooficial.interior.gob.cl/publicaciones/2026/08/25/44533/07/2859186.pdf", "archivo": "gm_pedimento_2859186.pdf", "fecha": "25-08-2026", "edicion": "44533" }, "geometry": { "type": "Polygon", "coordinates": [ [ [ -69.129526828502819, -23.901913772163319 ], [ -69.109878348386289, -23.901929061478757 ], [ -69.109885982758911, -23.910961370695361 ], [ -69.129535828047693, -23.910946074896099 ], [ -69.129526828502819, -23.901913772163319 ] ] ] } },
{ "type": "Feature", "properties": { "cve": "2859203", "nombre": "Silpy 4", "solicitante": "Serketats SpA", "region": "REGIÓN DE ANTOFAGASTA", "provincia": "Provincia de Antofagasta", "comuna": "Antofagasta", "superficie_ha": 300.0, "datum_original": "PSAD56", "huso": 19, "epsg_origen": 24879, "tipo_publicacion": "pedimento", "fuente_pdf": "http://www.diariooficial.interior.gob.cl/publicaciones/2026/08/25/44533/07/2859203.pdf", "archivo": "gm_pedimento_2859203.pdf", "fecha": "25-08-2026", "edicion": "44533" }, "geometry": { "type": "Polygon", "coordinates": [ [ [ -68.834614937091445, -24.04639492432992 ], [ -68.824779760715586, -24.046383986563463 ], [ -68.824742970949089, -24.073480290293055 ], [ -68.83458021232444, -24.073491241912841 ], [ -68.834614937091445, -24.04639492432992 ] ] ] } },
{ "type": "Feature", "properties": { "cve": "2859184", "nombre": "VICKY 3", "solicitante": "Inversiones y Desarrollos Energéticos Free Power SpA", "region": "REGIÓN DE ANTOFAGASTA", "provincia": "Provincia de Antofagasta", "comuna": "Antofagasta", "superficie_ha": 300.0, "datum_original": "PSAD56", "huso": 19, "epsg_origen": 24879, "tipo_publicacion": "pedimento", "fuente_pdf": "http://www.diariooficial.interior.gob.cl/publicaciones/2026/08/25/44533/07/2859184.pdf", "archivo": "gm_pedimento_2859184.pdf", "fecha": "25-08-2026", "edicion": "44533" }, "geometry": { "type": "Polygon", "coordinates": [ [ [ -69.306875795334648, -24.118432988321509 ], [ -69.277354022700493, -24.118489430060638 ], [ -69.277373490037363, -24.127521392291882 ], [ -69.306897334714137, -24.127464926781563 ], [ -69.306875795334648, -24.118432988321509 ] ] ] } },
{ "type": "Feature", "properties": { "cve": "2859193", "nombre": "JEREZ IX", "solicitante": "Florez Keim Álvaro Rodolfo", "region": "REGIÓN DE ANTOFAGASTA", "provincia": "Provincia de El Loa", "comuna": "Calama", "superficie_ha": 300.0, "datum_original": "PSAD56", "huso": 19, "epsg_origen": 24879, "tipo_publicacion": "pedimento", "fuente_pdf": "http://www.diariooficial.interior.gob.cl/publicaciones/2026/08/25/44533/07/2859193.pdf", "archivo": "gm_pedimento_2859193.pdf", "fecha": "25-08-2026", "edicion": "44533" }, "geometry": { "type": "Polygon", "coordinates": [ [ [ -68.876158418914471, -21.634478239395985 ], [ -68.847168470373575, -21.634454115774009 ], [ -68.847158966199487, -21.643488996694309 ], [ -68.876150717533321, -21.643513131382992 ], [ -68.876158418914471, -21.634478239395985 ] ] ] } },
{ "type": "Feature", "properties": { "cve": "2859191", "nombre": "JEREZ VII", "solicitante": "Florez Keim Álvaro Rodolfo", "region": "REGIÓN DE ANTOFAGASTA", "provincia": "Provincia de El Loa", "comuna": "Calama", "superficie_ha": 300.0, "datum_original": "PSAD56", "huso": 19, "epsg_origen": 24879, "tipo_publicacion": "pedimento", "fuente_pdf": "http://www.diariooficial.interior.gob.cl/publicaciones/2026/08/25/44533/07/2859191.pdf", "archivo": "gm_pedimento_2859191.pdf", "fecha": "25-08-2026", "edicion": "44533" }, "geometry": { "type": "Polygon", "coordinates": [ [ [ -68.876173809620937, -21.616408425699966 ], [ -68.847187463843795, -21.616384324207417 ], [ -68.847177969587875, -21.625419224943954 ], [ -68.87616611627665, -21.625443337500553 ], [ -68.876173809620937, -21.616408425699966 ] ] ] } },
{ "type": "Feature", "properties": { "cve": "2859192", "nombre": "JEREZ VIII", "solicitante": "Florez Keim Álvaro Rodolfo", "region": "REGIÓN DE ANTOFAGASTA", "provincia": "Provincia de El Loa", "comuna": "Calama", "superficie_ha": 300.0, "datum_original": "PSAD56", "huso": 19, "epsg_origen": 24879, "tipo_publicacion": "pedimento", "fuente_pdf": "http://www.diariooficial.interior.gob.cl/publicaciones/2026/08/25/44533/07/2859192.pdf", "archivo": "gm_pedimento_2859192.pdf", "fecha": "25-08-2026", "edicion": "44533" }, "geometry": { "type": "Polygon", "coordinates": [ [ [ -68.87616611627665, -21.625443337500553 ], [ -68.847177969587875, -21.625419224943954 ], [ -68.847168470373575, -21.634454115774009 ], [ -68.876158418914471, -21.634478239395985 ], [ -68.87616611627665, -21.625443337500553 ] ] ] } },
{ "type": "Feature", "properties": { "cve": "2859194", "nombre": "JEREZ X", "solicitante": "Florez Keim Álvaro Rodolfo", "region": "REGIÓN DE ANTOFAGASTA", "provincia": "Provincia de El Loa", "comuna": "Calama", "superficie_ha": 300.0, "datum_original": "PSAD56", "huso": 19, "epsg_origen": 24879, "tipo_publicacion": "pedimento", "fuente_pdf": "http://www.diariooficial.interior.gob.cl/publicaciones/2026/08/25/44533/07/2859194.pdf", "archivo": "gm_pedimento_2859194.pdf", "fecha": "25-08-2026", "edicion": "44533" }, "geometry": { "type": "Polygon", "coordinates": [ [ [ -68.847158966199487, -21.643488996694309 ], [ -68.837495058592793, -21.643479827874387 ], [ -68.837464711630616, -21.670584398528067 ], [ -68.847130423904702, -21.670593579963828 ], [ -68.847158966199487, -21.643488996694309 ] ] ] } },
{ "type": "Feature", "properties": { "cve": "2858926", "nombre": "JACKIE IX", "solicitante": "Minera Tierra de Oro Limitada", "region": "REGIÓN DE ATACAMA", "provincia": "Provincia de Copiapó", "comuna": "Copiapó", "superficie_ha": 200.0, "datum_original": "PSAD56", "huso": 19, "epsg_origen": 24879, "tipo_publicacion": "pedimento", "fuente_pdf": "http://www.diariooficial.interior.gob.cl/publicaciones/2026/08/25/44533/07/2858926.pdf", "archivo": "gm_pedimento_2858926.pdf", "fecha": "25-08-2026", "edicion": "44533" }, "geometry": { "type": "Polygon", "coordinates": [ [ [ -70.354091999720907, -27.967815978335398 ], [ -70.343927235922422, -27.967915635720516 ], [ -70.344150984807868, -27.985965300761261 ], [ -70.354317439670112, -27.985865567913514 ], [ -70.354091999720907, -27.967815978335398 ] ] ] } },
{ "type": "Feature", "properties": { "cve": "2858927", "nombre": "JACKIE VI", "solicitante": "Minera Tierra de Oro Limitada", "region": "REGIÓN DE ATACAMA", "provincia": "Provincia de Copiapó", "comuna": "Copiapó", "superficie_ha": 300.0, "datum_original": "PSAD56", "huso": 19, "epsg_origen": 24879, "tipo_publicacion": "pedimento", "fuente_pdf": "http://www.diariooficial.interior.gob.cl/publicaciones/2026/08/25/44533/07/2858927.pdf", "archivo": "gm_pedimento_2858927.pdf", "fecha": "25-08-2026", "edicion": "44533" }, "geometry": { "type": "Polygon", "coordinates": [ [ [ -70.272560747128395, -27.950541997110484 ], [ -70.26239726982466, -27.950635579518021 ], [ -70.262712379498794, -27.977711007303579 ], [ -70.272878392067057, -27.977617318546127 ], [ -70.272560747128395, -27.950541997110484 ] ] ] } },
{ "type": "Feature", "properties": { "cve": "2858928", "nombre": "JACKIE VII", "solicitante": "Minera Tierra de Oro Limitada", "region": "REGIÓN DE ATACAMA", "provincia": "Provincia de Copiapó", "comuna": "Copiapó", "superficie_ha": 300.0, "datum_original": "PSAD56", "huso": 19, "epsg_origen": 24879, "tipo_publicacion": "pedimento", "fuente_pdf": "http://www.diariooficial.interior.gob.cl/publicaciones/2026/08/25/44533/07/2858928.pdf", "archivo": "gm_pedimento_2858928.pdf", "fecha": "25-08-2026", "edicion": "44533" }, "geometry": { "type": "Polygon", "coordinates": [ [ [ -70.26239726982466, -27.950635579518021 ], [ -70.252233743904853, -27.950728411921649 ], [ -70.252546318262617, -27.977803945204986 ], [ -70.262712379498794, -27.977711007303579 ], [ -70.26239726982466, -27.950635579518021 ] ] ] } },
{ "type": "Feature", "properties": { "cve": "2858929", "nombre": "JACKIE VIII", "solicitante": "Minera Tierra de Oro Limitada", "region": "REGIÓN DE ATACAMA", "provincia": "Provincia de Copiapó", "comuna": "Copiapó", "superficie_ha": 200.0, "datum_original": "PSAD56", "huso": 19, "epsg_origen": 24879, "tipo_publicacion": "pedimento", "fuente_pdf": "http://www.diariooficial.interior.gob.cl/publicaciones/2026/08/25/44533/07/2858929.pdf", "archivo": "gm_pedimento_2858929.pdf", "fecha": "25-08-2026", "edicion": "44533" }, "geometry": { "type": "Polygon", "coordinates": [ [ [ -70.364256711347608, -27.967715570502996 ], [ -70.354091999720907, -27.967815978335398 ], [ -70.354317439670112, -27.985865567913514 ], [ -70.36448384232348, -27.985765084050385 ], [ -70.364256711347608, -27.967715570502996 ] ] ] } },
{ "type": "Feature", "properties": { "cve": "2858930", "nombre": "JACKIE X", "solicitante": "Minera Tierra de Oro Limitada", "region": "REGIÓN DE ATACAMA", "provincia": "Provincia de Copiapó", "comuna": "Copiapó", "superficie_ha": 200.0, "datum_original": "PSAD56", "huso": 19, "epsg_origen": 24879, "tipo_publicacion": "pedimento", "fuente_pdf": "http://www.diariooficial.interior.gob.cl/publicaciones/2026/08/25/44533/07/2858930.pdf", "archivo": "gm_pedimento_2858930.pdf", "fecha": "25-08-2026", "edicion": "44533" }, "geometry": { "type": "Polygon", "coordinates": [ [ [ -70.394866604322573, -27.976434491680628 ], [ -70.374535754907313, -27.976639136896491 ], [ -70.374650192376507, -27.985663849186242 ], [ -70.394982733115839, -27.985459126513138 ], [ -70.394866604322573, -27.976434491680628 ] ] ] } },
{ "type": "Feature", "properties": { "cve": "2858931", "nombre": "JACKIE XI", "solicitante": "Minera Tierra de Oro Limitada", "region": "REGIÓN DE ATACAMA", "provincia": "Provincia de Copiapó", "comuna": "Copiapó", "superficie_ha": 200.0, "datum_original": "PSAD56", "huso": 19, "epsg_origen": 24879, "tipo_publicacion": "pedimento", "fuente_pdf": "http://www.diariooficial.interior.gob.cl/publicaciones/2026/08/25/44533/07/2858931.pdf", "archivo": "gm_pedimento_2858931.pdf", "fecha": "25-08-2026", "edicion": "44533" }, "geometry": { "type": "Polygon", "coordinates": [ [ [ -70.384816489437796, -27.985561863335622 ], [ -70.374650192376507, -27.985663849186242 ], [ -70.374879226309858, -28.003713236647666 ], [ -70.385047215888576, -28.003611173605069 ], [ -70.384816489437796, -27.985561863335622 ] ] ] } },
{ "type": "Feature", "properties": { "cve": "2858932", "nombre": "JACKIE XII", "solicitante": "Minera Tierra de Oro Limitada", "region": "REGIÓN DE ATACAMA", "provincia": "Provincia de Copiapó", "comuna": "Copiapó", "superficie_ha": 300.0, "datum_original": "PSAD56", "huso": 19, "epsg_origen": 24879, "tipo_publicacion": "pedimento", "fuente_pdf": "http://www.diariooficial.interior.gob.cl/publicaciones/2026/08/25/44533/07/2858932.pdf", "archivo": "gm_pedimento_2858932.pdf", "fecha": "25-08-2026", "edicion": "44533" }, "geometry": { "type": "Polygon", "coordinates": [ [ [ -70.374535754907313, -27.976639136896491 ], [ -70.364370250544596, -27.976740333458096 ], [ -70.364711183701658, -28.003814548135505 ], [ -70.374879226309858, -28.003713236647666 ], [ -70.374535754907313, -27.976639136896491 ] ] ] } },
{ "type": "Feature", "properties": { "cve": "2858933", "nombre": "JACKIE XIV", "solicitante": "Minera Tierra de Oro Limitada", "region": "REGIÓN DE ATACAMA", "provincia": "Provincia de Copiapó", "comuna": "Copiapó", "superficie_ha": 300.0, "datum_original": "PSAD56", "huso": 19, "epsg_origen": 24879, "tipo_publicacion": "pedimento", "fuente_pdf": "http://www.diariooficial.interior.gob.cl/publicaciones/2026/08/25/44533/07/2858933.pdf", "archivo": "gm_pedimento_2858933.pdf", "fecha": "25-08-2026", "edicion": "44533" }, "geometry": { "type": "Polygon", "coordinates": [ [ [ -70.36448384232348, -27.985765084050385 ], [ -70.354317439670112, -27.985865567913514 ], [ -70.354655991208688, -28.012939859578417 ], [ -70.364824933338383, -28.01283926162289 ], [ -70.36448384232348, -27.985765084050385 ] ] ] } },
{ "type": "Feature", "properties": { "cve": "2858934", "nombre": "JACKIE XV", "solicitante": "Minera Tierra de Oro Limitada", "region": "REGIÓN DE ATACAMA", "provincia": "Provincia de Copiapó", "comuna": "Copiapó", "superficie_ha": 200.0, "datum_original": "PSAD56", "huso": 19, "epsg_origen": 24879, "tipo_publicacion": "pedimento", "fuente_pdf": "http://www.diariooficial.interior.gob.cl/publicaciones/2026/08/25/44533/07/2858934.pdf", "archivo": "gm_pedimento_2858934.pdf", "fecha": "25-08-2026", "edicion": "44533" }, "geometry": { "type": "Polygon", "coordinates": [ [ [ -70.354317439670112, -27.985865567913514 ], [ -70.344150984807868, -27.985965300761261 ], [ -70.344374940963888, -28.004014916388918 ], [ -70.35454308845577, -28.003915108054059 ], [ -70.354317439670112, -27.985865567913514 ] ] ] } },
{ "type": "Feature", "properties": { "cve": "2858935", "nombre": "JACKIE XVI", "solicitante": "Minera Tierra de Oro Limitada", "region": "REGIÓN DE ATACAMA", "provincia": "Provincia de Copiapó", "comuna": "Copiapó", "superficie_ha": 200.0, "datum_original": "PSAD56", "huso": 19, "epsg_origen": 24879, "tipo_publicacion": "pedimento", "fuente_pdf": "http://www.diariooficial.interior.gob.cl/publicaciones/2026/08/25/44533/07/2858935.pdf", "archivo": "gm_pedimento_2858935.pdf", "fecha": "25-08-2026", "edicion": "44533" }, "geometry": { "type": "Polygon", "coordinates": [ [ [ -70.35454308845577, -28.003915108054059 ], [ -70.344374940963888, -28.004014916388918 ], [ -70.344599104537863, -28.022064482581698 ], [ -70.354768946226386, -28.021964598735188 ], [ -70.35454308845577, -28.003915108054059 ] ] ] } },
{ "type": "Feature", "properties": { "cve": "2858936", "nombre": "JACKIE XVII", "solicitante": "Minera Tierra de Oro Limitada", "region": "REGIÓN DE ATACAMA", "provincia": "Provincia de Copiapó", "comuna": "Copiapó", "superficie_ha": 300.0, "datum_original": "PSAD56", "huso": 19, "epsg_origen": 24879, "tipo_publicacion": "pedimento", "fuente_pdf": "http://www.diariooficial.interior.gob.cl/publicaciones/2026/08/25/44533/07/2858936.pdf", "archivo": "gm_pedimento_2858936.pdf", "fecha": "25-08-2026", "edicion": "44533" }, "geometry": { "type": "Polygon", "coordinates": [ [ [ -70.344262936967851, -27.994990114753087 ], [ -70.334095584150802, -27.995089134027484 ], [ -70.33442921095822, -28.022163614261675 ], [ -70.344599104537863, -28.022064482581698 ], [ -70.344262936967851, -27.994990114753087 ] ] ] } },
{ "type": "Feature", "properties": { "cve": "2858937", "nombre": "JACKIE XVIII", "solicitante": "Minera Tierra de Oro Limitada", "region": "REGIÓN DE ATACAMA", "provincia": "Provincia de Copiapó", "comuna": "Copiapó", "superficie_ha": 300.0, "datum_original": "PSAD56", "huso": 19, "epsg_origen": 24879, "tipo_publicacion": "pedimento", "fuente_pdf": "http://www.diariooficial.interior.gob.cl/publicaciones/2026/08/25/44533/07/2858937.pdf", "archivo": "gm_pedimento_2858937.pdf", "fecha": "25-08-2026", "edicion": "44533" }, "geometry": { "type": "Polygon", "coordinates": [ [ [ -70.334095584150802, -27.995089134027484 ], [ -70.323928179889549, -27.995187401973872 ], [ -70.324259265879505, -28.022261993760946 ], [ -70.33442921095822, -28.022163614261675 ], [ -70.334095584150802, -27.995089134027484 ] ] ] } },
{ "type": "Feature", "properties": { "cve": "2858891", "nombre": "PALO NEGRO 10", "solicitante": "Minera Palo Negro Limitada", "region": "REGIÓN DE ATACAMA", "provincia": "Provincia de Copiapó", "comuna": "Copiapó", "superficie_ha": 300.0, "datum_original": "PSAD56", "huso": 19, "epsg_origen": 24879, "tipo_publicacion": "pedimento", "fuente_pdf": "http://www.diariooficial.interior.gob.cl/publicaciones/2026/08/25/44533/07/2858891.pdf", "archivo": "gm_pedimento_2858891.pdf", "fecha": "25-08-2026", "edicion": "44533" }, "geometry": { "type": "Polygon", "coordinates": [ [ [ -70.62368284796824, -27.639980983318345 ], [ -70.593283469369638, -27.64033361803196 ], [ -70.593414243049651, -27.64935787706575 ], [ -70.623816114124097, -27.649005107801976 ], [ -70.62368284796824, -27.639980983318345 ] ] ] } },
{ "type": "Feature", "properties": { "cve": "2858892", "nombre": "PALO NEGRO 11", "solicitante": "Minera Palo Negro Limitada", "region": "REGIÓN DE ATACAMA", "provincia": "Provincia de Copiapó", "comuna": "Copiapó", "superficie_ha": 300.0, "datum_original": "PSAD56", "huso": 19, "epsg_origen": 24879, "tipo_publicacion": "pedimento", "fuente_pdf": "http://www.diariooficial.interior.gob.cl/publicaciones/2026/08/25/44533/07/2858892.pdf", "archivo": "gm_pedimento_2858892.pdf", "fecha": "25-08-2026", "edicion": "44533" }, "geometry": { "type": "Polygon", "coordinates": [ [ [ -70.654217427568824, -27.648645677496202 ], [ -70.623816114124097, -27.649005107801976 ], [ -70.623949442239095, -27.658029219848949 ], [ -70.654353249121954, -27.657669652431352 ], [ -70.654217427568824, -27.648645677496202 ] ] ] } },
{ "type": "Feature", "properties": { "cve": "2858893", "nombre": "PALO NEGRO 12", "solicitante": "Minera Palo Negro Limitada", "region": "REGIÓN DE ATACAMA", "provincia": "Provincia de Copiapó", "comuna": "Copiapó", "superficie_ha": 300.0, "datum_original": "PSAD56", "huso": 19, "epsg_origen": 24879, "tipo_publicacion": "pedimento", "fuente_pdf": "http://www.diariooficial.interior.gob.cl/publicaciones/2026/08/25/44533/07/2858893.pdf", "archivo": "gm_pedimento_2858893.pdf", "fecha": "25-08-2026", "edicion": "44533" }, "geometry": { "type": "Polygon", "coordinates": [ [ [ -70.623816114124097, -27.649005107801976 ], [ -70.593414243049651, -27.64935787706575 ], [ -70.593545077530592, -27.658382123684401 ], [ -70.623949442239095, -27.658029219848949 ], [ -70.623816114124097, -27.649005107801976 ] ] ] } },
{ "type": "Feature", "properties": { "cve": "2858895", "nombre": "PALO NEGRO 31", "solicitante": "Minera Palo Negro Limitada", "region": "REGIÓN DE ATACAMA", "provincia": "Provincia de Copiapó", "comuna": "Copiapó", "superficie_ha": 300.0, "datum_original": "PSAD56", "huso": 19, "epsg_origen": 24879, "tipo_publicacion": "pedimento", "fuente_pdf": "http://www.diariooficial.interior.gob.cl/publicaciones/2026/08/25/44533/07/2858895.pdf", "archivo": "gm_pedimento_2858895.pdf", "fecha": "25-08-2026", "edicion": "44533" }, "geometry": { "type": "Polygon", "coordinates": [ [ [ -70.6653089763997, -27.711691625962469 ], [ -70.634890373202538, -27.712054242686531 ], [ -70.635024969515655, -27.721078222123847 ], [ -70.665446074202308, -27.720715467286585 ], [ -70.6653089763997, -27.711691625962469 ] ] ] } },
{ "type": "Feature", "properties": { "cve": "2858896", "nombre": "PALO NEGRO 32", "solicitante": "Minera Palo Negro Limitada", "region": "REGIÓN DE ATACAMA", "provincia": "Provincia de Copiapó", "comuna": "Copiapó", "superficie_ha": 300.0, "datum_original": "PSAD56", "huso": 19, "epsg_origen": 24879, "tipo_publicacion": "pedimento", "fuente_pdf": "http://www.diariooficial.interior.gob.cl/publicaciones/2026/08/25/44533/07/2858896.pdf", "archivo": "gm_pedimento_2858896.pdf", "fecha": "25-08-2026", "edicion": "44533" }, "geometry": { "type": "Polygon", "coordinates": [ [ [ -70.634890373202538, -27.712054242686531 ], [ -70.604471207518813, -27.712410180732629 ], [ -70.60460330214444, -27.721434295740249 ], [ -70.635024969515655, -27.721078222123847 ], [ -70.634890373202538, -27.712054242686531 ] ] ] } },
{ "type": "Feature", "properties": { "cve": "2858897", "nombre": "PALO NEGRO 33", "solicitante": "Minera Palo Negro Limitada", "region": "REGIÓN DE ATACAMA", "provincia": "Provincia de Copiapó", "comuna": "Copiapó", "superficie_ha": 300.0, "datum_original": "PSAD56", "huso": 19, "epsg_origen": 24879, "tipo_publicacion": "pedimento", "fuente_pdf": "http://www.diariooficial.interior.gob.cl/publicaciones/2026/08/25/44533/07/2858897.pdf", "archivo": "gm_pedimento_2858897.pdf", "fecha": "25-08-2026", "edicion": "44533" }, "geometry": { "type": "Polygon", "coordinates": [ [ [ -70.604471207518813, -27.712410180732629 ], [ -70.574051489797469, -27.712759439643186 ], [ -70.57418108254123, -27.721783687677984 ], [ -70.60460330214444, -27.721434295740249 ], [ -70.604471207518813, -27.712410180732629 ] ] ] } },
{ "type": "Feature", "properties": { "cve": "2858890", "nombre": "PALO NEGRO 9", "solicitante": "Minera Palo Negro Limitada", "region": "REGIÓN DE ATACAMA", "provincia": "Provincia de Copiapó", "comuna": "Copiapó", "superficie_ha": 300.0, "datum_original": "PSAD56", "huso": 19, "epsg_origen": 24879, "tipo_publicacion": "pedimento", "fuente_pdf": "http://www.diariooficial.interior.gob.cl/publicaciones/2026/08/25/44533/07/2858890.pdf", "archivo": "gm_pedimento_2858890.pdf", "fecha": "25-08-2026", "edicion": "44533" }, "geometry": { "type": "Polygon", "coordinates": [ [ [ -70.654081669132864, -27.639621690102448 ], [ -70.62368284796824, -27.639980983318345 ], [ -70.623816114124097, -27.649005107801976 ], [ -70.654217427568824, -27.648645677496202 ], [ -70.654081669132864, -27.639621690102448 ] ] ] } },
{ "type": "Feature", "properties": { "cve": "2858969", "nombre": "COPPER GRIFFIN I", "solicitante": "Céspedes Santis Daniela Carolina", "region": "REGIÓN DE ATACAMA", "provincia": "Provincia de Chañaral", "comuna": null, "superficie_ha": 200.0, "datum_original": "PSAD56", "huso": 19, "epsg_origen": 24879, "tipo_publicacion": "pedimento", "fuente_pdf": "http://www.diariooficial.interior.gob.cl/publicaciones/2026/08/25/44533/07/2858969.pdf", "archivo": "gm_pedimento_2858969.pdf", "fecha": "25-08-2026", "edicion": "44533" }, "geometry": { "type": "Polygon", "coordinates": [ [ [ -70.14048016896939, -25.956564719152585 ], [ -70.130493669212882, -25.956643029641597 ], [ -70.130666238480899, -25.97469911945382 ], [ -70.140654261869344, -25.974620746501685 ], [ -70.14048016896939, -25.956564719152585 ] ] ] } },
{ "type": "Feature", "properties": { "cve": "2858970", "nombre": "COPPER GRIFFIN II", "solicitante": "Céspedes Santis Daniela Carolina", "region": "REGIÓN DE ATACAMA", "provincia": "Provincia de Chañaral", "comuna": null, "superficie_ha": 300.0, "datum_original": "PSAD56", "huso": 19, "epsg_origen": 24879, "tipo_publicacion": "pedimento", "fuente_pdf": "http://www.diariooficial.interior.gob.cl/publicaciones/2026/08/25/44533/07/2858970.pdf", "archivo": "gm_pedimento_2858970.pdf", "fecha": "25-08-2026", "edicion": "44533" }, "geometry": { "type": "Polygon", "coordinates": [ [ [ -70.150378881744643, -25.947457720635498 ], [ -70.140393184686033, -25.947536688045112 ], [ -70.140654261869344, -25.974620746501685 ], [ -70.150642243790728, -25.974541684580888 ], [ -70.150378881744643, -25.947457720635498 ] ] ] } },
{ "type": "Feature", "properties": { "cve": "2858971", "nombre": "COPPER GRIFFIN III", "solicitante": "Céspedes Santis Daniela Carolina", "region": "REGIÓN DE ATACAMA", "provincia": "Provincia de Chañaral", "comuna": null, "superficie_ha": 300.0, "datum_original": "PSAD56", "huso": 19, "epsg_origen": 24879, "tipo_publicacion": "pedimento", "fuente_pdf": "http://www.diariooficial.interior.gob.cl/publicaciones/2026/08/25/44533/07/2858971.pdf", "archivo": "gm_pedimento_2858971.pdf", "fecha": "25-08-2026", "edicion": "44533" }, "geometry": { "type": "Polygon", "coordinates": [ [ [ -70.160364537014942, -25.947378065091744 ], [ -70.150378881744643, -25.947457720635498 ], [ -70.150642243790728, -25.974541684580888 ], [ -70.160630183882233, -25.974461933702486 ], [ -70.160364537014942, -25.947378065091744 ] ] ] } },
{ "type": "Feature", "properties": { "cve": "2858972", "nombre": "COPPER GRIFFIN IV", "solicitante": "Céspedes Santis Daniela Carolina", "region": "REGIÓN DE ATACAMA", "provincia": "Provincia de Chañaral", "comuna": null, "superficie_ha": 300.0, "datum_original": "PSAD56", "huso": 19, "epsg_origen": 24879, "tipo_publicacion": "pedimento", "fuente_pdf": "http://www.diariooficial.interior.gob.cl/publicaciones/2026/08/25/44533/07/2858972.pdf", "archivo": "gm_pedimento_2858972.pdf", "fecha": "25-08-2026", "edicion": "44533" }, "geometry": { "type": "Polygon", "coordinates": [ [ [ -70.170350150134496, -25.947297721425016 ], [ -70.160364537014942, -25.947378065091744 ], [ -70.160630183882233, -25.974461933702486 ], [ -70.170618081781029, -25.974381493877662 ], [ -70.170350150134496, -25.947297721425016 ] ] ] } },
{ "type": "Feature", "properties": { "cve": "2858991", "nombre": "GOLDEN PHOENIX I", "solicitante": "Céspedes Santis Daniela Carolina", "region": "REGIÓN DE ATACAMA", "provincia": "Provincia de Chañaral", "comuna": null, "superficie_ha": 300.0, "datum_original": "PSAD56", "huso": 19, "epsg_origen": 24879, "tipo_publicacion": "pedimento", "fuente_pdf": "http://www.diariooficial.interior.gob.cl/publicaciones/2026/08/25/44533/07/2858991.pdf", "archivo": "gm_pedimento_2858991.pdf", "fecha": "25-08-2026", "edicion": "44533" }, "geometry": { "type": "Polygon", "coordinates": [ [ [ -70.040692775230767, -25.966345162805954 ], [ -70.030705119256538, -25.966416616994994 ], [ -70.030941285126374, -25.993501591262305 ], [ -70.040931228573939, -25.993430051595801 ], [ -70.040692775230767, -25.966345162805954 ] ] ] } },
{ "type": "Feature", "properties": { "cve": "2858992", "nombre": "GOLDEN PHOENIX II", "solicitante": "Céspedes Santis Daniela Carolina", "region": "REGIÓN DE ATACAMA", "provincia": "Provincia de Chañaral", "comuna": null, "superficie_ha": 300.0, "datum_original": "PSAD56", "huso": 19, "epsg_origen": 24879, "tipo_publicacion": "pedimento", "fuente_pdf": "http://www.diariooficial.interior.gob.cl/publicaciones/2026/08/25/44533/07/2858992.pdf", "archivo": "gm_pedimento_2858992.pdf", "fecha": "25-08-2026", "edicion": "44533" }, "geometry": { "type": "Polygon", "coordinates": [ [ [ -70.029706351592651, -25.96642372452953 ], [ -70.019718654428956, -25.966494421027495 ], [ -70.019952304035073, -25.993579488368404 ], [ -70.029942288713102, -25.993508707299277 ], [ -70.029706351592651, -25.96642372452953 ] ] ] } },
{ "type": "Feature", "properties": { "cve": "2858993", "nombre": "GOLDEN PHOENIX III", "solicitante": "Céspedes Santis Daniela Carolina", "region": "REGIÓN DE ATACAMA", "provincia": "Provincia de Chañaral", "comuna": null, "superficie_ha": 300.0, "datum_original": "PSAD56", "huso": 19, "epsg_origen": 24879, "tipo_publicacion": "pedimento", "fuente_pdf": "http://www.diariooficial.interior.gob.cl/publicaciones/2026/08/25/44533/07/2858993.pdf", "archivo": "gm_pedimento_2858993.pdf", "fecha": "25-08-2026", "edicion": "44533" }, "geometry": { "type": "Polygon", "coordinates": [ [ [ -70.017721110536939, -25.966508477668931 ], [ -70.007733368939952, -25.966578347581137 ], [ -70.007964273480184, -25.993663515319909 ], [ -70.017954302635729, -25.993593561825236 ], [ -70.017721110536939, -25.966508477668931 ] ] ] } },
{ "type": "Feature", "properties": { "cve": "2858994", "nombre": "GOLDEN PHOENIX IV", "solicitante": "Céspedes Santis Daniela Carolina", "region": "REGIÓN DE ATACAMA", "provincia": "Provincia de Chañaral", "comuna": null, "superficie_ha": 300.0, "datum_original": "PSAD56", "huso": 19, "epsg_origen": 24879, "tipo_publicacion": "pedimento", "fuente_pdf": "http://www.diariooficial.interior.gob.cl/publicaciones/2026/08/25/44533/07/2858994.pdf", "archivo": "gm_pedimento_2858994.pdf", "fecha": "25-08-2026", "edicion": "44533" }, "geometry": { "type": "Polygon", "coordinates": [ [ [ -70.006734592759699, -25.966585296686738 ], [ -69.996746810891139, -25.966654408882942 ], [ -69.996975199074825, -25.993739667610818 ], [ -70.006965268542046, -25.993670472738458 ], [ -70.006734592759699, -25.966585296686738 ] ] ] } },
{ "type": "Feature", "properties": { "cve": "2858995", "nombre": "GOLDEN PHOENIX V", "solicitante": "Céspedes Santis Daniela Carolina", "region": "REGIÓN DE ATACAMA", "provincia": "Provincia de Chañaral", "comuna": null, "superficie_ha": 300.0, "datum_original": "PSAD56", "huso": 19, "epsg_origen": 24879, "tipo_publicacion": "pedimento", "fuente_pdf": "http://www.diariooficial.interior.gob.cl/publicaciones/2026/08/25/44533/07/2858995.pdf", "archivo": "gm_pedimento_2858995.pdf", "fecha": "25-08-2026", "edicion": "44533" }, "geometry": { "type": "Polygon", "coordinates": [ [ [ -70.040931228573939, -25.993430051595801 ], [ -70.01096128609322, -25.993642601684968 ], [ -70.011038556562809, -26.002670959454786 ], [ -70.041010788732521, -26.002458324686902 ], [ -70.040931228573939, -25.993430051595801 ] ] ] } },
{ "type": "Feature", "properties": { "cve": "2858996", "nombre": "GOLDEN PHOENIX VI", "solicitante": "Céspedes Santis Daniela Carolina", "region": "REGIÓN DE ATACAMA", "provincia": "Provincia de Chañaral", "comuna": null, "superficie_ha": 300.0, "datum_original": "PSAD56", "huso": 19, "epsg_origen": 24879, "tipo_publicacion": "pedimento", "fuente_pdf": "http://www.diariooficial.interior.gob.cl/publicaciones/2026/08/25/44533/07/2858996.pdf", "archivo": "gm_pedimento_2858996.pdf", "fecha": "25-08-2026", "edicion": "44533" }, "geometry": { "type": "Polygon", "coordinates": [ [ [ -70.041010788732521, -26.002458324686902 ], [ -70.011038556562809, -26.002670959454786 ], [ -70.011115863818944, -26.011699305646296 ], [ -70.041090386767479, -26.011486586187104 ], [ -70.041010788732521, -26.002458324686902 ] ] ] } },
{ "type": "Feature", "properties": { "cve": "2858997", "nombre": "GOLDEN PHOENIX VII", "solicitante": "Céspedes Santis Daniela Carolina", "region": "REGIÓN DE ATACAMA", "provincia": "Provincia de Chañaral", "comuna": null, "superficie_ha": 200.0, "datum_original": "PSAD56", "huso": 19, "epsg_origen": 24879, "tipo_publicacion": "pedimento", "fuente_pdf": "http://www.diariooficial.interior.gob.cl/publicaciones/2026/08/25/44533/07/2858997.pdf", "archivo": "gm_pedimento_2858997.pdf", "fecha": "25-08-2026", "edicion": "44533" }, "geometry": { "type": "Polygon", "coordinates": [ [ [ -70.009962282256126, -25.993649579793168 ], [ -69.99997222373942, -25.993718981563692 ], [ -70.000125121904887, -26.011775746388299 ], [ -70.010116707295794, -26.011706289314994 ], [ -70.009962282256126, -25.993649579793168 ] ] ] } },
{ "type": "Feature", "properties": { "cve": "2859171", "nombre": "ROSARIO IV", "solicitante": "La Tirana Uno SpA", "region": "REGIÓN DE ATACAMA", "provincia": "Provincia de Chañaral", "comuna": "DIEGO DE ALMAGRO", "superficie_ha": 300.0, "datum_original": "PSAD56", "huso": 19, "epsg_origen": 24879, "tipo_publicacion": "pedimento", "fuente_pdf": "http://www.diariooficial.interior.gob.cl/publicaciones/2026/08/25/44533/07/2859171.pdf", "archivo": "gm_pedimento_2859171.pdf", "fecha": "25-08-2026", "edicion": "44533" }, "geometry": { "type": "Polygon", "coordinates": [ [ [ -69.652231190683892, -26.162785567759759 ], [ -69.642225740938997, -26.162830535742696 ], [ -69.642374182948458, -26.189917797616243 ], [ -69.652381944924471, -26.189872776124499 ], [ -69.652231190683892, -26.162785567759759 ] ] ] } },
{ "type": "Feature", "properties": { "cve": "2859172", "nombre": "ROSARIO V", "solicitante": "La Tirana Uno SpA", "region": "REGIÓN DE ATACAMA", "provincia": "Provincia de Chañaral", "comuna": "DIEGO DE ALMAGRO", "superficie_ha": 300.0, "datum_original": "PSAD56", "huso": 19, "epsg_origen": 24879, "tipo_publicacion": "pedimento", "fuente_pdf": "http://www.diariooficial.interior.gob.cl/publicaciones/2026/08/25/44533/07/2859172.pdf", "archivo": "gm_pedimento_2859172.pdf", "fecha": "25-08-2026", "edicion": "44533" }, "geometry": { "type": "Polygon", "coordinates": [ [ [ -69.642151599182483, -26.149286865976745 ], [ -69.632147280853758, -26.149331112569328 ], [ -69.632293306581374, -26.176418478888184 ], [ -69.642299935518821, -26.176374179625661 ], [ -69.642151599182483, -26.149286865976745 ] ] ] } },
{ "type": "Feature", "properties": { "cve": "2859173", "nombre": "ROSARIO VI", "solicitante": "La Tirana Uno SpA", "region": "REGIÓN DE ATACAMA", "provincia": "Provincia de Chañaral", "comuna": "DIEGO DE ALMAGRO", "superficie_ha": 300.0, "datum_original": "PSAD56", "huso": 19, "epsg_origen": 24879, "tipo_publicacion": "pedimento", "fuente_pdf": "http://www.diariooficial.interior.gob.cl/publicaciones/2026/08/25/44533/07/2859173.pdf", "archivo": "gm_pedimento_2859173.pdf", "fecha": "25-08-2026", "edicion": "44533" }, "geometry": { "type": "Polygon", "coordinates": [ [ [ -69.632147280853758, -26.149331112569328 ], [ -69.622142939425487, -26.149374664510713 ], [ -69.622286654521233, -26.176462082672661 ], [ -69.632293306581374, -26.176418478888184 ], [ -69.632147280853758, -26.149331112569328 ] ] ] } },
{ "type": "Feature", "properties": { "cve": "2859174", "nombre": "ROSARIO VII", "solicitante": "La Tirana Uno SpA", "region": "REGIÓN DE ATACAMA", "provincia": "Provincia de Chañaral", "comuna": "DIEGO DE ALMAGRO", "superficie_ha": 200.0, "datum_original": "PSAD56", "huso": 19, "epsg_origen": 24879, "tipo_publicacion": "pedimento", "fuente_pdf": "http://www.diariooficial.interior.gob.cl/publicaciones/2026/08/25/44533/07/2859174.pdf", "archivo": "gm_pedimento_2859174.pdf", "fecha": "25-08-2026", "edicion": "44533" }, "geometry": { "type": "Polygon", "coordinates": [ [ [ -69.602194438371399, -26.161197622174697 ], [ -69.592189028938549, -26.161239111513908 ], [ -69.592280252287949, -26.179297472281306 ], [ -69.60228720277199, -26.179255950029852 ], [ -69.602194438371399, -26.161197622174697 ] ] ] } },
{ "type": "Feature", "properties": { "cve": "2859175", "nombre": "ROSARIO VIII", "solicitante": "La Tirana Uno SpA", "region": "REGIÓN DE ATACAMA", "provincia": "Provincia de Chañaral", "comuna": "DIEGO DE ALMAGRO", "superficie_ha": 100.0, "datum_original": "PSAD56", "huso": 19, "epsg_origen": 24879, "tipo_publicacion": "pedimento", "fuente_pdf": "http://www.diariooficial.interior.gob.cl/publicaciones/2026/08/25/44533/07/2859175.pdf", "archivo": "gm_pedimento_2859175.pdf", "fecha": "25-08-2026", "edicion": "44533" }, "geometry": { "type": "Polygon", "coordinates": [ [ [ -69.592220947258397, -26.167559543011706 ], [ -69.582214976972068, -26.1676003486428 ], [ -69.582259822370915, -26.176629542909129 ], [ -69.592266563263237, -26.176588721097083 ], [ -69.592220947258397, -26.167559543011706 ] ] ] } },
{ "type": "Feature", "properties": { "cve": "2858697", "nombre": "SERENA 1", "solicitante": "Inversiones Elqui Limitada", "region": "REGIÓN DE COQUIMBO", "provincia": "Provincia de Elqui", "comuna": null, "superficie_ha": 300.0, "datum_original": "WGS84", "huso": 19, "epsg_origen": 32719, "tipo_publicacion": "pedimento", "fuente_pdf": "http://www.diariooficial.interior.gob.cl/publicaciones/2026/08/25/44533/07/2858697.pdf", "archivo": "gm_pedimento_2858697.pdf", "fecha": "25-08-2026", "edicion": "44533" }, "geometry": { "type": "Polygon", "coordinates": [ [ [ -71.206732430525705, -29.958181364127949 ], [ -71.175663253329134, -29.95869829290649 ], [ -71.175859779405513, -29.967716423380764 ], [ -71.206931757543828, -29.967199307475251 ], [ -71.206732430525705, -29.958181364127949 ] ] ] } },
{ "type": "Feature", "properties": { "cve": "2858698", "nombre": "SERENA 2", "solicitante": "Inversiones Elqui Limitada", "region": "REGIÓN DE COQUIMBO", "provincia": "Provincia de Elqui", "comuna": null, "superficie_ha": 300.0, "datum_original": "WGS84", "huso": 19, "epsg_origen": 32719, "tipo_publicacion": "pedimento", "fuente_pdf": "http://www.diariooficial.interior.gob.cl/publicaciones/2026/08/25/44533/07/2858698.pdf", "archivo": "gm_pedimento_2858698.pdf", "fecha": "25-08-2026", "edicion": "44533" }, "geometry": { "type": "Polygon", "coordinates": [ [ [ -71.206931757543828, -29.967199307475251 ], [ -71.175859779405513, -29.967716423380764 ], [ -71.176056394640071, -29.976734540327826 ], [ -71.207131174989357, -29.976217237262322 ], [ -71.206931757543828, -29.967199307475251 ] ] ] } },
{ "type": "Feature", "properties": { "cve": "2858699", "nombre": "SERENA 3", "solicitante": "Inversiones Elqui Limitada", "region": "REGIÓN DE COQUIMBO", "provincia": "Provincia de Elqui", "comuna": null, "superficie_ha": 300.0, "datum_original": "WGS84", "huso": 19, "epsg_origen": 32719, "tipo_publicacion": "pedimento", "fuente_pdf": "http://www.diariooficial.interior.gob.cl/publicaciones/2026/08/25/44533/07/2858699.pdf", "archivo": "gm_pedimento_2858699.pdf", "fecha": "25-08-2026", "edicion": "44533" }, "geometry": { "type": "Polygon", "coordinates": [ [ [ -71.207131174989357, -29.976217237262322 ], [ -71.176056394640071, -29.976734540327826 ], [ -71.176253099066571, -29.98575264374481 ], [ -71.207330682896512, -29.985235153486297 ], [ -71.207131174989357, -29.976217237262322 ] ] ] } },
{ "type": "Feature", "properties": { "cve": "2858700", "nombre": "SERENA 4", "solicitante": "Inversiones Elqui Limitada", "region": "REGIÓN DE COQUIMBO", "provincia": "Provincia de Elqui", "comuna": null, "superficie_ha": 300.0, "datum_original": "WGS84", "huso": 19, "epsg_origen": 32719, "tipo_publicacion": "pedimento", "fuente_pdf": "http://www.diariooficial.interior.gob.cl/publicaciones/2026/08/25/44533/07/2858700.pdf", "archivo": "gm_pedimento_2858700.pdf", "fecha": "25-08-2026", "edicion": "44533" }, "geometry": { "type": "Polygon", "coordinates": [ [ [ -71.207330682896512, -29.985235153486297 ], [ -71.176253099066571, -29.98575264374481 ], [ -71.176449892718793, -29.994770733628854 ], [ -71.207530281299555, -29.994253056144299 ], [ -71.207330682896512, -29.985235153486297 ] ] ] } },
{ "type": "Feature", "properties": { "cve": "2858701", "nombre": "SERENA 6", "solicitante": "Inversiones Elqui Limitada", "region": "REGIÓN DE COQUIMBO", "provincia": "Provincia de Elqui", "comuna": null, "superficie_ha": 300.0, "datum_original": "WGS84", "huso": 19, "epsg_origen": 32719, "tipo_publicacion": "pedimento", "fuente_pdf": "http://www.diariooficial.interior.gob.cl/publicaciones/2026/08/25/44533/07/2858701.pdf", "archivo": "gm_pedimento_2858701.pdf", "fecha": "25-08-2026", "edicion": "44533" }, "geometry": { "type": "Polygon", "coordinates": [ [ [ -71.175663253329134, -29.95869829290649 ], [ -71.165306682117432, -29.958868976236676 ], [ -71.165893725440654, -29.985923512469842 ], [ -71.176253099066571, -29.98575264374481 ], [ -71.175663253329134, -29.95869829290649 ] ] ] } },
{ "type": "Feature", "properties": { "cve": "2859099", "nombre": "VIENTO 8", "solicitante": "Sonnedix Parque Eólico Carica SpA", "region": "REGIÓN DE COQUIMBO", "provincia": "Provincia de Limarí", "comuna": "Ovalle", "superficie_ha": 100.0, "datum_original": "PSAD56", "huso": 19, "epsg_origen": 24879, "tipo_publicacion": "pedimento", "fuente_pdf": "http://www.diariooficial.interior.gob.cl/publicaciones/2026/08/25/44533/07/2859099.pdf", "archivo": "gm_pedimento_2859099.pdf", "fecha": "25-08-2026", "edicion": "44533" }, "geometry": { "type": "Polygon", "coordinates": [ [ [ -71.694416722335689, -30.554980216490943 ], [ -71.6840014478923, -30.555195426441873 ], [ -71.684249693584022, -30.564209300086628 ], [ -71.69466592850857, -30.563994013184129 ], [ -71.694416722335689, -30.554980216490943 ] ] ] } }
]
}
