{
"type": "FeatureCollection",
"name": "boletin_mineria_20260922",
"crs": { "type": "name", "properties": { "name": "urn:ogc:def:crs:OGC:1.3:CRS84" } },
"features": [
{ "type": "Feature", "properties": { "cve": "2873222", "nombre": "BORDE E002 1/200", "solicitante": "Minera Andes del Sur SpA", "region": "REGIÓN DE ARICA Y PARINACOTA", "provincia": "Provincia de Parinacota", "comuna": "General Lagos", "superficie_ha": 200.0, "datum_original": "PSAD56", "huso": 19, "epsg_origen": 24879, "tipo_publicacion": "manifestacion", "fuente_pdf": "http://www.diariooficial.interior.gob.cl/publicaciones/2026/09/22/44555/07/2873222.pdf", "archivo": "gm_manifestacion_2873222.pdf", "fecha": "22-09-2026", "edicion": "44555" }, "geometry": { "type": "Polygon", "coordinates": [ [ [ -69.803701506988133, -17.764959683864877 ], [ -69.794268801114924, -17.764998133011744 ], [ -69.794348632926045, -17.78307377834938 ], [ -69.80378228663146, -17.783035287540276 ], [ -69.803701506988133, -17.764959683864877 ] ] ] } },
{ "type": "Feature", "properties": { "cve": "2873223", "nombre": "BORDE E008, 1 AL 300", "solicitante": "Minera Andes del Sur SpA", "region": "REGIÓN DE ARICA Y PARINACOTA", "provincia": "Provincia de Parinacota", "comuna": "General Lagos", "superficie_ha": 300.0, "datum_original": "PSAD56", "huso": 19, "epsg_origen": 24879, "tipo_publicacion": "manifestacion", "fuente_pdf": "http://www.diariooficial.interior.gob.cl/publicaciones/2026/09/22/44555/07/2873223.pdf", "archivo": "gm_manifestacion_2873223.pdf", "fecha": "22-09-2026", "edicion": "44555" }, "geometry": { "type": "Polygon", "coordinates": [ [ [ -69.784974179908545, -17.796668557409092 ], [ -69.775539767531555, -17.796706170107722 ], [ -69.775656948978067, -17.823819658820383 ], [ -69.785092786508301, -17.823781985079865 ], [ -69.784974179908545, -17.796668557409092 ] ] ] } },
{ "type": "Feature", "properties": { "cve": "2873224", "nombre": "VISVIRI F003, 1 AL 300", "solicitante": "Minera Andes del Sur SpA", "region": "REGIÓN DE ARICA Y PARINACOTA", "provincia": "Provincia de Parinacota", "comuna": "General Lagos", "superficie_ha": 300.0, "datum_original": "PSAD56", "huso": 19, "epsg_origen": 24879, "tipo_publicacion": "manifestacion", "fuente_pdf": "http://www.diariooficial.interior.gob.cl/publicaciones/2026/09/22/44555/07/2873224.pdf", "archivo": "gm_manifestacion_2873224.pdf", "fecha": "22-09-2026", "edicion": "44555" }, "geometry": { "type": "Polygon", "coordinates": [ [ [ -69.728550898961075, -17.842077008726083 ], [ -69.700240064008185, -17.842180577466486 ], [ -69.70027540740098, -17.851218526940603 ], [ -69.728587670991672, -17.851114902302012 ], [ -69.728550898961075, -17.842077008726083 ] ] ] } },
{ "type": "Feature", "properties": { "cve": "2873225", "nombre": "VISVIRI F009, 1 AL 300", "solicitante": "Minera Andes del Sur SpA", "region": "REGIÓN DE ARICA Y PARINACOTA", "provincia": "Provincia de Parinacota", "comuna": "General Lagos", "superficie_ha": 300.0, "datum_original": "PSAD56", "huso": 19, "epsg_origen": 24879, "tipo_publicacion": "manifestacion", "fuente_pdf": "http://www.diariooficial.interior.gob.cl/publicaciones/2026/09/22/44555/07/2873225.pdf", "archivo": "gm_manifestacion_2873225.pdf", "fecha": "22-09-2026", "edicion": "44555" }, "geometry": { "type": "Polygon", "coordinates": [ [ [ -69.775931181979132, -17.887084167497289 ], [ -69.747613525928912, -17.887194873305738 ], [ -69.747651361896104, -17.896232685729814 ], [ -69.775970450730256, -17.896121920303063 ], [ -69.775931181979132, -17.887084167497289 ] ] ] } },
{ "type": "Feature", "properties": { "cve": "2873602", "nombre": "AURORA 2 1-25", "solicitante": "Muñoz Aguilera Jorge Antonio", "region": "REGIÓN DE ATACAMA", "provincia": "Provincia de Copiapó", "comuna": null, "superficie_ha": 100.0, "datum_original": "WGS84", "huso": 19, "epsg_origen": 32719, "tipo_publicacion": "manifestacion", "fuente_pdf": "http://www.diariooficial.interior.gob.cl/publicaciones/2026/09/22/44555/07/2873602.pdf", "archivo": "gm_manifestacion_2873602.pdf", "fecha": "22-09-2026", "edicion": "44555" }, "geometry": { "type": "Polygon", "coordinates": [ [ [ -70.420902724404584, -27.3851791894961 ], [ -70.410792031506986, -27.385281796465435 ], [ -70.410906594334705, -27.394307141423152 ], [ -70.421018107596197, -27.394204495054051 ], [ -70.420902724404584, -27.3851791894961 ] ] ] } },
{ "type": "Feature", "properties": { "cve": "2873509", "nombre": "IVON II, 1 AL 4", "solicitante": "Compañía Minera Carmen Bajo Limitada", "region": "REGIÓN DE ATACAMA", "provincia": "Provincia de Copiapó", "comuna": null, "superficie_ha": 4.0, "datum_original": "WGS84", "huso": 19, "epsg_origen": 32719, "tipo_publicacion": "manifestacion", "fuente_pdf": "http://www.diariooficial.interior.gob.cl/publicaciones/2026/09/22/44555/07/2873509.pdf", "archivo": "gm_manifestacion_2873509.pdf", "fecha": "22-09-2026", "edicion": "44555" }, "geometry": { "type": "Polygon", "coordinates": [ [ [ -70.375242354811988, -27.535657118360753 ], [ -70.374229894531467, -27.535667131424503 ], [ -70.374274812920717, -27.53927724914179 ], [ -70.375287306269342, -27.539267234545875 ], [ -70.375242354811988, -27.535657118360753 ] ] ] } },
{ "type": "Feature", "properties": { "cve": "2873330", "nombre": "LA FARITO 1 AL 7", "solicitante": "Pacheco Pacheco Luis Alberto", "region": "REGIÓN DE ATACAMA", "provincia": "Provincia de Copiapó", "comuna": null, "superficie_ha": 21.0, "datum_original": "WGS84", "huso": 19, "epsg_origen": 32719, "tipo_publicacion": "manifestacion", "fuente_pdf": "http://www.diariooficial.interior.gob.cl/publicaciones/2026/09/22/44555/07/2873330.pdf", "archivo": "gm_manifestacion_2873330.pdf", "fecha": "22-09-2026", "edicion": "44555" }, "geometry": { "type": "Polygon", "coordinates": [ [ [ -70.091269027485865, -27.593511555732331 ], [ -70.088229726978625, -27.593535414465848 ], [ -70.088292134521737, -27.599853747229449 ], [ -70.091331609241863, -27.599829882115348 ], [ -70.091269027485865, -27.593511555732331 ] ] ] } },
{ "type": "Feature", "properties": { "cve": "2873331", "nombre": "LUISA 1 AL 6", "solicitante": "Pacheco Pacheco Luis Alberto", "region": "REGIÓN DE ATACAMA", "provincia": "Provincia de Copiapó", "comuna": null, "superficie_ha": 24.0, "datum_original": "WGS84", "huso": 19, "epsg_origen": 32719, "tipo_publicacion": "manifestacion", "fuente_pdf": "http://www.diariooficial.interior.gob.cl/publicaciones/2026/09/22/44555/07/2873331.pdf", "archivo": "gm_manifestacion_2873331.pdf", "fecha": "22-09-2026", "edicion": "44555" }, "geometry": { "type": "Polygon", "coordinates": [ [ [ -70.095379748981415, -27.599346650245632 ], [ -70.091327138440562, -27.599378573283122 ], [ -70.091380794919914, -27.604794277288267 ], [ -70.09543360461555, -27.604762346934262 ], [ -70.095379748981415, -27.599346650245632 ] ] ] } },
{ "type": "Feature", "properties": { "cve": "2873548", "nombre": "La Canoa del 1-10", "solicitante": "Cifuentes Aballay Nelson del Carmen", "region": "REGIÓN DE VALPARAÍSO", "provincia": "Provincia de Petorca", "comuna": "Cabildo", "superficie_ha": 100.0, "datum_original": "PSAD56", "huso": 19, "epsg_origen": 24879, "tipo_publicacion": "manifestacion", "fuente_pdf": "http://www.diariooficial.interior.gob.cl/publicaciones/2026/09/22/44555/07/2873548.pdf", "archivo": "gm_manifestacion_2873548.pdf", "fecha": "22-09-2026", "edicion": "44555" }, "geometry": { "type": "Polygon", "coordinates": [ [ [ -70.839668756453534, -32.388106430699956 ], [ -70.829042228071472, -32.388261094783942 ], [ -70.829224021549976, -32.397277687397981 ], [ -70.839851604683432, -32.397122969793109 ], [ -70.839668756453534, -32.388106430699956 ] ] ] } },
{ "type": "Feature", "properties": { "cve": "2873583", "nombre": "LA TALITA TRES 1/2", "solicitante": "Aubel Mohr Ernesto Francisco", "region": "REGIÓN DE VALPARAÍSO", "provincia": "Provincia de Petorca", "comuna": null, "superficie_ha": 14.0, "datum_original": "PSAD56", "huso": 19, "epsg_origen": 24879, "tipo_publicacion": "manifestacion", "fuente_pdf": "http://www.diariooficial.interior.gob.cl/publicaciones/2026/09/22/44555/07/2873583.pdf", "archivo": "gm_manifestacion_2873583.pdf", "fecha": "22-09-2026", "edicion": "44555" }, "geometry": { "type": "Polygon", "coordinates": [ [ [ -70.979275064438411, -32.049785704230978 ], [ -70.977157793121648, -32.049818752651035 ], [ -70.977293553365598, -32.056130165633398 ], [ -70.979410969832131, -32.05609710916255 ], [ -70.979275064438411, -32.049785704230978 ] ] ] } },
{ "type": "Feature", "properties": { "cve": "2873581", "nombre": "LLANURAS CINCO 1/5", "solicitante": "Aubel Mohr Ernesto Francisco", "region": "REGIÓN DE VALPARAÍSO", "provincia": "Provincia de Petorca", "comuna": null, "superficie_ha": 50.0, "datum_original": "PSAD56", "huso": 19, "epsg_origen": 24879, "tipo_publicacion": "manifestacion", "fuente_pdf": "http://www.diariooficial.interior.gob.cl/publicaciones/2026/09/22/44555/07/2873581.pdf", "archivo": "gm_manifestacion_2873581.pdf", "fecha": "22-09-2026", "edicion": "44555" }, "geometry": { "type": "Polygon", "coordinates": [ [ [ -70.967011905687585, -32.073039090289043 ], [ -70.956422758082695, -32.073203060655288 ], [ -70.956518795790515, -32.077711252936169 ], [ -70.967108462385042, -32.077547254050195 ], [ -70.967011905687585, -32.073039090289043 ] ] ] } },
{ "type": "Feature", "properties": { "cve": "2873580", "nombre": "LLANURAS CUATRO 1/3", "solicitante": "Aubel Mohr Ernesto Francisco", "region": "REGIÓN DE VALPARAÍSO", "provincia": "Provincia de Petorca", "comuna": null, "superficie_ha": 30.0, "datum_original": "PSAD56", "huso": 19, "epsg_origen": 24879, "tipo_publicacion": "manifestacion", "fuente_pdf": "http://www.diariooficial.interior.gob.cl/publicaciones/2026/09/22/44555/07/2873580.pdf", "archivo": "gm_manifestacion_2873580.pdf", "fecha": "22-09-2026", "edicion": "44555" }, "geometry": { "type": "Polygon", "coordinates": [ [ [ -70.966894521842278, -32.067557158446242 ], [ -70.961600274274588, -32.067639236768905 ], [ -70.961715802074792, -32.073049055096135 ], [ -70.967010360955967, -32.072966959640461 ], [ -70.966894521842278, -32.067557158446242 ] ] ] } },
{ "type": "Feature", "properties": { "cve": "2873579", "nombre": "LLANURAS DOS 1/8", "solicitante": "Aubel Mohr Ernesto Francisco", "region": "REGIÓN DE VALPARAÍSO", "provincia": "Provincia de Petorca", "comuna": null, "superficie_ha": 64.0, "datum_original": "PSAD56", "huso": 19, "epsg_origen": 24879, "tipo_publicacion": "manifestacion", "fuente_pdf": "http://www.diariooficial.interior.gob.cl/publicaciones/2026/09/22/44555/07/2873579.pdf", "archivo": "gm_manifestacion_2873579.pdf", "fecha": "22-09-2026", "edicion": "44555" }, "geometry": { "type": "Polygon", "coordinates": [ [ [ -70.954334467349156, -32.064666896762262 ], [ -70.945863863672045, -32.064797266169258 ], [ -70.946016655503328, -32.072010427232819 ], [ -70.954487923273632, -32.071880021538554 ], [ -70.954334467349156, -32.064666896762262 ] ] ] } },
{ "type": "Feature", "properties": { "cve": "2873578", "nombre": "LLANURAS UNO 1/7", "solicitante": "Aubel Mohr Ernesto Francisco", "region": "REGIÓN DE VALPARAÍSO", "provincia": "Provincia de Petorca", "comuna": null, "superficie_ha": 70.0, "datum_original": "PSAD56", "huso": 19, "epsg_origen": 24879, "tipo_publicacion": "manifestacion", "fuente_pdf": "http://www.diariooficial.interior.gob.cl/publicaciones/2026/09/22/44555/07/2873578.pdf", "archivo": "gm_manifestacion_2873578.pdf", "fecha": "22-09-2026", "edicion": "44555" }, "geometry": { "type": "Polygon", "coordinates": [ [ [ -70.959590107635549, -32.062781851767468 ], [ -70.954296111949802, -32.062863614171569 ], [ -70.954564671835954, -32.075486580574527 ], [ -70.959859393890369, -32.075404778340669 ], [ -70.959590107635549, -32.062781851767468 ] ] ] } },
{ "type": "Feature", "properties": { "cve": "2873582", "nombre": "LUCAS TRES 1/8", "solicitante": "Aubel Mohr Ernesto Francisco", "region": "REGIÓN DE VALPARAÍSO", "provincia": "Provincia de Petorca", "comuna": null, "superficie_ha": 76.0, "datum_original": "PSAD56", "huso": 19, "epsg_origen": 24879, "tipo_publicacion": "manifestacion", "fuente_pdf": "http://www.diariooficial.interior.gob.cl/publicaciones/2026/09/22/44555/07/2873582.pdf", "archivo": "gm_manifestacion_2873582.pdf", "fecha": "22-09-2026", "edicion": "44555" }, "geometry": { "type": "Polygon", "coordinates": [ [ [ -70.96452775876223, -32.055940879199611 ], [ -70.960292891599693, -32.056006459343386 ], [ -70.960658427461837, -32.073137578589872 ], [ -70.964894083063015, -32.073071955082753 ], [ -70.96452775876223, -32.055940879199611 ] ] ] } },
{ "type": "Feature", "properties": { "cve": "2873587", "nombre": "PULPICA CUATRO 1/4", "solicitante": "Aubel Mohr Ernesto Francisco", "region": "REGIÓN DE VALPARAÍSO", "provincia": "Provincia de Petorca", "comuna": null, "superficie_ha": 30.0, "datum_original": "PSAD56", "huso": 19, "epsg_origen": 24879, "tipo_publicacion": "manifestacion", "fuente_pdf": "http://www.diariooficial.interior.gob.cl/publicaciones/2026/09/22/44555/07/2873587.pdf", "archivo": "gm_manifestacion_2873587.pdf", "fecha": "22-09-2026", "edicion": "44555" }, "geometry": { "type": "Polygon", "coordinates": [ [ [ -70.978497713652061, -32.065329113279013 ], [ -70.975321266914221, -32.065378674526706 ], [ -70.97551515991367, -32.074394964380083 ], [ -70.978691917948694, -32.074345385888812 ], [ -70.978497713652061, -32.065329113279013 ] ] ] } },
{ "type": "Feature", "properties": { "cve": "2873584", "nombre": "PULPICA DOS 1/2", "solicitante": "Aubel Mohr Ernesto Francisco", "region": "REGIÓN DE VALPARAÍSO", "provincia": "Provincia de Petorca", "comuna": null, "superficie_ha": 14.0, "datum_original": "PSAD56", "huso": 19, "epsg_origen": 24879, "tipo_publicacion": "manifestacion", "fuente_pdf": "http://www.diariooficial.interior.gob.cl/publicaciones/2026/09/22/44555/07/2873584.pdf", "archivo": "gm_manifestacion_2873584.pdf", "fecha": "22-09-2026", "edicion": "44555" }, "geometry": { "type": "Polygon", "coordinates": [ [ [ -70.972235123901172, -32.04989545367588 ], [ -70.970117841058681, -32.049928384631563 ], [ -70.970253118672616, -32.056239824320897 ], [ -70.972370546668131, -32.056206885343052 ], [ -70.972235123901172, -32.04989545367588 ] ] ] } },
{ "type": "Feature", "properties": { "cve": "2873585", "nombre": "PULPICA TRES 1/8", "solicitante": "Aubel Mohr Ernesto Francisco", "region": "REGIÓN DE VALPARAÍSO", "provincia": "Provincia de Petorca", "comuna": null, "superficie_ha": 80.0, "datum_original": "PSAD56", "huso": 19, "epsg_origen": 24879, "tipo_publicacion": "manifestacion", "fuente_pdf": "http://www.diariooficial.interior.gob.cl/publicaciones/2026/09/22/44555/07/2873585.pdf", "archivo": "gm_manifestacion_2873585.pdf", "fecha": "22-09-2026", "edicion": "44555" }, "geometry": { "type": "Polygon", "coordinates": [ [ [ -70.985121408526268, -32.056684231108484 ], [ -70.974534260428314, -32.056849639686753 ], [ -70.974689254885433, -32.064062685903544 ], [ -70.985277232712662, -32.06389723127964 ], [ -70.985121408526268, -32.056684231108484 ] ] ] } },
{ "type": "Feature", "properties": { "cve": "2873386", "nombre": "CATALINA", "solicitante": "Calderón Gamboa Fernando", "region": "REGIÓN DEL LIBERTADOR GENERAL BERNARDO O’HIGGINS", "provincia": "Provincia Cardenal Caro", "comuna": null, "superficie_ha": 100.0, "datum_original": "WGS84", "huso": 19, "epsg_origen": 32719, "tipo_publicacion": "manifestacion", "fuente_pdf": "http://www.diariooficial.interior.gob.cl/publicaciones/2026/09/22/44555/07/2873386.pdf", "archivo": "gm_manifestacion_2873386.pdf", "fecha": "22-09-2026", "edicion": "44555" }, "geometry": { "type": "Polygon", "coordinates": [ [ [ -71.79364684122595, -34.284006579722295 ], [ -71.782794811324493, -34.284253699073389 ], [ -71.783092013838441, -34.293261524966397 ], [ -71.793945199067281, -34.293014322617879 ], [ -71.79364684122595, -34.284006579722295 ] ] ] } },
{ "type": "Feature", "properties": { "cve": "2873277", "nombre": "ALFA 1 AL 30", "solicitante": "Inversiones Mineras CBM SpA", "region": "REGIÓN DE LA ARAUCANÍA", "provincia": "Provincia de Cautín", "comuna": "Cunco", "superficie_ha": 300.0, "datum_original": "PSAD56", "huso": 18, "epsg_origen": 24878, "tipo_publicacion": "manifestacion", "fuente_pdf": "http://www.diariooficial.interior.gob.cl/publicaciones/2026/09/22/44555/07/2873277.pdf", "archivo": "gm_manifestacion_2873277.pdf", "fecha": "22-09-2026", "edicion": "44555" }, "geometry": { "type": "Polygon", "coordinates": [ [ [ -72.256698277811708, -38.821221394139982 ], [ -72.239439091882161, -38.82081457934909 ], [ -72.238743243732529, -38.838816789907995 ], [ -72.256006766792609, -38.839223864795152 ], [ -72.256698277811708, -38.821221394139982 ] ] ] } },
{ "type": "Feature", "properties": { "cve": "2873294", "nombre": "GENA 2, 1 AL 300", "solicitante": "Minera Andes del Sur", "region": "REGIÓN DE ARICA Y PARINACOTA", "provincia": "Provincia de Arica", "comuna": null, "superficie_ha": 300.0, "datum_original": "PSAD56", "huso": 19, "epsg_origen": 24879, "tipo_publicacion": "mensura", "fuente_pdf": "http://www.diariooficial.interior.gob.cl/publicaciones/2026/09/22/44555/07/2873294.pdf", "archivo": "gm_mensura_2873294.pdf", "fecha": "22-09-2026", "edicion": "44555" }, "geometry": { "type": "Polygon", "coordinates": [ [ [ -69.747292820761473, -17.810373123328482 ], [ -69.737857605344686, -17.810408946286778 ], [ -69.737969185000878, -17.837522633501877 ], [ -69.747405826899893, -17.837486752444867 ], [ -69.747292820761473, -17.810373123328482 ] ] ] } },
{ "type": "Feature", "properties": { "cve": "2873571", "nombre": "MARTINA I 1 AL 6", "solicitante": "Suárez Caminada Carlos", "region": "REGIÓN DE ATACAMA", "provincia": "Provincia de Copiapó", "comuna": null, "superficie_ha": 16.0, "datum_original": "PSAD56", "huso": 19, "epsg_origen": 24879, "tipo_publicacion": "mensura", "fuente_pdf": "http://www.diariooficial.interior.gob.cl/publicaciones/2026/09/22/44555/07/2873571.pdf", "archivo": "gm_mensura_2873571.pdf", "fecha": "22-09-2026", "edicion": "44555" }, "geometry": { "type": "Polygon", "coordinates": [ [ [ -69.885085663558286, -27.927130274505153 ], [ -69.883053150514698, -27.9271433198046 ], [ -69.883082494410274, -27.930753845071521 ], [ -69.88404797034724, -27.930747651354071 ], [ -69.884062660372607, -27.932552912791685 ], [ -69.888127886367741, -27.932526757778287 ], [ -69.88811312881414, -27.930721498322832 ], [ -69.885115074972873, -27.930740797794449 ], [ -69.885085663558286, -27.927130274505153 ] ] ] } },
{ "type": "Feature", "properties": { "cve": "2873622", "nombre": "RELINCHO 1-20", "solicitante": "Araya Cortés Gabriel Fernando", "region": "REGIÓN DE ATACAMA", "provincia": "Provincia de Copiapó", "comuna": null, "superficie_ha": 100.0, "datum_original": "PSAD56", "huso": 19, "epsg_origen": 24879, "tipo_publicacion": "mensura", "fuente_pdf": "http://www.diariooficial.interior.gob.cl/publicaciones/2026/09/22/44555/07/2873622.pdf", "archivo": "gm_mensura_2873622.pdf", "fecha": "22-09-2026", "edicion": "44555" }, "geometry": { "type": "Polygon", "coordinates": [ [ [ -70.518155660804666, -27.704357901267347 ], [ -70.508016143707678, -27.70446871209861 ], [ -70.508140257397713, -27.713493252009762 ], [ -70.518280608224828, -27.713382398962455 ], [ -70.518155660804666, -27.704357901267347 ] ] ] } },
{ "type": "Feature", "properties": { "cve": "2873615", "nombre": "EL ALTO 1 AL 98", "solicitante": "Oyarce Suazo José Alejandro", "region": "REGIÓN DE ÑUBLE", "provincia": "Provincia de Itata", "comuna": "Cobquecura", "superficie_ha": 98.0, "datum_original": "PSAD56", "huso": 18, "epsg_origen": 24878, "tipo_publicacion": "mensura", "fuente_pdf": "http://www.diariooficial.interior.gob.cl/publicaciones/2026/09/22/44555/07/2873615.pdf", "archivo": "gm_mensura_2873615.pdf", "fecha": "22-09-2026", "edicion": "44555" }, "geometry": { "type": "Polygon", "coordinates": [ [ [ -72.742864949092578, -36.070841129110939 ], [ -72.727329712886075, -36.07054745612578 ], [ -72.72714819918113, -36.076853560637268 ], [ -72.742684673578864, -36.077147301133259 ], [ -72.742864949092578, -36.070841129110939 ] ] ] } },
{ "type": "Feature", "properties": { "cve": "2873652", "nombre": "MANANTIAL 4", "solicitante": "Saavedra Rojas Carlos Álvaro", "region": "REGIÓN DE ANTOFAGASTA", "provincia": "Provincia de Antofagasta", "comuna": "Taltal", "superficie_ha": 300.0, "datum_original": "PSAD56", "huso": 19, "epsg_origen": 24879, "tipo_publicacion": "pedimento", "fuente_pdf": "http://www.diariooficial.interior.gob.cl/publicaciones/2026/09/22/44555/07/2873652.pdf", "archivo": "gm_pedimento_2873652.pdf", "fecha": "22-09-2026", "edicion": "44555" }, "geometry": { "type": "Polygon", "coordinates": [ [ [ -69.270637282346541, -25.563482958627255 ], [ -69.260681752628358, -25.563501023615782 ], [ -69.260740423507514, -25.590591631888948 ], [ -69.270698193822184, -25.590573545040687 ], [ -69.270637282346541, -25.563482958627255 ] ] ] } },
{ "type": "Feature", "properties": { "cve": "2873653", "nombre": "MANANTIAL 54", "solicitante": "Saavedra Rojas Carlos Álvaro", "region": "REGIÓN DE ANTOFAGASTA", "provincia": "Provincia de Antofagasta", "comuna": "Taltal", "superficie_ha": 300.0, "datum_original": "PSAD56", "huso": 19, "epsg_origen": 24879, "tipo_publicacion": "pedimento", "fuente_pdf": "http://www.diariooficial.interior.gob.cl/publicaciones/2026/09/22/44555/07/2873653.pdf", "archivo": "gm_pedimento_2873653.pdf", "fecha": "22-09-2026", "edicion": "44555" }, "geometry": { "type": "Polygon", "coordinates": [ [ [ -69.260681752628358, -25.563501023615782 ], [ -69.250726213540005, -25.563518411639038 ], [ -69.250782643813494, -25.590609040952767 ], [ -69.260740423507514, -25.590591631888948 ], [ -69.260681752628358, -25.563501023615782 ] ] ] } },
{ "type": "Feature", "properties": { "cve": "2873655", "nombre": "MANANTIAL 54", "solicitante": "Saavedra Rojas Carlos Álvaro", "region": "REGIÓN DE ANTOFAGASTA", "provincia": "Provincia de Antofagasta", "comuna": "Taltal", "superficie_ha": 300.0, "datum_original": "PSAD56", "huso": 19, "epsg_origen": 24879, "tipo_publicacion": "pedimento", "fuente_pdf": "http://www.diariooficial.interior.gob.cl/publicaciones/2026/09/22/44555/07/2873655.pdf", "archivo": "gm_pedimento_2873655.pdf", "fecha": "22-09-2026", "edicion": "44555" }, "geometry": { "type": "Polygon", "coordinates": [ [ [ -69.121422106916796, -25.681075709130958 ], [ -69.111456741229773, -25.681083660937311 ], [ -69.111481958763278, -25.708174059765451 ], [ -69.121449579141199, -25.708166098368928 ], [ -69.121422106916796, -25.681075709130958 ] ] ] } },
{ "type": "Feature", "properties": { "cve": "2873654", "nombre": "MANANTIAL 6", "solicitante": "Saavedra Rojas Carlos Álvaro", "region": "REGIÓN DE ANTOFAGASTA", "provincia": "Provincia de Antofagasta", "comuna": "Taltal", "superficie_ha": 300.0, "datum_original": "PSAD56", "huso": 19, "epsg_origen": 24879, "tipo_publicacion": "pedimento", "fuente_pdf": "http://www.diariooficial.interior.gob.cl/publicaciones/2026/09/22/44555/07/2873654.pdf", "archivo": "gm_pedimento_2873654.pdf", "fecha": "22-09-2026", "edicion": "44555" }, "geometry": { "type": "Polygon", "coordinates": [ [ [ -69.250726213540005, -25.563518411639038 ], [ -69.240770665439385, -25.563535122694589 ], [ -69.240824855098339, -25.590625772229718 ], [ -69.250782643813494, -25.590609040952767 ], [ -69.250726213540005, -25.563518411639038 ] ] ] } },
{ "type": "Feature", "properties": { "cve": "2873594", "nombre": "EL CUERVO", "solicitante": "Villar Luna Erick Francisco Ignacio", "region": "REGIÓN DE ATACAMA", "provincia": "Provincia de Copiapó", "comuna": null, "superficie_ha": 200.0, "datum_original": "PSAD56", "huso": 19, "epsg_origen": 24879, "tipo_publicacion": "pedimento", "fuente_pdf": "http://www.diariooficial.interior.gob.cl/publicaciones/2026/09/22/44555/07/2873594.pdf", "archivo": "gm_pedimento_2873594.pdf", "fecha": "22-09-2026", "edicion": "44555" }, "geometry": { "type": "Polygon", "coordinates": [ [ [ -69.63199569286418, -27.571313282525427 ], [ -69.611735274868337, -27.571403974463223 ], [ -69.61178534364997, -27.580431312127203 ], [ -69.632047419638326, -27.58034058551495 ], [ -69.63199569286418, -27.571313282525427 ] ] ] } },
{ "type": "Feature", "properties": { "cve": "2873595", "nombre": "GARIN NUEVO II", "solicitante": "Villar Luna Erick Francisco Ignacio", "region": "REGIÓN DE ATACAMA", "provincia": "Provincia de Copiapó", "comuna": null, "superficie_ha": 300.0, "datum_original": "PSAD56", "huso": 19, "epsg_origen": 24879, "tipo_publicacion": "pedimento", "fuente_pdf": "http://www.diariooficial.interior.gob.cl/publicaciones/2026/09/22/44555/07/2873595.pdf", "archivo": "gm_pedimento_2873595.pdf", "fecha": "22-09-2026", "edicion": "44555" }, "geometry": { "type": "Polygon", "coordinates": [ [ [ -69.851058476399359, -27.339944384318404 ], [ -69.840949895322211, -27.340005597659438 ], [ -69.841154449350313, -27.367087102744474 ], [ -69.851265488535972, -27.367025818778789 ], [ -69.851058476399359, -27.339944384318404 ] ] ] } },
{ "type": "Feature", "properties": { "cve": "2873596", "nombre": "EMPERATRIZ I", "solicitante": "Villar Luna Erik Francisco Ignacio", "region": "REGIÓN DE ATACAMA", "provincia": "Provincia de Huasco", "comuna": "Vallenar", "superficie_ha": 200.0, "datum_original": "PSAD56", "huso": 19, "epsg_origen": 24879, "tipo_publicacion": "pedimento", "fuente_pdf": "http://www.diariooficial.interior.gob.cl/publicaciones/2026/09/22/44555/07/2873596.pdf", "archivo": "gm_pedimento_2873596.pdf", "fecha": "22-09-2026", "edicion": "44555" }, "geometry": { "type": "Polygon", "coordinates": [ [ [ -70.524767118556554, -28.604108071830233 ], [ -70.514542515719555, -28.60422266328009 ], [ -70.514801456577402, -28.622269286482595 ], [ -70.525027805865747, -28.622154609550797 ], [ -70.524767118556554, -28.604108071830233 ] ] ] } },
{ "type": "Feature", "properties": { "cve": "2873597", "nombre": "EMPERATRIZ II", "solicitante": "Villar Luna Erik Francisco Ignacio", "region": "REGIÓN DE ATACAMA", "provincia": "Provincia de Huasco", "comuna": "Vallenar", "superficie_ha": 200.0, "datum_original": "PSAD56", "huso": 19, "epsg_origen": 24879, "tipo_publicacion": "pedimento", "fuente_pdf": "http://www.diariooficial.interior.gob.cl/publicaciones/2026/09/22/44555/07/2873597.pdf", "archivo": "gm_pedimento_2873597.pdf", "fecha": "22-09-2026", "edicion": "44555" }, "geometry": { "type": "Polygon", "coordinates": [ [ [ -70.514439006013845, -28.597003999835636 ], [ -70.504215041836616, -28.597117786920496 ], [ -70.504472141638544, -28.615164515253461 ], [ -70.514697851668473, -28.615050643272511 ], [ -70.514439006013845, -28.597003999835636 ] ] ] } },
{ "type": "Feature", "properties": { "cve": "2873340", "nombre": "LUNA 119", "solicitante": "Varela Echaurren Juan Francisco", "region": "REGIÓN DEL BIOBÍO", "provincia": "Provincia de Arauco", "comuna": null, "superficie_ha": 300.0, "datum_original": "PSAD56", "huso": 18, "epsg_origen": 24878, "tipo_publicacion": "pedimento", "fuente_pdf": "http://www.diariooficial.interior.gob.cl/publicaciones/2026/09/22/44555/07/2873340.pdf", "archivo": "gm_pedimento_2873340.pdf", "fecha": "22-09-2026", "edicion": "44555" }, "geometry": { "type": "Polygon", "coordinates": [ [ [ -73.21303618439191, -37.591228653485608 ], [ -73.179071400890194, -37.590709434074199 ], [ -73.178851807236938, -37.599718374674012 ], [ -73.212820681333838, -37.600237761945614 ], [ -73.21303618439191, -37.591228653485608 ] ] ] } },
{ "type": "Feature", "properties": { "cve": "2873707", "nombre": "LUNA 120", "solicitante": "Varela Echaurren Juan Francisco", "region": "REGIÓN DEL BIOBÍO", "provincia": "Provincia de Arauco", "comuna": null, "superficie_ha": 300.0, "datum_original": "PSAD56", "huso": 18, "epsg_origen": 24878, "tipo_publicacion": "pedimento", "fuente_pdf": "http://www.diariooficial.interior.gob.cl/publicaciones/2026/09/22/44555/07/2873707.pdf", "archivo": "gm_pedimento_2873707.pdf", "fecha": "22-09-2026", "edicion": "44555" }, "geometry": { "type": "Polygon", "coordinates": [ [ [ -73.179071400890194, -37.590709434074199 ], [ -73.145107497300017, -37.59018044843495 ], [ -73.144883813466208, -37.599189218019561 ], [ -73.178851807236938, -37.599718374674012 ], [ -73.179071400890194, -37.590709434074199 ] ] ] } },
{ "type": "Feature", "properties": { "cve": "2873341", "nombre": "LUNA 121", "solicitante": "Varela Echaurren Juan Francisco", "region": "REGIÓN DEL BIOBÍO", "provincia": "Provincia de Arauco", "comuna": null, "superficie_ha": 200.0, "datum_original": "PSAD56", "huso": 18, "epsg_origen": 24878, "tipo_publicacion": "pedimento", "fuente_pdf": "http://www.diariooficial.interior.gob.cl/publicaciones/2026/09/22/44555/07/2873341.pdf", "archivo": "gm_pedimento_2873341.pdf", "fecha": "22-09-2026", "edicion": "44555" }, "geometry": { "type": "Polygon", "coordinates": [ [ [ -73.167529044023809, -37.599543074570832 ], [ -73.144883813466208, -37.599189218019561 ], [ -73.144660029998789, -37.608197972585671 ], [ -73.167307988510132, -37.608551943524766 ], [ -73.167529044023809, -37.599543074570832 ] ] ] } },
{ "type": "Feature", "properties": { "cve": "2873708", "nombre": "LUNA 122", "solicitante": "Varela Echaurren Juan Francisco", "region": "REGIÓN DEL BIOBÍO", "provincia": "Provincia de Arauco", "comuna": null, "superficie_ha": 300.0, "datum_original": "PSAD56", "huso": 18, "epsg_origen": 24878, "tipo_publicacion": "pedimento", "fuente_pdf": "http://www.diariooficial.interior.gob.cl/publicaciones/2026/09/22/44555/07/2873708.pdf", "archivo": "gm_pedimento_2873708.pdf", "fecha": "22-09-2026", "edicion": "44555" }, "geometry": { "type": "Polygon", "coordinates": [ [ [ -73.167307988510132, -37.608551943524766 ], [ -73.133336199960937, -37.60801935847644 ], [ -73.133110952299489, -37.61702804028878 ], [ -73.167086834529613, -37.617560797485609 ], [ -73.167307988510132, -37.608551943524766 ] ] ] } },
{ "type": "Feature", "properties": { "cve": "2873342", "nombre": "LUNA 123", "solicitante": "Varela Echaurren Juan Francisco", "region": "REGIÓN DEL BIOBÍO", "provincia": "Provincia de Arauco", "comuna": null, "superficie_ha": 300.0, "datum_original": "PSAD56", "huso": 18, "epsg_origen": 24878, "tipo_publicacion": "pedimento", "fuente_pdf": "http://www.diariooficial.interior.gob.cl/publicaciones/2026/09/22/44555/07/2873342.pdf", "archivo": "gm_pedimento_2873342.pdf", "fecha": "22-09-2026", "edicion": "44555" }, "geometry": { "type": "Polygon", "coordinates": [ [ [ -73.167086834529613, -37.617560797485609 ], [ -73.133110952299489, -37.61702804028878 ], [ -73.132885604303326, -37.626036707065388 ], [ -73.166865582035825, -37.626569636451613 ], [ -73.167086834529613, -37.617560797485609 ] ] ] } },
{ "type": "Feature", "properties": { "cve": "2873709", "nombre": "LUNA 124", "solicitante": "Varela Echaurren Juan Francisco", "region": "REGIÓN DEL BIOBÍO", "provincia": "Provincia de Arauco", "comuna": null, "superficie_ha": 300.0, "datum_original": "PSAD56", "huso": 18, "epsg_origen": 24878, "tipo_publicacion": "pedimento", "fuente_pdf": "http://www.diariooficial.interior.gob.cl/publicaciones/2026/09/22/44555/07/2873709.pdf", "archivo": "gm_pedimento_2873709.pdf", "fecha": "22-09-2026", "edicion": "44555" }, "geometry": { "type": "Polygon", "coordinates": [ [ [ -73.147338866095708, -37.500091926959406 ], [ -73.113416656482784, -37.4995549153101 ], [ -73.113189894800072, -37.50856366122504 ], [ -73.147116176022706, -37.509100846631959 ], [ -73.147338866095708, -37.500091926959406 ] ] ] } },
{ "type": "Feature", "properties": { "cve": "2873343", "nombre": "LUNA 125", "solicitante": "Varela Echaurren Juan Francisco", "region": "REGIÓN DEL BIOBÍO", "provincia": "Provincia de Arauco", "comuna": null, "superficie_ha": 300.0, "datum_original": "PSAD56", "huso": 18, "epsg_origen": 24878, "tipo_publicacion": "pedimento", "fuente_pdf": "http://www.diariooficial.interior.gob.cl/publicaciones/2026/09/22/44555/07/2873343.pdf", "archivo": "gm_pedimento_2873343.pdf", "fecha": "22-09-2026", "edicion": "44555" }, "geometry": { "type": "Polygon", "coordinates": [ [ [ -73.147116176022706, -37.509100846631959 ], [ -73.113189894800072, -37.50856366122504 ], [ -73.112963032140499, -37.517572392098039 ], [ -73.146893386783873, -37.518109751303662 ], [ -73.147116176022706, -37.509100846631959 ] ] ] } },
{ "type": "Feature", "properties": { "cve": "2873710", "nombre": "LUNA 126", "solicitante": "Varela Echaurren Juan Francisco", "region": "REGIÓN DEL BIOBÍO", "provincia": "Provincia de Arauco", "comuna": null, "superficie_ha": 300.0, "datum_original": "PSAD56", "huso": 18, "epsg_origen": 24878, "tipo_publicacion": "pedimento", "fuente_pdf": "http://www.diariooficial.interior.gob.cl/publicaciones/2026/09/22/44555/07/2873710.pdf", "archivo": "gm_pedimento_2873710.pdf", "fecha": "22-09-2026", "edicion": "44555" }, "geometry": { "type": "Polygon", "coordinates": [ [ [ -73.146893386783873, -37.518109751303662 ], [ -73.112963032140499, -37.517572392098039 ], [ -73.112736068456584, -37.526581107927278 ], [ -73.146670498332526, -37.527118640972787 ], [ -73.146893386783873, -37.518109751303662 ] ] ] } },
{ "type": "Feature", "properties": { "cve": "2873344", "nombre": "LUNA 127", "solicitante": "Varela Echaurren Juan Francisco", "region": "REGIÓN DEL BIOBÍO", "provincia": "Provincia de Arauco", "comuna": null, "superficie_ha": 300.0, "datum_original": "PSAD56", "huso": 18, "epsg_origen": 24878, "tipo_publicacion": "pedimento", "fuente_pdf": "http://www.diariooficial.interior.gob.cl/publicaciones/2026/09/22/44555/07/2873344.pdf", "archivo": "gm_pedimento_2873344.pdf", "fecha": "22-09-2026", "edicion": "44555" }, "geometry": { "type": "Polygon", "coordinates": [ [ [ -73.146670498332526, -37.527118640972787 ], [ -73.112736068456584, -37.526581107927278 ], [ -73.112509003700808, -37.535589808710995 ], [ -73.146447510622068, -37.53612751563751 ], [ -73.146670498332526, -37.527118640972787 ] ] ] } },
{ "type": "Feature", "properties": { "cve": "2873711", "nombre": "LUNA 128", "solicitante": "Varela Echaurren Juan Francisco", "region": "REGIÓN DEL BIOBÍO", "provincia": "Provincia de Arauco", "comuna": null, "superficie_ha": 300.0, "datum_original": "PSAD56", "huso": 18, "epsg_origen": 24878, "tipo_publicacion": "pedimento", "fuente_pdf": "http://www.diariooficial.interior.gob.cl/publicaciones/2026/09/22/44555/07/2873711.pdf", "archivo": "gm_pedimento_2873711.pdf", "fecha": "22-09-2026", "edicion": "44555" }, "geometry": { "type": "Polygon", "coordinates": [ [ [ -73.146447510622068, -37.53612751563751 ], [ -73.112509003700808, -37.535589808710995 ], [ -73.11228183782562, -37.544598494447364 ], [ -73.146224423605773, -37.545136375296075 ], [ -73.146447510622068, -37.53612751563751 ] ] ] } },
{ "type": "Feature", "properties": { "cve": "2873345", "nombre": "LUNA 129", "solicitante": "Varela Echaurren Juan Francisco", "region": "REGIÓN DEL BIOBÍO", "provincia": "Provincia de Arauco", "comuna": null, "superficie_ha": 300.0, "datum_original": "PSAD56", "huso": 18, "epsg_origen": 24878, "tipo_publicacion": "pedimento", "fuente_pdf": "http://www.diariooficial.interior.gob.cl/publicaciones/2026/09/22/44555/07/2873345.pdf", "archivo": "gm_pedimento_2873345.pdf", "fecha": "22-09-2026", "edicion": "44555" }, "geometry": { "type": "Polygon", "coordinates": [ [ [ -73.146224423605773, -37.545136375296075 ], [ -73.11228183782562, -37.544598494447364 ], [ -73.112054570783471, -37.553607165134622 ], [ -73.146001237236888, -37.55414521994674 ], [ -73.146224423605773, -37.545136375296075 ] ] ] } },
{ "type": "Feature", "properties": { "cve": "2873712", "nombre": "LUNA 130", "solicitante": "Varela Echaurren Juan Francisco", "region": "REGIÓN DEL BIOBÍO", "provincia": "Provincia de Arauco", "comuna": null, "superficie_ha": 300.0, "datum_original": "PSAD56", "huso": 18, "epsg_origen": 24878, "tipo_publicacion": "pedimento", "fuente_pdf": "http://www.diariooficial.interior.gob.cl/publicaciones/2026/09/22/44555/07/2873712.pdf", "archivo": "gm_pedimento_2873712.pdf", "fecha": "22-09-2026", "edicion": "44555" }, "geometry": { "type": "Polygon", "coordinates": [ [ [ -73.145331081547099, -37.581171663833587 ], [ -73.111372162178768, -37.5806330868838 ], [ -73.111144489992213, -37.589641697356704 ], [ -73.145107497300017, -37.59018044843495 ], [ -73.145331081547099, -37.581171663833587 ] ] ] } },
{ "type": "Feature", "properties": { "cve": "2873346", "nombre": "LUNA 131", "solicitante": "Varela Echaurren Juan Francisco", "region": "REGIÓN DEL BIOBÍO", "provincia": "Provincia de Arauco", "comuna": null, "superficie_ha": 300.0, "datum_original": "PSAD56", "huso": 18, "epsg_origen": 24878, "tipo_publicacion": "pedimento", "fuente_pdf": "http://www.diariooficial.interior.gob.cl/publicaciones/2026/09/22/44555/07/2873346.pdf", "archivo": "gm_pedimento_2873346.pdf", "fecha": "22-09-2026", "edicion": "44555" }, "geometry": { "type": "Polygon", "coordinates": [ [ [ -73.145107497300017, -37.59018044843495 ], [ -73.111144489992213, -37.589641697356704 ], [ -73.110916716400254, -37.598650292771531 ], [ -73.144883813466208, -37.599189218019561 ], [ -73.145107497300017, -37.59018044843495 ] ] ] } },
{ "type": "Feature", "properties": { "cve": "2873713", "nombre": "LUNA 132", "solicitante": "Varela Echaurren Juan Francisco", "region": "REGIÓN DEL BIOBÍO", "provincia": "Provincia de Arauco", "comuna": null, "superficie_ha": 300.0, "datum_original": "PSAD56", "huso": 18, "epsg_origen": 24878, "tipo_publicacion": "pedimento", "fuente_pdf": "http://www.diariooficial.interior.gob.cl/publicaciones/2026/09/22/44555/07/2873713.pdf", "archivo": "gm_pedimento_2873713.pdf", "fecha": "22-09-2026", "edicion": "44555" }, "geometry": { "type": "Polygon", "coordinates": [ [ [ -73.144883813466208, -37.599189218019561 ], [ -73.110916716400254, -37.598650292771531 ], [ -73.110688841355099, -37.607658873126496 ], [ -73.144660029998789, -37.608197972585671 ], [ -73.144883813466208, -37.599189218019561 ] ] ] } },
{ "type": "Feature", "properties": { "cve": "2873347", "nombre": "LUNA 133", "solicitante": "Varela Echaurren Juan Francisco", "region": "REGIÓN DEL BIOBÍO", "provincia": "Provincia de Arauco", "comuna": null, "superficie_ha": 200.0, "datum_original": "PSAD56", "huso": 18, "epsg_origen": 24878, "tipo_publicacion": "pedimento", "fuente_pdf": "http://www.diariooficial.interior.gob.cl/publicaciones/2026/09/22/44555/07/2873347.pdf", "archivo": "gm_pedimento_2873347.pdf", "fecha": "22-09-2026", "edicion": "44555" }, "geometry": { "type": "Polygon", "coordinates": [ [ [ -73.133336199960937, -37.60801935847644 ], [ -73.110688841355099, -37.607658873126496 ], [ -73.110460864808942, -37.616667438419867 ], [ -73.133110952299489, -37.61702804028878 ], [ -73.133336199960937, -37.60801935847644 ] ] ] } },
{ "type": "Feature", "properties": { "cve": "2873714", "nombre": "LUNA 134", "solicitante": "Varela Echaurren Juan Francisco", "region": "REGIÓN DEL BIOBÍO", "provincia": "Provincia de Arauco", "comuna": null, "superficie_ha": 200.0, "datum_original": "PSAD56", "huso": 18, "epsg_origen": 24878, "tipo_publicacion": "pedimento", "fuente_pdf": "http://www.diariooficial.interior.gob.cl/publicaciones/2026/09/22/44555/07/2873714.pdf", "archivo": "gm_pedimento_2873714.pdf", "fecha": "22-09-2026", "edicion": "44555" }, "geometry": { "type": "Polygon", "coordinates": [ [ [ -73.133110952299489, -37.61702804028878 ], [ -73.110460864808942, -37.616667438419867 ], [ -73.110232786713979, -37.625675988649817 ], [ -73.132885604303326, -37.626036707065388 ], [ -73.133110952299489, -37.61702804028878 ] ] ] } },
{ "type": "Feature", "properties": { "cve": "2873715", "nombre": "LUNA 136", "solicitante": "Varela Echaurren Juan Francisco", "region": "REGIÓN DEL BIOBÍO", "provincia": "Provincia de Arauco", "comuna": null, "superficie_ha": 200.0, "datum_original": "PSAD56", "huso": 18, "epsg_origen": 24878, "tipo_publicacion": "pedimento", "fuente_pdf": "http://www.diariooficial.interior.gob.cl/publicaciones/2026/09/22/44555/07/2873715.pdf", "archivo": "gm_pedimento_2873715.pdf", "fecha": "22-09-2026", "edicion": "44555" }, "geometry": { "type": "Polygon", "coordinates": [ [ [ -73.132660155925123, -37.635045358804504 ], [ -73.110004607022248, -37.634684523814556 ], [ -73.109776325685857, -37.643693043912322 ], [ -73.132434607117546, -37.64405399550435 ], [ -73.132660155925123, -37.635045358804504 ] ] ] } },
{ "type": "Feature", "properties": { "cve": "2873348", "nombre": "LUNA 137", "solicitante": "Varela Echaurren Juan Francisco", "region": "REGIÓN DEL BIOBÍO", "provincia": "Provincia de Arauco", "comuna": null, "superficie_ha": 200.0, "datum_original": "PSAD56", "huso": 18, "epsg_origen": 24878, "tipo_publicacion": "pedimento", "fuente_pdf": "http://www.diariooficial.interior.gob.cl/publicaciones/2026/09/22/44555/07/2873348.pdf", "archivo": "gm_pedimento_2873348.pdf", "fecha": "22-09-2026", "edicion": "44555" }, "geometry": { "type": "Polygon", "coordinates": [ [ [ -73.132434607117546, -37.64405399550435 ], [ -73.109776325685857, -37.643693043912322 ], [ -73.109547942656846, -37.652701548941323 ], [ -73.132208957833186, -37.653062617163165 ], [ -73.132434607117546, -37.64405399550435 ] ] ] } },
{ "type": "Feature", "properties": { "cve": "2873716", "nombre": "LUNA 138", "solicitante": "Varela Echaurren Juan Francisco", "region": "REGIÓN DEL BIOBÍO", "provincia": "Provincia de Arauco", "comuna": null, "superficie_ha": 300.0, "datum_original": "PSAD56", "huso": 18, "epsg_origen": 24878, "tipo_publicacion": "pedimento", "fuente_pdf": "http://www.diariooficial.interior.gob.cl/publicaciones/2026/09/22/44555/07/2873716.pdf", "archivo": "gm_pedimento_2873716.pdf", "fecha": "22-09-2026", "edicion": "44555" }, "geometry": { "type": "Polygon", "coordinates": [ [ [ -73.113416656482784, -37.4995549153101 ], [ -73.079495355236631, -37.499008170526167 ], [ -73.079264522371204, -37.50801673953675 ], [ -73.113189894800072, -37.50856366122504 ], [ -73.113416656482784, -37.4995549153101 ] ] ] } },
{ "type": "Feature", "properties": { "cve": "2873349", "nombre": "LUNA 139", "solicitante": "Varela Echaurren Juan Francisco", "region": "REGIÓN DEL BIOBÍO", "provincia": "Provincia de Arauco", "comuna": null, "superficie_ha": 300.0, "datum_original": "PSAD56", "huso": 18, "epsg_origen": 24878, "tipo_publicacion": "pedimento", "fuente_pdf": "http://www.diariooficial.interior.gob.cl/publicaciones/2026/09/22/44555/07/2873349.pdf", "archivo": "gm_pedimento_2873349.pdf", "fecha": "22-09-2026", "edicion": "44555" }, "geometry": { "type": "Polygon", "coordinates": [ [ [ -73.113189894800072, -37.50856366122504 ], [ -73.079264522371204, -37.50801673953675 ], [ -73.079033586718225, -37.517025293463526 ], [ -73.112963032140499, -37.517572392098039 ], [ -73.113189894800072, -37.50856366122504 ] ] ] } },
{ "type": "Feature", "properties": { "cve": "2873717", "nombre": "LUNA 140", "solicitante": "Varela Echaurren Juan Francisco", "region": "REGIÓN DEL BIOBÍO", "provincia": "Provincia de Arauco", "comuna": null, "superficie_ha": 300.0, "datum_original": "PSAD56", "huso": 18, "epsg_origen": 24878, "tipo_publicacion": "pedimento", "fuente_pdf": "http://www.diariooficial.interior.gob.cl/publicaciones/2026/09/22/44555/07/2873717.pdf", "archivo": "gm_pedimento_2873717.pdf", "fecha": "22-09-2026", "edicion": "44555" }, "geometry": { "type": "Polygon", "coordinates": [ [ [ -73.112963032140499, -37.517572392098039 ], [ -73.079033586718225, -37.517025293463526 ], [ -73.078802548229319, -37.52603383230467 ], [ -73.112736068456584, -37.526581107927278 ], [ -73.112963032140499, -37.517572392098039 ] ] ] } },
{ "type": "Feature", "properties": { "cve": "2873350", "nombre": "LUNA 141", "solicitante": "Varela Echaurren Juan Francisco", "region": "REGIÓN DEL BIOBÍO", "provincia": "Provincia de Arauco", "comuna": null, "superficie_ha": 300.0, "datum_original": "PSAD56", "huso": 18, "epsg_origen": 24878, "tipo_publicacion": "pedimento", "fuente_pdf": "http://www.diariooficial.interior.gob.cl/publicaciones/2026/09/22/44555/07/2873350.pdf", "archivo": "gm_pedimento_2873350.pdf", "fecha": "22-09-2026", "edicion": "44555" }, "geometry": { "type": "Polygon", "coordinates": [ [ [ -73.112736068456584, -37.526581107927278 ], [ -73.078802548229319, -37.52603383230467 ], [ -73.078571406856142, -37.535042356058391 ], [ -73.112509003700808, -37.535589808710995 ], [ -73.112736068456584, -37.526581107927278 ] ] ] } },
{ "type": "Feature", "properties": { "cve": "2873718", "nombre": "LUNA 142", "solicitante": "Varela Echaurren Juan Francisco", "region": "REGIÓN DEL BIOBÍO", "provincia": "Provincia de Arauco", "comuna": null, "superficie_ha": 300.0, "datum_original": "PSAD56", "huso": 18, "epsg_origen": 24878, "tipo_publicacion": "pedimento", "fuente_pdf": "http://www.diariooficial.interior.gob.cl/publicaciones/2026/09/22/44555/07/2873718.pdf", "archivo": "gm_pedimento_2873718.pdf", "fecha": "22-09-2026", "edicion": "44555" }, "geometry": { "type": "Polygon", "coordinates": [ [ [ -73.112509003700808, -37.535589808710995 ], [ -73.078571406856142, -37.535042356058391 ], [ -73.078340162550305, -37.544050864722834 ], [ -73.11228183782562, -37.544598494447364 ], [ -73.112509003700808, -37.535589808710995 ] ] ] } },
{ "type": "Feature", "properties": { "cve": "2873351", "nombre": "LUNA 143", "solicitante": "Varela Echaurren Juan Francisco", "region": "REGIÓN DEL BIOBÍO", "provincia": "Provincia de Arauco", "comuna": null, "superficie_ha": 300.0, "datum_original": "PSAD56", "huso": 18, "epsg_origen": 24878, "tipo_publicacion": "pedimento", "fuente_pdf": "http://www.diariooficial.interior.gob.cl/publicaciones/2026/09/22/44555/07/2873351.pdf", "archivo": "gm_pedimento_2873351.pdf", "fecha": "22-09-2026", "edicion": "44555" }, "geometry": { "type": "Polygon", "coordinates": [ [ [ -73.11228183782562, -37.544598494447364 ], [ -73.078340162550305, -37.544050864722834 ], [ -73.078108815263391, -37.55305935829621 ], [ -73.112054570783471, -37.553607165134622 ], [ -73.11228183782562, -37.544598494447364 ] ] ] } },
{ "type": "Feature", "properties": { "cve": "2873719", "nombre": "LUNA 144", "solicitante": "Varela Echaurren Juan Francisco", "region": "REGIÓN DEL BIOBÍO", "provincia": "Provincia de Arauco", "comuna": null, "superficie_ha": 300.0, "datum_original": "PSAD56", "huso": 18, "epsg_origen": 24878, "tipo_publicacion": "pedimento", "fuente_pdf": "http://www.diariooficial.interior.gob.cl/publicaciones/2026/09/22/44555/07/2873719.pdf", "archivo": "gm_pedimento_2873719.pdf", "fecha": "22-09-2026", "edicion": "44555" }, "geometry": { "type": "Polygon", "coordinates": [ [ [ -73.111372162178768, -37.5806330868838 ], [ -73.077414155031221, -37.580084748451839 ], [ -73.077182395334901, -37.589093181642831 ], [ -73.111144489992213, -37.589641697356704 ], [ -73.111372162178768, -37.5806330868838 ] ] ] } },
{ "type": "Feature", "properties": { "cve": "2873352", "nombre": "LUNA 145", "solicitante": "Varela Echaurren Juan Francisco", "region": "REGIÓN DEL BIOBÍO", "provincia": "Provincia de Arauco", "comuna": null, "superficie_ha": 200.0, "datum_original": "PSAD56", "huso": 18, "epsg_origen": 24878, "tipo_publicacion": "pedimento", "fuente_pdf": "http://www.diariooficial.interior.gob.cl/publicaciones/2026/09/22/44555/07/2873352.pdf", "archivo": "gm_pedimento_2873352.pdf", "fecha": "22-09-2026", "edicion": "44555" }, "geometry": { "type": "Polygon", "coordinates": [ [ [ -73.111144489992213, -37.589641697356704 ], [ -73.088502991138128, -37.58927710512345 ], [ -73.088272491279156, -37.598285582672716 ], [ -73.110916716400254, -37.598650292771531 ], [ -73.111144489992213, -37.589641697356704 ] ] ] } },
{ "type": "Feature", "properties": { "cve": "2873720", "nombre": "LUNA 146", "solicitante": "Varela Echaurren Juan Francisco", "region": "REGIÓN DEL BIOBÍO", "provincia": "Provincia de Arauco", "comuna": null, "superficie_ha": 200.0, "datum_original": "PSAD56", "huso": 18, "epsg_origen": 24878, "tipo_publicacion": "pedimento", "fuente_pdf": "http://www.diariooficial.interior.gob.cl/publicaciones/2026/09/22/44555/07/2873720.pdf", "archivo": "gm_pedimento_2873720.pdf", "fecha": "22-09-2026", "edicion": "44555" }, "geometry": { "type": "Polygon", "coordinates": [ [ [ -73.110916716400254, -37.598650292771531 ], [ -73.088272491279156, -37.598285582672716 ], [ -73.088041888754162, -37.607294045134175 ], [ -73.110688841355099, -37.607658873126496 ], [ -73.110916716400254, -37.598650292771531 ] ] ] } },
{ "type": "Feature", "properties": { "cve": "2873353", "nombre": "LUNA 147", "solicitante": "Varela Echaurren Juan Francisco", "region": "REGIÓN DEL BIOBÍO", "provincia": "Provincia de Arauco", "comuna": null, "superficie_ha": 300.0, "datum_original": "PSAD56", "huso": 18, "epsg_origen": 24878, "tipo_publicacion": "pedimento", "fuente_pdf": "http://www.diariooficial.interior.gob.cl/publicaciones/2026/09/22/44555/07/2873353.pdf", "archivo": "gm_pedimento_2873353.pdf", "fecha": "22-09-2026", "edicion": "44555" }, "geometry": { "type": "Polygon", "coordinates": [ [ [ -73.110688841355099, -37.607658873126496 ], [ -73.076718566222354, -37.607110002722585 ], [ -73.076486496708782, -37.616118390607738 ], [ -73.110460864808942, -37.616667438419867 ], [ -73.110688841355099, -37.607658873126496 ] ] ] } },
{ "type": "Feature", "properties": { "cve": "2873721", "nombre": "LUNA 148", "solicitante": "Varela Echaurren Juan Francisco", "region": "REGIÓN DEL BIOBÍO", "provincia": "Provincia de Arauco", "comuna": null, "superficie_ha": 300.0, "datum_original": "PSAD56", "huso": 18, "epsg_origen": 24878, "tipo_publicacion": "pedimento", "fuente_pdf": "http://www.diariooficial.interior.gob.cl/publicaciones/2026/09/22/44555/07/2873721.pdf", "archivo": "gm_pedimento_2873721.pdf", "fecha": "22-09-2026", "edicion": "44555" }, "geometry": { "type": "Polygon", "coordinates": [ [ [ -73.110460864808942, -37.616667438419867 ], [ -73.076486496708782, -37.616118390607738 ], [ -73.076254323825424, -37.62512676338735 ], [ -73.110232786713979, -37.625675988649817 ], [ -73.110460864808942, -37.616667438419867 ] ] ] } },
{ "type": "Feature", "properties": { "cve": "2873354", "nombre": "LUNA 149", "solicitante": "Varela Echaurren Juan Francisco", "region": "REGIÓN DEL BIOBÍO", "provincia": "Provincia de Arauco", "comuna": null, "superficie_ha": 300.0, "datum_original": "PSAD56", "huso": 18, "epsg_origen": 24878, "tipo_publicacion": "pedimento", "fuente_pdf": "http://www.diariooficial.interior.gob.cl/publicaciones/2026/09/22/44555/07/2873354.pdf", "archivo": "gm_pedimento_2873354.pdf", "fecha": "22-09-2026", "edicion": "44555" }, "geometry": { "type": "Polygon", "coordinates": [ [ [ -73.110232786713979, -37.625675988649817 ], [ -73.076254323825424, -37.62512676338735 ], [ -73.076022047523537, -37.634135121059586 ], [ -73.110004607022248, -37.634684523814556 ], [ -73.110232786713979, -37.625675988649817 ] ] ] } },
{ "type": "Feature", "properties": { "cve": "2873722", "nombre": "LUNA 150", "solicitante": "Varela Echaurren Juan Francisco", "region": "REGIÓN DEL BIOBÍO", "provincia": "Provincia de Arauco", "comuna": null, "superficie_ha": 300.0, "datum_original": "PSAD56", "huso": 18, "epsg_origen": 24878, "tipo_publicacion": "pedimento", "fuente_pdf": "http://www.diariooficial.interior.gob.cl/publicaciones/2026/09/22/44555/07/2873722.pdf", "archivo": "gm_pedimento_2873722.pdf", "fecha": "22-09-2026", "edicion": "44555" }, "geometry": { "type": "Polygon", "coordinates": [ [ [ -73.110004607022248, -37.634684523814556 ], [ -73.076022047523537, -37.634135121059586 ], [ -73.075789667754321, -37.643143463622657 ], [ -73.109776325685857, -37.643693043912322 ], [ -73.110004607022248, -37.634684523814556 ] ] ] } },
{ "type": "Feature", "properties": { "cve": "2873355", "nombre": "LUNA 151", "solicitante": "Varela Echaurren Juan Francisco", "region": "REGIÓN DEL BIOBÍO", "provincia": "Provincia de Arauco", "comuna": null, "superficie_ha": 300.0, "datum_original": "PSAD56", "huso": 18, "epsg_origen": 24878, "tipo_publicacion": "pedimento", "fuente_pdf": "http://www.diariooficial.interior.gob.cl/publicaciones/2026/09/22/44555/07/2873355.pdf", "archivo": "gm_pedimento_2873355.pdf", "fecha": "22-09-2026", "edicion": "44555" }, "geometry": { "type": "Polygon", "coordinates": [ [ [ -73.109776325685857, -37.643693043912322 ], [ -73.075789667754321, -37.643143463622657 ], [ -73.075557184469005, -37.652151791074751 ], [ -73.109547942656846, -37.652701548941323 ], [ -73.109776325685857, -37.643693043912322 ] ] ] } },
{ "type": "Feature", "properties": { "cve": "2873723", "nombre": "LUNA 152", "solicitante": "Varela Echaurren Juan Francisco", "region": "REGIÓN DEL BIOBÍO", "provincia": "Provincia de Arauco", "comuna": null, "superficie_ha": 300.0, "datum_original": "PSAD56", "huso": 18, "epsg_origen": 24878, "tipo_publicacion": "pedimento", "fuente_pdf": "http://www.diariooficial.interior.gob.cl/publicaciones/2026/09/22/44555/07/2873723.pdf", "archivo": "gm_pedimento_2873723.pdf", "fecha": "22-09-2026", "edicion": "44555" }, "geometry": { "type": "Polygon", "coordinates": [ [ [ -73.109547942656846, -37.652701548941323 ], [ -73.075557184469005, -37.652151791074751 ], [ -73.075324597618703, -37.661160103414083 ], [ -73.109319457887267, -37.661710038899784 ], [ -73.109547942656846, -37.652701548941323 ] ] ] } },
{ "type": "Feature", "properties": { "cve": "2873356", "nombre": "LUNA 153", "solicitante": "Varela Echaurren Juan Francisco", "region": "REGIÓN DEL BIOBÍO", "provincia": "Provincia de Arauco", "comuna": null, "superficie_ha": 200.0, "datum_original": "PSAD56", "huso": 18, "epsg_origen": 24878, "tipo_publicacion": "pedimento", "fuente_pdf": "http://www.diariooficial.interior.gob.cl/publicaciones/2026/09/22/44555/07/2873356.pdf", "archivo": "gm_pedimento_2873356.pdf", "fecha": "22-09-2026", "edicion": "44555" }, "geometry": { "type": "Polygon", "coordinates": [ [ [ -73.120651282365756, -37.661891175237351 ], [ -73.097987735197634, -37.661527814796536 ], [ -73.097757780622317, -37.670536230813347 ], [ -73.12042406387269, -37.670899708641734 ], [ -73.120651282365756, -37.661891175237351 ] ] ] } },
{ "type": "Feature", "properties": { "cve": "2873724", "nombre": "LUNA 154", "solicitante": "Varela Echaurren Juan Francisco", "region": "REGIÓN DEL BIOBÍO", "provincia": "Provincia de Arauco", "comuna": null, "superficie_ha": 200.0, "datum_original": "PSAD56", "huso": 18, "epsg_origen": 24878, "tipo_publicacion": "pedimento", "fuente_pdf": "http://www.diariooficial.interior.gob.cl/publicaciones/2026/09/22/44555/07/2873724.pdf", "archivo": "gm_pedimento_2873724.pdf", "fecha": "22-09-2026", "edicion": "44555" }, "geometry": { "type": "Polygon", "coordinates": [ [ [ -73.097987735197634, -37.661527814796536 ], [ -73.075324597618703, -37.661160103414083 ], [ -73.07509190715453, -37.670168400638822 ], [ -73.097757780622317, -37.670536230813347 ], [ -73.097987735197634, -37.661527814796536 ] ] ] } },
{ "type": "Feature", "properties": { "cve": "2873357", "nombre": "LUNA 155", "solicitante": "Varela Echaurren Juan Francisco", "region": "REGIÓN DEL BIOBÍO", "provincia": "Provincia de Arauco", "comuna": null, "superficie_ha": 300.0, "datum_original": "PSAD56", "huso": 18, "epsg_origen": 24878, "tipo_publicacion": "pedimento", "fuente_pdf": "http://www.diariooficial.interior.gob.cl/publicaciones/2026/09/22/44555/07/2873357.pdf", "archivo": "gm_pedimento_2873357.pdf", "fecha": "22-09-2026", "edicion": "44555" }, "geometry": { "type": "Polygon", "coordinates": [ [ [ -73.079495355236631, -37.499008170526167 ], [ -73.045574978646002, -37.498451693421472 ], [ -73.045340075032499, -37.507460082381336 ], [ -73.079264522371204, -37.50801673953675 ], [ -73.079495355236631, -37.499008170526167 ] ] ] } },
{ "type": "Feature", "properties": { "cve": "2873725", "nombre": "LUNA 156", "solicitante": "Varela Echaurren Juan Francisco", "region": "REGIÓN DEL BIOBÍO", "provincia": "Provincia de Arauco", "comuna": null, "superficie_ha": 300.0, "datum_original": "PSAD56", "huso": 18, "epsg_origen": 24878, "tipo_publicacion": "pedimento", "fuente_pdf": "http://www.diariooficial.interior.gob.cl/publicaciones/2026/09/22/44555/07/2873725.pdf", "archivo": "gm_pedimento_2873725.pdf", "fecha": "22-09-2026", "edicion": "44555" }, "geometry": { "type": "Polygon", "coordinates": [ [ [ -73.079264522371204, -37.50801673953675 ], [ -73.045340075032499, -37.507460082381336 ], [ -73.045105066821037, -37.516468456214803 ], [ -73.079033586718225, -37.517025293463526 ], [ -73.079264522371204, -37.50801673953675 ] ] ] } },
{ "type": "Feature", "properties": { "cve": "2873358", "nombre": "LUNA 157", "solicitante": "Varela Echaurren Juan Francisco", "region": "REGIÓN DEL BIOBÍO", "provincia": "Provincia de Arauco", "comuna": null, "superficie_ha": 300.0, "datum_original": "PSAD56", "huso": 18, "epsg_origen": 24878, "tipo_publicacion": "pedimento", "fuente_pdf": "http://www.diariooficial.interior.gob.cl/publicaciones/2026/09/22/44555/07/2873358.pdf", "archivo": "gm_pedimento_2873358.pdf", "fecha": "22-09-2026", "edicion": "44555" }, "geometry": { "type": "Polygon", "coordinates": [ [ [ -73.079033586718225, -37.517025293463526 ], [ -73.045105066821037, -37.516468456214803 ], [ -73.044869953962404, -37.525476814920019 ], [ -73.078802548229319, -37.52603383230467 ], [ -73.079033586718225, -37.517025293463526 ] ] ] } },
{ "type": "Feature", "properties": { "cve": "2873726", "nombre": "LUNA 158", "solicitante": "Varela Echaurren Juan Francisco", "region": "REGIÓN DEL BIOBÍO", "provincia": "Provincia de Arauco", "comuna": null, "superficie_ha": 300.0, "datum_original": "PSAD56", "huso": 18, "epsg_origen": 24878, "tipo_publicacion": "pedimento", "fuente_pdf": "http://www.diariooficial.interior.gob.cl/publicaciones/2026/09/22/44555/07/2873726.pdf", "archivo": "gm_pedimento_2873726.pdf", "fecha": "22-09-2026", "edicion": "44555" }, "geometry": { "type": "Polygon", "coordinates": [ [ [ -73.078802548229319, -37.52603383230467 ], [ -73.044869953962404, -37.525476814920019 ], [ -73.044634736407431, -37.534485158495144 ], [ -73.078571406856142, -37.535042356058391 ], [ -73.078802548229319, -37.52603383230467 ] ] ] } },
{ "type": "Feature", "properties": { "cve": "2873359", "nombre": "LUNA 159", "solicitante": "Varela Echaurren Juan Francisco", "region": "REGIÓN DEL BIOBÍO", "provincia": "Provincia de Arauco", "comuna": null, "superficie_ha": 300.0, "datum_original": "PSAD56", "huso": 18, "epsg_origen": 24878, "tipo_publicacion": "pedimento", "fuente_pdf": "http://www.diariooficial.interior.gob.cl/publicaciones/2026/09/22/44555/07/2873359.pdf", "archivo": "gm_pedimento_2873359.pdf", "fecha": "22-09-2026", "edicion": "44555" }, "geometry": { "type": "Polygon", "coordinates": [ [ [ -73.078571406856142, -37.535042356058391 ], [ -73.044634736407431, -37.534485158495144 ], [ -73.04439941410682, -37.54349348693836 ], [ -73.078340162550305, -37.544050864722834 ], [ -73.078571406856142, -37.535042356058391 ] ] ] } },
{ "type": "Feature", "properties": { "cve": "2873727", "nombre": "LUNA 160", "solicitante": "Varela Echaurren Juan Francisco", "region": "REGIÓN DEL BIOBÍO", "provincia": "Provincia de Arauco", "comuna": null, "superficie_ha": 300.0, "datum_original": "PSAD56", "huso": 18, "epsg_origen": 24878, "tipo_publicacion": "pedimento", "fuente_pdf": "http://www.diariooficial.interior.gob.cl/publicaciones/2026/09/22/44555/07/2873727.pdf", "archivo": "gm_pedimento_2873727.pdf", "fecha": "22-09-2026", "edicion": "44555" }, "geometry": { "type": "Polygon", "coordinates": [ [ [ -73.078340162550305, -37.544050864722834 ], [ -73.04439941410682, -37.54349348693836 ], [ -73.044163987011316, -37.552501800247796 ], [ -73.078108815263391, -37.55305935829621 ], [ -73.078340162550305, -37.544050864722834 ] ] ] } },
{ "type": "Feature", "properties": { "cve": "2873360", "nombre": "LUNA 161", "solicitante": "Varela Echaurren Juan Francisco", "region": "REGIÓN DEL BIOBÍO", "provincia": "Provincia de Arauco", "comuna": null, "superficie_ha": 300.0, "datum_original": "PSAD56", "huso": 18, "epsg_origen": 24878, "tipo_publicacion": "pedimento", "fuente_pdf": "http://www.diariooficial.interior.gob.cl/publicaciones/2026/09/22/44555/07/2873360.pdf", "archivo": "gm_pedimento_2873360.pdf", "fecha": "22-09-2026", "edicion": "44555" }, "geometry": { "type": "Polygon", "coordinates": [ [ [ -73.078108815263391, -37.55305935829621 ], [ -73.044163987011316, -37.552501800247796 ], [ -73.043928455071608, -37.561510098421635 ], [ -73.0778773649469, -37.562067836776727 ], [ -73.078108815263391, -37.55305935829621 ] ] ] } },
{ "type": "Feature", "properties": { "cve": "2873728", "nombre": "LUNA 162", "solicitante": "Varela Echaurren Juan Francisco", "region": "REGIÓN DEL BIOBÍO", "provincia": "Provincia de Arauco", "comuna": null, "superficie_ha": 300.0, "datum_original": "PSAD56", "huso": 18, "epsg_origen": 24878, "tipo_publicacion": "pedimento", "fuente_pdf": "http://www.diariooficial.interior.gob.cl/publicaciones/2026/09/22/44555/07/2873728.pdf", "archivo": "gm_pedimento_2873728.pdf", "fecha": "22-09-2026", "edicion": "44555" }, "geometry": { "type": "Polygon", "coordinates": [ [ [ -73.0778773649469, -37.562067836776727 ], [ -73.043928455071608, -37.561510098421635 ], [ -73.043692818238327, -37.570518381458058 ], [ -73.077645811552358, -37.571076300162545 ], [ -73.0778773649469, -37.562067836776727 ] ] ] } },
{ "type": "Feature", "properties": { "cve": "2873361", "nombre": "LUNA 163", "solicitante": "Varela Echaurren Juan Francisco", "region": "REGIÓN DEL BIOBÍO", "provincia": "Provincia de Arauco", "comuna": null, "superficie_ha": 300.0, "datum_original": "PSAD56", "huso": 18, "epsg_origen": 24878, "tipo_publicacion": "pedimento", "fuente_pdf": "http://www.diariooficial.interior.gob.cl/publicaciones/2026/09/22/44555/07/2873361.pdf", "archivo": "gm_pedimento_2873361.pdf", "fecha": "22-09-2026", "edicion": "44555" }, "geometry": { "type": "Polygon", "coordinates": [ [ [ -73.077645811552358, -37.571076300162545 ], [ -73.043692818238327, -37.570518381458058 ], [ -73.043457076462104, -37.579526649355181 ], [ -73.077414155031221, -37.580084748451839 ], [ -73.077645811552358, -37.571076300162545 ] ] ] } },
{ "type": "Feature", "properties": { "cve": "2873730", "nombre": "LUNA 164", "solicitante": "Varela Echaurren Juan Francisco", "region": "REGIÓN DEL BIOBÍO", "provincia": "Provincia de Arauco", "comuna": null, "superficie_ha": 300.0, "datum_original": "PSAD56", "huso": 18, "epsg_origen": 24878, "tipo_publicacion": "pedimento", "fuente_pdf": "http://www.diariooficial.interior.gob.cl/publicaciones/2026/09/22/44555/07/2873730.pdf", "archivo": "gm_pedimento_2873730.pdf", "fecha": "22-09-2026", "edicion": "44555" }, "geometry": { "type": "Polygon", "coordinates": [ [ [ -73.077414155031221, -37.580084748451839 ], [ -73.043457076462104, -37.579526649355181 ], [ -73.043221229693501, -37.588534902111206 ], [ -73.077182395334901, -37.589093181642831 ], [ -73.077414155031221, -37.580084748451839 ] ] ] } },
{ "type": "Feature", "properties": { "cve": "2873362", "nombre": "LUNA 165", "solicitante": "Varela Echaurren Juan Francisco", "region": "REGIÓN DEL BIOBÍO", "provincia": "Provincia de Arauco", "comuna": null, "superficie_ha": 300.0, "datum_original": "PSAD56", "huso": 18, "epsg_origen": 24878, "tipo_publicacion": "pedimento", "fuente_pdf": "http://www.diariooficial.interior.gob.cl/publicaciones/2026/09/22/44555/07/2873362.pdf", "archivo": "gm_pedimento_2873362.pdf", "fecha": "22-09-2026", "edicion": "44555" }, "geometry": { "type": "Polygon", "coordinates": [ [ [ -73.088502991138128, -37.58927710512345 ], [ -73.054541514006559, -37.58872208010596 ], [ -73.054306925110467, -37.597730378228682 ], [ -73.088272491279156, -37.598285582672716 ], [ -73.088502991138128, -37.58927710512345 ] ] ] } },
{ "type": "Feature", "properties": { "cve": "2873729", "nombre": "LUNA 166", "solicitante": "Varela Echaurren Juan Francisco", "region": "REGIÓN DEL BIOBÍO", "provincia": "Provincia de Arauco", "comuna": null, "superficie_ha": 300.0, "datum_original": "PSAD56", "huso": 18, "epsg_origen": 24878, "tipo_publicacion": "pedimento", "fuente_pdf": "http://www.diariooficial.interior.gob.cl/publicaciones/2026/09/22/44555/07/2873729.pdf", "archivo": "gm_pedimento_2873729.pdf", "fecha": "22-09-2026", "edicion": "44555" }, "geometry": { "type": "Polygon", "coordinates": [ [ [ -73.088272491279156, -37.598285582672716 ], [ -73.054306925110467, -37.597730378228682 ], [ -73.054072231729307, -37.606738661221002 ], [ -73.088041888754162, -37.607294045134175 ], [ -73.088272491279156, -37.598285582672716 ] ] ] } },
{ "type": "Feature", "properties": { "cve": "2873363", "nombre": "LUNA 167", "solicitante": "Varela Echaurren Juan Francisco", "region": "REGIÓN DEL BIOBÍO", "provincia": "Provincia de Arauco", "comuna": null, "superficie_ha": 200.0, "datum_original": "PSAD56", "huso": 18, "epsg_origen": 24878, "tipo_publicacion": "pedimento", "fuente_pdf": "http://www.diariooficial.interior.gob.cl/publicaciones/2026/09/22/44555/07/2873363.pdf", "archivo": "gm_pedimento_2873363.pdf", "fecha": "22-09-2026", "edicion": "44555" }, "geometry": { "type": "Polygon", "coordinates": [ [ [ -73.076718566222354, -37.607110002722585 ], [ -73.054072231729307, -37.606738661221002 ], [ -73.053837433813854, -37.615746929081077 ], [ -73.076486496708782, -37.616118390607738 ], [ -73.076718566222354, -37.607110002722585 ] ] ] } },
{ "type": "Feature", "properties": { "cve": "2873731", "nombre": "LUNA 168", "solicitante": "Varela Echaurren Juan Francisco", "region": "REGIÓN DEL BIOBÍO", "provincia": "Provincia de Arauco", "comuna": null, "superficie_ha": 300.0, "datum_original": "PSAD56", "huso": 18, "epsg_origen": 24878, "tipo_publicacion": "pedimento", "fuente_pdf": "http://www.diariooficial.interior.gob.cl/publicaciones/2026/09/22/44555/07/2873731.pdf", "archivo": "gm_pedimento_2873731.pdf", "fecha": "22-09-2026", "edicion": "44555" }, "geometry": { "type": "Polygon", "coordinates": [ [ [ -73.044163987011316, -37.552501800247796 ], [ -73.010220102359114, -37.55193449182012 ], [ -73.009980489240348, -37.560942606536891 ], [ -73.043928455071608, -37.561510098421635 ], [ -73.044163987011316, -37.552501800247796 ] ] ] } },
{ "type": "Feature", "properties": { "cve": "2873364", "nombre": "LUNA 169", "solicitante": "Varela Echaurren Juan Francisco", "region": "REGIÓN DEL BIOBÍO", "provincia": "Provincia de Arauco", "comuna": null, "superficie_ha": 300.0, "datum_original": "PSAD56", "huso": 18, "epsg_origen": 24878, "tipo_publicacion": "pedimento", "fuente_pdf": "http://www.diariooficial.interior.gob.cl/publicaciones/2026/09/22/44555/07/2873364.pdf", "archivo": "gm_pedimento_2873364.pdf", "fecha": "22-09-2026", "edicion": "44555" }, "geometry": { "type": "Polygon", "coordinates": [ [ [ -73.043928455071608, -37.561510098421635 ], [ -73.032612360760609, -37.561322018144118 ], [ -73.031901050422533, -37.588346639340166 ], [ -73.043221229693501, -37.588534902111206 ], [ -73.043928455071608, -37.561510098421635 ] ] ] } }
]
}
