{
"type": "FeatureCollection",
"name": "boletin_mineria_20261008",
"crs": { "type": "name", "properties": { "name": "urn:ogc:def:crs:OGC:1.3:CRS84" } },
"features": [
{ "type": "Feature", "properties": { "cve": "2882272", "nombre": "CLARITA 1 AL 5", "solicitante": "Ingeniería de Proyectos CHK ING SpA", "region": "REGIÓN DE TARAPACÁ", "provincia": "Provincia del Tamarugal", "comuna": null, "superficie_ha": 50.0, "datum_original": "PSAD56", "huso": 19, "epsg_origen": 24879, "tipo_publicacion": "manifestacion", "fuente_pdf": "http://www.diariooficial.interior.gob.cl/publicaciones/2026/10/08/44569/07/2882272.pdf", "archivo": "gm_manifestacion_2882272.pdf", "fecha": "08-10-2026", "edicion": "44569" }, "geometry": { "type": "Polygon", "coordinates": [ [ [ -69.560163606880238, -21.342209597752106 ], [ -69.550519986379967, -21.342241463704863 ], [ -69.550536847564359, -21.34675887130572 ], [ -69.560180763389639, -21.346726997963032 ], [ -69.560163606880238, -21.342209597752106 ] ] ] } },
{ "type": "Feature", "properties": { "cve": "2882274", "nombre": "EMILIANO I 1 AL 5", "solicitante": "Ingeniería de Proyectos CHK ING SpA", "region": "REGIÓN DE TARAPACÁ", "provincia": "Provincia del Tamarugal", "comuna": null, "superficie_ha": 25.0, "datum_original": "PSAD56", "huso": 19, "epsg_origen": 24879, "tipo_publicacion": "manifestacion", "fuente_pdf": "http://www.diariooficial.interior.gob.cl/publicaciones/2026/10/08/44569/07/2882274.pdf", "archivo": "gm_manifestacion_2882274.pdf", "fecha": "08-10-2026", "edicion": "44569" }, "geometry": { "type": "Polygon", "coordinates": [ [ [ -69.445800515542302, -21.473558832974799 ], [ -69.44097431321066, -21.473571628416217 ], [ -69.440987910675219, -21.478089039734222 ], [ -69.445814261811122, -21.478076241340197 ], [ -69.445800515542302, -21.473558832974799 ] ] ] } },
{ "type": "Feature", "properties": { "cve": "2882275", "nombre": "EMILIANO II 1 AL 10", "solicitante": "Ingeniería de Proyectos CHK ING SpA", "region": "REGIÓN DE TARAPACÁ", "provincia": "Provincia del Tamarugal", "comuna": null, "superficie_ha": 50.0, "datum_original": "PSAD56", "huso": 19, "epsg_origen": 24879, "tipo_publicacion": "manifestacion", "fuente_pdf": "http://www.diariooficial.interior.gob.cl/publicaciones/2026/10/08/44569/07/2882275.pdf", "archivo": "gm_manifestacion_2882275.pdf", "fecha": "08-10-2026", "edicion": "44569" }, "geometry": { "type": "Polygon", "coordinates": [ [ [ -69.44774480125875, -21.478071082979064 ], [ -69.438092098280393, -21.478096651907315 ], [ -69.438105610003021, -21.482614062511256 ], [ -69.447758610667961, -21.482588487683852 ], [ -69.44774480125875, -21.478071082979064 ] ] ] } },
{ "type": "Feature", "properties": { "cve": "2882276", "nombre": "EMILIANO III 1 AL 4", "solicitante": "Ingeniería de Proyectos CHK ING SpA", "region": "REGIÓN DE TARAPACÁ", "provincia": "Provincia del Tamarugal", "comuna": null, "superficie_ha": 20.0, "datum_original": "PSAD56", "huso": 19, "epsg_origen": 24879, "tipo_publicacion": "manifestacion", "fuente_pdf": "http://www.diariooficial.interior.gob.cl/publicaciones/2026/10/08/44569/07/2882276.pdf", "archivo": "gm_manifestacion_2882276.pdf", "fecha": "08-10-2026", "edicion": "44569" }, "geometry": { "type": "Polygon", "coordinates": [ [ [ -69.436170972134548, -21.481263887326836 ], [ -69.426518043823819, -21.481288791641358 ], [ -69.426523306173877, -21.483095758251444 ], [ -69.436176353572662, -21.483070851638903 ], [ -69.436170972134548, -21.481263887326836 ] ] ] } },
{ "type": "Feature", "properties": { "cve": "2882277", "nombre": "EMILIANO IV 1 AL 4", "solicitante": "Ingeniería de Proyectos CHK ING SpA", "region": "REGIÓN DE TARAPACÁ", "provincia": "Provincia del Tamarugal", "comuna": null, "superficie_ha": 20.0, "datum_original": "PSAD56", "huso": 19, "epsg_origen": 24879, "tipo_publicacion": "manifestacion", "fuente_pdf": "http://www.diariooficial.interior.gob.cl/publicaciones/2026/10/08/44569/07/2882277.pdf", "archivo": "gm_manifestacion_2882277.pdf", "fecha": "08-10-2026", "edicion": "44569" }, "geometry": { "type": "Polygon", "coordinates": [ [ [ -69.438112367192318, -21.48487276688677 ], [ -69.436181735574905, -21.484877815555699 ], [ -69.436208654049068, -21.493912629209213 ], [ -69.438139404804019, -21.493907578211207 ], [ -69.438112367192318, -21.48487276688677 ] ] ] } },
{ "type": "Feature", "properties": { "cve": "2882278", "nombre": "EMILIANO V 1 AL 2", "solicitante": "Ingeniería de Proyectos CHK ING SpA", "region": "REGIÓN DE TARAPACÁ", "provincia": "Provincia del Tamarugal", "comuna": null, "superficie_ha": 10.0, "datum_original": "PSAD56", "huso": 19, "epsg_origen": 24879, "tipo_publicacion": "manifestacion", "fuente_pdf": "http://www.diariooficial.interior.gob.cl/publicaciones/2026/10/08/44569/07/2882278.pdf", "archivo": "gm_manifestacion_2882278.pdf", "fecha": "08-10-2026", "edicion": "44569" }, "geometry": { "type": "Polygon", "coordinates": [ [ [ -69.441026002539388, -21.49073777828124 ], [ -69.436199230978545, -21.490750445554895 ], [ -69.436204615378671, -21.492557407791359 ], [ -69.441031446516021, -21.492544739349277 ], [ -69.441026002539388, -21.49073777828124 ] ] ] } },
{ "type": "Feature", "properties": { "cve": "2882279", "nombre": "EMILIANO VI 1 AL 7", "solicitante": "Ingeniería de Proyectos CHK ING SpA", "region": "REGIÓN DE TARAPACÁ", "provincia": "Provincia del Tamarugal", "comuna": null, "superficie_ha": 35.0, "datum_original": "PSAD56", "huso": 19, "epsg_origen": 24879, "tipo_publicacion": "manifestacion", "fuente_pdf": "http://www.diariooficial.interior.gob.cl/publicaciones/2026/10/08/44569/07/2882279.pdf", "archivo": "gm_manifestacion_2882279.pdf", "fecha": "08-10-2026", "edicion": "44569" }, "geometry": { "type": "Polygon", "coordinates": [ [ [ -69.431385768996066, -21.495280381178215 ], [ -69.42655884146717, -21.495292772530178 ], [ -69.426577277072994, -21.501617143212012 ], [ -69.431404413202998, -21.501604747860171 ], [ -69.431385768996066, -21.495280381178215 ] ] ] } },
{ "type": "Feature", "properties": { "cve": "2882273", "nombre": "Josefina 1 al 9", "solicitante": "Ingeniería de Proyectos CHK ING SpA", "region": "REGIÓN DE TARAPACÁ", "provincia": "Provincia del Tamarugal", "comuna": null, "superficie_ha": 90.0, "datum_original": "PSAD56", "huso": 19, "epsg_origen": 24879, "tipo_publicacion": "manifestacion", "fuente_pdf": "http://www.diariooficial.interior.gob.cl/publicaciones/2026/10/08/44569/07/2882273.pdf", "archivo": "gm_manifestacion_2882273.pdf", "fecha": "08-10-2026", "edicion": "44569" }, "geometry": { "type": "Polygon", "coordinates": [ [ [ -69.569779295946688, -21.334949345073909 ], [ -69.560136165851333, -21.334981752292251 ], [ -69.560167037821088, -21.343113077991323 ], [ -69.569810699329182, -21.34308065724111 ], [ -69.569779295946688, -21.334949345073909 ] ] ] } },
{ "type": "Feature", "properties": { "cve": "2882292", "nombre": "BRUNILDA 1-2", "solicitante": "Godoy Monárdez Isabel Selena", "region": "REGIÓN DE ATACAMA", "provincia": "Provincia de Copiapó", "comuna": null, "superficie_ha": 20.0, "datum_original": "PSAD56", "huso": 19, "epsg_origen": 24879, "tipo_publicacion": "manifestacion", "fuente_pdf": "http://www.diariooficial.interior.gob.cl/publicaciones/2026/10/08/44569/07/2882292.pdf", "archivo": "gm_manifestacion_2882292.pdf", "fecha": "08-10-2026", "edicion": "44569" }, "geometry": { "type": "Polygon", "coordinates": [ [ [ -70.476733138593886, -27.315731184059725 ], [ -70.471681072397615, -27.315784470479162 ], [ -70.471728720473152, -27.319394551042599 ], [ -70.476780950093641, -27.31934125642449 ], [ -70.476733138593886, -27.315731184059725 ] ] ] } },
{ "type": "Feature", "properties": { "cve": "2882045", "nombre": "CARMENCITA II 1 AL 6", "solicitante": "Correa Contreras Carmen Natalia", "region": "REGIÓN DE ATACAMA", "provincia": "Provincia de Copiapó", "comuna": "Copiapó", "superficie_ha": 60.0, "datum_original": "WGS84", "huso": 19, "epsg_origen": 32719, "tipo_publicacion": "manifestacion", "fuente_pdf": "http://www.diariooficial.interior.gob.cl/publicaciones/2026/10/08/44569/07/2882045.pdf", "archivo": "gm_manifestacion_2882045.pdf", "fecha": "08-10-2026", "edicion": "44569" }, "geometry": { "type": "Polygon", "coordinates": [ [ [ -70.722543172486567, -27.340262509965978 ], [ -70.712438019406193, -27.340386783686402 ], [ -70.712521282609529, -27.345801246461711 ], [ -70.722626926438238, -27.345676944082395 ], [ -70.722543172486567, -27.340262509965978 ] ] ] } },
{ "type": "Feature", "properties": { "cve": "2881918", "nombre": "CAYETANO I 1 AL 20", "solicitante": "Carrizo Díaz Alberto Moisés", "region": "REGIÓN DE ATACAMA", "provincia": "Provincia de Copiapó", "comuna": "Tierra Amarilla", "superficie_ha": 100.0, "datum_original": "PSAD56", "huso": 19, "epsg_origen": 24879, "tipo_publicacion": "manifestacion", "fuente_pdf": "http://www.diariooficial.interior.gob.cl/publicaciones/2026/10/08/44569/07/2881918.pdf", "archivo": "gm_manifestacion_2881918.pdf", "fecha": "08-10-2026", "edicion": "44569" }, "geometry": { "type": "Polygon", "coordinates": [ [ [ -70.328399040443031, -27.778518588387819 ], [ -70.318251820918334, -27.778615742499952 ], [ -70.318360660392784, -27.787640925331843 ], [ -70.328508717109088, -27.787543734270312 ], [ -70.328399040443031, -27.778518588387819 ] ] ] } },
{ "type": "Feature", "properties": { "cve": "2882645", "nombre": "FIGUEROA 10 F, 1 AL 60", "solicitante": "Minera Caspiche SpA", "region": "REGIÓN DE ATACAMA", "provincia": "Provincia de Copiapó", "comuna": "Tierra Amarilla", "superficie_ha": 300.0, "datum_original": "PSAD56", "huso": 19, "epsg_origen": 24879, "tipo_publicacion": "manifestacion", "fuente_pdf": "http://www.diariooficial.interior.gob.cl/publicaciones/2026/10/08/44569/07/2882645.pdf", "archivo": "gm_manifestacion_2882645.pdf", "fecha": "08-10-2026", "edicion": "44569" }, "geometry": { "type": "Polygon", "coordinates": [ [ [ -69.426734714971161, -27.409594645593007 ], [ -69.416618972766585, -27.40962522860854 ], [ -69.416720616212359, -27.436708672130123 ], [ -69.426838826196345, -27.436678053888134 ], [ -69.426734714971161, -27.409594645593007 ] ] ] } },
{ "type": "Feature", "properties": { "cve": "2882644", "nombre": "FIGUEROA 2 F, 1 AL 60", "solicitante": "Minera Caspiche SpA", "region": "REGIÓN DE ATACAMA", "provincia": "Provincia de Copiapó", "comuna": "Tierra Amarilla", "superficie_ha": 300.0, "datum_original": "PSAD56", "huso": 19, "epsg_origen": 24879, "tipo_publicacion": "manifestacion", "fuente_pdf": "http://www.diariooficial.interior.gob.cl/publicaciones/2026/10/08/44569/07/2882644.pdf", "archivo": "gm_manifestacion_2882644.pdf", "fecha": "08-10-2026", "edicion": "44569" }, "geometry": { "type": "Polygon", "coordinates": [ [ [ -69.446748514283456, -27.35536428877516 ], [ -69.436637729954882, -27.355396265243563 ], [ -69.436744011041412, -27.382479850288963 ], [ -69.446857256217783, -27.382447836939164 ], [ -69.446748514283456, -27.35536428877516 ] ] ] } },
{ "type": "Feature", "properties": { "cve": "2882293", "nombre": "LOS SHERPAS 1-4", "solicitante": "Vidal Godoy Valentina Victoria", "region": "REGIÓN DE ATACAMA", "provincia": "Provincia de Copiapó", "comuna": null, "superficie_ha": 32.0, "datum_original": "PSAD56", "huso": 19, "epsg_origen": 24879, "tipo_publicacion": "manifestacion", "fuente_pdf": "http://www.diariooficial.interior.gob.cl/publicaciones/2026/10/08/44569/07/2882293.pdf", "archivo": "gm_manifestacion_2882293.pdf", "fecha": "08-10-2026", "edicion": "44569" }, "geometry": { "type": "Polygon", "coordinates": [ [ [ -69.323632269409757, -27.056326995495958 ], [ -69.315565082776942, -27.056345319294344 ], [ -69.315575187673872, -27.059956675789248 ], [ -69.323642632620007, -27.059938349152041 ], [ -69.323632269409757, -27.056326995495958 ] ] ] } },
{ "type": "Feature", "properties": { "cve": "2882212", "nombre": "ROSARIO 7A, 1 AL 60", "solicitante": "Minera Gold Fields Salares Norte SpA", "region": "REGIÓN DE ATACAMA", "provincia": "Provincia de Copiapó", "comuna": "Diego de Almagro", "superficie_ha": 300.0, "datum_original": "PSAD56", "huso": 19, "epsg_origen": 24879, "tipo_publicacion": "manifestacion", "fuente_pdf": "http://www.diariooficial.interior.gob.cl/publicaciones/2026/10/08/44569/07/2882212.pdf", "archivo": "gm_manifestacion_2882212.pdf", "fecha": "08-10-2026", "edicion": "44569" }, "geometry": { "type": "Polygon", "coordinates": [ [ [ -68.81213297184506, -25.91127010950046 ], [ -68.802148380738828, -25.911256829412153 ], [ -68.802103155283206, -25.938346252713806 ], [ -68.812090028660535, -25.938359548715361 ], [ -68.81213297184506, -25.91127010950046 ] ] ] } },
{ "type": "Feature", "properties": { "cve": "2882215", "nombre": "ROSARIO 10A, 1 AL 60", "solicitante": "Minera Gold Fields Salares Norte SpA", "region": "REGIÓN DE ATACAMA", "provincia": "Provincia de Chañaral", "comuna": "Diego de Almagro", "superficie_ha": 300.0, "datum_original": "PSAD56", "huso": 19, "epsg_origen": 24879, "tipo_publicacion": "manifestacion", "fuente_pdf": "http://www.diariooficial.interior.gob.cl/publicaciones/2026/10/08/44569/07/2882215.pdf", "archivo": "gm_manifestacion_2882215.pdf", "fecha": "08-10-2026", "edicion": "44569" }, "geometry": { "type": "Polygon", "coordinates": [ [ [ -68.872021154035778, -25.929395041635914 ], [ -68.862035006273899, -25.929385879386768 ], [ -68.862003444471554, -25.956475317705717 ], [ -68.871991876716152, -25.956484490928293 ], [ -68.872021154035778, -25.929395041635914 ] ] ] } },
{ "type": "Feature", "properties": { "cve": "2882216", "nombre": "ROSARIO 11A, 1 AL 60", "solicitante": "Minera Gold Fields Salares Norte SpA", "region": "REGIÓN DE ATACAMA", "provincia": "Provincia de Chañaral", "comuna": "Diego de Almagro", "superficie_ha": 300.0, "datum_original": "PSAD56", "huso": 19, "epsg_origen": 24879, "tipo_publicacion": "manifestacion", "fuente_pdf": "http://www.diariooficial.interior.gob.cl/publicaciones/2026/10/08/44569/07/2882216.pdf", "archivo": "gm_manifestacion_2882216.pdf", "fecha": "08-10-2026", "edicion": "44569" }, "geometry": { "type": "Polygon", "coordinates": [ [ [ -68.862035006273899, -25.929385879386768 ], [ -68.852048863522711, -25.929376029059323 ], [ -68.85201501724265, -25.956465455580737 ], [ -68.862003444471554, -25.956475317705717 ], [ -68.862035006273899, -25.929385879386768 ] ] ] } },
{ "type": "Feature", "properties": { "cve": "2882217", "nombre": "ROSARIO 12A, 1 AL 60", "solicitante": "Minera Gold Fields Salares Norte SpA", "region": "REGIÓN DE ATACAMA", "provincia": "Provincia de Chañaral", "comuna": "Diego de Almagro", "superficie_ha": 300.0, "datum_original": "PSAD56", "huso": 19, "epsg_origen": 24879, "tipo_publicacion": "manifestacion", "fuente_pdf": "http://www.diariooficial.interior.gob.cl/publicaciones/2026/10/08/44569/07/2882217.pdf", "archivo": "gm_manifestacion_2882217.pdf", "fecha": "08-10-2026", "edicion": "44569" }, "geometry": { "type": "Polygon", "coordinates": [ [ [ -68.852048863522711, -25.929376029059323 ], [ -68.842062726144931, -25.929365490654941 ], [ -68.842026595392454, -25.956454904554736 ], [ -68.85201501724265, -25.956465455580737 ], [ -68.852048863522711, -25.929376029059323 ] ] ] } },
{ "type": "Feature", "properties": { "cve": "2882218", "nombre": "ROSARIO 13A, 1 AL 60", "solicitante": "Minera Gold Fields Salares Norte SpA", "region": "REGIÓN DE ATACAMA", "provincia": "Provincia de Chañaral", "comuna": "Diego de Almagro", "superficie_ha": 300.0, "datum_original": "PSAD56", "huso": 19, "epsg_origen": 24879, "tipo_publicacion": "manifestacion", "fuente_pdf": "http://www.diariooficial.interior.gob.cl/publicaciones/2026/10/08/44569/07/2882218.pdf", "archivo": "gm_manifestacion_2882218.pdf", "fecha": "08-10-2026", "edicion": "44569" }, "geometry": { "type": "Polygon", "coordinates": [ [ [ -68.842050688299096, -25.938395306642484 ], [ -68.832063795531255, -25.938384075681419 ], [ -68.832025362004629, -25.965473442065143 ], [ -68.842014540327838, -25.965484686473918 ], [ -68.842050688299096, -25.938395306642484 ] ] ] } },
{ "type": "Feature", "properties": { "cve": "2882219", "nombre": "ROSARIO 14A, 1 AL 60", "solicitante": "Minera Gold Fields Salares Norte SpA", "region": "REGIÓN DE ATACAMA", "provincia": "Provincia de Chañaral", "comuna": "Diego de Almagro", "superficie_ha": 300.0, "datum_original": "PSAD56", "huso": 19, "epsg_origen": 24879, "tipo_publicacion": "manifestacion", "fuente_pdf": "http://www.diariooficial.interior.gob.cl/publicaciones/2026/10/08/44569/07/2882219.pdf", "archivo": "gm_manifestacion_2882219.pdf", "fecha": "08-10-2026", "edicion": "44569" }, "geometry": { "type": "Polygon", "coordinates": [ [ [ -68.832063795531255, -25.938384075681419 ], [ -68.822076908864162, -25.93837215637182 ], [ -68.822036189788207, -25.965461508483624 ], [ -68.832025362004629, -25.965473442065143 ], [ -68.832063795531255, -25.938384075681419 ] ] ] } },
{ "type": "Feature", "properties": { "cve": "2882220", "nombre": "ROSARIO 15A, 1 AL 60", "solicitante": "Minera Gold Fields Salares Norte SpA", "region": "REGIÓN DE ATACAMA", "provincia": "Provincia de Chañaral", "comuna": "Diego de Almagro", "superficie_ha": 300.0, "datum_original": "PSAD56", "huso": 19, "epsg_origen": 24879, "tipo_publicacion": "manifestacion", "fuente_pdf": "http://www.diariooficial.interior.gob.cl/publicaciones/2026/10/08/44569/07/2882220.pdf", "archivo": "gm_manifestacion_2882220.pdf", "fecha": "08-10-2026", "edicion": "44569" }, "geometry": { "type": "Polygon", "coordinates": [ [ [ -68.822076908864162, -25.93837215637182 ], [ -68.812090028660535, -25.938359548715361 ], [ -68.812047024041689, -25.96544888573105 ], [ -68.822036189788207, -25.965461508483624 ], [ -68.822076908864162, -25.93837215637182 ] ] ] } },
{ "type": "Feature", "properties": { "cve": "2882221", "nombre": "ROSARIO 16A, 1 AL 60", "solicitante": "Minera Gold Fields Salares Norte SpA", "region": "REGIÓN DE ATACAMA", "provincia": "Provincia de Chañaral", "comuna": "Diego de Almagro", "superficie_ha": 300.0, "datum_original": "PSAD56", "huso": 19, "epsg_origen": 24879, "tipo_publicacion": "manifestacion", "fuente_pdf": "http://www.diariooficial.interior.gob.cl/publicaciones/2026/10/08/44569/07/2882221.pdf", "archivo": "gm_manifestacion_2882221.pdf", "fecha": "08-10-2026", "edicion": "44569" }, "geometry": { "type": "Polygon", "coordinates": [ [ [ -68.812090028660535, -25.938359548715361 ], [ -68.802103155283206, -25.938346252713806 ], [ -68.802057865128262, -25.965435573809167 ], [ -68.812047024041689, -25.96544888573105 ], [ -68.812090028660535, -25.938359548715361 ] ] ] } },
{ "type": "Feature", "properties": { "cve": "2882222", "nombre": "ROSARIO 17A, 1 AL 60", "solicitante": "Minera Gold Fields Salares Norte SpA", "region": "REGIÓN DE ATACAMA", "provincia": "Provincia de Chañaral", "comuna": "Diego de Almagro", "superficie_ha": 300.0, "datum_original": "PSAD56", "huso": 19, "epsg_origen": 24879, "tipo_publicacion": "manifestacion", "fuente_pdf": "http://www.diariooficial.interior.gob.cl/publicaciones/2026/10/08/44569/07/2882222.pdf", "archivo": "gm_manifestacion_2882222.pdf", "fecha": "08-10-2026", "edicion": "44569" }, "geometry": { "type": "Polygon", "coordinates": [ [ [ -68.802103155283206, -25.938346252713806 ], [ -68.792116289094892, -25.938332268369031 ], [ -68.792068713411027, -25.965421572719858 ], [ -68.802057865128262, -25.965435573809167 ], [ -68.802103155283206, -25.938346252713806 ] ] ] } },
{ "type": "Feature", "properties": { "cve": "2882223", "nombre": "ROSARIO 18A, 1 AL 40", "solicitante": "Minera Gold Fields Salares Norte SpA", "region": "REGIÓN DE ATACAMA", "provincia": "Provincia de Chañaral", "comuna": "Diego de Almagro", "superficie_ha": 200.0, "datum_original": "PSAD56", "huso": 19, "epsg_origen": 24879, "tipo_publicacion": "manifestacion", "fuente_pdf": "http://www.diariooficial.interior.gob.cl/publicaciones/2026/10/08/44569/07/2882223.pdf", "archivo": "gm_manifestacion_2882223.pdf", "fecha": "08-10-2026", "edicion": "44569" }, "geometry": { "type": "Polygon", "coordinates": [ [ [ -68.881984815098647, -25.951978072436116 ], [ -68.871996759176071, -25.951969589809092 ], [ -68.871977222356961, -25.970029177248815 ], [ -68.881966802722914, -25.970037666644071 ], [ -68.881984815098647, -25.951978072436116 ] ] ] } },
{ "type": "Feature", "properties": { "cve": "2882224", "nombre": "ROSARIO 19A, 1 AL 60", "solicitante": "Minera Gold Fields Salares Norte SpA", "region": "REGIÓN DE ATACAMA", "provincia": "Provincia de Chañaral", "comuna": "Diego de Almagro", "superficie_ha": 300.0, "datum_original": "PSAD56", "huso": 19, "epsg_origen": 24879, "tipo_publicacion": "manifestacion", "fuente_pdf": "http://www.diariooficial.interior.gob.cl/publicaciones/2026/10/08/44569/07/2882224.pdf", "archivo": "gm_manifestacion_2882224.pdf", "fecha": "08-10-2026", "edicion": "44569" }, "geometry": { "type": "Polygon", "coordinates": [ [ [ -68.871991876716152, -25.956484490928293 ], [ -68.862003444471554, -25.956475317705717 ], [ -68.861971837530078, -25.983564653805526 ], [ -68.871962557524611, -25.983573838006432 ], [ -68.871991876716152, -25.956484490928293 ] ] ] } },
{ "type": "Feature", "properties": { "cve": "2882206", "nombre": "ROSARIO 1A, 1 AL 60", "solicitante": "Minera Gold Fields Salares Norte SpA", "region": "REGIÓN DE ATACAMA", "provincia": "Provincia de Chañaral", "comuna": "Diego de Almagro", "superficie_ha": 300.0, "datum_original": "PSAD56", "huso": 19, "epsg_origen": 24879, "tipo_publicacion": "manifestacion", "fuente_pdf": "http://www.diariooficial.interior.gob.cl/publicaciones/2026/10/08/44569/07/2882206.pdf", "archivo": "gm_manifestacion_2882206.pdf", "fecha": "08-10-2026", "edicion": "44569" }, "geometry": { "type": "Polygon", "coordinates": [ [ [ -68.842122829375015, -25.884216240513936 ], [ -68.832140497926133, -25.884205036430341 ], [ -68.83210217415359, -25.91129460711154 ], [ -68.842086784631064, -25.911305824630883 ], [ -68.842122829375015, -25.884216240513936 ] ] ] } },
{ "type": "Feature", "properties": { "cve": "2882225", "nombre": "ROSARIO 20A, 1 AL 60", "solicitante": "Minera Gold Fields Salares Norte SpA", "region": "REGIÓN DE ATACAMA", "provincia": "Provincia de Chañaral", "comuna": "Diego de Almagro", "superficie_ha": 300.0, "datum_original": "PSAD56", "huso": 19, "epsg_origen": 24879, "tipo_publicacion": "manifestacion", "fuente_pdf": "http://www.diariooficial.interior.gob.cl/publicaciones/2026/10/08/44569/07/2882225.pdf", "archivo": "gm_manifestacion_2882225.pdf", "fecha": "08-10-2026", "edicion": "44569" }, "geometry": { "type": "Polygon", "coordinates": [ [ [ -68.862003444471554, -25.956475317705717 ], [ -68.85201501724265, -25.956465455580737 ], [ -68.851981122556239, -25.98355477987776 ], [ -68.861971837530078, -25.983564653805526 ], [ -68.862003444471554, -25.956475317705717 ] ] ] } },
{ "type": "Feature", "properties": { "cve": "2882226", "nombre": "ROSARIO 21A, 1 AL 60", "solicitante": "Minera Gold Fields Salares Norte SpA", "region": "REGIÓN DE ATACAMA", "provincia": "Provincia de Chañaral", "comuna": "Diego de Almagro", "superficie_ha": 300.0, "datum_original": "PSAD56", "huso": 19, "epsg_origen": 24879, "tipo_publicacion": "manifestacion", "fuente_pdf": "http://www.diariooficial.interior.gob.cl/publicaciones/2026/10/08/44569/07/2882226.pdf", "archivo": "gm_manifestacion_2882226.pdf", "fecha": "08-10-2026", "edicion": "44569" }, "geometry": { "type": "Polygon", "coordinates": [ [ [ -68.85201501724265, -25.956465455580737 ], [ -68.842026595392454, -25.956454904554736 ], [ -68.841990412966481, -25.983544216224526 ], [ -68.851981122556239, -25.98355477987776 ], [ -68.85201501724265, -25.956465455580737 ] ] ] } },
{ "type": "Feature", "properties": { "cve": "2882227", "nombre": "ROSARIO 22A, 1 AL 40", "solicitante": "Minera Gold Fields Salares Norte SpA", "region": "REGIÓN DE ATACAMA", "provincia": "Provincia de Chañaral", "comuna": "Diego de Almagro", "superficie_ha": 200.0, "datum_original": "PSAD56", "huso": 19, "epsg_origen": 24879, "tipo_publicacion": "manifestacion", "fuente_pdf": "http://www.diariooficial.interior.gob.cl/publicaciones/2026/10/08/44569/07/2882227.pdf", "archivo": "gm_manifestacion_2882227.pdf", "fecha": "08-10-2026", "edicion": "44569" }, "geometry": { "type": "Polygon", "coordinates": [ [ [ -68.842020568577951, -25.960969796934357 ], [ -68.832031771407514, -25.960958554767284 ], [ -68.832006124635143, -25.979018086913825 ], [ -68.841996446961431, -25.979029338048701 ], [ -68.842020568577951, -25.960969796934357 ] ] ] } },
{ "type": "Feature", "properties": { "cve": "2882228", "nombre": "ROSARIO 23A, 1 AL 40", "solicitante": "Minera Gold Fields Salares Norte SpA", "region": "REGIÓN DE ATACAMA", "provincia": "Provincia de Chañaral", "comuna": "Diego de Almagro", "superficie_ha": 200.0, "datum_original": "PSAD56", "huso": 19, "epsg_origen": 24879, "tipo_publicacion": "manifestacion", "fuente_pdf": "http://www.diariooficial.interior.gob.cl/publicaciones/2026/10/08/44569/07/2882228.pdf", "archivo": "gm_manifestacion_2882228.pdf", "fecha": "08-10-2026", "edicion": "44569" }, "geometry": { "type": "Polygon", "coordinates": [ [ [ -68.832031771407514, -25.960958554767284 ], [ -68.822042980342857, -25.960946623564862 ], [ -68.822015808418655, -25.979006146193974 ], [ -68.832006124635143, -25.979018086913825 ], [ -68.832031771407514, -25.960958554767284 ] ] ] } },
{ "type": "Feature", "properties": { "cve": "2882229", "nombre": "ROSARIO 24A, 1 AL 40", "solicitante": "Minera Gold Fields Salares Norte SpA", "region": "REGIÓN DE ATACAMA", "provincia": "Provincia de Chañaral", "comuna": "Diego de Almagro", "superficie_ha": 200.0, "datum_original": "PSAD56", "huso": 19, "epsg_origen": 24879, "tipo_publicacion": "manifestacion", "fuente_pdf": "http://www.diariooficial.interior.gob.cl/publicaciones/2026/10/08/44569/07/2882229.pdf", "archivo": "gm_manifestacion_2882229.pdf", "fecha": "08-10-2026", "edicion": "44569" }, "geometry": { "type": "Polygon", "coordinates": [ [ [ -68.822042980342857, -25.960946623564862 ], [ -68.812054195747038, -25.960934003328774 ], [ -68.812025498675325, -25.978993515890817 ], [ -68.822015808418655, -25.979006146193974 ], [ -68.822042980342857, -25.960946623564862 ] ] ] } },
{ "type": "Feature", "properties": { "cve": "2882230", "nombre": "ROSARIO 25A, 1 AL 40", "solicitante": "Minera Gold Fields Salares Norte SpA", "region": "REGIÓN DE ATACAMA", "provincia": "Provincia de Chañaral", "comuna": "Diego de Almagro", "superficie_ha": 200.0, "datum_original": "PSAD56", "huso": 19, "epsg_origen": 24879, "tipo_publicacion": "manifestacion", "fuente_pdf": "http://www.diariooficial.interior.gob.cl/publicaciones/2026/10/08/44569/07/2882230.pdf", "archivo": "gm_manifestacion_2882230.pdf", "fecha": "08-10-2026", "edicion": "44569" }, "geometry": { "type": "Polygon", "coordinates": [ [ [ -68.812054195747038, -25.960934003328774 ], [ -68.802065417983144, -25.960920694060775 ], [ -68.802035195768454, -25.978980196006116 ], [ -68.812025498675325, -25.978993515890817 ], [ -68.812054195747038, -25.960934003328774 ] ] ] } },
{ "type": "Feature", "properties": { "cve": "2882231", "nombre": "ROSARIO 26A, 1 AL 40", "solicitante": "Minera Gold Fields Salares Norte SpA", "region": "REGIÓN DE ATACAMA", "provincia": "Provincia de Chañaral", "comuna": "Diego de Almagro", "superficie_ha": 200.0, "datum_original": "PSAD56", "huso": 19, "epsg_origen": 24879, "tipo_publicacion": "manifestacion", "fuente_pdf": "http://www.diariooficial.interior.gob.cl/publicaciones/2026/10/08/44569/07/2882231.pdf", "archivo": "gm_manifestacion_2882231.pdf", "fecha": "08-10-2026", "edicion": "44569" }, "geometry": { "type": "Polygon", "coordinates": [ [ [ -68.802065417983144, -25.960920694060775 ], [ -68.792076647414277, -25.960906695762745 ], [ -68.79204490006137, -25.978966186541744 ], [ -68.802035195768454, -25.978980196006116 ], [ -68.802065417983144, -25.960920694060775 ] ] ] } },
{ "type": "Feature", "properties": { "cve": "2882207", "nombre": "ROSARIO 2A, 1 AL 60", "solicitante": "Minera Gold Fields Salares Norte SpA", "region": "REGIÓN DE ATACAMA", "provincia": "Provincia de Chañaral", "comuna": "Diego de Almagro", "superficie_ha": 300.0, "datum_original": "PSAD56", "huso": 19, "epsg_origen": 24879, "tipo_publicacion": "manifestacion", "fuente_pdf": "http://www.diariooficial.interior.gob.cl/publicaciones/2026/10/08/44569/07/2882207.pdf", "archivo": "gm_manifestacion_2882207.pdf", "fecha": "08-10-2026", "edicion": "44569" }, "geometry": { "type": "Polygon", "coordinates": [ [ [ -68.832140497926133, -25.884205036430341 ], [ -68.822158172565864, -25.884193145645547 ], [ -68.822117569770796, -25.911282702067506 ], [ -68.83210217415359, -25.91129460711154 ], [ -68.832140497926133, -25.884205036430341 ] ] ] } },
{ "type": "Feature", "properties": { "cve": "2882208", "nombre": "ROSARIO 3A, 1 AL 60", "solicitante": "Minera Gold Fields Salares Norte SpA", "region": "REGIÓN DE ATACAMA", "provincia": "Provincia de Chañaral", "comuna": "Diego de Almagro", "superficie_ha": 300.0, "datum_original": "PSAD56", "huso": 19, "epsg_origen": 24879, "tipo_publicacion": "manifestacion", "fuente_pdf": "http://www.diariooficial.interior.gob.cl/publicaciones/2026/10/08/44569/07/2882208.pdf", "archivo": "gm_manifestacion_2882208.pdf", "fecha": "08-10-2026", "edicion": "44569" }, "geometry": { "type": "Polygon", "coordinates": [ [ [ -68.822144644754118, -25.893223009127983 ], [ -68.792195430903007, -25.893183200679616 ], [ -68.792179617629557, -25.902213036915029 ], [ -68.822131110489806, -25.902252861269567 ], [ -68.822144644754118, -25.893223009127983 ] ] ] } },
{ "type": "Feature", "properties": { "cve": "2882209", "nombre": "ROSARIO 4A, 1 AL 60", "solicitante": "Minera Gold Fields Salares Norte SpA", "region": "REGIÓN DE ATACAMA", "provincia": "Provincia de Chañaral", "comuna": "Diego de Almagro", "superficie_ha": 300.0, "datum_original": "PSAD56", "huso": 19, "epsg_origen": 24879, "tipo_publicacion": "manifestacion", "fuente_pdf": "http://www.diariooficial.interior.gob.cl/publicaciones/2026/10/08/44569/07/2882209.pdf", "archivo": "gm_manifestacion_2882209.pdf", "fecha": "08-10-2026", "edicion": "44569" }, "geometry": { "type": "Polygon", "coordinates": [ [ [ -68.842086784631064, -25.911305824630883 ], [ -68.83210217415359, -25.91129460711154 ], [ -68.832063795531255, -25.938384075681419 ], [ -68.842050688299096, -25.938395306642484 ], [ -68.842086784631064, -25.911305824630883 ] ] ] } },
{ "type": "Feature", "properties": { "cve": "2882211", "nombre": "ROSARIO 5A, 1 AL 60", "solicitante": "Minera Gold Fields Salares Norte SpA", "region": "REGIÓN DE ATACAMA", "provincia": "Provincia de Chañaral", "comuna": "Diego de Almagro", "superficie_ha": 300.0, "datum_original": "PSAD56", "huso": 19, "epsg_origen": 24879, "tipo_publicacion": "manifestacion", "fuente_pdf": "http://www.diariooficial.interior.gob.cl/publicaciones/2026/10/08/44569/07/2882211.pdf", "archivo": "gm_manifestacion_2882211.pdf", "fecha": "08-10-2026", "edicion": "44569" }, "geometry": { "type": "Polygon", "coordinates": [ [ [ -68.83210217415359, -25.91129460711154 ], [ -68.822117569770796, -25.911282702067506 ], [ -68.822076908864162, -25.93837215637182 ], [ -68.832063795531255, -25.938384075681419 ], [ -68.83210217415359, -25.91129460711154 ] ] ] } },
{ "type": "Feature", "properties": { "cve": "2882210", "nombre": "ROSARIO 6A, 1 AL 60", "solicitante": "Minera Gold Fields Salares Norte SpA", "region": "REGIÓN DE ATACAMA", "provincia": "Provincia de Chañaral", "comuna": "Diego de Almagro", "superficie_ha": 300.0, "datum_original": "PSAD56", "huso": 19, "epsg_origen": 24879, "tipo_publicacion": "manifestacion", "fuente_pdf": "http://www.diariooficial.interior.gob.cl/publicaciones/2026/10/08/44569/07/2882210.pdf", "archivo": "gm_manifestacion_2882210.pdf", "fecha": "08-10-2026", "edicion": "44569" }, "geometry": { "type": "Polygon", "coordinates": [ [ [ -68.822117569770796, -25.911282702067506 ], [ -68.81213297184506, -25.91127010950046 ], [ -68.812090028660535, -25.938359548715361 ], [ -68.822076908864162, -25.93837215637182 ], [ -68.822117569770796, -25.911282702067506 ] ] ] } },
{ "type": "Feature", "properties": { "cve": "2882213", "nombre": "ROSARIO 8A, 1 AL 60", "solicitante": "Minera Gold Fields Salares Norte SpA", "region": "REGIÓN DE ATACAMA", "provincia": "Provincia de Chañaral", "comuna": "Diego de Almagro", "superficie_ha": 300.0, "datum_original": "PSAD56", "huso": 19, "epsg_origen": 24879, "tipo_publicacion": "manifestacion", "fuente_pdf": "http://www.diariooficial.interior.gob.cl/publicaciones/2026/10/08/44569/07/2882213.pdf", "archivo": "gm_manifestacion_2882213.pdf", "fecha": "08-10-2026", "edicion": "44569" }, "geometry": { "type": "Polygon", "coordinates": [ [ [ -68.802148380738828, -25.911256829412153 ], [ -68.792163796814521, -25.911242861804439 ], [ -68.792116289094892, -25.938332268369031 ], [ -68.802103155283206, -25.938346252713806 ], [ -68.802148380738828, -25.911256829412153 ] ] ] } },
{ "type": "Feature", "properties": { "cve": "2882214", "nombre": "ROSARIO 9A, 1 AL 60", "solicitante": "Minera Gold Fields Salares Norte SpA", "region": "REGIÓN DE ATACAMA", "provincia": "Provincia de Chañaral", "comuna": "Diego de Almagro", "superficie_ha": 300.0, "datum_original": "PSAD56", "huso": 19, "epsg_origen": 24879, "tipo_publicacion": "manifestacion", "fuente_pdf": "http://www.diariooficial.interior.gob.cl/publicaciones/2026/10/08/44569/07/2882214.pdf", "archivo": "gm_manifestacion_2882214.pdf", "fecha": "08-10-2026", "edicion": "44569" }, "geometry": { "type": "Polygon", "coordinates": [ [ [ -68.882007306445715, -25.929403515805475 ], [ -68.872021154035778, -25.929395041635914 ], [ -68.871991876716152, -25.956484490928293 ], [ -68.881980313613425, -25.95649297524719 ], [ -68.882007306445715, -25.929403515805475 ] ] ] } },
{ "type": "Feature", "properties": { "cve": "2882198", "nombre": "ENCANTO 1 AL 20", "solicitante": "Requena Núñez Raúl Francisco", "region": "REGIÓN DE ATACAMA", "provincia": "Provincia de Huasco", "comuna": null, "superficie_ha": 100.0, "datum_original": "PSAD56", "huso": 19, "epsg_origen": 24879, "tipo_publicacion": "manifestacion", "fuente_pdf": "http://www.diariooficial.interior.gob.cl/publicaciones/2026/10/08/44569/07/2882198.pdf", "archivo": "gm_manifestacion_2882198.pdf", "fecha": "08-10-2026", "edicion": "44569" }, "geometry": { "type": "Polygon", "coordinates": [ [ [ -70.871202024607385, -28.476141723120467 ], [ -70.860991599145109, -28.476281856172623 ], [ -70.86114979691655, -28.485303731384608 ], [ -70.871361089107566, -28.485163545924799 ], [ -70.871202024607385, -28.476141723120467 ] ] ] } },
{ "type": "Feature", "properties": { "cve": "2882199", "nombre": "RIO HUASCO", "solicitante": "Requena Núñez Raúl Francisco", "region": "REGIÓN DE ATACAMA", "provincia": "Provincia de Huasco", "comuna": null, "superficie_ha": 6.0, "datum_original": "PSAD56", "huso": 19, "epsg_origen": 24879, "tipo_publicacion": "manifestacion", "fuente_pdf": "http://www.diariooficial.interior.gob.cl/publicaciones/2026/10/08/44569/07/2882199.pdf", "archivo": "gm_manifestacion_2882199.pdf", "fecha": "08-10-2026", "edicion": "44569" }, "geometry": { "type": "Polygon", "coordinates": [ [ [ -70.743335253299733, -28.587937733241407 ], [ -70.741290873632948, -28.587963994962198 ], [ -70.741335480630354, -28.590670692546524 ], [ -70.743379912603814, -28.590644427886822 ], [ -70.743335253299733, -28.587937733241407 ] ] ] } },
{ "type": "Feature", "properties": { "cve": "2881810", "nombre": "APRECIADA UNO", "solicitante": "Cuello Daza José Isaac y otro", "region": "REGIÓN DE COQUIMBO", "provincia": "Provincia de Elqui", "comuna": null, "superficie_ha": 1.0, "datum_original": "WGS84", "huso": 19, "epsg_origen": 32719, "tipo_publicacion": "manifestacion", "fuente_pdf": "http://www.diariooficial.interior.gob.cl/publicaciones/2026/10/08/44569/07/2881810.pdf", "archivo": "gm_manifestacion_2881810.pdf", "fecha": "08-10-2026", "edicion": "44569" }, "geometry": { "type": "Polygon", "coordinates": [ [ [ -71.121487964475861, -30.202077353122203 ], [ -71.120449735931942, -30.202094154352224 ], [ -71.120469074370007, -30.202995967326295 ], [ -71.121507312365225, -30.202979165491094 ], [ -71.121487964475861, -30.202077353122203 ] ] ] } },
{ "type": "Feature", "properties": { "cve": "2882108", "nombre": "INFINITY 1 AL 10", "solicitante": "Aguilera Aguilera Matías Juan Carlos", "region": "REGIÓN DE COQUIMBO", "provincia": "Provincia de Elqui", "comuna": "Andacollo", "superficie_ha": 100.0, "datum_original": "PSAD56", "huso": 19, "epsg_origen": 24879, "tipo_publicacion": "manifestacion", "fuente_pdf": "http://www.diariooficial.interior.gob.cl/publicaciones/2026/10/08/44569/07/2882108.pdf", "archivo": "gm_manifestacion_2882108.pdf", "fecha": "08-10-2026", "edicion": "44569" }, "geometry": { "type": "Polygon", "coordinates": [ [ [ -71.153526026058202, -30.243098127526459 ], [ -71.143139637372258, -30.243268495100654 ], [ -71.143335429819885, -30.252286403542076 ], [ -71.153722765599269, -30.252115974647218 ], [ -71.153526026058202, -30.243098127526459 ] ] ] } },
{ "type": "Feature", "properties": { "cve": "2881913", "nombre": "PEPITA DEL 1 AL 20", "solicitante": "Pizarro Muñoz Brar Viris", "region": "REGIÓN DE COQUIMBO", "provincia": "Provincia de Choapa", "comuna": "Canela", "superficie_ha": 100.0, "datum_original": "PSAD56", "huso": 19, "epsg_origen": 24879, "tipo_publicacion": "manifestacion", "fuente_pdf": "http://www.diariooficial.interior.gob.cl/publicaciones/2026/10/08/44569/07/2881913.pdf", "archivo": "gm_manifestacion_2881913.pdf", "fecha": "08-10-2026", "edicion": "44569" }, "geometry": { "type": "Polygon", "coordinates": [ [ [ -71.309455477591243, -31.203241813293186 ], [ -71.288477963588079, -31.203616802226698 ], [ -71.288586544656155, -31.208124641790221 ], [ -71.309565051829026, -31.207749586623812 ], [ -71.309455477591243, -31.203241813293186 ] ] ] } },
{ "type": "Feature", "properties": { "cve": "2881914", "nombre": "PEPITA DOS DEL 1 AL 20", "solicitante": "Pizarro Muñoz Brar Viris", "region": "REGIÓN DE COQUIMBO", "provincia": "Provincia de Choapa", "comuna": "Canela", "superficie_ha": 100.0, "datum_original": "PSAD56", "huso": 19, "epsg_origen": 24879, "tipo_publicacion": "manifestacion", "fuente_pdf": "http://www.diariooficial.interior.gob.cl/publicaciones/2026/10/08/44569/07/2881914.pdf", "archivo": "gm_manifestacion_2881914.pdf", "fecha": "08-10-2026", "edicion": "44569" }, "geometry": { "type": "Polygon", "coordinates": [ [ [ -71.298803199075749, -31.196668018339203 ], [ -71.288315137734287, -31.196855036270549 ], [ -71.288532251071828, -31.205870722449216 ], [ -71.299021305379341, -31.205683638441794 ], [ -71.298803199075749, -31.196668018339203 ] ] ] } },
{ "type": "Feature", "properties": { "cve": "2881915", "nombre": "PEPITA TRES DEL 1 AL 20", "solicitante": "Pizarro Muñoz Brar Viris", "region": "REGIÓN DE COQUIMBO", "provincia": "Provincia de Choapa", "comuna": "Canela", "superficie_ha": 80.0, "datum_original": "PSAD56", "huso": 19, "epsg_origen": 24879, "tipo_publicacion": "manifestacion", "fuente_pdf": "http://www.diariooficial.interior.gob.cl/publicaciones/2026/10/08/44569/07/2881915.pdf", "archivo": "gm_manifestacion_2881915.pdf", "fecha": "08-10-2026", "edicion": "44569" }, "geometry": { "type": "Polygon", "coordinates": [ [ [ -71.298606987207791, -31.18855394817972 ], [ -71.288119819154801, -31.188740906653077 ], [ -71.28829343176757, -31.195953466877057 ], [ -71.298781393836933, -31.195766455552647 ], [ -71.298606987207791, -31.18855394817972 ] ] ] } },
{ "type": "Feature", "properties": { "cve": "2881897", "nombre": "PRIMERA DE MAYO IV, 1 AL 84", "solicitante": "Portilla Alvarado Humberto", "region": "REGIÓN DE COQUIMBO", "provincia": "Provincia de Choapa", "comuna": null, "superficie_ha": 84.0, "datum_original": "PSAD56", "huso": 19, "epsg_origen": 24879, "tipo_publicacion": "manifestacion", "fuente_pdf": "http://www.diariooficial.interior.gob.cl/publicaciones/2026/10/08/44569/07/2881897.pdf", "archivo": "gm_manifestacion_2881897.pdf", "fecha": "08-10-2026", "edicion": "44569" }, "geometry": { "type": "Polygon", "coordinates": [ [ [ -71.633996875733033, -31.214725525170898 ], [ -71.621411972091551, -31.214982754436754 ], [ -71.621586172307545, -31.221292139852505 ], [ -71.634171909898981, -31.221034847007928 ], [ -71.633996875733033, -31.214725525170898 ] ] ] } },
{ "type": "Feature", "properties": { "cve": "2881970", "nombre": "QUITO II 4, 1 AL 300", "solicitante": "Prenafeta Villa Alberto Cristián", "region": "REGIÓN DE COQUIMBO", "provincia": "Provincia de Choapa", "comuna": null, "superficie_ha": 300.0, "datum_original": "PSAD56", "huso": 19, "epsg_origen": 24879, "tipo_publicacion": "manifestacion", "fuente_pdf": "http://www.diariooficial.interior.gob.cl/publicaciones/2026/10/08/44569/07/2881970.pdf", "archivo": "gm_manifestacion_2881970.pdf", "fecha": "08-10-2026", "edicion": "44569" }, "geometry": { "type": "Polygon", "coordinates": [ [ [ -71.500449944119751, -31.600550073135981 ], [ -71.489918439884562, -31.600755872333259 ], [ -71.490638761405165, -31.627797185572472 ], [ -71.501173304626988, -31.627591169836762 ], [ -71.500449944119751, -31.600550073135981 ] ] ] } },
{ "type": "Feature", "properties": { "cve": "2881971", "nombre": "QUITO II 5, 1 AL 20", "solicitante": "Prenafeta Villa Alberto Cristián", "region": "REGIÓN DE COQUIMBO", "provincia": "Provincia de Choapa", "comuna": null, "superficie_ha": 200.0, "datum_original": "PSAD56", "huso": 19, "epsg_origen": 24879, "tipo_publicacion": "manifestacion", "fuente_pdf": "http://www.diariooficial.interior.gob.cl/publicaciones/2026/10/08/44569/07/2881971.pdf", "archivo": "gm_manifestacion_2881971.pdf", "fecha": "08-10-2026", "edicion": "44569" }, "geometry": { "type": "Polygon", "coordinates": [ [ [ -71.489798480462952, -31.596248974135069 ], [ -71.479267374768895, -31.596453870505993 ], [ -71.47974534867933, -31.614481585325322 ], [ -71.490278479543306, -31.61427654523002 ], [ -71.489798480462952, -31.596248974135069 ] ] ] } },
{ "type": "Feature", "properties": { "cve": "2882200", "nombre": "PILAR 1 AL 14", "solicitante": "Requena Paredes Francisco Jacob", "region": "REGIÓN DE ATACAMA", "provincia": "Provincia de Copiapó", "comuna": null, "superficie_ha": 98.0, "datum_original": "PSAD56", "huso": 19, "epsg_origen": 24879, "tipo_publicacion": "mensura", "fuente_pdf": "http://www.diariooficial.interior.gob.cl/publicaciones/2026/10/08/44569/07/2882200.pdf", "archivo": "gm_mensura_2882200.pdf", "fecha": "08-10-2026", "edicion": "44569" }, "geometry": { "type": "Polygon", "coordinates": [ [ [ -70.90701702251846, -27.952599950550002 ], [ -70.899904647761687, -27.952698324653181 ], [ -70.900125874250577, -27.965329637928608 ], [ -70.907239075956753, -27.965231211679704 ], [ -70.90701702251846, -27.952599950550002 ] ] ] } },
{ "type": "Feature", "properties": { "cve": "2882337", "nombre": "REBECCA-ISIDORA 31, 1 AL 84", "solicitante": "Gold Hart Chile SpA", "region": "REGIÓN DE ATACAMA", "provincia": "Provincia de Copiapó", "comuna": null, "superficie_ha": 84.0, "datum_original": "PSAD56", "huso": 19, "epsg_origen": 24879, "tipo_publicacion": "mensura", "fuente_pdf": "http://www.diariooficial.interior.gob.cl/publicaciones/2026/10/08/44569/07/2882337.pdf", "archivo": "gm_mensura_2882337.pdf", "fecha": "08-10-2026", "edicion": "44569" }, "geometry": { "type": "Polygon", "coordinates": [ [ [ -70.047854970331315, -27.305205902460678 ], [ -70.040781573563734, -27.305258733442525 ], [ -70.040882643434514, -27.316090779571624 ], [ -70.047956726791398, -27.316037924191942 ], [ -70.047854970331315, -27.305205902460678 ] ] ] } },
{ "type": "Feature", "properties": { "cve": "2882338", "nombre": "REBECCA-ISIDORA 32, 1 AL 50", "solicitante": "Gold Hart Chile SpA", "region": "REGIÓN DE ATACAMA", "provincia": "Provincia de Copiapó", "comuna": null, "superficie_ha": 50.0, "datum_original": "PSAD56", "huso": 19, "epsg_origen": 24879, "tipo_publicacion": "mensura", "fuente_pdf": "http://www.diariooficial.interior.gob.cl/publicaciones/2026/10/08/44569/07/2882338.pdf", "archivo": "gm_mensura_2882338.pdf", "fecha": "08-10-2026", "edicion": "44569" }, "geometry": { "type": "Polygon", "coordinates": [ [ [ -70.03309077274146, -27.347744197478605 ], [ -70.028036396615008, -27.347781490235519 ], [ -70.028119737690403, -27.356808177565433 ], [ -70.03317452338888, -27.356770870472218 ], [ -70.03309077274146, -27.347744197478605 ] ] ] } },
{ "type": "Feature", "properties": { "cve": "2882173", "nombre": "ARCILA NUEVA 1 AL 8", "solicitante": "Inversiones Ramaja S.A.", "region": "REGIÓN DE VALPARAÍSO", "provincia": "Provincia de Petorca", "comuna": null, "superficie_ha": null, "datum_original": "PSAD56", "huso": 19, "epsg_origen": 24879, "tipo_publicacion": "mensura", "fuente_pdf": "http://www.diariooficial.interior.gob.cl/publicaciones/2026/10/08/44569/07/2882173.pdf", "archivo": "gm_mensura_2882173.pdf", "fecha": "08-10-2026", "edicion": "44569" }, "geometry": { "type": "Polygon", "coordinates": [ [ [ -70.876986592550651, -32.141518926766949 ], [ -70.868508509745581, -32.141644393322764 ], [ -70.868692464422494, -32.150661139736791 ], [ -70.877171380702805, -32.150535629582635 ], [ -70.876986592550651, -32.141518926766949 ] ] ] } },
{ "type": "Feature", "properties": { "cve": "2882051", "nombre": "LOS GONZALEZ 1 DEL 1 AL 10", "solicitante": "González Tapia Juan Pablo", "region": "REGIÓN METROPOLITANA DE SANTIAGO", "provincia": "Provincia de Chacabuco", "comuna": null, "superficie_ha": 50.0, "datum_original": "PSAD56", "huso": 19, "epsg_origen": 24879, "tipo_publicacion": "mensura", "fuente_pdf": "http://www.diariooficial.interior.gob.cl/publicaciones/2026/10/08/44569/07/2882051.pdf", "archivo": "gm_mensura_2882051.pdf", "fecha": "08-10-2026", "edicion": "44569" }, "geometry": { "type": "Polygon", "coordinates": [ [ [ -70.927525341895318, -33.312173987327164 ], [ -70.92215700692482, -33.312257172935674 ], [ -70.922236163506966, -33.315863082129297 ], [ -70.916867585766056, -33.31594604731422 ], [ -70.916926796870854, -33.318650486198656 ], [ -70.927664261488601, -33.318484307069959 ], [ -70.927525341895318, -33.312173987327164 ] ] ] } },
{ "type": "Feature", "properties": { "cve": "2882253", "nombre": "ULISES 1", "solicitante": "FQM Exploration (Chile) S.A.", "region": "REGIÓN DE TARAPACÁ", "provincia": "Provincia del Tamarugal", "comuna": "Huara", "superficie_ha": 300.0, "datum_original": "PSAD56", "huso": 19, "epsg_origen": 24879, "tipo_publicacion": "pedimento", "fuente_pdf": "http://www.diariooficial.interior.gob.cl/publicaciones/2026/10/08/44569/07/2882253.pdf", "archivo": "gm_pedimento_2882253.pdf", "fecha": "08-10-2026", "edicion": "44569" }, "geometry": { "type": "Polygon", "coordinates": [ [ [ -69.192867622224128, -19.926647048243652 ], [ -69.164201861467518, -19.926675834016105 ], [ -69.164211195381938, -19.935712522852242 ], [ -69.192878585596404, -19.935683722946727 ], [ -69.192867622224128, -19.926647048243652 ] ] ] } },
{ "type": "Feature", "properties": { "cve": "2882262", "nombre": "ULISES 10", "solicitante": "FQM Exploration (Chile) S.A.", "region": "REGIÓN DE TARAPACÁ", "provincia": "Provincia del Tamarugal", "comuna": "Huara", "superficie_ha": 200.0, "datum_original": "PSAD56", "huso": 19, "epsg_origen": 24879, "tipo_publicacion": "pedimento", "fuente_pdf": "http://www.diariooficial.interior.gob.cl/publicaciones/2026/10/08/44569/07/2882262.pdf", "archivo": "gm_pedimento_2882262.pdf", "fecha": "08-10-2026", "edicion": "44569" }, "geometry": { "type": "Polygon", "coordinates": [ [ [ -69.164211195381938, -19.935712522852242 ], [ -69.145099575798142, -19.935729153845404 ], [ -69.145107827926779, -19.944765841566948 ], [ -69.164220534418746, -19.944749202411511 ], [ -69.164211195381938, -19.935712522852242 ] ] ] } },
{ "type": "Feature", "properties": { "cve": "2882263", "nombre": "ULISES 11", "solicitante": "FQM Exploration (Chile) S.A.", "region": "REGIÓN DE TARAPACÁ", "provincia": "Provincia del Tamarugal", "comuna": "Huara", "superficie_ha": 200.0, "datum_original": "PSAD56", "huso": 19, "epsg_origen": 24879, "tipo_publicacion": "pedimento", "fuente_pdf": "http://www.diariooficial.interior.gob.cl/publicaciones/2026/10/08/44569/07/2882263.pdf", "archivo": "gm_pedimento_2882263.pdf", "fecha": "08-10-2026", "edicion": "44569" }, "geometry": { "type": "Polygon", "coordinates": [ [ [ -69.164220534418746, -19.944749202411511 ], [ -69.145107827926779, -19.944765841566948 ], [ -69.14511608458281, -19.953802520009074 ], [ -69.164229878579292, -19.953785872690464 ], [ -69.164220534418746, -19.944749202411511 ] ] ] } },
{ "type": "Feature", "properties": { "cve": "2882264", "nombre": "ULISES 12", "solicitante": "FQM Exploration (Chile) S.A.", "region": "REGIÓN DE TARAPACÁ", "provincia": "Provincia del Tamarugal", "comuna": "Huara", "superficie_ha": 200.0, "datum_original": "PSAD56", "huso": 19, "epsg_origen": 24879, "tipo_publicacion": "pedimento", "fuente_pdf": "http://www.diariooficial.interior.gob.cl/publicaciones/2026/10/08/44569/07/2882264.pdf", "archivo": "gm_pedimento_2882264.pdf", "fecha": "08-10-2026", "edicion": "44569" }, "geometry": { "type": "Polygon", "coordinates": [ [ [ -69.164229878579292, -19.953785872690464 ], [ -69.14511608458281, -19.953802520009074 ], [ -69.145124345767428, -19.962839189168314 ], [ -69.164239227864883, -19.962822533685635 ], [ -69.164229878579292, -19.953785872690464 ] ] ] } },
{ "type": "Feature", "properties": { "cve": "2882265", "nombre": "ULISES 13", "solicitante": "FQM Exploration (Chile) S.A.", "region": "REGIÓN DE TARAPACÁ", "provincia": "Provincia del Tamarugal", "comuna": "Huara", "superficie_ha": 200.0, "datum_original": "PSAD56", "huso": 19, "epsg_origen": 24879, "tipo_publicacion": "pedimento", "fuente_pdf": "http://www.diariooficial.interior.gob.cl/publicaciones/2026/10/08/44569/07/2882265.pdf", "archivo": "gm_pedimento_2882265.pdf", "fecha": "08-10-2026", "edicion": "44569" }, "geometry": { "type": "Polygon", "coordinates": [ [ [ -69.164239227864883, -19.962822533685635 ], [ -69.145124345767428, -19.962839189168314 ], [ -69.145132611481827, -19.971875849041226 ], [ -69.164248582276869, -19.971859185393573 ], [ -69.164239227864883, -19.962822533685635 ] ] ] } },
{ "type": "Feature", "properties": { "cve": "2882266", "nombre": "ULISES 14", "solicitante": "FQM Exploration (Chile) S.A.", "region": "REGIÓN DE TARAPACÁ", "provincia": "Provincia del Tamarugal", "comuna": "Huara", "superficie_ha": 200.0, "datum_original": "PSAD56", "huso": 19, "epsg_origen": 24879, "tipo_publicacion": "pedimento", "fuente_pdf": "http://www.diariooficial.interior.gob.cl/publicaciones/2026/10/08/44569/07/2882266.pdf", "archivo": "gm_pedimento_2882266.pdf", "fecha": "08-10-2026", "edicion": "44569" }, "geometry": { "type": "Polygon", "coordinates": [ [ [ -69.164248582276869, -19.971859185393573 ], [ -69.145132611481827, -19.971875849041226 ], [ -69.145140881727158, -19.980912499624328 ], [ -69.164257941816558, -19.980895827810816 ], [ -69.164248582276869, -19.971859185393573 ] ] ] } },
{ "type": "Feature", "properties": { "cve": "2882267", "nombre": "ULISES 15", "solicitante": "FQM Exploration (Chile) S.A.", "region": "REGIÓN DE TARAPACÁ", "provincia": "Provincia del Tamarugal", "comuna": "Huara", "superficie_ha": 200.0, "datum_original": "PSAD56", "huso": 19, "epsg_origen": 24879, "tipo_publicacion": "pedimento", "fuente_pdf": "http://www.diariooficial.interior.gob.cl/publicaciones/2026/10/08/44569/07/2882267.pdf", "archivo": "gm_pedimento_2882267.pdf", "fecha": "08-10-2026", "edicion": "44569" }, "geometry": { "type": "Polygon", "coordinates": [ [ [ -69.164257941816558, -19.980895827810816 ], [ -69.145140881727158, -19.980912499624328 ], [ -69.145149156504615, -19.989949140914195 ], [ -69.164267306485328, -19.989932460933925 ], [ -69.164257941816558, -19.980895827810816 ] ] ] } },
{ "type": "Feature", "properties": { "cve": "2882268", "nombre": "ULISES 16", "solicitante": "FQM Exploration (Chile) S.A.", "region": "REGIÓN DE TARAPACÁ", "provincia": "Provincia del Tamarugal", "comuna": "Pozo Almonte", "superficie_ha": 100.0, "datum_original": "PSAD56", "huso": 19, "epsg_origen": 24879, "tipo_publicacion": "pedimento", "fuente_pdf": "http://www.diariooficial.interior.gob.cl/publicaciones/2026/10/08/44569/07/2882268.pdf", "archivo": "gm_pedimento_2882268.pdf", "fecha": "08-10-2026", "edicion": "44569" }, "geometry": { "type": "Polygon", "coordinates": [ [ [ -69.164267306485328, -19.989932460933925 ], [ -69.154708233910767, -19.989941058575919 ], [ -69.15471705846636, -19.998977686611408 ], [ -69.164276676284473, -19.998969084759409 ], [ -69.164267306485328, -19.989932460933925 ] ] ] } },
{ "type": "Feature", "properties": { "cve": "2882254", "nombre": "ULISES 2", "solicitante": "FQM Exploration (Chile) S.A.", "region": "REGIÓN DE TARAPACÁ", "provincia": "Provincia del Tamarugal", "comuna": "Huara", "superficie_ha": 300.0, "datum_original": "PSAD56", "huso": 19, "epsg_origen": 24879, "tipo_publicacion": "pedimento", "fuente_pdf": "http://www.diariooficial.interior.gob.cl/publicaciones/2026/10/08/44569/07/2882254.pdf", "archivo": "gm_pedimento_2882254.pdf", "fecha": "08-10-2026", "edicion": "44569" }, "geometry": { "type": "Polygon", "coordinates": [ [ [ -69.192878585596404, -19.935683722946727 ], [ -69.164211195381938, -19.935712522852242 ], [ -69.164220534418746, -19.944749202411511 ], [ -69.192889554985314, -19.944720388371397 ], [ -69.192878585596404, -19.935683722946727 ] ] ] } },
{ "type": "Feature", "properties": { "cve": "2882255", "nombre": "ULISES 3", "solicitante": "FQM Exploration (Chile) S.A.", "region": "REGIÓN DE TARAPACÁ", "provincia": "Provincia del Tamarugal", "comuna": "Huara", "superficie_ha": 300.0, "datum_original": "PSAD56", "huso": 19, "epsg_origen": 24879, "tipo_publicacion": "pedimento", "fuente_pdf": "http://www.diariooficial.interior.gob.cl/publicaciones/2026/10/08/44569/07/2882255.pdf", "archivo": "gm_pedimento_2882255.pdf", "fecha": "08-10-2026", "edicion": "44569" }, "geometry": { "type": "Polygon", "coordinates": [ [ [ -69.192889554985314, -19.944720388371397 ], [ -69.164220534418746, -19.944749202411511 ], [ -69.164229878579292, -19.953785872690464 ], [ -69.192900530392436, -19.95375704451417 ], [ -69.192889554985314, -19.944720388371397 ] ] ] } },
{ "type": "Feature", "properties": { "cve": "2882256", "nombre": "ULISES 4", "solicitante": "FQM Exploration (Chile) S.A.", "region": "REGIÓN DE TARAPACÁ", "provincia": "Provincia del Tamarugal", "comuna": "Huara", "superficie_ha": 300.0, "datum_original": "PSAD56", "huso": 19, "epsg_origen": 24879, "tipo_publicacion": "pedimento", "fuente_pdf": "http://www.diariooficial.interior.gob.cl/publicaciones/2026/10/08/44569/07/2882256.pdf", "archivo": "gm_pedimento_2882256.pdf", "fecha": "08-10-2026", "edicion": "44569" }, "geometry": { "type": "Polygon", "coordinates": [ [ [ -69.192900530392436, -19.95375704451417 ], [ -69.164229878579292, -19.953785872690464 ], [ -69.164239227864883, -19.962822533685635 ], [ -69.19291151181929, -19.962793691371619 ], [ -69.192900530392436, -19.95375704451417 ] ] ] } },
{ "type": "Feature", "properties": { "cve": "2882257", "nombre": "ULISES 5", "solicitante": "FQM Exploration (Chile) S.A.", "region": "REGIÓN DE TARAPACÁ", "provincia": "Provincia del Tamarugal", "comuna": "Huara", "superficie_ha": 300.0, "datum_original": "PSAD56", "huso": 19, "epsg_origen": 24879, "tipo_publicacion": "pedimento", "fuente_pdf": "http://www.diariooficial.interior.gob.cl/publicaciones/2026/10/08/44569/07/2882257.pdf", "archivo": "gm_pedimento_2882257.pdf", "fecha": "08-10-2026", "edicion": "44569" }, "geometry": { "type": "Polygon", "coordinates": [ [ [ -69.19291151181929, -19.962793691371619 ], [ -69.164239227864883, -19.962822533685635 ], [ -69.164248582276869, -19.971859185393573 ], [ -69.192922499267453, -19.971830328940271 ], [ -69.19291151181929, -19.962793691371619 ] ] ] } },
{ "type": "Feature", "properties": { "cve": "2882258", "nombre": "ULISES 6", "solicitante": "FQM Exploration (Chile) S.A.", "region": "REGIÓN DE TARAPACÁ", "provincia": "Provincia del Tamarugal", "comuna": "Huara", "superficie_ha": 300.0, "datum_original": "PSAD56", "huso": 19, "epsg_origen": 24879, "tipo_publicacion": "pedimento", "fuente_pdf": "http://www.diariooficial.interior.gob.cl/publicaciones/2026/10/08/44569/07/2882258.pdf", "archivo": "gm_pedimento_2882258.pdf", "fecha": "08-10-2026", "edicion": "44569" }, "geometry": { "type": "Polygon", "coordinates": [ [ [ -69.192922499267453, -19.971830328940271 ], [ -69.164248582276869, -19.971859185393573 ], [ -69.164257941816558, -19.980895827810816 ], [ -69.192933492738533, -19.980866957216687 ], [ -69.192922499267453, -19.971830328940271 ] ] ] } },
{ "type": "Feature", "properties": { "cve": "2882259", "nombre": "ULISES 7", "solicitante": "FQM Exploration (Chile) S.A.", "region": "REGIÓN DE TARAPACÁ", "provincia": "Provincia del Tamarugal", "comuna": "Huara", "superficie_ha": 300.0, "datum_original": "PSAD56", "huso": 19, "epsg_origen": 24879, "tipo_publicacion": "pedimento", "fuente_pdf": "http://www.diariooficial.interior.gob.cl/publicaciones/2026/10/08/44569/07/2882259.pdf", "archivo": "gm_pedimento_2882259.pdf", "fecha": "08-10-2026", "edicion": "44569" }, "geometry": { "type": "Polygon", "coordinates": [ [ [ -69.192933492738533, -19.980866957216687 ], [ -69.164257941816558, -19.980895827810816 ], [ -69.164267306485328, -19.989932460933925 ], [ -69.192944492234034, -19.989903576197385 ], [ -69.192933492738533, -19.980866957216687 ] ] ] } },
{ "type": "Feature", "properties": { "cve": "2882260", "nombre": "ULISES 8", "solicitante": "FQM Exploration (Chile) S.A.", "region": "REGIÓN DE TARAPACÁ", "provincia": "Provincia del Tamarugal", "comuna": "Huara", "superficie_ha": 300.0, "datum_original": "PSAD56", "huso": 19, "epsg_origen": 24879, "tipo_publicacion": "pedimento", "fuente_pdf": "http://www.diariooficial.interior.gob.cl/publicaciones/2026/10/08/44569/07/2882260.pdf", "archivo": "gm_pedimento_2882260.pdf", "fecha": "08-10-2026", "edicion": "44569" }, "geometry": { "type": "Polygon", "coordinates": [ [ [ -69.192944492234034, -19.989903576197385 ], [ -69.164267306485328, -19.989932460933925 ], [ -69.164276676284473, -19.998969084759409 ], [ -69.192955497755563, -19.998940185878933 ], [ -69.192944492234034, -19.989903576197385 ] ] ] } },
{ "type": "Feature", "properties": { "cve": "2882261", "nombre": "ULISES 9", "solicitante": "FQM Exploration (Chile) S.A.", "region": "REGIÓN DE TARAPACÁ", "provincia": "Provincia del Tamarugal", "comuna": "Huara", "superficie_ha": 200.0, "datum_original": "PSAD56", "huso": 19, "epsg_origen": 24879, "tipo_publicacion": "pedimento", "fuente_pdf": "http://www.diariooficial.interior.gob.cl/publicaciones/2026/10/08/44569/07/2882261.pdf", "archivo": "gm_pedimento_2882261.pdf", "fecha": "08-10-2026", "edicion": "44569" }, "geometry": { "type": "Polygon", "coordinates": [ [ [ -69.164201861467518, -19.926675834016105 ], [ -69.145091328195747, -19.926692456847899 ], [ -69.145099575798142, -19.935729153845404 ], [ -69.164211195381938, -19.935712522852242 ], [ -69.164201861467518, -19.926675834016105 ] ] ] } },
{ "type": "Feature", "properties": { "cve": "2882132", "nombre": "Sierra 1", "solicitante": "León Alvear Óscar Joel", "region": "REGIÓN DE ANTOFAGASTA", "provincia": "Provincia de Antofagasta", "comuna": null, "superficie_ha": 200.0, "datum_original": "PSAD56", "huso": 19, "epsg_origen": 24879, "tipo_publicacion": "pedimento", "fuente_pdf": "http://www.diariooficial.interior.gob.cl/publicaciones/2026/10/08/44569/07/2882132.pdf", "archivo": "gm_pedimento_2882132.pdf", "fecha": "08-10-2026", "edicion": "44569" }, "geometry": { "type": "Polygon", "coordinates": [ [ [ -70.026088905537094, -22.968262200323995 ], [ -70.016334950842463, -22.968325016073798 ], [ -70.016470045243878, -22.986388979847849 ], [ -70.02622529591261, -22.986326109155069 ], [ -70.026088905537094, -22.968262200323995 ] ] ] } },
{ "type": "Feature", "properties": { "cve": "2882141", "nombre": "Sierra 10", "solicitante": "León Alvear Óscar Joel", "region": "REGIÓN DE ANTOFAGASTA", "provincia": "Provincia de Antofagasta", "comuna": null, "superficie_ha": 200.0, "datum_original": "PSAD56", "huso": 19, "epsg_origen": 24879, "tipo_publicacion": "pedimento", "fuente_pdf": "http://www.diariooficial.interior.gob.cl/publicaciones/2026/10/08/44569/07/2882141.pdf", "archivo": "gm_pedimento_2882141.pdf", "fecha": "08-10-2026", "edicion": "44569" }, "geometry": { "type": "Polygon", "coordinates": [ [ [ -70.075631369007411, -23.0654822036471 ], [ -70.065870576382267, -23.065548329071678 ], [ -70.066012923430478, -23.083611783885527 ], [ -70.075775018999863, -23.083545600815064 ], [ -70.075631369007411, -23.0654822036471 ] ] ] } },
{ "type": "Feature", "properties": { "cve": "2882142", "nombre": "Sierra 11", "solicitante": "León Alvear Óscar Joel", "region": "REGIÓN DE ANTOFAGASTA", "provincia": "Provincia de Antofagasta", "comuna": null, "superficie_ha": 300.0, "datum_original": "PSAD56", "huso": 19, "epsg_origen": 24879, "tipo_publicacion": "pedimento", "fuente_pdf": "http://www.diariooficial.interior.gob.cl/publicaciones/2026/10/08/44569/07/2882142.pdf", "archivo": "gm_pedimento_2882142.pdf", "fecha": "08-10-2026", "edicion": "44569" }, "geometry": { "type": "Polygon", "coordinates": [ [ [ -70.06579945661295, -23.056516585739004 ], [ -70.056039279145907, -23.056582080063652 ], [ -70.056250792007077, -23.083677363885613 ], [ -70.066012923430478, -23.083611783885527 ], [ -70.06579945661295, -23.056516585739004 ] ] ] } },
{ "type": "Feature", "properties": { "cve": "2882143", "nombre": "Sierra 12", "solicitante": "León Alvear Óscar Joel", "region": "REGIÓN DE ANTOFAGASTA", "provincia": "Provincia de Antofagasta", "comuna": null, "superficie_ha": 300.0, "datum_original": "PSAD56", "huso": 19, "epsg_origen": 24879, "tipo_publicacion": "pedimento", "fuente_pdf": "http://www.diariooficial.interior.gob.cl/publicaciones/2026/10/08/44569/07/2882143.pdf", "archivo": "gm_pedimento_2882143.pdf", "fecha": "08-10-2026", "edicion": "44569" }, "geometry": { "type": "Polygon", "coordinates": [ [ [ -70.125884266072831, -23.098550891651303 ], [ -70.116121250777553, -23.098620213596181 ], [ -70.116345250710765, -23.125714810651079 ], [ -70.126110224389436, -23.125645398154607 ], [ -70.125884266072831, -23.098550891651303 ] ] ] } },
{ "type": "Feature", "properties": { "cve": "2882144", "nombre": "Sierra 13", "solicitante": "León Alvear Óscar Joel", "region": "REGIÓN DE ANTOFAGASTA", "provincia": "Provincia de Antofagasta", "comuna": null, "superficie_ha": 300.0, "datum_original": "PSAD56", "huso": 19, "epsg_origen": 24879, "tipo_publicacion": "pedimento", "fuente_pdf": "http://www.diariooficial.interior.gob.cl/publicaciones/2026/10/08/44569/07/2882144.pdf", "archivo": "gm_pedimento_2882144.pdf", "fecha": "08-10-2026", "edicion": "44569" }, "geometry": { "type": "Polygon", "coordinates": [ [ [ -70.116121250777553, -23.098620213596181 ], [ -70.106358197929382, -23.09868893207117 ], [ -70.10658023944562, -23.12578361888945 ], [ -70.116345250710765, -23.125714810651079 ], [ -70.116121250777553, -23.098620213596181 ] ] ] } },
{ "type": "Feature", "properties": { "cve": "2882145", "nombre": "Sierra 14", "solicitante": "León Alvear Óscar Joel", "region": "REGIÓN DE ANTOFAGASTA", "provincia": "Provincia de Antofagasta", "comuna": null, "superficie_ha": 300.0, "datum_original": "PSAD56", "huso": 19, "epsg_origen": 24879, "tipo_publicacion": "pedimento", "fuente_pdf": "http://www.diariooficial.interior.gob.cl/publicaciones/2026/10/08/44569/07/2882145.pdf", "archivo": "gm_pedimento_2882145.pdf", "fecha": "08-10-2026", "edicion": "44569" }, "geometry": { "type": "Polygon", "coordinates": [ [ [ -70.086831980887311, -23.098824558574087 ], [ -70.077068817349968, -23.098891466583549 ], [ -70.077284983416916, -23.125986417962743 ], [ -70.087050105470126, -23.125919422554531 ], [ -70.086831980887311, -23.098824558574087 ] ] ] } },
{ "type": "Feature", "properties": { "cve": "2882146", "nombre": "Sierra 15", "solicitante": "León Alvear Óscar Joel", "region": "REGIÓN DE ANTOFAGASTA", "provincia": "Provincia de Antofagasta", "comuna": null, "superficie_ha": 300.0, "datum_original": "PSAD56", "huso": 19, "epsg_origen": 24879, "tipo_publicacion": "pedimento", "fuente_pdf": "http://www.diariooficial.interior.gob.cl/publicaciones/2026/10/08/44569/07/2882146.pdf", "archivo": "gm_pedimento_2882146.pdf", "fecha": "08-10-2026", "edicion": "44569" }, "geometry": { "type": "Polygon", "coordinates": [ [ [ -70.077068817349968, -23.098891466583549 ], [ -70.067305617572785, -23.098957771086191 ], [ -70.067519825091495, -23.126052809075865 ], [ -70.077284983416916, -23.125986417962743 ], [ -70.077068817349968, -23.098891466583549 ] ] ] } },
{ "type": "Feature", "properties": { "cve": "2882147", "nombre": "Sierra 16", "solicitante": "León Alvear Óscar Joel", "region": "REGIÓN DE ANTOFAGASTA", "provincia": "Provincia de Antofagasta", "comuna": null, "superficie_ha": 300.0, "datum_original": "PSAD56", "huso": 19, "epsg_origen": 24879, "tipo_publicacion": "pedimento", "fuente_pdf": "http://www.diariooficial.interior.gob.cl/publicaciones/2026/10/08/44569/07/2882147.pdf", "archivo": "gm_pedimento_2882147.pdf", "fecha": "08-10-2026", "edicion": "44569" }, "geometry": { "type": "Polygon", "coordinates": [ [ [ -70.067305617572785, -23.098957771086191 ], [ -70.057542381884062, -23.099023472072968 ], [ -70.05775463082243, -23.126118595884886 ], [ -70.067519825091495, -23.126052809075865 ], [ -70.067305617572785, -23.098957771086191 ] ] ] } },
{ "type": "Feature", "properties": { "cve": "2882148", "nombre": "Sierra 17", "solicitante": "León Alvear Óscar Joel", "region": "REGIÓN DE ANTOFAGASTA", "provincia": "Provincia de Antofagasta", "comuna": null, "superficie_ha": 300.0, "datum_original": "PSAD56", "huso": 19, "epsg_origen": 24879, "tipo_publicacion": "pedimento", "fuente_pdf": "http://www.diariooficial.interior.gob.cl/publicaciones/2026/10/08/44569/07/2882148.pdf", "archivo": "gm_pedimento_2882148.pdf", "fecha": "08-10-2026", "edicion": "44569" }, "geometry": { "type": "Polygon", "coordinates": [ [ [ -70.057542381884062, -23.099023472072968 ], [ -70.047779110612083, -23.09908856953496 ], [ -70.047989400938306, -23.126183778380813 ], [ -70.05775463082243, -23.126118595884886 ], [ -70.057542381884062, -23.099023472072968 ] ] ] } },
{ "type": "Feature", "properties": { "cve": "2882281", "nombre": "Sierra 18", "solicitante": "León Alvear Óscar Joel", "region": "REGIÓN DE ANTOFAGASTA", "provincia": "Provincia de Antofagasta", "comuna": null, "superficie_ha": 300.0, "datum_original": "PSAD56", "huso": 19, "epsg_origen": 24879, "tipo_publicacion": "pedimento", "fuente_pdf": "http://www.diariooficial.interior.gob.cl/publicaciones/2026/10/08/44569/07/2882281.pdf", "archivo": "gm_pedimento_2882281.pdf", "fecha": "08-10-2026", "edicion": "44569" }, "geometry": { "type": "Polygon", "coordinates": [ [ [ -70.047779110612083, -23.09908856953496 ], [ -70.038015804085177, -23.099153063463284 ], [ -70.038224135767734, -23.126248356554797 ], [ -70.047989400938306, -23.126183778380813 ], [ -70.047779110612083, -23.09908856953496 ] ] ] } },
{ "type": "Feature", "properties": { "cve": "2882282", "nombre": "Sierra 19", "solicitante": "León Alvear Óscar Joel", "region": "REGIÓN DE ANTOFAGASTA", "provincia": "Provincia de Antofagasta", "comuna": null, "superficie_ha": 100.0, "datum_original": "PSAD56", "huso": 19, "epsg_origen": 24879, "tipo_publicacion": "pedimento", "fuente_pdf": "http://www.diariooficial.interior.gob.cl/publicaciones/2026/10/08/44569/07/2882282.pdf", "archivo": "gm_pedimento_2882282.pdf", "fecha": "08-10-2026", "edicion": "44569" }, "geometry": { "type": "Polygon", "coordinates": [ [ [ -70.038085213038599, -23.108184838448871 ], [ -70.028321219021862, -23.108248756650259 ], [ -70.028390010020999, -23.11728054883428 ], [ -70.038154656929322, -23.117216602813784 ], [ -70.038085213038599, -23.108184838448871 ] ] ] } },
{ "type": "Feature", "properties": { "cve": "2882133", "nombre": "Sierra 2", "solicitante": "León Alvear Óscar Joel", "region": "REGIÓN DE ANTOFAGASTA", "provincia": "Provincia de Antofagasta", "comuna": null, "superficie_ha": 200.0, "datum_original": "PSAD56", "huso": 19, "epsg_origen": 24879, "tipo_publicacion": "pedimento", "fuente_pdf": "http://www.diariooficial.interior.gob.cl/publicaciones/2026/10/08/44569/07/2882133.pdf", "archivo": "gm_pedimento_2882133.pdf", "fecha": "08-10-2026", "edicion": "44569" }, "geometry": { "type": "Polygon", "coordinates": [ [ [ -70.055490840024888, -22.986133895486486 ], [ -70.045735693630192, -22.986198566965712 ], [ -70.045874816233933, -23.004262322016046 ], [ -70.055631259849307, -23.004197594005714 ], [ -70.055490840024888, -22.986133895486486 ] ] ] } },
{ "type": "Feature", "properties": { "cve": "2882149", "nombre": "Sierra 20", "solicitante": "León Alvear Óscar Joel", "region": "REGIÓN DE ANTOFAGASTA", "provincia": "Provincia de Antofagasta", "comuna": null, "superficie_ha": 100.0, "datum_original": "PSAD56", "huso": 19, "epsg_origen": 24879, "tipo_publicacion": "pedimento", "fuente_pdf": "http://www.diariooficial.interior.gob.cl/publicaciones/2026/10/08/44569/07/2882149.pdf", "archivo": "gm_pedimento_2882149.pdf", "fecha": "08-10-2026", "edicion": "44569" }, "geometry": { "type": "Polygon", "coordinates": [ [ [ -70.173880636594163, -23.138844986683498 ], [ -70.164114870834752, -23.13891739503498 ], [ -70.164192860179668, -23.147948740232003 ], [ -70.1739592798274, -23.147876300400302 ], [ -70.173880636594163, -23.138844986683498 ] ] ] } },
{ "type": "Feature", "properties": { "cve": "2882150", "nombre": "Sierra 21", "solicitante": "León Alvear Óscar Joel", "region": "REGIÓN DE ANTOFAGASTA", "provincia": "Provincia de Antofagasta", "comuna": null, "superficie_ha": 200.0, "datum_original": "PSAD56", "huso": 19, "epsg_origen": 24879, "tipo_publicacion": "pedimento", "fuente_pdf": "http://www.diariooficial.interior.gob.cl/publicaciones/2026/10/08/44569/07/2882150.pdf", "archivo": "gm_pedimento_2882150.pdf", "fecha": "08-10-2026", "edicion": "44569" }, "geometry": { "type": "Polygon", "coordinates": [ [ [ -70.164114870834752, -23.13891739503498 ], [ -70.154349065868118, -23.138989198781097 ], [ -70.154503775648337, -23.157051940929183 ], [ -70.164270888743744, -23.156980074744236 ], [ -70.164114870834752, -23.13891739503498 ] ] ] } },
{ "type": "Feature", "properties": { "cve": "2882151", "nombre": "Sierra 22", "solicitante": "León Alvear Óscar Joel", "region": "REGIÓN DE ANTOFAGASTA", "provincia": "Provincia de Antofagasta", "comuna": null, "superficie_ha": 200.0, "datum_original": "PSAD56", "huso": 19, "epsg_origen": 24879, "tipo_publicacion": "pedimento", "fuente_pdf": "http://www.diariooficial.interior.gob.cl/publicaciones/2026/10/08/44569/07/2882151.pdf", "archivo": "gm_pedimento_2882151.pdf", "fecha": "08-10-2026", "edicion": "44569" }, "geometry": { "type": "Polygon", "coordinates": [ [ [ -70.154372262418789, -23.141698612826708 ], [ -70.144606222434646, -23.141769821243631 ], [ -70.144759647200914, -23.159832618898534 ], [ -70.154526995534297, -23.159761348566064 ], [ -70.154372262418789, -23.141698612826708 ] ] ] } },
{ "type": "Feature", "properties": { "cve": "2882152", "nombre": "Sierra 23", "solicitante": "León Alvear Óscar Joel", "region": "REGIÓN DE ANTOFAGASTA", "provincia": "Provincia de Antofagasta", "comuna": null, "superficie_ha": 200.0, "datum_original": "PSAD56", "huso": 19, "epsg_origen": 24879, "tipo_publicacion": "pedimento", "fuente_pdf": "http://www.diariooficial.interior.gob.cl/publicaciones/2026/10/08/44569/07/2882152.pdf", "archivo": "gm_pedimento_2882152.pdf", "fecha": "08-10-2026", "edicion": "44569" }, "geometry": { "type": "Polygon", "coordinates": [ [ [ -70.144606222434646, -23.141769821243631 ], [ -70.134840143897151, -23.141840424956875 ], [ -70.134992260291199, -23.159903284001594 ], [ -70.144759647200914, -23.159832618898534 ], [ -70.144606222434646, -23.141769821243631 ] ] ] } },
{ "type": "Feature", "properties": { "cve": "2882153", "nombre": "Sierra 24", "solicitante": "León Alvear Óscar Joel", "region": "REGIÓN DE ANTOFAGASTA", "provincia": "Provincia de Antofagasta", "comuna": null, "superficie_ha": 100.0, "datum_original": "PSAD56", "huso": 19, "epsg_origen": 24879, "tipo_publicacion": "pedimento", "fuente_pdf": "http://www.diariooficial.interior.gob.cl/publicaciones/2026/10/08/44569/07/2882153.pdf", "archivo": "gm_pedimento_2882153.pdf", "fecha": "08-10-2026", "edicion": "44569" }, "geometry": { "type": "Polygon", "coordinates": [ [ [ -70.134916182976042, -23.150871859816075 ], [ -70.125149412180818, -23.150941889246088 ], [ -70.125224835134048, -23.159973343865627 ], [ -70.134992260291199, -23.159903284001594 ], [ -70.134916182976042, -23.150871859816075 ] ] ] } },
{ "type": "Feature", "properties": { "cve": "2882134", "nombre": "Sierra 3", "solicitante": "León Alvear Óscar Joel", "region": "REGIÓN DE ANTOFAGASTA", "provincia": "Provincia de Antofagasta", "comuna": null, "superficie_ha": 300.0, "datum_original": "PSAD56", "huso": 19, "epsg_origen": 24879, "tipo_publicacion": "pedimento", "fuente_pdf": "http://www.diariooficial.interior.gob.cl/publicaciones/2026/10/08/44569/07/2882134.pdf", "archivo": "gm_pedimento_2882134.pdf", "fecha": "08-10-2026", "edicion": "44569" }, "geometry": { "type": "Polygon", "coordinates": [ [ [ -70.045666184961561, -22.97716667356848 ], [ -70.035911651611826, -22.977230716796424 ], [ -70.036118337512647, -23.004326449248275 ], [ -70.045874816233933, -23.004262322016046 ], [ -70.045666184961561, -22.97716667356848 ] ] ] } },
{ "type": "Feature", "properties": { "cve": "2882135", "nombre": "Sierra 4", "solicitante": "León Alvear Óscar Joel", "region": "REGIÓN DE ANTOFAGASTA", "provincia": "Provincia de Antofagasta", "comuna": null, "superficie_ha": 300.0, "datum_original": "PSAD56", "huso": 19, "epsg_origen": 24879, "tipo_publicacion": "pedimento", "fuente_pdf": "http://www.diariooficial.interior.gob.cl/publicaciones/2026/10/08/44569/07/2882135.pdf", "archivo": "gm_pedimento_2882135.pdf", "fecha": "08-10-2026", "edicion": "44569" }, "geometry": { "type": "Polygon", "coordinates": [ [ [ -70.035911651611826, -22.977230716796424 ], [ -70.026157083514377, -22.977294160024474 ], [ -70.026361824012753, -23.00438997569368 ], [ -70.036118337512647, -23.004326449248275 ], [ -70.035911651611826, -22.977230716796424 ] ] ] } },
{ "type": "Feature", "properties": { "cve": "2882136", "nombre": "Sierra 5", "solicitante": "León Alvear Óscar Joel", "region": "REGIÓN DE ANTOFAGASTA", "provincia": "Provincia de Antofagasta", "comuna": null, "superficie_ha": 300.0, "datum_original": "PSAD56", "huso": 19, "epsg_origen": 24879, "tipo_publicacion": "pedimento", "fuente_pdf": "http://www.diariooficial.interior.gob.cl/publicaciones/2026/10/08/44569/07/2882136.pdf", "archivo": "gm_pedimento_2882136.pdf", "fecha": "08-10-2026", "edicion": "44569" }, "geometry": { "type": "Polygon", "coordinates": [ [ [ -70.026054829453159, -22.963746216511066 ], [ -70.01630119854768, -22.963809018527332 ], [ -70.016503840156119, -22.990904964186395 ], [ -70.02625941502275, -22.990842079755645 ], [ -70.026054829453159, -22.963746216511066 ] ] ] } },
{ "type": "Feature", "properties": { "cve": "2882137", "nombre": "Sierra 6", "solicitante": "León Alvear Óscar Joel", "region": "REGIÓN DE ANTOFAGASTA", "provincia": "Provincia de Antofagasta", "comuna": null, "superficie_ha": 300.0, "datum_original": "PSAD56", "huso": 19, "epsg_origen": 24879, "tipo_publicacion": "pedimento", "fuente_pdf": "http://www.diariooficial.interior.gob.cl/publicaciones/2026/10/08/44569/07/2882137.pdf", "archivo": "gm_pedimento_2882137.pdf", "fecha": "08-10-2026", "edicion": "44569" }, "geometry": { "type": "Polygon", "coordinates": [ [ [ -70.055631259849307, -23.004197594005714 ], [ -70.045874816233933, -23.004262322016046 ], [ -70.046083763461795, -23.031357875182721 ], [ -70.055842155363052, -23.03129306234835 ], [ -70.055631259849307, -23.004197594005714 ] ] ] } },
{ "type": "Feature", "properties": { "cve": "2882138", "nombre": "Sierra 7", "solicitante": "León Alvear Óscar Joel", "region": "REGIÓN DE ANTOFAGASTA", "provincia": "Provincia de Antofagasta", "comuna": null, "superficie_ha": 300.0, "datum_original": "PSAD56", "huso": 19, "epsg_origen": 24879, "tipo_publicacion": "pedimento", "fuente_pdf": "http://www.diariooficial.interior.gob.cl/publicaciones/2026/10/08/44569/07/2882138.pdf", "archivo": "gm_pedimento_2882138.pdf", "fecha": "08-10-2026", "edicion": "44569" }, "geometry": { "type": "Polygon", "coordinates": [ [ [ -70.045874816233933, -23.004262322016046 ], [ -70.036118337512647, -23.004326449248275 ], [ -70.036325336423374, -23.031422086451762 ], [ -70.046083763461795, -23.031357875182721 ], [ -70.045874816233933, -23.004262322016046 ] ] ] } },
{ "type": "Feature", "properties": { "cve": "2882139", "nombre": "Sierra 8", "solicitante": "León Alvear Óscar Joel", "region": "REGIÓN DE ANTOFAGASTA", "provincia": "Provincia de Antofagasta", "comuna": null, "superficie_ha": 300.0, "datum_original": "PSAD56", "huso": 19, "epsg_origen": 24879, "tipo_publicacion": "pedimento", "fuente_pdf": "http://www.diariooficial.interior.gob.cl/publicaciones/2026/10/08/44569/07/2882139.pdf", "archivo": "gm_pedimento_2882139.pdf", "fecha": "08-10-2026", "edicion": "44569" }, "geometry": { "type": "Polygon", "coordinates": [ [ [ -70.036118337512647, -23.004326449248275 ], [ -70.026361824012753, -23.00438997569368 ], [ -70.02656687457538, -23.031485696146731 ], [ -70.036325336423374, -23.031422086451762 ], [ -70.036118337512647, -23.004326449248275 ] ] ] } },
{ "type": "Feature", "properties": { "cve": "2882140", "nombre": "Sierra 9", "solicitante": "León Alvear Óscar Joel", "region": "REGIÓN DE ANTOFAGASTA", "provincia": "Provincia de Antofagasta", "comuna": null, "superficie_ha": 100.0, "datum_original": "PSAD56", "huso": 19, "epsg_origen": 24879, "tipo_publicacion": "pedimento", "fuente_pdf": "http://www.diariooficial.interior.gob.cl/publicaciones/2026/10/08/44569/07/2882140.pdf", "archivo": "gm_pedimento_2882140.pdf", "fecha": "08-10-2026", "edicion": "44569" }, "geometry": { "type": "Polygon", "coordinates": [ [ [ -70.065728372665916, -23.04748483179349 ], [ -70.055968845861869, -23.047550297567028 ], [ -70.056039279145907, -23.056582080063652 ], [ -70.06579945661295, -23.056516585739004 ], [ -70.065728372665916, -23.04748483179349 ] ] ] } },
{ "type": "Feature", "properties": { "cve": "2882284", "nombre": "CLARITA 1A", "solicitante": "Andina Minergy SpA", "region": "REGIÓN DE ATACAMA", "provincia": "Provincia de Copiapó", "comuna": "Copiapó", "superficie_ha": 240.0, "datum_original": "WGS84", "huso": 19, "epsg_origen": 32719, "tipo_publicacion": "pedimento", "fuente_pdf": "http://www.diariooficial.interior.gob.cl/publicaciones/2026/10/08/44569/07/2882284.pdf", "archivo": "gm_pedimento_2882284.pdf", "fecha": "08-10-2026", "edicion": "44569" }, "geometry": { "type": "Polygon", "coordinates": [ [ [ -69.151048616237389, -26.89667430629024 ], [ -69.142992710827201, -26.89668269080833 ], [ -69.143026841921042, -26.92376873730505 ], [ -69.151084670187174, -26.923760343002932 ], [ -69.151048616237389, -26.89667430629024 ] ] ] } },
{ "type": "Feature", "properties": { "cve": "2882011", "nombre": "PROTECTORA", "solicitante": "Pérez Vargas Miguel Ángel", "region": "REGIÓN DE ATACAMA", "provincia": "Provincia de Copiapó", "comuna": "Tierra Amarilla", "superficie_ha": 200.0, "datum_original": "PSAD56", "huso": 19, "epsg_origen": 24879, "tipo_publicacion": "pedimento", "fuente_pdf": "http://www.diariooficial.interior.gob.cl/publicaciones/2026/10/08/44569/07/2882011.pdf", "archivo": "gm_pedimento_2882011.pdf", "fecha": "08-10-2026", "edicion": "44569" }, "geometry": { "type": "Polygon", "coordinates": [ [ [ -70.176521969842469, -27.52714833870386 ], [ -70.156272662004582, -27.527318186142097 ], [ -70.156367117839736, -27.536344252237111 ], [ -70.176618078920072, -27.536174339799548 ], [ -70.176521969842469, -27.52714833870386 ] ] ] } },
{ "type": "Feature", "properties": { "cve": "2882238", "nombre": "INFIELES 1", "solicitante": "Minera Gold Fields Salares Norte SpA", "region": "REGIÓN DE ATACAMA", "provincia": "Provincia de Chañaral", "comuna": "Diego de Almagro", "superficie_ha": 300.0, "datum_original": "PSAD56", "huso": 19, "epsg_origen": 24879, "tipo_publicacion": "pedimento", "fuente_pdf": "http://www.diariooficial.interior.gob.cl/publicaciones/2026/10/08/44569/07/2882238.pdf", "archivo": "gm_pedimento_2882238.pdf", "fecha": "08-10-2026", "edicion": "44569" }, "geometry": { "type": "Polygon", "coordinates": [ [ [ -69.081690352956045, -25.870734257497368 ], [ -69.071709122310978, -25.870739531329395 ], [ -69.071725484357472, -25.897829248191901 ], [ -69.081708992438635, -25.897823968033222 ], [ -69.081690352956045, -25.870734257497368 ] ] ] } },
{ "type": "Feature", "properties": { "cve": "2882239", "nombre": "INFIELES 2", "solicitante": "Minera Gold Fields Salares Norte SpA", "region": "REGIÓN DE ATACAMA", "provincia": "Provincia de Chañaral", "comuna": "Diego de Almagro", "superficie_ha": 300.0, "datum_original": "PSAD56", "huso": 19, "epsg_origen": 24879, "tipo_publicacion": "pedimento", "fuente_pdf": "http://www.diariooficial.interior.gob.cl/publicaciones/2026/10/08/44569/07/2882239.pdf", "archivo": "gm_pedimento_2882239.pdf", "fecha": "08-10-2026", "edicion": "44569" }, "geometry": { "type": "Polygon", "coordinates": [ [ [ -69.071709122310978, -25.870739531329395 ], [ -69.061727889066191, -25.870744118860706 ], [ -69.061741973673989, -25.897833841226561 ], [ -69.071725484357472, -25.897829248191901 ], [ -69.071709122310978, -25.870739531329395 ] ] ] } },
{ "type": "Feature", "properties": { "cve": "2882240", "nombre": "INFIELES 3", "solicitante": "Minera Gold Fields Salares Norte SpA", "region": "REGIÓN DE ATACAMA", "provincia": "Provincia de Chañaral", "comuna": "DIEGO DE ALMAGRO", "superficie_ha": 300.0, "datum_original": "PSAD56", "huso": 19, "epsg_origen": 24879, "tipo_publicacion": "pedimento", "fuente_pdf": "http://www.diariooficial.interior.gob.cl/publicaciones/2026/10/08/44569/07/2882240.pdf", "archivo": "gm_pedimento_2882240.pdf", "fecha": "08-10-2026", "edicion": "44569" }, "geometry": { "type": "Polygon", "coordinates": [ [ [ -69.061727889066191, -25.870744118860706 ], [ -69.051746653583564, -25.870748020090652 ], [ -69.051758460750477, -25.897837747136549 ], [ -69.061741973673989, -25.897833841226561 ], [ -69.061727889066191, -25.870744118860706 ] ] ] } },
{ "type": "Feature", "properties": { "cve": "2882232", "nombre": "KATY SUR 1", "solicitante": "Minera Gold Fields Salares Norte SpA", "region": "REGIÓN DE ATACAMA", "provincia": "Provincia de Chañaral", "comuna": "DIEGO DE ALMAGRO", "superficie_ha": 300.0, "datum_original": "PSAD56", "huso": 19, "epsg_origen": 24879, "tipo_publicacion": "pedimento", "fuente_pdf": "http://www.diariooficial.interior.gob.cl/publicaciones/2026/10/08/44569/07/2882232.pdf", "archivo": "gm_pedimento_2882232.pdf", "fecha": "08-10-2026", "edicion": "44569" }, "geometry": { "type": "Polygon", "coordinates": [ [ [ -68.681634926621129, -26.168425456893921 ], [ -68.671628517406987, -26.16840298520469 ], [ -68.671552598877682, -26.195491488497471 ], [ -68.681561321447717, -26.195513986923693 ], [ -68.681634926621129, -26.168425456893921 ] ] ] } },
{ "type": "Feature", "properties": { "cve": "2882233", "nombre": "KATY SUR 2", "solicitante": "Minera Gold Fields Salares Norte SpA", "region": "REGIÓN DE ATACAMA", "provincia": "Provincia de Chañaral", "comuna": "Diego de Almagro", "superficie_ha": 300.0, "datum_original": "PSAD56", "huso": 19, "epsg_origen": 24879, "tipo_publicacion": "pedimento", "fuente_pdf": "http://www.diariooficial.interior.gob.cl/publicaciones/2026/10/08/44569/07/2882233.pdf", "archivo": "gm_pedimento_2882233.pdf", "fecha": "08-10-2026", "edicion": "44569" }, "geometry": { "type": "Polygon", "coordinates": [ [ [ -68.671628517406987, -26.16840298520469 ], [ -68.661622120199581, -26.168379818170695 ], [ -68.661543888326435, -26.195468293899168 ], [ -68.671552598877682, -26.195491488497471 ], [ -68.671628517406987, -26.16840298520469 ] ] ] } },
{ "type": "Feature", "properties": { "cve": "2882234", "nombre": "KATY SUR 3", "solicitante": "Minera Gold Fields Salares Norte SpA", "region": "REGIÓN DE ATACAMA", "provincia": "Provincia de Chañaral", "comuna": "Diego de Almagro", "superficie_ha": 300.0, "datum_original": "PSAD56", "huso": 19, "epsg_origen": 24879, "tipo_publicacion": "pedimento", "fuente_pdf": "http://www.diariooficial.interior.gob.cl/publicaciones/2026/10/08/44569/07/2882234.pdf", "archivo": "gm_pedimento_2882234.pdf", "fecha": "08-10-2026", "edicion": "44569" }, "geometry": { "type": "Polygon", "coordinates": [ [ [ -68.661622120199581, -26.168379818170695 ], [ -68.651615735364757, -26.168355955795189 ], [ -68.651535190160189, -26.195444403132051 ], [ -68.661543888326435, -26.195468293899168 ], [ -68.661622120199581, -26.168379818170695 ] ] ] } },
{ "type": "Feature", "properties": { "cve": "2882235", "nombre": "KATY SUR 4", "solicitante": "Minera Gold Fields Salares Norte SpA", "region": "REGIÓN DE ATACAMA", "provincia": "Provincia de Chañaral", "comuna": "Diego de Almagro", "superficie_ha": 300.0, "datum_original": "PSAD56", "huso": 19, "epsg_origen": 24879, "tipo_publicacion": "pedimento", "fuente_pdf": "http://www.diariooficial.interior.gob.cl/publicaciones/2026/10/08/44569/07/2882235.pdf", "archivo": "gm_pedimento_2882235.pdf", "fecha": "08-10-2026", "edicion": "44569" }, "geometry": { "type": "Polygon", "coordinates": [ [ [ -68.681561321447717, -26.195513986923693 ], [ -68.671552598877682, -26.195491488497471 ], [ -68.671476572181419, -26.222579888737176 ], [ -68.681487611403298, -26.222602413912423 ], [ -68.681561321447717, -26.195513986923693 ] ] ] } },
{ "type": "Feature", "properties": { "cve": "2882236", "nombre": "KATY SUR 5", "solicitante": "Minera Gold Fields Salares Norte SpA", "region": "REGIÓN DE ATACAMA", "provincia": "Provincia de Chañaral", "comuna": "DIEGO DE ALMAGRO", "superficie_ha": 300.0, "datum_original": "PSAD56", "huso": 19, "epsg_origen": 24879, "tipo_publicacion": "pedimento", "fuente_pdf": "http://www.diariooficial.interior.gob.cl/publicaciones/2026/10/08/44569/07/2882236.pdf", "archivo": "gm_pedimento_2882236.pdf", "fecha": "08-10-2026", "edicion": "44569" }, "geometry": { "type": "Polygon", "coordinates": [ [ [ -68.671552598877682, -26.195491488497471 ], [ -68.661543888326435, -26.195468293899168 ], [ -68.661465544990435, -26.222556666562159 ], [ -68.671476572181419, -26.222579888737176 ], [ -68.671552598877682, -26.195491488497471 ] ] ] } },
{ "type": "Feature", "properties": { "cve": "2882237", "nombre": "KATY SUR 6", "solicitante": "Minera Gold Fields Salares Norte SpA", "region": "REGIÓN DE ATACAMA", "provincia": "Provincia de Chañaral", "comuna": "Diego de Almagro", "superficie_ha": 300.0, "datum_original": "PSAD56", "huso": 19, "epsg_origen": 24879, "tipo_publicacion": "pedimento", "fuente_pdf": "http://www.diariooficial.interior.gob.cl/publicaciones/2026/10/08/44569/07/2882237.pdf", "archivo": "gm_pedimento_2882237.pdf", "fecha": "08-10-2026", "edicion": "44569" }, "geometry": { "type": "Polygon", "coordinates": [ [ [ -68.661543888326435, -26.195468293899168 ], [ -68.651535190160189, -26.195444403132051 ], [ -68.651454530196844, -26.222532747390652 ], [ -68.661465544990435, -26.222556666562159 ], [ -68.661543888326435, -26.195468293899168 ] ] ] } },
{ "type": "Feature", "properties": { "cve": "2882103", "nombre": "DELTA 1", "solicitante": "Stardust SpA", "region": "REGIÓN DE VALPARAÍSO", "provincia": "Provincia de Petorca", "comuna": null, "superficie_ha": 300.0, "datum_original": "PSAD56", "huso": 19, "epsg_origen": 24879, "tipo_publicacion": "pedimento", "fuente_pdf": "http://www.diariooficial.interior.gob.cl/publicaciones/2026/10/08/44569/07/2882103.pdf", "archivo": "gm_pedimento_2882103.pdf", "fecha": "08-10-2026", "edicion": "44569" }, "geometry": { "type": "Polygon", "coordinates": [ [ [ -70.730065090870781, -32.096448306147302 ], [ -70.71947183046187, -32.09659257086571 ], [ -70.719979032204279, -32.123645174656325 ], [ -70.730575413574073, -32.123500759388662 ], [ -70.730065090870781, -32.096448306147302 ] ] ] } },
{ "type": "Feature", "properties": { "cve": "2882105", "nombre": "DELTA 2", "solicitante": "Stardust SpA", "region": "REGIÓN DE VALPARAÍSO", "provincia": "Provincia de Petorca", "comuna": null, "superficie_ha": 200.0, "datum_original": "PSAD56", "huso": 19, "epsg_origen": 24879, "tipo_publicacion": "pedimento", "fuente_pdf": "http://www.diariooficial.interior.gob.cl/publicaciones/2026/10/08/44569/07/2882105.pdf", "archivo": "gm_pedimento_2882105.pdf", "fecha": "08-10-2026", "edicion": "44569" }, "geometry": { "type": "Polygon", "coordinates": [ [ [ -70.697533200187394, -32.096329291233047 ], [ -70.686939773646245, -32.096470835200584 ], [ -70.687271436777991, -32.114506224093766 ], [ -70.697866943623325, -32.114364581660475 ], [ -70.697533200187394, -32.096329291233047 ] ] ] } },
{ "type": "Feature", "properties": { "cve": "2882106", "nombre": "DELTA 3", "solicitante": "Stardust SpA", "region": "REGIÓN DE VALPARAÍSO", "provincia": "Provincia de Petorca", "comuna": null, "superficie_ha": 300.0, "datum_original": "PSAD56", "huso": 19, "epsg_origen": 24879, "tipo_publicacion": "pedimento", "fuente_pdf": "http://www.diariooficial.interior.gob.cl/publicaciones/2026/10/08/44569/07/2882106.pdf", "archivo": "gm_pedimento_2882106.pdf", "fecha": "08-10-2026", "edicion": "44569" }, "geometry": { "type": "Polygon", "coordinates": [ [ [ -70.708210479849711, -32.100695665006064 ], [ -70.697616608050978, -32.100838118987596 ], [ -70.698117447247185, -32.127891013440816 ], [ -70.7087144408071, -32.127748410808792 ], [ -70.708210479849711, -32.100695665006064 ] ] ] } }
]
}
