{
"type": "FeatureCollection",
"name": "boletin_mineria_20260113",
"crs": { "type": "name", "properties": { "name": "urn:ogc:def:crs:OGC:1.3:CRS84" } },
"features": [
{ "type": "Feature", "properties": { "cve": "2752665", "nombre": "MIS DOS NIETOS 1 DEL 1 AL 10", "solicitante": "Guerra Rivera Jovanny Ernesto", "region": "REGIÓN DE ANTOFAGASTA", "provincia": "Provincia de Antofagasta", "comuna": null, "superficie_ha": 100.0, "datum_original": "PSAD56", "huso": 19, "epsg_origen": 24879, "tipo_publicacion": "manifestacion", "fuente_pdf": "http://www.diariooficial.interior.gob.cl/publicaciones/2026/01/13/44347/07/2752665.pdf", "archivo": "gm_manifestacion_2752665.pdf", "fecha": "13-01-2026", "edicion": "44347" }, "geometry": { "type": "Polygon", "coordinates": [ [ [ -69.611905384819579, -24.112999997828251 ], [ -69.60206563611078, -24.113039082415291 ], [ -69.602107883417034, -24.122070656465244 ], [ -69.611948322482732, -24.122031555415084 ], [ -69.611905384819579, -24.112999997828251 ] ] ] } },
{ "type": "Feature", "properties": { "cve": "2752666", "nombre": "MIS DOS NIETOS DEL 1 AL 10", "solicitante": "Guerra Rivera Jovanny Ernesto", "region": "REGIÓN DE ANTOFAGASTA", "provincia": "Provincia de Antofagasta", "comuna": null, "superficie_ha": 100.0, "datum_original": "PSAD56", "huso": 19, "epsg_origen": 24879, "tipo_publicacion": "manifestacion", "fuente_pdf": "http://www.diariooficial.interior.gob.cl/publicaciones/2026/01/13/44347/07/2752666.pdf", "archivo": "gm_manifestacion_2752666.pdf", "fecha": "13-01-2026", "edicion": "44347" }, "geometry": { "type": "Polygon", "coordinates": [ [ [ -69.601535674389268, -24.104912593371903 ], [ -69.591696524883147, -24.104950998206466 ], [ -69.591738028905937, -24.113982599004682 ], [ -69.601577868469789, -24.113944177989161 ], [ -69.601535674389268, -24.104912593371903 ] ] ] } },
{ "type": "Feature", "properties": { "cve": "2752682", "nombre": "SINTRA A, 1 AL 40", "solicitante": "New Golden Explorations Chile SpA", "region": "REGIÓN DE ATACAMA", "provincia": "Provincia de Chañaral", "comuna": "Chañaral", "superficie_ha": 200.0, "datum_original": "PSAD56", "huso": 19, "epsg_origen": 24879, "tipo_publicacion": "manifestacion", "fuente_pdf": "http://www.diariooficial.interior.gob.cl/publicaciones/2026/01/13/44347/07/2752682.pdf", "archivo": "gm_manifestacion_2752682.pdf", "fecha": "13-01-2026", "edicion": "44347" }, "geometry": { "type": "Polygon", "coordinates": [ [ [ -70.146282192814922, -26.547918644229213 ], [ -70.126207578085555, -26.548078673452679 ], [ -70.12629577931925, -26.557106100506349 ], [ -70.146371965401045, -26.556946008481653 ], [ -70.146282192814922, -26.547918644229213 ] ] ] } },
{ "type": "Feature", "properties": { "cve": "2752683", "nombre": "SINTRA B, 1 AL 40", "solicitante": "New Golden Explorations Chile SpA", "region": "REGIÓN DE ATACAMA", "provincia": "Provincia de Chañaral", "comuna": "Chañaral", "superficie_ha": 200.0, "datum_original": "PSAD56", "huso": 19, "epsg_origen": 24879, "tipo_publicacion": "manifestacion", "fuente_pdf": "http://www.diariooficial.interior.gob.cl/publicaciones/2026/01/13/44347/07/2752683.pdf", "archivo": "gm_manifestacion_2752683.pdf", "fecha": "13-01-2026", "edicion": "44347" }, "geometry": { "type": "Polygon", "coordinates": [ [ [ -70.146371965401045, -26.556946008481653 ], [ -70.12629577931925, -26.557106100506349 ], [ -70.126384022185746, -26.566133515755801 ], [ -70.146461780361463, -26.565973360920278 ], [ -70.146371965401045, -26.556946008481653 ] ] ] } },
{ "type": "Feature", "properties": { "cve": "2752726", "nombre": "LOANCO XI, 1 AL 16", "solicitante": "García Larenas Félix Mauricio", "region": "REGIÓN DEL MAULE", "provincia": "Provincia de Cauquenes", "comuna": null, "superficie_ha": 160.0, "datum_original": "PSAD56", "huso": 18, "epsg_origen": 24878, "tipo_publicacion": "manifestacion", "fuente_pdf": "http://www.diariooficial.interior.gob.cl/publicaciones/2026/01/13/44347/07/2752726.pdf", "archivo": "gm_manifestacion_2752726.pdf", "fecha": "13-01-2026", "edicion": "44347" }, "geometry": { "type": "Polygon", "coordinates": [ [ [ -72.585771346226281, -35.575948547860122 ], [ -72.563718305228079, -35.575504642526916 ], [ -72.563499939313658, -35.582711278840357 ], [ -72.585554952240599, -35.583155301474228 ], [ -72.585771346226281, -35.575948547860122 ] ] ] } },
{ "type": "Feature", "properties": { "cve": "2752529", "nombre": "ESPERANZA 1 AL 1", "solicitante": "Ramírez Rodríguez Antonio Nibaldo", "region": "REGIÓN DE ANTOFAGASTA", "provincia": "Provincia de Antofagasta", "comuna": null, "superficie_ha": 1.0, "datum_original": "PSAD56", "huso": 19, "epsg_origen": 24879, "tipo_publicacion": "mensura", "fuente_pdf": "http://www.diariooficial.interior.gob.cl/publicaciones/2026/01/13/44347/07/2752529.pdf", "archivo": "gm_mensura_2752529.pdf", "fecha": "13-01-2026", "edicion": "44347" }, "geometry": { "type": "Polygon", "coordinates": [ [ [ -70.526378800116817, -24.573400131606324 ], [ -70.525391558228335, -24.573410131479275 ], [ -70.525402489777292, -24.574312962683173 ], [ -70.526389738734053, -24.574302962395127 ], [ -70.526378800116817, -24.573400131606324 ] ] ] } },
{ "type": "Feature", "properties": { "cve": "2752553", "nombre": "RIPIERA DOS 1 AL 5", "solicitante": "Imax Contratista SpA", "region": "REGIÓN DE ANTOFAGASTA", "provincia": "Provincia de Antofagasta", "comuna": null, "superficie_ha": 25.0, "datum_original": "PSAD56", "huso": 19, "epsg_origen": 24879, "tipo_publicacion": "mensura", "fuente_pdf": "http://www.diariooficial.interior.gob.cl/publicaciones/2026/01/13/44347/07/2752553.pdf", "archivo": "gm_mensura_2752553.pdf", "fecha": "13-01-2026", "edicion": "44347" }, "geometry": { "type": "Polygon", "coordinates": [ [ [ -70.197866127546206, -25.404433957411985 ], [ -70.192895940170459, -25.404474362748296 ], [ -70.19294033914386, -25.408988633812793 ], [ -70.197910711399814, -25.408948220293599 ], [ -70.197866127546206, -25.404433957411985 ] ] ] } },
{ "type": "Feature", "properties": { "cve": "2752554", "nombre": "SANTA MARIA PORTAL 1 AL 4", "solicitante": "Araya Zúñiga Eduardo Esteban", "region": "REGIÓN DE ANTOFAGASTA", "provincia": "Provincia de Antofagasta", "comuna": null, "superficie_ha": 4.0, "datum_original": "PSAD56", "huso": 19, "epsg_origen": 24879, "tipo_publicacion": "mensura", "fuente_pdf": "http://www.diariooficial.interior.gob.cl/publicaciones/2026/01/13/44347/07/2752554.pdf", "archivo": "gm_mensura_2752554.pdf", "fecha": "13-01-2026", "edicion": "44347" }, "geometry": { "type": "Polygon", "coordinates": [ [ [ -70.387699026147658, -25.038840517897899 ], [ -70.385717034010327, -25.038859015006807 ], [ -70.385737323927899, -25.040664676429426 ], [ -70.387719345063218, -25.040646177806174 ], [ -70.387699026147658, -25.038840517897899 ] ] ] } },
{ "type": "Feature", "properties": { "cve": "2752386", "nombre": "ETREU 11", "solicitante": "SBX Asesorías e Inversiones Dos Limitada", "region": "REGIÓN DE ANTOFAGASTA", "provincia": "Provincia de Antofagasta", "comuna": "Antofagasta", "superficie_ha": 300.0, "datum_original": "PSAD56", "huso": 19, "epsg_origen": 24879, "tipo_publicacion": "pedimento", "fuente_pdf": "http://www.diariooficial.interior.gob.cl/publicaciones/2026/01/13/44347/07/2752386.pdf", "archivo": "gm_pedimento_2752386.pdf", "fecha": "13-01-2026", "edicion": "44347" }, "geometry": { "type": "Polygon", "coordinates": [ [ [ -68.629228867885303, -24.328732752662113 ], [ -68.619372193384052, -24.328708357993598 ], [ -68.619291216708191, -24.355803175956467 ], [ -68.629149988049335, -24.355827601249167 ], [ -68.629228867885303, -24.328732752662113 ] ] ] } },
{ "type": "Feature", "properties": { "cve": "2752321", "nombre": "EVARISTO", "solicitante": "Carneiro Barañados Eduardo", "region": "REGIÓN DE ANTOFAGASTA", "provincia": "Provincia de Antofagasta", "comuna": "Sierra Gorda", "superficie_ha": 100.0, "datum_original": "PSAD56", "huso": 19, "epsg_origen": 24879, "tipo_publicacion": "pedimento", "fuente_pdf": "http://www.diariooficial.interior.gob.cl/publicaciones/2026/01/13/44347/07/2752321.pdf", "archivo": "gm_pedimento_2752321.pdf", "fecha": "13-01-2026", "edicion": "44347" }, "geometry": { "type": "Polygon", "coordinates": [ [ [ -69.206607335843032, -22.930797113971696 ], [ -69.196854571732288, -22.930809504171343 ], [ -69.196867628531152, -22.939842908923747 ], [ -69.206621039503801, -22.939830513298023 ], [ -69.206607335843032, -22.930797113971696 ] ] ] } },
{ "type": "Feature", "properties": { "cve": "2752378", "nombre": "FRANJA 1 DEL 1 AL 20", "solicitante": "Franja Costera SpA", "region": "REGIÓN DE ANTOFAGASTA", "provincia": "Provincia de Antofagasta", "comuna": null, "superficie_ha": 200.0, "datum_original": "PSAD56", "huso": 19, "epsg_origen": 24879, "tipo_publicacion": "pedimento", "fuente_pdf": "http://www.diariooficial.interior.gob.cl/publicaciones/2026/01/13/44347/07/2752378.pdf", "archivo": "gm_pedimento_2752378.pdf", "fecha": "13-01-2026", "edicion": "44347" }, "geometry": { "type": "Polygon", "coordinates": [ [ [ -70.332584223616323, -24.060553259122994 ], [ -70.322750574221445, -24.060638569149187 ], [ -70.322935788706374, -24.07869799654193 ], [ -70.332770814041055, -24.078612614538805 ], [ -70.332584223616323, -24.060553259122994 ] ] ] } },
{ "type": "Feature", "properties": { "cve": "2752532", "nombre": "Esperanza", "solicitante": "Curia Miranda Felipe Alfonso", "region": "REGIÓN DE ANTOFAGASTA", "provincia": "Provincia de Tocopilla", "comuna": "Tocopilla", "superficie_ha": 200.0, "datum_original": "PSAD56", "huso": 19, "epsg_origen": 24879, "tipo_publicacion": "pedimento", "fuente_pdf": "http://www.diariooficial.interior.gob.cl/publicaciones/2026/01/13/44347/07/2752532.pdf", "archivo": "gm_pedimento_2752532.pdf", "fecha": "13-01-2026", "edicion": "44347" }, "geometry": { "type": "Polygon", "coordinates": [ [ [ -70.183880953790506, -22.027774076224077 ], [ -70.174193216315913, -22.027843787999025 ], [ -70.174342215838749, -22.045908921978402 ], [ -70.184031181943965, -22.045839147175023 ], [ -70.183880953790506, -22.027774076224077 ] ] ] } }
]
}
