{
"type": "FeatureCollection",
"name": "boletin_mineria_20260721",
"crs": { "type": "name", "properties": { "name": "urn:ogc:def:crs:OGC:1.3:CRS84" } },
"features": [
{ "type": "Feature", "properties": { "cve": "2840315", "nombre": "PIRQUENES I 1 AL 9", "solicitante": "Urbina Labra Froilán Humberto", "region": "REGIÓN DE ATACAMA", "provincia": "Provincia de Copiapó", "comuna": null, "superficie_ha": 9.0, "datum_original": "PSAD56", "huso": 19, "epsg_origen": 24879, "tipo_publicacion": "manifestacion", "fuente_pdf": "http://www.diariooficial.interior.gob.cl/publicaciones/2026/07/21/44504/07/2840315.pdf", "archivo": "gm_manifestacion_2840315.pdf", "fecha": "21-07-2026", "edicion": "44504" }, "geometry": { "type": "Polygon", "coordinates": [ [ [ -70.472078343137142, -27.678183658493207 ], [ -70.469037155346385, -27.67821593954956 ], [ -70.469073381028352, -27.68092336122653 ], [ -70.472114643747247, -27.680891076478478 ], [ -70.472078343137142, -27.678183658493207 ] ] ] } },
{ "type": "Feature", "properties": { "cve": "2840316", "nombre": "PIRQUENES II 1 AL 9", "solicitante": "Urbina Labra Froilán Humberto", "region": "REGIÓN DE ATACAMA", "provincia": "Provincia de Copiapó", "comuna": null, "superficie_ha": 9.0, "datum_original": "PSAD56", "huso": 19, "epsg_origen": 24879, "tipo_publicacion": "manifestacion", "fuente_pdf": "http://www.diariooficial.interior.gob.cl/publicaciones/2026/07/21/44504/07/2840316.pdf", "archivo": "gm_manifestacion_2840316.pdf", "fecha": "21-07-2026", "edicion": "44504" }, "geometry": { "type": "Polygon", "coordinates": [ [ [ -70.494356461774132, -27.64489200049697 ], [ -70.491316225784459, -27.644924734341938 ], [ -70.491352948861234, -27.64763214181254 ], [ -70.49439325964768, -27.647599404221072 ], [ -70.494356461774132, -27.64489200049697 ] ] ] } },
{ "type": "Feature", "properties": { "cve": "2840309", "nombre": "MORADOS 1 AL 10", "solicitante": "Contreras Vedia Javier Andrés", "region": "REGIÓN DE ATACAMA", "provincia": "Provincia de Chañaral", "comuna": null, "superficie_ha": 2000.0, "datum_original": "WGS84", "huso": 19, "epsg_origen": 32719, "tipo_publicacion": "manifestacion", "fuente_pdf": "http://www.diariooficial.interior.gob.cl/publicaciones/2026/07/21/44504/07/2840309.pdf", "archivo": "gm_manifestacion_2840309.pdf", "fecha": "21-07-2026", "edicion": "44504" }, "geometry": { "type": "Polygon", "coordinates": [ [ [ -69.879922354668338, -26.78387083323987 ], [ -69.477550163337355, -26.78579877560783 ], [ -69.477569058937561, -26.79031305133455 ], [ -69.879957167381178, -26.788384733016176 ], [ -69.879922354668338, -26.78387083323987 ] ] ] } },
{ "type": "Feature", "properties": { "cve": "2840141", "nombre": "CONDOR 1 AL 20", "solicitante": "Araya Cáceres Miriam Angélica", "region": "REGIÓN DE COQUIMBO", "provincia": "Provincia de Elqui", "comuna": "Vicuña", "superficie_ha": 100.0, "datum_original": "PSAD56", "huso": 19, "epsg_origen": 24879, "tipo_publicacion": "manifestacion", "fuente_pdf": "http://www.diariooficial.interior.gob.cl/publicaciones/2026/07/21/44504/07/2840141.pdf", "archivo": "gm_manifestacion_2840141.pdf", "fecha": "21-07-2026", "edicion": "44504" }, "geometry": { "type": "Polygon", "coordinates": [ [ [ -70.92742757602727, -30.093583662802711 ], [ -70.917055390681995, -30.093735428391298 ], [ -70.917229489021508, -30.102754810268731 ], [ -70.927602614903961, -30.102602989881635 ], [ -70.92742757602727, -30.093583662802711 ] ] ] } },
{ "type": "Feature", "properties": { "cve": "2840503", "nombre": "QUILAPAN 14 Y 15, 1 AL 40", "solicitante": "Deramin SpA", "region": "REGIÓN DEL LIBERTADOR GENERAL BERNARDO O’HIGGINS", "provincia": "Provincia de Colchagua", "comuna": null, "superficie_ha": 200.0, "datum_original": "PSAD56", "huso": 19, "epsg_origen": 24879, "tipo_publicacion": "manifestacion", "fuente_pdf": "http://www.diariooficial.interior.gob.cl/publicaciones/2026/07/21/44504/07/2840503.pdf", "archivo": "gm_manifestacion_2840503.pdf", "fecha": "21-07-2026", "edicion": "44504" }, "geometry": { "type": "Polygon", "coordinates": [ [ [ -70.934966243333079, -34.52142114625196 ], [ -70.924076864997062, -34.521593207091705 ], [ -70.924491642830532, -34.539619139775375 ], [ -70.935383365054093, -34.539446963652978 ], [ -70.934966243333079, -34.52142114625196 ] ] ] } },
{ "type": "Feature", "properties": { "cve": "2840233", "nombre": "ROSSANA ALTA MIRA 1 1 AL 9", "solicitante": "SLM Río Blanco Primera de la Comuna de Taltal", "region": "REGIÓN DE ANTOFAGASTA", "provincia": "Provincia de Antofagasta", "comuna": null, "superficie_ha": 9.0, "datum_original": "PSAD56", "huso": 19, "epsg_origen": 24879, "tipo_publicacion": "mensura", "fuente_pdf": "http://www.diariooficial.interior.gob.cl/publicaciones/2026/07/21/44504/07/2840233.pdf", "archivo": "gm_mensura_2840233.pdf", "fecha": "21-07-2026", "edicion": "44504" }, "geometry": { "type": "Polygon", "coordinates": [ [ [ -69.906233321123224, -25.888569254496005 ], [ -69.90323887434819, -25.888587928367457 ], [ -69.903259485994553, -25.89129656196355 ], [ -69.906254001079233, -25.891277885853746 ], [ -69.906233321123224, -25.888569254496005 ] ] ] } },
{ "type": "Feature", "properties": { "cve": "2840234", "nombre": "ROSSANA ALTA MIRA 2 1 AL 12", "solicitante": "SLM Río Blanco Primera de la Comuna de Taltal", "region": "REGIÓN DE ANTOFAGASTA", "provincia": "Provincia de Antofagasta", "comuna": null, "superficie_ha": 12.0, "datum_original": "PSAD56", "huso": 19, "epsg_origen": 24879, "tipo_publicacion": "mensura", "fuente_pdf": "http://www.diariooficial.interior.gob.cl/publicaciones/2026/07/21/44504/07/2840234.pdf", "archivo": "gm_mensura_2840234.pdf", "fecha": "21-07-2026", "edicion": "44504" }, "geometry": { "type": "Polygon", "coordinates": [ [ [ -69.902690810834514, -25.887399483815319 ], [ -69.899696390634759, -25.887418083795545 ], [ -69.899723764285241, -25.891029599143121 ], [ -69.902718275561426, -25.891010996190122 ], [ -69.902690810834514, -25.887399483815319 ] ] ] } },
{ "type": "Feature", "properties": { "cve": "2840501", "nombre": "VICTORIA 1 AL 20", "solicitante": "Silva Reyes Ángel Leonardo", "region": "REGIÓN DE ATACAMA", "provincia": "Provincia de Copiapó", "comuna": null, "superficie_ha": 100.0, "datum_original": "PSAD56", "huso": 19, "epsg_origen": 24879, "tipo_publicacion": "mensura", "fuente_pdf": "http://www.diariooficial.interior.gob.cl/publicaciones/2026/07/21/44504/07/2840501.pdf", "archivo": "gm_mensura_2840501.pdf", "fecha": "21-07-2026", "edicion": "44504" }, "geometry": { "type": "Polygon", "coordinates": [ [ [ -70.925560565645313, -27.365367213495173 ], [ -70.915454269803803, -27.365506271603252 ], [ -70.915609649515716, -27.374529329260259 ], [ -70.925716763937942, -27.374390217739798 ], [ -70.925560565645313, -27.365367213495173 ] ] ] } },
{ "type": "Feature", "properties": { "cve": "2840014", "nombre": "DON PEDRO 1-12", "solicitante": "Olivares Arancibia Nelson Enrique", "region": "REGIÓN METROPOLITANA DE SANTIAGO", "provincia": "Provincia de Chacabuco", "comuna": null, "superficie_ha": 8.0, "datum_original": "PSAD56", "huso": 19, "epsg_origen": 24879, "tipo_publicacion": "mensura", "fuente_pdf": "http://www.diariooficial.interior.gob.cl/publicaciones/2026/07/21/44504/07/2840014.pdf", "archivo": "gm_mensura_2840014.pdf", "fecha": "21-07-2026", "edicion": "44504" }, "geometry": { "type": "Polygon", "coordinates": [ [ [ -70.945148750331441, -33.036454463798208 ], [ -70.950404267586975, -33.032016639327516 ], [ -70.939701819609482, -33.032183511614775 ], [ -70.939859897561789, -33.039395580156281 ], [ -70.950563216401676, -33.039228662159012 ], [ -70.945148750331441, -33.036454463798208 ] ] ] } },
{ "type": "Feature", "properties": { "cve": "2840015", "nombre": "NUEVA ABANDONADA 1-8", "solicitante": "Olivares Arancibia Nelson Enrique", "region": "REGIÓN METROPOLITANA DE SANTIAGO", "provincia": "Provincia de Chacabuco", "comuna": null, "superficie_ha": 10.0, "datum_original": "PSAD56", "huso": 19, "epsg_origen": 24879, "tipo_publicacion": "mensura", "fuente_pdf": "http://www.diariooficial.interior.gob.cl/publicaciones/2026/07/21/44504/07/2840015.pdf", "archivo": "gm_mensura_2840015.pdf", "fecha": "21-07-2026", "edicion": "44504" }, "geometry": { "type": "Polygon", "coordinates": [ [ [ -70.941789091783392, -33.043874635552207 ], [ -70.947061671019995, -33.04018518353552 ], [ -70.936358214270186, -33.04035180542531 ], [ -70.93651606900076, -33.047563878735275 ], [ -70.947220396971559, -33.047397211209869 ], [ -70.941789091783392, -33.043874635552207 ] ] ] } },
{ "type": "Feature", "properties": { "cve": "2839982", "nombre": "CUMIEN 1 AL 60", "solicitante": "Quijano Claro Juan José", "region": "REGIÓN DE LOS RÍOS", "provincia": "Provincia de Valdivia", "comuna": null, "superficie_ha": 190.0, "datum_original": "PSAD56", "huso": 18, "epsg_origen": 24878, "tipo_publicacion": "mensura", "fuente_pdf": "http://www.diariooficial.interior.gob.cl/publicaciones/2026/07/21/44504/07/2839982.pdf", "archivo": "gm_mensura_2839982.pdf", "fecha": "21-07-2026", "edicion": "44504" }, "geometry": { "type": "Polygon", "coordinates": [ [ [ -72.814266517862052, -39.638000730412607 ], [ -72.822700639816702, -39.629150073985734 ], [ -72.812221218367256, -39.628953114341314 ], [ -72.811653584169832, -39.646960601957275 ], [ -72.822135719325388, -39.647157686831143 ], [ -72.814266517862052, -39.638000730412607 ] ] ] } },
{ "type": "Feature", "properties": { "cve": "2839983", "nombre": "DON PUMA 121 AL 180", "solicitante": "Quijano Fernández Juan José", "region": "REGIÓN DE LOS RÍOS", "provincia": "Provincia de Valdivia", "comuna": null, "superficie_ha": 300.0, "datum_original": "PSAD56", "huso": 18, "epsg_origen": 24878, "tipo_publicacion": "mensura", "fuente_pdf": "http://www.diariooficial.interior.gob.cl/publicaciones/2026/07/21/44504/07/2839983.pdf", "archivo": "gm_mensura_2839983.pdf", "fecha": "21-07-2026", "edicion": "44504" }, "geometry": { "type": "Polygon", "coordinates": [ [ [ -72.724322504849141, -39.609245772207331 ], [ -72.731673738281856, -39.598128282466469 ], [ -72.717708300902331, -39.597854690618284 ], [ -72.71696885462967, -39.62036270894707 ], [ -72.730938807218578, -39.620636518283447 ], [ -72.724322504849141, -39.609245772207331 ] ] ] } },
{ "type": "Feature", "properties": { "cve": "2839984", "nombre": "PILLECOZCOZ 1 AL 40", "solicitante": "Quijano Fernández Juan José", "region": "REGIÓN DE LOS RÍOS", "provincia": "Provincia de Valdivia", "comuna": null, "superficie_ha": 200.0, "datum_original": "PSAD56", "huso": 18, "epsg_origen": 24878, "tipo_publicacion": "mensura", "fuente_pdf": "http://www.diariooficial.interior.gob.cl/publicaciones/2026/07/21/44504/07/2839984.pdf", "archivo": "gm_mensura_2839984.pdf", "fecha": "21-07-2026", "edicion": "44504" }, "geometry": { "type": "Polygon", "coordinates": [ [ [ -72.73639284351357, -39.632004235950319 ], [ -72.742507417719111, -39.623114246928985 ], [ -72.730865268735826, -39.622887336393497 ], [ -72.730276663630519, -39.640893845453121 ], [ -72.741921826272176, -39.641120900259288 ], [ -72.73639284351357, -39.632004235950319 ] ] ] } },
{ "type": "Feature", "properties": { "cve": "2840515", "nombre": "TITAN 6", "solicitante": "Minera Mirasol Chile Limitada", "region": "REGIÓN DE ANTOFAGASTA", "provincia": "Provincia de Antofagasta", "comuna": "Taltal", "superficie_ha": 300.0, "datum_original": "WGS84", "huso": 19, "epsg_origen": 32719, "tipo_publicacion": "pedimento", "fuente_pdf": "http://www.diariooficial.interior.gob.cl/publicaciones/2026/07/21/44504/07/2840515.pdf", "archivo": "gm_pedimento_2840515.pdf", "fecha": "21-07-2026", "edicion": "44504" }, "geometry": { "type": "Polygon", "coordinates": [ [ [ -69.014918707609482, -25.442981417254448 ], [ -69.004972902595881, -25.442982090709549 ], [ -69.004974015963484, -25.470073693934079 ], [ -69.014922047712119, -25.470073019661292 ], [ -69.014918707609482, -25.442981417254448 ] ] ] } },
{ "type": "Feature", "properties": { "cve": "2840516", "nombre": "TITAN 7", "solicitante": "Minera Mirasol Chile Limitada", "region": "REGIÓN DE ANTOFAGASTA", "provincia": "Provincia de Antofagasta", "comuna": "Taltal", "superficie_ha": 300.0, "datum_original": "WGS84", "huso": 19, "epsg_origen": 32719, "tipo_publicacion": "pedimento", "fuente_pdf": "http://www.diariooficial.interior.gob.cl/publicaciones/2026/07/21/44504/07/2840516.pdf", "archivo": "gm_pedimento_2840516.pdf", "fecha": "21-07-2026", "edicion": "44504" }, "geometry": { "type": "Polygon", "coordinates": [ [ [ -69.009947289280788, -25.461042917883677 ], [ -69.0, -25.46104325488378 ], [ -69.0, -25.488134791549321 ], [ -69.009949518155778, -25.488134454140255 ], [ -69.009947289280788, -25.461042917883677 ] ] ] } },
{ "type": "Feature", "properties": { "cve": "2840437", "nombre": "ALTAZOR 16E", "solicitante": "Minera Mirasol Chile Limitada", "region": "REGIÓN DE ANTOFAGASTA", "provincia": "Provincia de El Loa", "comuna": "San Pedro de Atacama", "superficie_ha": 300.0, "datum_original": "WGS84", "huso": 19, "epsg_origen": 32719, "tipo_publicacion": "pedimento", "fuente_pdf": "http://www.diariooficial.interior.gob.cl/publicaciones/2026/07/21/44504/07/2840437.pdf", "archivo": "gm_pedimento_2840437.pdf", "fecha": "21-07-2026", "edicion": "44504" }, "geometry": { "type": "Polygon", "coordinates": [ [ [ -67.863063071550499, -24.160812636503326 ], [ -67.833536964197336, -24.160589722823087 ], [ -67.833454922368603, -24.16961993553025 ], [ -67.862983105301737, -24.169842942943568 ], [ -67.863063071550499, -24.160812636503326 ] ] ] } },
{ "type": "Feature", "properties": { "cve": "2840438", "nombre": "ALTAZOR 17E", "solicitante": "Minera Mirasol Chile Limitada", "region": "REGIÓN DE ANTOFAGASTA", "provincia": "Provincia de El Loa", "comuna": "San Pedro de Atacama", "superficie_ha": 300.0, "datum_original": "WGS84", "huso": 19, "epsg_origen": 32719, "tipo_publicacion": "pedimento", "fuente_pdf": "http://www.diariooficial.interior.gob.cl/publicaciones/2026/07/21/44504/07/2840438.pdf", "archivo": "gm_pedimento_2840438.pdf", "fecha": "21-07-2026", "edicion": "44504" }, "geometry": { "type": "Polygon", "coordinates": [ [ [ -67.862983105301737, -24.169842942943568 ], [ -67.833454922368603, -24.16961993553025 ], [ -67.833372840176708, -24.178650137286294 ], [ -67.862903099710721, -24.17887323844549 ], [ -67.862983105301737, -24.169842942943568 ] ] ] } },
{ "type": "Feature", "properties": { "cve": "2840439", "nombre": "ALTAZOR 18E", "solicitante": "Minera Mirasol Chile Limitada", "region": "REGIÓN DE ANTOFAGASTA", "provincia": "Provincia de El Loa", "comuna": "San Pedro de Atacama", "superficie_ha": 300.0, "datum_original": "WGS84", "huso": 19, "epsg_origen": 32719, "tipo_publicacion": "pedimento", "fuente_pdf": "http://www.diariooficial.interior.gob.cl/publicaciones/2026/07/21/44504/07/2840439.pdf", "archivo": "gm_pedimento_2840439.pdf", "fecha": "21-07-2026", "edicion": "44504" }, "geometry": { "type": "Polygon", "coordinates": [ [ [ -67.862903099710721, -24.17887323844549 ], [ -67.833372840176708, -24.178650137286294 ], [ -67.833290717609131, -24.187680328088096 ], [ -67.862823054765258, -24.187903523005971 ], [ -67.862903099710721, -24.17887323844549 ] ] ] } },
{ "type": "Feature", "properties": { "cve": "2840428", "nombre": "ALTAZOR 1E", "solicitante": "Minera Mirasol Chile Limitada", "region": "REGIÓN DE ANTOFAGASTA", "provincia": "Provincia de El Loa", "comuna": "San Pedro de Atacama", "superficie_ha": 300.0, "datum_original": "WGS84", "huso": 19, "epsg_origen": 32719, "tipo_publicacion": "pedimento", "fuente_pdf": "http://www.diariooficial.interior.gob.cl/publicaciones/2026/07/21/44504/07/2840428.pdf", "archivo": "gm_pedimento_2840428.pdf", "fecha": "21-07-2026", "edicion": "44504" }, "geometry": { "type": "Polygon", "coordinates": [ [ [ -67.893056072146507, -24.106847222001146 ], [ -67.8635420435388, -24.106630568332037 ], [ -67.86346231308751, -24.115660940336618 ], [ -67.892978411265716, -24.115877685262451 ], [ -67.893056072146507, -24.106847222001146 ] ] ] } },
{ "type": "Feature", "properties": { "cve": "2840440", "nombre": "ALTAZOR 27E", "solicitante": "Minera Mirasol Chile Limitada", "region": "REGIÓN DE ANTOFAGASTA", "provincia": "Provincia de El Loa", "comuna": "San Pedro de Atacama", "superficie_ha": 300.0, "datum_original": "WGS84", "huso": 19, "epsg_origen": 32719, "tipo_publicacion": "pedimento", "fuente_pdf": "http://www.diariooficial.interior.gob.cl/publicaciones/2026/07/21/44504/07/2840440.pdf", "archivo": "gm_pedimento_2840440.pdf", "fecha": "21-07-2026", "edicion": "44504" }, "geometry": { "type": "Polygon", "coordinates": [ [ [ -67.833372840176708, -24.178650137286294 ], [ -67.803842944023842, -24.178421319315483 ], [ -67.803758743946958, -24.187451413956431 ], [ -67.833290717609131, -24.187680328088096 ], [ -67.833372840176708, -24.178650137286294 ] ] ] } },
{ "type": "Feature", "properties": { "cve": "2840429", "nombre": "ALTAZOR 2E", "solicitante": "Minera Mirasol Chile Limitada", "region": "REGIÓN DE ANTOFAGASTA", "provincia": "Provincia de El Loa", "comuna": "San Pedro de Atacama", "superficie_ha": 300.0, "datum_original": "WGS84", "huso": 19, "epsg_origen": 32719, "tipo_publicacion": "pedimento", "fuente_pdf": "http://www.diariooficial.interior.gob.cl/publicaciones/2026/07/21/44504/07/2840429.pdf", "archivo": "gm_pedimento_2840429.pdf", "fecha": "21-07-2026", "edicion": "44504" }, "geometry": { "type": "Polygon", "coordinates": [ [ [ -67.892978411265716, -24.115877685262451 ], [ -67.86346231308751, -24.115660940336618 ], [ -67.863382543367067, -24.12469130142162 ], [ -67.892900712134889, -24.124908137616604 ], [ -67.892978411265716, -24.115877685262451 ] ] ] } },
{ "type": "Feature", "properties": { "cve": "2840441", "nombre": "ALTAZOR 36E", "solicitante": "Minera Mirasol Chile Limitada", "region": "REGIÓN DE ANTOFAGASTA", "provincia": "Provincia de El Loa", "comuna": "San Pedro de Atacama", "superficie_ha": 300.0, "datum_original": "WGS84", "huso": 19, "epsg_origen": 32719, "tipo_publicacion": "pedimento", "fuente_pdf": "http://www.diariooficial.interior.gob.cl/publicaciones/2026/07/21/44504/07/2840441.pdf", "archivo": "gm_pedimento_2840441.pdf", "fecha": "21-07-2026", "edicion": "44504" }, "geometry": { "type": "Polygon", "coordinates": [ [ [ -67.803842944023842, -24.178421319315483 ], [ -67.774313420442553, -24.178186784816315 ], [ -67.774227142972066, -24.187216780894385 ], [ -67.803758743946958, -24.187451413956431 ], [ -67.803842944023842, -24.178421319315483 ] ] ] } },
{ "type": "Feature", "properties": { "cve": "2840430", "nombre": "ALTAZOR 3E", "solicitante": "Minera Mirasol Chile Limitada", "region": "REGIÓN DE ANTOFAGASTA", "provincia": "Provincia de El Loa", "comuna": "San Pedro de Atacama", "superficie_ha": 300.0, "datum_original": "WGS84", "huso": 19, "epsg_origen": 32719, "tipo_publicacion": "pedimento", "fuente_pdf": "http://www.diariooficial.interior.gob.cl/publicaciones/2026/07/21/44504/07/2840430.pdf", "archivo": "gm_pedimento_2840430.pdf", "fecha": "21-07-2026", "edicion": "44504" }, "geometry": { "type": "Polygon", "coordinates": [ [ [ -67.892900712134889, -24.124908137616604 ], [ -67.863382543367067, -24.12469130142162 ], [ -67.86330273436532, -24.133721651583915 ], [ -67.892822974742145, -24.133938579060501 ], [ -67.892900712134889, -24.124908137616604 ] ] ] } },
{ "type": "Feature", "properties": { "cve": "2840431", "nombre": "ALTAZOR 4E", "solicitante": "Minera Mirasol Chile Limitada", "region": "REGIÓN DE ANTOFAGASTA", "provincia": "Provincia de El Loa", "comuna": "San Pedro de Atacama", "superficie_ha": 300.0, "datum_original": "WGS84", "huso": 19, "epsg_origen": 32719, "tipo_publicacion": "pedimento", "fuente_pdf": "http://www.diariooficial.interior.gob.cl/publicaciones/2026/07/21/44504/07/2840431.pdf", "archivo": "gm_pedimento_2840431.pdf", "fecha": "21-07-2026", "edicion": "44504" }, "geometry": { "type": "Polygon", "coordinates": [ [ [ -67.892822974742145, -24.133938579060501 ], [ -67.86330273436532, -24.133721651583915 ], [ -67.863222886070105, -24.142751990820379 ], [ -67.892745199075662, -24.142969009591003 ], [ -67.892822974742145, -24.133938579060501 ] ] ] } },
{ "type": "Feature", "properties": { "cve": "2840432", "nombre": "ALTAZOR 5E", "solicitante": "Minera Mirasol Chile Limitada", "region": "REGIÓN DE ANTOFAGASTA", "provincia": "Provincia de El Loa", "comuna": "San Pedro de Atacama", "superficie_ha": 300.0, "datum_original": "WGS84", "huso": 19, "epsg_origen": 32719, "tipo_publicacion": "pedimento", "fuente_pdf": "http://www.diariooficial.interior.gob.cl/publicaciones/2026/07/21/44504/07/2840432.pdf", "archivo": "gm_pedimento_2840432.pdf", "fecha": "21-07-2026", "edicion": "44504" }, "geometry": { "type": "Polygon", "coordinates": [ [ [ -67.892745199075662, -24.142969009591003 ], [ -67.863222886070105, -24.142751990820379 ], [ -67.863142998469229, -24.151782319127889 ], [ -67.892667385123573, -24.151999429205009 ], [ -67.892745199075662, -24.142969009591003 ] ] ] } },
{ "type": "Feature", "properties": { "cve": "2840442", "nombre": "ALTAZOR 66E", "solicitante": "Minera Mirasol Chile Limitada", "region": "REGIÓN DE ANTOFAGASTA", "provincia": "Provincia de El Loa", "comuna": "San Pedro de Atacama", "superficie_ha": 300.0, "datum_original": "WGS84", "huso": 19, "epsg_origen": 32719, "tipo_publicacion": "pedimento", "fuente_pdf": "http://www.diariooficial.interior.gob.cl/publicaciones/2026/07/21/44504/07/2840442.pdf", "archivo": "gm_pedimento_2840442.pdf", "fecha": "21-07-2026", "edicion": "44504" }, "geometry": { "type": "Polygon", "coordinates": [ [ [ -67.902663131868493, -24.134009620376947 ], [ -67.892822974742145, -24.133938579060501 ], [ -67.892589532873984, -24.161029837899402 ], [ -67.902431763720855, -24.161100968921609 ], [ -67.902663131868493, -24.134009620376947 ] ] ] } },
{ "type": "Feature", "properties": { "cve": "2840433", "nombre": "ALTAZOR 6E", "solicitante": "Minera Mirasol Chile Limitada", "region": "REGIÓN DE ANTOFAGASTA", "provincia": "Provincia de El Loa", "comuna": "San Pedro de Atacama", "superficie_ha": 300.0, "datum_original": "WGS84", "huso": 19, "epsg_origen": 32719, "tipo_publicacion": "pedimento", "fuente_pdf": "http://www.diariooficial.interior.gob.cl/publicaciones/2026/07/21/44504/07/2840433.pdf", "archivo": "gm_pedimento_2840433.pdf", "fecha": "21-07-2026", "edicion": "44504" }, "geometry": { "type": "Polygon", "coordinates": [ [ [ -67.892667385123573, -24.151999429205009 ], [ -67.863142998469229, -24.151782319127889 ], [ -67.863063071550499, -24.160812636503326 ], [ -67.892589532873984, -24.161029837899402 ], [ -67.892667385123573, -24.151999429205009 ] ] ] } },
{ "type": "Feature", "properties": { "cve": "2840443", "nombre": "ALTAZOR 73E", "solicitante": "Minera Mirasol Chile Limitada", "region": "REGIÓN DE ANTOFAGASTA", "provincia": "Provincia de El Loa", "comuna": "San Pedro de Atacama", "superficie_ha": 300.0, "datum_original": "WGS84", "huso": 19, "epsg_origen": 32719, "tipo_publicacion": "pedimento", "fuente_pdf": "http://www.diariooficial.interior.gob.cl/publicaciones/2026/07/21/44504/07/2840443.pdf", "archivo": "gm_pedimento_2840443.pdf", "fecha": "21-07-2026", "edicion": "44504" }, "geometry": { "type": "Polygon", "coordinates": [ [ [ -67.91254150975746, -24.12956477863645 ], [ -67.902701660025755, -24.129494386071585 ], [ -67.902470348800904, -24.15658575098605 ], [ -67.912312271778347, -24.156656232450207 ], [ -67.91254150975746, -24.12956477863645 ] ] ] } },
{ "type": "Feature", "properties": { "cve": "2840444", "nombre": "ALTAZOR 74E", "solicitante": "Minera Mirasol Chile Limitada", "region": "REGIÓN DE ANTOFAGASTA", "provincia": "Provincia de El Loa", "comuna": "San Pedro de Atacama", "superficie_ha": 300.0, "datum_original": "WGS84", "huso": 19, "epsg_origen": 32719, "tipo_publicacion": "pedimento", "fuente_pdf": "http://www.diariooficial.interior.gob.cl/publicaciones/2026/07/21/44504/07/2840444.pdf", "archivo": "gm_pedimento_2840444.pdf", "fecha": "21-07-2026", "edicion": "44504" }, "geometry": { "type": "Polygon", "coordinates": [ [ [ -67.902431763720855, -24.161100968921609 ], [ -67.892589532873984, -24.161029837899402 ], [ -67.89235574622144, -24.188120998433725 ], [ -67.90220005385099, -24.188192219198431 ], [ -67.902431763720855, -24.161100968921609 ] ] ] } },
{ "type": "Feature", "properties": { "cve": "2840434", "nombre": "ALTAZOR 7E", "solicitante": "Minera Mirasol Chile Limitada", "region": "REGIÓN DE ANTOFAGASTA", "provincia": "Provincia de El Loa", "comuna": "San Pedro de Atacama", "superficie_ha": 300.0, "datum_original": "WGS84", "huso": 19, "epsg_origen": 32719, "tipo_publicacion": "pedimento", "fuente_pdf": "http://www.diariooficial.interior.gob.cl/publicaciones/2026/07/21/44504/07/2840434.pdf", "archivo": "gm_pedimento_2840434.pdf", "fecha": "21-07-2026", "edicion": "44504" }, "geometry": { "type": "Polygon", "coordinates": [ [ [ -67.892589532873984, -24.161029837899402 ], [ -67.863063071550499, -24.160812636503326 ], [ -67.862983105301737, -24.169842942943568 ], [ -67.892511642315014, -24.170060235671059 ], [ -67.892589532873984, -24.161029837899402 ] ] ] } },
{ "type": "Feature", "properties": { "cve": "2840435", "nombre": "ALTAZOR 8E", "solicitante": "Minera Mirasol Chile Limitada", "region": "REGIÓN DE ANTOFAGASTA", "provincia": "Provincia de El Loa", "comuna": "San Pedro de Atacama", "superficie_ha": 300.0, "datum_original": "WGS84", "huso": 19, "epsg_origen": 32719, "tipo_publicacion": "pedimento", "fuente_pdf": "http://www.diariooficial.interior.gob.cl/publicaciones/2026/07/21/44504/07/2840435.pdf", "archivo": "gm_pedimento_2840435.pdf", "fecha": "21-07-2026", "edicion": "44504" }, "geometry": { "type": "Polygon", "coordinates": [ [ [ -67.892511642315014, -24.170060235671059 ], [ -67.862983105301737, -24.169842942943568 ], [ -67.862903099710721, -24.17887323844549 ], [ -67.892433713434798, -24.179090622516874 ], [ -67.892511642315014, -24.170060235671059 ] ] ] } },
{ "type": "Feature", "properties": { "cve": "2840436", "nombre": "ALTAZOR 9E", "solicitante": "Minera Mirasol Chile Limitada", "region": "REGIÓN DE ANTOFAGASTA", "provincia": "Provincia de El Loa", "comuna": "San Pedro de Atacama", "superficie_ha": 300.0, "datum_original": "WGS84", "huso": 19, "epsg_origen": 32719, "tipo_publicacion": "pedimento", "fuente_pdf": "http://www.diariooficial.interior.gob.cl/publicaciones/2026/07/21/44504/07/2840436.pdf", "archivo": "gm_pedimento_2840436.pdf", "fecha": "21-07-2026", "edicion": "44504" }, "geometry": { "type": "Polygon", "coordinates": [ [ [ -67.892433713434798, -24.179090622516874 ], [ -67.862903099710721, -24.17887323844549 ], [ -67.862823054765258, -24.187903523005971 ], [ -67.89235574622144, -24.188120998433725 ], [ -67.892433713434798, -24.179090622516874 ] ] ] } },
{ "type": "Feature", "properties": { "cve": "2840196", "nombre": "CHARLIE 1", "solicitante": "Sáez Sáez Ana Carolina", "region": "REGIÓN DE ANTOFAGASTA", "provincia": "Provincia de El Loa", "comuna": null, "superficie_ha": 200.0, "datum_original": "PSAD56", "huso": 19, "epsg_origen": 24879, "tipo_publicacion": "pedimento", "fuente_pdf": "http://www.diariooficial.interior.gob.cl/publicaciones/2026/07/21/44504/07/2840196.pdf", "archivo": "gm_pedimento_2840196.pdf", "fecha": "21-07-2026", "edicion": "44504" }, "geometry": { "type": "Polygon", "coordinates": [ [ [ -68.425570032945586, -23.124102779419569 ], [ -68.415803797374267, -23.124066916251092 ], [ -68.415725553899364, -23.142132433743516 ], [ -68.425493097320512, -23.142168328118242 ], [ -68.425570032945586, -23.124102779419569 ] ] ] } },
{ "type": "Feature", "properties": { "cve": "2840473", "nombre": "SOLAR ELENA H", "solicitante": "Solar Elena SpA", "region": "REGIÓN DE ANTOFAGASTA", "provincia": "Provincia de Tocopilla", "comuna": "María Elena", "superficie_ha": 100.0, "datum_original": "PSAD56", "huso": 19, "epsg_origen": 24879, "tipo_publicacion": "pedimento", "fuente_pdf": "http://www.diariooficial.interior.gob.cl/publicaciones/2026/07/21/44504/07/2840473.pdf", "archivo": "gm_pedimento_2840473.pdf", "fecha": "21-07-2026", "edicion": "44504" }, "geometry": { "type": "Polygon", "coordinates": [ [ [ -69.525487903427802, -22.154072727590254 ], [ -69.515789886124338, -22.154103679801917 ], [ -69.515822812529564, -22.163137649889443 ], [ -69.525521448855159, -22.163106683747817 ], [ -69.525487903427802, -22.154072727590254 ] ] ] } },
{ "type": "Feature", "properties": { "cve": "2840474", "nombre": "SOLAR ELENA I", "solicitante": "Solar Elena SpA", "region": "REGIÓN DE ANTOFAGASTA", "provincia": "Provincia de Tocopilla", "comuna": "María Elena", "superficie_ha": 300.0, "datum_original": "PSAD56", "huso": 19, "epsg_origen": 24879, "tipo_publicacion": "pedimento", "fuente_pdf": "http://www.diariooficial.interior.gob.cl/publicaciones/2026/07/21/44504/07/2840474.pdf", "archivo": "gm_pedimento_2840474.pdf", "fecha": "21-07-2026", "edicion": "44504" }, "geometry": { "type": "Polygon", "coordinates": [ [ [ -69.515764840488586, -22.147228821771872 ], [ -69.506067277100144, -22.147259187084821 ], [ -69.50616421116726, -22.174361131086314 ], [ -69.515863631865329, -22.174330724760591 ], [ -69.515764840488586, -22.147228821771872 ] ] ] } },
{ "type": "Feature", "properties": { "cve": "2840475", "nombre": "SOLAR ELENA J", "solicitante": "Solar Elena SpA", "region": "REGIÓN DE ANTOFAGASTA", "provincia": "Provincia de Tocopilla", "comuna": "María Elena", "superficie_ha": 100.0, "datum_original": "PSAD56", "huso": 19, "epsg_origen": 24879, "tipo_publicacion": "pedimento", "fuente_pdf": "http://www.diariooficial.interior.gob.cl/publicaciones/2026/07/21/44504/07/2840475.pdf", "archivo": "gm_pedimento_2840475.pdf", "fecha": "21-07-2026", "edicion": "44504" }, "geometry": { "type": "Polygon", "coordinates": [ [ [ -69.49668610490474, -22.23456604323707 ], [ -69.486982517082225, -22.234595383632289 ], [ -69.487013729573917, -22.243629303610771 ], [ -69.496717939273168, -22.243599950049152 ], [ -69.49668610490474, -22.23456604323707 ] ] ] } },
{ "type": "Feature", "properties": { "cve": "2840476", "nombre": "SOLAR ELENA K", "solicitante": "Solar Elena SpA", "region": "REGIÓN DE ANTOFAGASTA", "provincia": "Provincia de Tocopilla", "comuna": "María Elena", "superficie_ha": 100.0, "datum_original": "PSAD56", "huso": 19, "epsg_origen": 24879, "tipo_publicacion": "pedimento", "fuente_pdf": "http://www.diariooficial.interior.gob.cl/publicaciones/2026/07/21/44504/07/2840476.pdf", "archivo": "gm_pedimento_2840476.pdf", "fecha": "21-07-2026", "edicion": "44504" }, "geometry": { "type": "Polygon", "coordinates": [ [ [ -69.486966916850349, -22.230078419832051 ], [ -69.477263623812505, -22.230107174955656 ], [ -69.477294206563798, -22.239141112921462 ], [ -69.486998121323225, -22.239112344891996 ], [ -69.486966916850349, -22.230078419832051 ] ] ] } },
{ "type": "Feature", "properties": { "cve": "2840477", "nombre": "SOLAR ELENA L", "solicitante": "Solar Elena SpA", "region": "REGIÓN DE ANTOFAGASTA", "provincia": "Provincia de Tocopilla", "comuna": "María Elena", "superficie_ha": 200.0, "datum_original": "PSAD56", "huso": 19, "epsg_origen": 24879, "tipo_publicacion": "pedimento", "fuente_pdf": "http://www.diariooficial.interior.gob.cl/publicaciones/2026/07/21/44504/07/2840477.pdf", "archivo": "gm_pedimento_2840477.pdf", "fecha": "21-07-2026", "edicion": "44504" }, "geometry": { "type": "Polygon", "coordinates": [ [ [ -69.467569301751098, -22.232845537636589 ], [ -69.448162265408641, -22.232900161757659 ], [ -69.448190987396146, -22.241934133835766 ], [ -69.467599267395727, -22.241879485200698 ], [ -69.467569301751098, -22.232845537636589 ] ] ] } },
{ "type": "Feature", "properties": { "cve": "2840487", "nombre": "FLORINDA 1", "solicitante": "Sáez Sáez Ana Carolina", "region": "REGIÓN DE ATACAMA", "provincia": "Provincia de Chañaral", "comuna": "DIEGO DE ALMAGRO", "superficie_ha": 300.0, "datum_original": "PSAD56", "huso": 19, "epsg_origen": 24879, "tipo_publicacion": "pedimento", "fuente_pdf": "http://www.diariooficial.interior.gob.cl/publicaciones/2026/07/21/44504/07/2840487.pdf", "archivo": "gm_pedimento_2840487.pdf", "fecha": "21-07-2026", "edicion": "44504" }, "geometry": { "type": "Polygon", "coordinates": [ [ [ -69.723638962419415, -26.383657241979073 ], [ -69.713614708866615, -26.383707560236886 ], [ -69.713781258501498, -26.410793580413259 ], [ -69.723807851107864, -26.410743202638425 ], [ -69.723638962419415, -26.383657241979073 ] ] ] } },
{ "type": "Feature", "properties": { "cve": "2840488", "nombre": "FLORINDA 2", "solicitante": "Sáez Sáez Ana Carolina", "region": "REGIÓN DE ATACAMA", "provincia": "Provincia de Chañaral", "comuna": null, "superficie_ha": 300.0, "datum_original": "PSAD56", "huso": 19, "epsg_origen": 24879, "tipo_publicacion": "pedimento", "fuente_pdf": "http://www.diariooficial.interior.gob.cl/publicaciones/2026/07/21/44504/07/2840488.pdf", "archivo": "gm_pedimento_2840488.pdf", "fecha": "21-07-2026", "edicion": "44504" }, "geometry": { "type": "Polygon", "coordinates": [ [ [ -69.733663189352583, -26.383606221951791 ], [ -69.723638962419415, -26.383657241979073 ], [ -69.723807851107864, -26.410743202638425 ], [ -69.733834417067698, -26.41069212226413 ], [ -69.733663189352583, -26.383606221951791 ] ] ] } },
{ "type": "Feature", "properties": { "cve": "2840489", "nombre": "FLORINDA 3", "solicitante": "Sáez Sáez Ana Carolina", "region": "REGIÓN DE ATACAMA", "provincia": "Provincia de Chañaral", "comuna": "DIEGO DE ALMAGRO", "superficie_ha": 300.0, "datum_original": "PSAD56", "huso": 19, "epsg_origen": 24879, "tipo_publicacion": "pedimento", "fuente_pdf": "http://www.diariooficial.interior.gob.cl/publicaciones/2026/07/21/44504/07/2840489.pdf", "archivo": "gm_pedimento_2840489.pdf", "fecha": "21-07-2026", "edicion": "44504" }, "geometry": { "type": "Polygon", "coordinates": [ [ [ -69.743687389297477, -26.383554500162226 ], [ -69.733663189352583, -26.383606221951791 ], [ -69.733834417067698, -26.41069212226413 ], [ -69.743860956011986, -26.410640339297547 ], [ -69.743687389297477, -26.383554500162226 ] ] ] } },
{ "type": "Feature", "properties": { "cve": "2840490", "nombre": "FLORINDA 4", "solicitante": "Sáez Sáez Ana Carolina", "region": "REGIÓN DE ATACAMA", "provincia": "Provincia de Chañaral", "comuna": "DIEGO DE ALMAGRO", "superficie_ha": 200.0, "datum_original": "PSAD56", "huso": 19, "epsg_origen": 24879, "tipo_publicacion": "pedimento", "fuente_pdf": "http://www.diariooficial.interior.gob.cl/publicaciones/2026/07/21/44504/07/2840490.pdf", "archivo": "gm_pedimento_2840490.pdf", "fecha": "21-07-2026", "edicion": "44504" }, "geometry": { "type": "Polygon", "coordinates": [ [ [ -69.743860956011986, -26.410640339297547 ], [ -69.723807851107864, -26.410743202638425 ], [ -69.723864200618934, -26.419771832989891 ], [ -69.743918866340763, -26.419668929128708 ], [ -69.743860956011986, -26.410640339297547 ] ] ] } },
{ "type": "Feature", "properties": { "cve": "2840020", "nombre": "CALETONES 5", "solicitante": "Invexmin Chile SpA", "region": "REGIÓN DE COQUIMBO", "provincia": "Provincia de Limarí", "comuna": null, "superficie_ha": 300.0, "datum_original": "PSAD56", "huso": 19, "epsg_origen": 24879, "tipo_publicacion": "pedimento", "fuente_pdf": "http://www.diariooficial.interior.gob.cl/publicaciones/2026/07/21/44504/07/2840020.pdf", "archivo": "gm_pedimento_2840020.pdf", "fecha": "21-07-2026", "edicion": "44504" }, "geometry": { "type": "Polygon", "coordinates": [ [ [ -70.790482625094967, -30.52589693552812 ], [ -70.759226570148783, -30.52632276963967 ], [ -70.759389129132458, -30.535342350724989 ], [ -70.790648068523709, -30.534916364168215 ], [ -70.790482625094967, -30.52589693552812 ] ] ] } },
{ "type": "Feature", "properties": { "cve": "2839851", "nombre": "DORADO UNO", "solicitante": "Agrícola e Inmobiliaria Invergaf Limitada y otro", "region": "REGIÓN METROPOLITANA DE SANTIAGO", "provincia": "Provincia de Melipilla", "comuna": null, "superficie_ha": 100.0, "datum_original": "PSAD56", "huso": 19, "epsg_origen": 24879, "tipo_publicacion": "pedimento", "fuente_pdf": "http://www.diariooficial.interior.gob.cl/publicaciones/2026/07/21/44504/07/2839851.pdf", "archivo": "gm_pedimento_2839851.pdf", "fecha": "21-07-2026", "edicion": "44504" }, "geometry": { "type": "Polygon", "coordinates": [ [ [ -71.147326383662616, -34.040234185326113 ], [ -71.136500307980597, -34.040422853445165 ], [ -71.136726420752495, -34.049435352428944 ], [ -71.147553640051925, -34.049246620691989 ], [ -71.147326383662616, -34.040234185326113 ] ] ] } },
{ "type": "Feature", "properties": { "cve": "2839920", "nombre": "LUCÍA A", "solicitante": "Inversiones y Asesorías Arcoiris Limitada", "region": "REGIÓN DE ÑUBLE", "provincia": "Provincia de Itata", "comuna": null, "superficie_ha": 200.0, "datum_original": "PSAD56", "huso": 18, "epsg_origen": 24878, "tipo_publicacion": "pedimento", "fuente_pdf": "http://www.diariooficial.interior.gob.cl/publicaciones/2026/07/21/44504/07/2839920.pdf", "archivo": "gm_pedimento_2839920.pdf", "fecha": "21-07-2026", "edicion": "44504" }, "geometry": { "type": "Polygon", "coordinates": [ [ [ -72.664782070146373, -36.642401344149647 ], [ -72.642427342826323, -36.641960836839182 ], [ -72.642152667654216, -36.65096814518153 ], [ -72.664509993670706, -36.651408796233646 ], [ -72.664782070146373, -36.642401344149647 ] ] ] } },
{ "type": "Feature", "properties": { "cve": "2839921", "nombre": "LUCÍA B", "solicitante": "Inversiones y Asesorías Arcoiris Limitada", "region": "REGIÓN DE ÑUBLE", "provincia": "Provincia de Itata", "comuna": null, "superficie_ha": 200.0, "datum_original": "PSAD56", "huso": 18, "epsg_origen": 24878, "tipo_publicacion": "pedimento", "fuente_pdf": "http://www.diariooficial.interior.gob.cl/publicaciones/2026/07/21/44504/07/2839921.pdf", "archivo": "gm_pedimento_2839921.pdf", "fecha": "21-07-2026", "edicion": "44504" }, "geometry": { "type": "Polygon", "coordinates": [ [ [ -72.664509993670706, -36.651408796233646 ], [ -72.642152667654216, -36.65096814518153 ], [ -72.641877870439245, -36.659975438002959 ], [ -72.664237796304803, -36.660416232829682 ], [ -72.664509993670706, -36.651408796233646 ] ] ] } }
]
}
