{
"type": "FeatureCollection",
"name": "boletin_mineria_20260917",
"crs": { "type": "name", "properties": { "name": "urn:ogc:def:crs:OGC:1.3:CRS84" } },
"features": [
{ "type": "Feature", "properties": { "cve": "2871731", "nombre": "JOSO 1 AL 7", "solicitante": "Cortés Rojas Jaime", "region": "REGIÓN DE ANTOFAGASTA", "provincia": "Provincia de Antofagasta", "comuna": "Antofagasta", "superficie_ha": 14.0, "datum_original": "PSAD56", "huso": 19, "epsg_origen": 24879, "tipo_publicacion": "manifestacion", "fuente_pdf": "http://www.diariooficial.interior.gob.cl/publicaciones/2026/09/17/44553/07/2871731.pdf", "archivo": "gm_manifestacion_2871731.pdf", "fecha": "17-09-2026", "edicion": "44553" }, "geometry": { "type": "Polygon", "coordinates": [ [ [ -70.368841257942634, -23.48551752694749 ], [ -70.361988000925479, -23.485577562200497 ], [ -70.362006551993787, -23.48738361338307 ], [ -70.368859902285436, -23.487323572970556 ], [ -70.368841257942634, -23.48551752694749 ] ] ] } },
{ "type": "Feature", "properties": { "cve": "2871939", "nombre": "AURORA 1 AL 15", "solicitante": "SLM Peineta III Una de Diego de Almagro", "region": "REGIÓN DE ATACAMA", "provincia": "Provincia de Copiapó", "comuna": null, "superficie_ha": 15.0, "datum_original": "PSAD56", "huso": 19, "epsg_origen": 24879, "tipo_publicacion": "manifestacion", "fuente_pdf": "http://www.diariooficial.interior.gob.cl/publicaciones/2026/09/17/44553/07/2871939.pdf", "archivo": "gm_manifestacion_2871939.pdf", "fecha": "17-09-2026", "edicion": "44553" }, "geometry": { "type": "Polygon", "coordinates": [ [ [ -69.975047539303475, -27.067584626764887 ], [ -69.972022433545106, -27.06760556504986 ], [ -69.972061358800048, -27.072119169485156 ], [ -69.975086585653983, -27.072098227146981 ], [ -69.975047539303475, -27.067584626764887 ] ] ] } },
{ "type": "Feature", "properties": { "cve": "2871966", "nombre": "CAPACHOS I 1 AL 6", "solicitante": "Maturana Valdivia José Claudio", "region": "REGIÓN DE ATACAMA", "provincia": "Provincia de Copiapó", "comuna": null, "superficie_ha": 6.0, "datum_original": "PSAD56", "huso": 19, "epsg_origen": 24879, "tipo_publicacion": "manifestacion", "fuente_pdf": "http://www.diariooficial.interior.gob.cl/publicaciones/2026/09/17/44553/07/2871966.pdf", "archivo": "gm_manifestacion_2871966.pdf", "fecha": "17-09-2026", "edicion": "44553" }, "geometry": { "type": "Polygon", "coordinates": [ [ [ -70.07043779928658, -27.07754355486307 ], [ -70.068420944401311, -27.077558893726 ], [ -70.068446625296957, -27.0802669713973 ], [ -70.070463528637433, -27.080251630753345 ], [ -70.07043779928658, -27.07754355486307 ] ] ] } },
{ "type": "Feature", "properties": { "cve": "2871967", "nombre": "CAPACHOS II 1 AL 18", "solicitante": "Maturana Valdivia José Claudio", "region": "REGIÓN DE ATACAMA", "provincia": "Provincia de Copiapó", "comuna": null, "superficie_ha": 36.0, "datum_original": "PSAD56", "huso": 19, "epsg_origen": 24879, "tipo_publicacion": "manifestacion", "fuente_pdf": "http://www.diariooficial.interior.gob.cl/publicaciones/2026/09/17/44553/07/2871967.pdf", "archivo": "gm_manifestacion_2871967.pdf", "fecha": "17-09-2026", "edicion": "44553" }, "geometry": { "type": "Polygon", "coordinates": [ [ [ -70.083185786443565, -27.071307194767495 ], [ -70.077135577100364, -27.071353663230024 ], [ -70.077187347594858, -27.076769806825606 ], [ -70.083237847591775, -27.076723327570047 ], [ -70.083185786443565, -27.071307194767495 ] ] ] } },
{ "type": "Feature", "properties": { "cve": "2871984", "nombre": "ESPERANZA 2 1 AL 6", "solicitante": "García Astorga Nolfa Esmeralda", "region": "REGIÓN DE ATACAMA", "provincia": "Provincia de Copiapó", "comuna": "Tierra Amarilla", "superficie_ha": 30.0, "datum_original": "PSAD56", "huso": 19, "epsg_origen": 24879, "tipo_publicacion": "manifestacion", "fuente_pdf": "http://www.diariooficial.interior.gob.cl/publicaciones/2026/09/17/44553/07/2871984.pdf", "archivo": "gm_manifestacion_2871984.pdf", "fecha": "17-09-2026", "edicion": "44553" }, "geometry": { "type": "Polygon", "coordinates": [ [ [ -69.765976596908231, -27.535793326177451 ], [ -69.760913274970861, -27.535821127876897 ], [ -69.760950581777806, -27.541237390233302 ], [ -69.76601415190575, -27.541209582150962 ], [ -69.765976596908231, -27.535793326177451 ] ] ] } },
{ "type": "Feature", "properties": { "cve": "2871798", "nombre": "JAVIERA 1 AL 5", "solicitante": "Ramírez Arredondo Nelson Javier", "region": "REGIÓN DE ATACAMA", "provincia": "Provincia de Copiapó", "comuna": null, "superficie_ha": 25.0, "datum_original": "PSAD56", "huso": 19, "epsg_origen": 24879, "tipo_publicacion": "manifestacion", "fuente_pdf": "http://www.diariooficial.interior.gob.cl/publicaciones/2026/09/17/44553/07/2871798.pdf", "archivo": "gm_manifestacion_2871798.pdf", "fecha": "17-09-2026", "edicion": "44553" }, "geometry": { "type": "Polygon", "coordinates": [ [ [ -69.702801670295813, -27.503573711061971 ], [ -69.697739752057345, -27.503599184925005 ], [ -69.697768220364622, -27.508112821888911 ], [ -69.702830345091854, -27.508087343148237 ], [ -69.702801670295813, -27.503573711061971 ] ] ] } },
{ "type": "Feature", "properties": { "cve": "2871985", "nombre": "LA FUERTE 14 1 AL 20", "solicitante": "Bartrina Servicios SpA", "region": "REGIÓN DE ATACAMA", "provincia": "Provincia de Copiapó", "comuna": null, "superficie_ha": 200.0, "datum_original": "PSAD56", "huso": 19, "epsg_origen": 24879, "tipo_publicacion": "manifestacion", "fuente_pdf": "http://www.diariooficial.interior.gob.cl/publicaciones/2026/09/17/44553/07/2871985.pdf", "archivo": "gm_manifestacion_2871985.pdf", "fecha": "17-09-2026", "edicion": "44553" }, "geometry": { "type": "Polygon", "coordinates": [ [ [ -70.288803771490265, -27.168239475385271 ], [ -70.278712136716976, -27.168331821880123 ], [ -70.278917917663392, -27.186384054188508 ], [ -70.289011175374455, -27.186291636371195 ], [ -70.288803771490265, -27.168239475385271 ] ] ] } },
{ "type": "Feature", "properties": { "cve": "2871952", "nombre": "MANU I 1 AL 10", "solicitante": "Martínez Pérez Leonel", "region": "REGIÓN DE ATACAMA", "provincia": "Provincia de Copiapó", "comuna": null, "superficie_ha": 50.0, "datum_original": "PSAD56", "huso": 19, "epsg_origen": 24879, "tipo_publicacion": "manifestacion", "fuente_pdf": "http://www.diariooficial.interior.gob.cl/publicaciones/2026/09/17/44553/07/2871952.pdf", "archivo": "gm_manifestacion_2871952.pdf", "fecha": "17-09-2026", "edicion": "44553" }, "geometry": { "type": "Polygon", "coordinates": [ [ [ -70.420718919555057, -27.619643600763197 ], [ -70.415652853240445, -27.619695386191502 ], [ -70.415768948743164, -27.628720410204004 ], [ -70.420835430177959, -27.628668605004918 ], [ -70.420718919555057, -27.619643600763197 ] ] ] } },
{ "type": "Feature", "properties": { "cve": "2871953", "nombre": "MANU II 1 AL 20", "solicitante": "Martínez Pérez Leonel", "region": "REGIÓN DE ATACAMA", "provincia": "Provincia de Copiapó", "comuna": null, "superficie_ha": 100.0, "datum_original": "PSAD56", "huso": 19, "epsg_origen": 24879, "tipo_publicacion": "manifestacion", "fuente_pdf": "http://www.diariooficial.interior.gob.cl/publicaciones/2026/09/17/44553/07/2871953.pdf", "archivo": "gm_manifestacion_2871953.pdf", "fecha": "17-09-2026", "edicion": "44553" }, "geometry": { "type": "Polygon", "coordinates": [ [ [ -70.405520680177588, -27.619798402456532 ], [ -70.395388453524731, -27.619900679253899 ], [ -70.395502888499436, -27.628925781643879 ], [ -70.405635945425701, -27.628823465798906 ], [ -70.405520680177588, -27.619798402456532 ] ] ] } },
{ "type": "Feature", "properties": { "cve": "2871836", "nombre": "YOHANA 1 AL 5", "solicitante": "Mancilla Cardozo Martin", "region": "REGIÓN DE ATACAMA", "provincia": "Provincia de Copiapó", "comuna": null, "superficie_ha": 25.0, "datum_original": "WGS84", "huso": 19, "epsg_origen": 32719, "tipo_publicacion": "manifestacion", "fuente_pdf": "http://www.diariooficial.interior.gob.cl/publicaciones/2026/09/17/44553/07/2871836.pdf", "archivo": "gm_manifestacion_2871836.pdf", "fecha": "17-09-2026", "edicion": "44553" }, "geometry": { "type": "Polygon", "coordinates": [ [ [ -70.424994458292105, -27.206862397464441 ], [ -70.419947197341799, -27.206913632250174 ], [ -70.420004405493515, -27.211426403462919 ], [ -70.425051869625108, -27.211375158796574 ], [ -70.424994458292105, -27.206862397464441 ] ] ] } },
{ "type": "Feature", "properties": { "cve": "2871931", "nombre": "EL ALTO MORADO 1 AL 9", "solicitante": "Fredes Varas Alfonso Patricio", "region": "REGIÓN DE ATACAMA", "provincia": "Provincia de Huasco", "comuna": "Vallenar", "superficie_ha": 90.0, "datum_original": "PSAD56", "huso": 19, "epsg_origen": 24879, "tipo_publicacion": "manifestacion", "fuente_pdf": "http://www.diariooficial.interior.gob.cl/publicaciones/2026/09/17/44553/07/2871931.pdf", "archivo": "gm_manifestacion_2871931.pdf", "fecha": "17-09-2026", "edicion": "44553" }, "geometry": { "type": "Polygon", "coordinates": [ [ [ -71.019173088306673, -28.997374906316832 ], [ -71.003782586039748, -28.99760524883331 ], [ -71.003887002416093, -29.003017497912399 ], [ -71.019278305353026, -29.002787104321303 ], [ -71.019173088306673, -28.997374906316832 ] ] ] } },
{ "type": "Feature", "properties": { "cve": "2871876", "nombre": "JUANITA 1 AL 12", "solicitante": "Onix Inversiones SpA", "region": "REGIÓN DE ATACAMA", "provincia": "Provincia de Huasco", "comuna": null, "superficie_ha": 24.0, "datum_original": "WGS84", "huso": 19, "epsg_origen": 32719, "tipo_publicacion": "manifestacion", "fuente_pdf": "http://www.diariooficial.interior.gob.cl/publicaciones/2026/09/17/44553/07/2871876.pdf", "archivo": "gm_manifestacion_2871876.pdf", "fecha": "17-09-2026", "edicion": "44553" }, "geometry": { "type": "Polygon", "coordinates": [ [ [ -70.91742314696468, -28.880520738526304 ], [ -70.914348319981372, -28.880564462889353 ], [ -70.914480713096111, -28.887781315961742 ], [ -70.917555752411886, -28.887737578637758 ], [ -70.91742314696468, -28.880520738526304 ] ] ] } },
{ "type": "Feature", "properties": { "cve": "2871838", "nombre": "IÑES DE INCAHUASI UNO 1 AL 40", "solicitante": "SLM  Iñes de Incahuasi Uno del Sector Tres Cruces", "region": "REGIÓN DE COQUIMBO", "provincia": "Provincia de Elqui", "comuna": "La Higuera", "superficie_ha": 200.0, "datum_original": "PSAD56", "huso": 19, "epsg_origen": 24879, "tipo_publicacion": "manifestacion", "fuente_pdf": "http://www.diariooficial.interior.gob.cl/publicaciones/2026/09/17/44553/07/2871838.pdf", "archivo": "gm_manifestacion_2871838.pdf", "fecha": "17-09-2026", "edicion": "44553" }, "geometry": { "type": "Polygon", "coordinates": [ [ [ -70.961589503384957, -29.359144449089452 ], [ -70.951292779345053, -29.359295501115643 ], [ -70.951636887964028, -29.377335903626907 ], [ -70.961935424989591, -29.377184740819406 ], [ -70.961589503384957, -29.359144449089452 ] ] ] } },
{ "type": "Feature", "properties": { "cve": "2871643", "nombre": "PITA 1 AL 5", "solicitante": "Cortés Castillo Priscila Valeska", "region": "REGIÓN DE COQUIMBO", "provincia": "Provincia de Limarí", "comuna": "Combarbala", "superficie_ha": 25.0, "datum_original": "PSAD56", "huso": 19, "epsg_origen": 24879, "tipo_publicacion": "manifestacion", "fuente_pdf": "http://www.diariooficial.interior.gob.cl/publicaciones/2026/09/17/44553/07/2871643.pdf", "archivo": "gm_manifestacion_2871643.pdf", "fecha": "17-09-2026", "edicion": "44553" }, "geometry": { "type": "Polygon", "coordinates": [ [ [ -71.164624252586265, -31.040695067971644 ], [ -71.159388323015193, -31.040782821456308 ], [ -71.159490126982647, -31.045291171721566 ], [ -71.164726302931257, -31.045203402688596 ], [ -71.164624252586265, -31.040695067971644 ] ] ] } },
{ "type": "Feature", "properties": { "cve": "2871742", "nombre": "HUELLELHUE B 1 AL 20", "solicitante": "Parque Eólico El Alemán SpA", "region": "REGIÓN DE LOS RÍOS", "provincia": "Provincia de Valdivia", "comuna": "Valdivia", "superficie_ha": 160.0, "datum_original": "PSAD56", "huso": 18, "epsg_origen": 24878, "tipo_publicacion": "manifestacion", "fuente_pdf": "http://www.diariooficial.interior.gob.cl/publicaciones/2026/09/17/44553/07/2871742.pdf", "archivo": "gm_manifestacion_2871742.pdf", "fecha": "17-09-2026", "edicion": "44553" }, "geometry": { "type": "Polygon", "coordinates": [ [ [ -73.157977010966931, -39.81468824477605 ], [ -73.134622217671321, -39.814315038156899 ], [ -73.134427386918546, -39.821519246386515 ], [ -73.157784616138443, -39.821892547807167 ], [ -73.157977010966931, -39.81468824477605 ] ] ] } },
{ "type": "Feature", "properties": { "cve": "2871673", "nombre": "PUNTA BRAVA, 1 AL 20", "solicitante": "SLM Punta Brava Una de la Comuna de Vicuña", "region": "REGIÓN DE COQUIMBO", "provincia": "Provincia de Elqui", "comuna": null, "superficie_ha": 100.0, "datum_original": "PSAD56", "huso": 19, "epsg_origen": 24879, "tipo_publicacion": "mensura", "fuente_pdf": "http://www.diariooficial.interior.gob.cl/publicaciones/2026/09/17/44553/07/2871673.pdf", "archivo": "gm_mensura_2871673.pdf", "fecha": "17-09-2026", "edicion": "44553" }, "geometry": { "type": "Polygon", "coordinates": [ [ [ -70.65111061410559, -29.927296453956476 ], [ -70.640754152058832, -29.927425762512939 ], [ -70.640902171200324, -29.936446730321563 ], [ -70.651259566514312, -29.936317374908761 ], [ -70.65111061410559, -29.927296453956476 ] ] ] } },
{ "type": "Feature", "properties": { "cve": "2871820", "nombre": "Mina Refugio 2 del 1-10", "solicitante": "Atenas Muñoz Guillermo Alejandro", "region": "REGIÓN DE VALPARAÍSO", "provincia": "Provincia de Petorca", "comuna": null, "superficie_ha": null, "datum_original": "PSAD56", "huso": 19, "epsg_origen": 24879, "tipo_publicacion": "mensura", "fuente_pdf": "http://www.diariooficial.interior.gob.cl/publicaciones/2026/09/17/44553/07/2871820.pdf", "archivo": "gm_mensura_2871820.pdf", "fecha": "17-09-2026", "edicion": "44553" }, "geometry": { "type": "Polygon", "coordinates": [ [ [ -70.703903009135914, -32.330215502008215 ], [ -70.69328247046937, -32.330358495749756 ], [ -70.693450399178644, -32.33937583107214 ], [ -70.704071989882394, -32.339232787796313 ], [ -70.703903009135914, -32.330215502008215 ] ] ] } },
{ "type": "Feature", "properties": { "cve": "2871766", "nombre": "MG - 26", "solicitante": "Super Copper Chile SpA", "region": "REGIÓN DE ATACAMA", "provincia": "Provincia de Copiapó", "comuna": null, "superficie_ha": 300.0, "datum_original": "PSAD56", "huso": 19, "epsg_origen": 24879, "tipo_publicacion": "pedimento", "fuente_pdf": "http://www.diariooficial.interior.gob.cl/publicaciones/2026/09/17/44553/07/2871766.pdf", "archivo": "gm_pedimento_2871766.pdf", "fecha": "17-09-2026", "edicion": "44553" }, "geometry": { "type": "Polygon", "coordinates": [ [ [ -70.757140113870562, -27.746657279985151 ], [ -70.726713250354081, -27.747040513014337 ], [ -70.726855614683103, -27.756064020328601 ], [ -70.757284983718876, -27.755680641465339 ], [ -70.757140113870562, -27.746657279985151 ] ] ] } },
{ "type": "Feature", "properties": { "cve": "2871767", "nombre": "MG - 27", "solicitante": "Super Copper Chile SpA", "region": "REGIÓN DE ATACAMA", "provincia": "Provincia de Copiapó", "comuna": null, "superficie_ha": 300.0, "datum_original": "PSAD56", "huso": 19, "epsg_origen": 24879, "tipo_publicacion": "pedimento", "fuente_pdf": "http://www.diariooficial.interior.gob.cl/publicaciones/2026/09/17/44553/07/2871767.pdf", "archivo": "gm_pedimento_2871767.pdf", "fecha": "17-09-2026", "edicion": "44553" }, "geometry": { "type": "Polygon", "coordinates": [ [ [ -70.767427972728527, -27.755551361936117 ], [ -70.757284983718876, -27.755680641465339 ], [ -70.757719996917004, -27.782750650476679 ], [ -70.767865493629685, -27.782621223370214 ], [ -70.767427972728527, -27.755551361936117 ] ] ] } },
{ "type": "Feature", "properties": { "cve": "2871768", "nombre": "MG - 28", "solicitante": "Super Copper Chile SpA", "region": "REGIÓN DE ATACAMA", "provincia": "Provincia de Copiapó", "comuna": null, "superficie_ha": 300.0, "datum_original": "PSAD56", "huso": 19, "epsg_origen": 24879, "tipo_publicacion": "pedimento", "fuente_pdf": "http://www.diariooficial.interior.gob.cl/publicaciones/2026/09/17/44553/07/2871768.pdf", "archivo": "gm_pedimento_2871768.pdf", "fecha": "17-09-2026", "edicion": "44553" }, "geometry": { "type": "Polygon", "coordinates": [ [ [ -70.757284983718876, -27.755680641465339 ], [ -70.747141927449746, -27.755809177719378 ], [ -70.747574432873677, -27.782879333459853 ], [ -70.757719996917004, -27.782750650476679 ], [ -70.757284983718876, -27.755680641465339 ] ] ] } },
{ "type": "Feature", "properties": { "cve": "2871769", "nombre": "MG - 29", "solicitante": "Super Copper Chile SpA", "region": "REGIÓN DE ATACAMA", "provincia": "Provincia de Copiapó", "comuna": null, "superficie_ha": 300.0, "datum_original": "PSAD56", "huso": 19, "epsg_origen": 24879, "tipo_publicacion": "pedimento", "fuente_pdf": "http://www.diariooficial.interior.gob.cl/publicaciones/2026/09/17/44553/07/2871769.pdf", "archivo": "gm_pedimento_2871769.pdf", "fecha": "17-09-2026", "edicion": "44553" }, "geometry": { "type": "Polygon", "coordinates": [ [ [ -70.747141927449746, -27.755809177719378 ], [ -70.736998804308669, -27.755936970679898 ], [ -70.737428801887603, -27.783007272301301 ], [ -70.747574432873677, -27.782879333459853 ], [ -70.747141927449746, -27.755809177719378 ] ] ] } },
{ "type": "Feature", "properties": { "cve": "2871770", "nombre": "MG - 30", "solicitante": "Super Copper Chile SpA", "region": "REGIÓN DE ATACAMA", "provincia": "Provincia de Copiapó", "comuna": null, "superficie_ha": 300.0, "datum_original": "PSAD56", "huso": 19, "epsg_origen": 24879, "tipo_publicacion": "pedimento", "fuente_pdf": "http://www.diariooficial.interior.gob.cl/publicaciones/2026/09/17/44553/07/2871770.pdf", "archivo": "gm_pedimento_2871770.pdf", "fecha": "17-09-2026", "edicion": "44553" }, "geometry": { "type": "Polygon", "coordinates": [ [ [ -70.736998804308669, -27.755936970679898 ], [ -70.726855614683103, -27.756064020328601 ], [ -70.727283104346682, -27.783134466982784 ], [ -70.737428801887603, -27.783007272301301 ], [ -70.736998804308669, -27.755936970679898 ] ] ] } },
{ "type": "Feature", "properties": { "cve": "2871771", "nombre": "MG - 31", "solicitante": "Super Copper Chile SpA", "region": "REGIÓN DE ATACAMA", "provincia": "Provincia de Copiapó", "comuna": null, "superficie_ha": 300.0, "datum_original": "PSAD56", "huso": 19, "epsg_origen": 24879, "tipo_publicacion": "pedimento", "fuente_pdf": "http://www.diariooficial.interior.gob.cl/publicaciones/2026/09/17/44553/07/2871771.pdf", "archivo": "gm_pedimento_2871771.pdf", "fecha": "17-09-2026", "edicion": "44553" }, "geometry": { "type": "Polygon", "coordinates": [ [ [ -70.726855614683103, -27.756064020328601 ], [ -70.71671235896055, -27.756190326647364 ], [ -70.717137340638857, -27.783260917486086 ], [ -70.727283104346682, -27.783134466982784 ], [ -70.726855614683103, -27.756064020328601 ] ] ] } },
{ "type": "Feature", "properties": { "cve": "2871772", "nombre": "MG - 32", "solicitante": "Super Copper Chile SpA", "region": "REGIÓN DE ATACAMA", "provincia": "Provincia de Copiapó", "comuna": null, "superficie_ha": 300.0, "datum_original": "PSAD56", "huso": 19, "epsg_origen": 24879, "tipo_publicacion": "pedimento", "fuente_pdf": "http://www.diariooficial.interior.gob.cl/publicaciones/2026/09/17/44553/07/2871772.pdf", "archivo": "gm_pedimento_2871772.pdf", "fecha": "17-09-2026", "edicion": "44553" }, "geometry": { "type": "Polygon", "coordinates": [ [ [ -70.71671235896055, -27.756190326647364 ], [ -70.706569037528567, -27.756315889618119 ], [ -70.70699151115204, -27.783386623793156 ], [ -70.717137340638857, -27.783260917486086 ], [ -70.71671235896055, -27.756190326647364 ] ] ] } },
{ "type": "Feature", "properties": { "cve": "2871773", "nombre": "MG - 33", "solicitante": "Super Copper Chile SpA", "region": "REGIÓN DE ATACAMA", "provincia": "Provincia de Copiapó", "comuna": null, "superficie_ha": 300.0, "datum_original": "PSAD56", "huso": 19, "epsg_origen": 24879, "tipo_publicacion": "pedimento", "fuente_pdf": "http://www.diariooficial.interior.gob.cl/publicaciones/2026/09/17/44553/07/2871773.pdf", "archivo": "gm_pedimento_2871773.pdf", "fecha": "17-09-2026", "edicion": "44553" }, "geometry": { "type": "Polygon", "coordinates": [ [ [ -70.706569037528567, -27.756315889618119 ], [ -70.6964256507747, -27.756440709222929 ], [ -70.696845616274203, -27.783511585886004 ], [ -70.70699151115204, -27.783386623793156 ], [ -70.706569037528567, -27.756315889618119 ] ] ] } },
{ "type": "Feature", "properties": { "cve": "2871774", "nombre": "MG - 34", "solicitante": "Super Copper Chile SpA", "region": "REGIÓN DE ATACAMA", "provincia": "Provincia de Copiapó", "comuna": null, "superficie_ha": 300.0, "datum_original": "PSAD56", "huso": 19, "epsg_origen": 24879, "tipo_publicacion": "pedimento", "fuente_pdf": "http://www.diariooficial.interior.gob.cl/publicaciones/2026/09/17/44553/07/2871774.pdf", "archivo": "gm_pedimento_2871774.pdf", "fecha": "17-09-2026", "edicion": "44553" }, "geometry": { "type": "Polygon", "coordinates": [ [ [ -70.6964256507747, -27.756440709222929 ], [ -70.686282199086506, -27.756564785443963 ], [ -70.686699656393316, -27.78363580374679 ], [ -70.696845616274203, -27.783511585886004 ], [ -70.6964256507747, -27.756440709222929 ] ] ] } },
{ "type": "Feature", "properties": { "cve": "2871775", "nombre": "MG - 35", "solicitante": "Super Copper Chile SpA", "region": "REGIÓN DE ATACAMA", "provincia": "Provincia de Copiapó", "comuna": null, "superficie_ha": 300.0, "datum_original": "PSAD56", "huso": 19, "epsg_origen": 24879, "tipo_publicacion": "pedimento", "fuente_pdf": "http://www.diariooficial.interior.gob.cl/publicaciones/2026/09/17/44553/07/2871775.pdf", "archivo": "gm_pedimento_2871775.pdf", "fecha": "17-09-2026", "edicion": "44553" }, "geometry": { "type": "Polygon", "coordinates": [ [ [ -70.696845616274203, -27.783511585886004 ], [ -70.686699656393316, -27.78363580374679 ], [ -70.687117695238186, -27.810706709331708 ], [ -70.697266166803615, -27.810582349762836 ], [ -70.696845616274203, -27.783511585886004 ] ] ] } },
{ "type": "Feature", "properties": { "cve": "2871776", "nombre": "MG - 36", "solicitante": "Super Copper Chile SpA", "region": "REGIÓN DE ATACAMA", "provincia": "Provincia de Copiapó", "comuna": null, "superficie_ha": 300.0, "datum_original": "PSAD56", "huso": 19, "epsg_origen": 24879, "tipo_publicacion": "pedimento", "fuente_pdf": "http://www.diariooficial.interior.gob.cl/publicaciones/2026/09/17/44553/07/2871776.pdf", "archivo": "gm_pedimento_2871776.pdf", "fecha": "17-09-2026", "edicion": "44553" }, "geometry": { "type": "Polygon", "coordinates": [ [ [ -70.686699656393316, -27.78363580374679 ], [ -70.676553631897349, -27.783759277357735 ], [ -70.676969158989237, -27.810830323802023 ], [ -70.687117695238186, -27.810706709331708 ], [ -70.686699656393316, -27.78363580374679 ] ] ] } },
{ "type": "Feature", "properties": { "cve": "2871777", "nombre": "MG - 37", "solicitante": "Super Copper Chile SpA", "region": "REGIÓN DE ATACAMA", "provincia": "Provincia de Copiapó", "comuna": null, "superficie_ha": 200.0, "datum_original": "PSAD56", "huso": 19, "epsg_origen": 24879, "tipo_publicacion": "pedimento", "fuente_pdf": "http://www.diariooficial.interior.gob.cl/publicaciones/2026/09/17/44553/07/2871777.pdf", "archivo": "gm_pedimento_2871777.pdf", "fecha": "17-09-2026", "edicion": "44553" }, "geometry": { "type": "Polygon", "coordinates": [ [ [ -70.717704903894358, -27.819354862931068 ], [ -70.697406480427148, -27.819605912644711 ], [ -70.697546859145831, -27.828629462983262 ], [ -70.717846959330544, -27.828378317902814 ], [ -70.717704903894358, -27.819354862931068 ] ] ] } },
{ "type": "Feature", "properties": { "cve": "2871778", "nombre": "MG - 38", "solicitante": "Supper Copper Chile SpA", "region": "REGIÓN DE ATACAMA", "provincia": "Provincia de Copiapó", "comuna": null, "superficie_ha": 200.0, "datum_original": "PSAD56", "huso": 19, "epsg_origen": 24879, "tipo_publicacion": "pedimento", "fuente_pdf": "http://www.diariooficial.interior.gob.cl/publicaciones/2026/09/17/44553/07/2871778.pdf", "archivo": "gm_pedimento_2871778.pdf", "fecha": "17-09-2026", "edicion": "44553" }, "geometry": { "type": "Polygon", "coordinates": [ [ [ -70.722921943313679, -27.82831506562027 ], [ -70.702621908732667, -27.828566956325119 ], [ -70.702762771951853, -27.837590470378061 ], [ -70.723064484004496, -27.837338484007976 ], [ -70.722921943313679, -27.82831506562027 ] ] ] } },
{ "type": "Feature", "properties": { "cve": "2871779", "nombre": "MG - 39", "solicitante": "Super Copper Chile SpA", "region": "REGIÓN DE ATACAMA", "provincia": "Provincia de Copiapó", "comuna": null, "superficie_ha": 300.0, "datum_original": "PSAD56", "huso": 19, "epsg_origen": 24879, "tipo_publicacion": "pedimento", "fuente_pdf": "http://www.diariooficial.interior.gob.cl/publicaciones/2026/09/17/44553/07/2871779.pdf", "archivo": "gm_pedimento_2871779.pdf", "fecha": "17-09-2026", "edicion": "44553" }, "geometry": { "type": "Polygon", "coordinates": [ [ [ -70.71798908066215, -27.837401760312989 ], [ -70.687536316237114, -27.837777502121043 ], [ -70.687675986044326, -27.846801074638396 ], [ -70.718131267912497, -27.846425190158694 ], [ -70.71798908066215, -27.837401760312989 ] ] ] } },
{ "type": "Feature", "properties": { "cve": "2871954", "nombre": "SANTA BLANCA I", "solicitante": "Ghighlino Zaro Mario Antonio", "region": "REGIÓN DE ATACAMA", "provincia": "Provincia de Copiapó", "comuna": null, "superficie_ha": 300.0, "datum_original": "PSAD56", "huso": 19, "epsg_origen": 24879, "tipo_publicacion": "pedimento", "fuente_pdf": "http://www.diariooficial.interior.gob.cl/publicaciones/2026/09/17/44553/07/2871954.pdf", "archivo": "gm_pedimento_2871954.pdf", "fecha": "17-09-2026", "edicion": "44553" }, "geometry": { "type": "Polygon", "coordinates": [ [ [ -70.445595687666867, -27.196048161100233 ], [ -70.415315092786102, -27.196357144070834 ], [ -70.415429083135777, -27.205382721736584 ], [ -70.445712114785579, -27.205073619547893 ], [ -70.445595687666867, -27.196048161100233 ] ] ] } },
{ "type": "Feature", "properties": { "cve": "2871877", "nombre": "Juanita 1", "solicitante": "Onix Inversiones SpA", "region": "REGIÓN DE ATACAMA", "provincia": "Provincia de Huasco", "comuna": null, "superficie_ha": 100.0, "datum_original": "WGS84", "huso": 19, "epsg_origen": 32719, "tipo_publicacion": "pedimento", "fuente_pdf": "http://www.diariooficial.interior.gob.cl/publicaciones/2026/09/17/44553/07/2871877.pdf", "archivo": "gm_pedimento_2871877.pdf", "fecha": "17-09-2026", "edicion": "44553" }, "geometry": { "type": "Polygon", "coordinates": [ [ [ -70.922274970305182, -28.860058690524966 ], [ -70.912027557242993, -28.860204440879563 ], [ -70.912192716971617, -28.869225545430918 ], [ -70.922441013873396, -28.869079741045997 ], [ -70.922274970305182, -28.860058690524966 ] ] ] } },
{ "type": "Feature", "properties": { "cve": "2871700", "nombre": "LEGEND 1", "solicitante": "Invexmin Chile SpA", "region": "REGIÓN DEL LIBERTADOR GENERAL BERNARDO O’HIGGINS", "provincia": "Provincia de Cachapoal", "comuna": null, "superficie_ha": 300.0, "datum_original": "PSAD56", "huso": 19, "epsg_origen": 24879, "tipo_publicacion": "pedimento", "fuente_pdf": "http://www.diariooficial.interior.gob.cl/publicaciones/2026/09/17/44553/07/2871700.pdf", "archivo": "gm_pedimento_2871700.pdf", "fecha": "17-09-2026", "edicion": "44553" }, "geometry": { "type": "Polygon", "coordinates": [ [ [ -70.787798429822985, -33.961913258198862 ], [ -70.755342753618521, -33.96238049272867 ], [ -70.755527996817932, -33.971395150934796 ], [ -70.78798709369714, -33.970927758643121 ], [ -70.787798429822985, -33.961913258198862 ] ] ] } },
{ "type": "Feature", "properties": { "cve": "2871701", "nombre": "LEGEND 3", "solicitante": "Invexmin Chile SpA", "region": "REGIÓN DEL LIBERTADOR GENERAL BERNARDO O’HIGGINS", "provincia": "Provincia de Cachapoal", "comuna": null, "superficie_ha": 300.0, "datum_original": "PSAD56", "huso": 19, "epsg_origen": 24879, "tipo_publicacion": "pedimento", "fuente_pdf": "http://www.diariooficial.interior.gob.cl/publicaciones/2026/09/17/44553/07/2871701.pdf", "archivo": "gm_pedimento_2871701.pdf", "fecha": "17-09-2026", "edicion": "44553" }, "geometry": { "type": "Polygon", "coordinates": [ [ [ -70.788175841461168, -33.979942244840551 ], [ -70.755713322387592, -33.980409794926736 ], [ -70.755898730362588, -33.989424424702335 ], [ -70.788364673150838, -33.988956716788977 ], [ -70.788175841461168, -33.979942244840551 ] ] ] } },
{ "type": "Feature", "properties": { "cve": "2871702", "nombre": "LEGEND 5", "solicitante": "Invexmin Chile SpA", "region": "REGIÓN DEL LIBERTADOR GENERAL BERNARDO O’HIGGINS", "provincia": "Provincia de Cachapoal", "comuna": null, "superficie_ha": 300.0, "datum_original": "PSAD56", "huso": 19, "epsg_origen": 24879, "tipo_publicacion": "pedimento", "fuente_pdf": "http://www.diariooficial.interior.gob.cl/publicaciones/2026/09/17/44553/07/2871702.pdf", "archivo": "gm_pedimento_2871702.pdf", "fecha": "17-09-2026", "edicion": "44553" }, "geometry": { "type": "Polygon", "coordinates": [ [ [ -70.755342753618521, -33.96238049272867 ], [ -70.744524029538795, -33.962534337188444 ], [ -70.745076583876653, -33.989578425032327 ], [ -70.755898730362588, -33.989424424702335 ], [ -70.755342753618521, -33.96238049272867 ] ] ] } },
{ "type": "Feature", "properties": { "cve": "2871905", "nombre": "LEA 74", "solicitante": "Varela Echaurren Juan Francisco", "region": "REGIÓN DEL MAULE", "provincia": "Provincia de Cauquenes", "comuna": null, "superficie_ha": 300.0, "datum_original": "PSAD56", "huso": 18, "epsg_origen": 24878, "tipo_publicacion": "pedimento", "fuente_pdf": "http://www.diariooficial.interior.gob.cl/publicaciones/2026/09/17/44553/07/2871905.pdf", "archivo": "gm_pedimento_2871905.pdf", "fecha": "17-09-2026", "edicion": "44553" }, "geometry": { "type": "Polygon", "coordinates": [ [ [ -72.500411504634158, -36.10870545800438 ], [ -72.467111945919086, -36.108005741534406 ], [ -72.466822552859639, -36.117012681492426 ], [ -72.500125906463325, -36.117712627619362 ], [ -72.500411504634158, -36.10870545800438 ] ] ] } },
{ "type": "Feature", "properties": { "cve": "2871906", "nombre": "LEA 75", "solicitante": "Varela Echaurren Juan Francisco", "region": "REGIÓN DEL MAULE", "provincia": "Provincia de Cauquenes", "comuna": null, "superficie_ha": 300.0, "datum_original": "PSAD56", "huso": 18, "epsg_origen": 24878, "tipo_publicacion": "pedimento", "fuente_pdf": "http://www.diariooficial.interior.gob.cl/publicaciones/2026/09/17/44553/07/2871906.pdf", "archivo": "gm_pedimento_2871906.pdf", "fecha": "17-09-2026", "edicion": "44553" }, "geometry": { "type": "Polygon", "coordinates": [ [ [ -72.500125906463325, -36.117712627619362 ], [ -72.466822552859639, -36.117012681492426 ], [ -72.466533031324772, -36.126019605776563 ], [ -72.499840181498485, -36.12671978161201 ], [ -72.500125906463325, -36.117712627619362 ] ] ] } },
{ "type": "Feature", "properties": { "cve": "2871907", "nombre": "LEA 76", "solicitante": "Varela Echaurren Juan Francisco", "region": "REGIÓN DEL MAULE", "provincia": "Provincia de Cauquenes", "comuna": null, "superficie_ha": 300.0, "datum_original": "PSAD56", "huso": 18, "epsg_origen": 24878, "tipo_publicacion": "pedimento", "fuente_pdf": "http://www.diariooficial.interior.gob.cl/publicaciones/2026/09/17/44553/07/2871907.pdf", "archivo": "gm_pedimento_2871907.pdf", "fecha": "17-09-2026", "edicion": "44553" }, "geometry": { "type": "Polygon", "coordinates": [ [ [ -72.46797935482553, -36.080984827641821 ], [ -72.434692324887408, -36.080276567008532 ], [ -72.434399527578549, -36.089283321443631 ], [ -72.467690346843995, -36.089991814606648 ], [ -72.46797935482553, -36.080984827641821 ] ] ] } },
{ "type": "Feature", "properties": { "cve": "2871908", "nombre": "LEA 77", "solicitante": "Varela Echaurren Juan Francisco", "region": "REGIÓN DEL MAULE", "provincia": "Provincia de Cauquenes", "comuna": null, "superficie_ha": 300.0, "datum_original": "PSAD56", "huso": 18, "epsg_origen": 24878, "tipo_publicacion": "pedimento", "fuente_pdf": "http://www.diariooficial.interior.gob.cl/publicaciones/2026/09/17/44553/07/2871908.pdf", "archivo": "gm_pedimento_2871908.pdf", "fecha": "17-09-2026", "edicion": "44553" }, "geometry": { "type": "Polygon", "coordinates": [ [ [ -72.467690346843995, -36.089991814606648 ], [ -72.434399527578549, -36.089283321443631 ], [ -72.434106600289653, -36.098290060160132 ], [ -72.467401210561192, -36.098998785905003 ], [ -72.467690346843995, -36.089991814606648 ] ] ] } },
{ "type": "Feature", "properties": { "cve": "2871909", "nombre": "LEA 78", "solicitante": "Varela Echaurren Juan Francisco", "region": "REGIÓN DEL MAULE", "provincia": "Provincia de Cauquenes", "comuna": null, "superficie_ha": 300.0, "datum_original": "PSAD56", "huso": 18, "epsg_origen": 24878, "tipo_publicacion": "pedimento", "fuente_pdf": "http://www.diariooficial.interior.gob.cl/publicaciones/2026/09/17/44553/07/2871909.pdf", "archivo": "gm_pedimento_2871909.pdf", "fecha": "17-09-2026", "edicion": "44553" }, "geometry": { "type": "Polygon", "coordinates": [ [ [ -72.467401210561192, -36.098998785905003 ], [ -72.434106600289653, -36.098290060160132 ], [ -72.433813542961943, -36.107296783155533 ], [ -72.467111945919086, -36.108005741534406 ], [ -72.467401210561192, -36.098998785905003 ] ] ] } },
{ "type": "Feature", "properties": { "cve": "2871910", "nombre": "LEA 79", "solicitante": "Varela Echaurren Juan Francisco", "region": "REGIÓN DEL MAULE", "provincia": "Provincia de Cauquenes", "comuna": null, "superficie_ha": 300.0, "datum_original": "PSAD56", "huso": 18, "epsg_origen": 24878, "tipo_publicacion": "pedimento", "fuente_pdf": "http://www.diariooficial.interior.gob.cl/publicaciones/2026/09/17/44553/07/2871910.pdf", "archivo": "gm_pedimento_2871910.pdf", "fecha": "17-09-2026", "edicion": "44553" }, "geometry": { "type": "Polygon", "coordinates": [ [ [ -72.467111945919086, -36.108005741534406 ], [ -72.433813542961943, -36.107296783155533 ], [ -72.433520355536629, -36.116303490427335 ], [ -72.466822552859639, -36.117012681492426 ], [ -72.467111945919086, -36.108005741534406 ] ] ] } },
{ "type": "Feature", "properties": { "cve": "2871911", "nombre": "LEA 80", "solicitante": "Varela Echaurren Juan Francisco", "region": "REGIÓN DEL MAULE", "provincia": "Provincia de Cauquenes", "comuna": null, "superficie_ha": 300.0, "datum_original": "PSAD56", "huso": 18, "epsg_origen": 24878, "tipo_publicacion": "pedimento", "fuente_pdf": "http://www.diariooficial.interior.gob.cl/publicaciones/2026/09/17/44553/07/2871911.pdf", "archivo": "gm_pedimento_2871911.pdf", "fecha": "17-09-2026", "edicion": "44553" }, "geometry": { "type": "Polygon", "coordinates": [ [ [ -72.466822552859639, -36.117012681492426 ], [ -72.433520355536629, -36.116303490427335 ], [ -72.433227037954836, -36.125310181973063 ], [ -72.466533031324772, -36.126019605776563 ], [ -72.466822552859639, -36.117012681492426 ] ] ] } },
{ "type": "Feature", "properties": { "cve": "2871708", "nombre": "LEA 158", "solicitante": "Varela Echaurren Juan Francisco", "region": "REGIÓN DE ÑUBLE", "provincia": "Provincia de Punilla", "comuna": "San Nicolás", "superficie_ha": 300.0, "datum_original": "PSAD56", "huso": 18, "epsg_origen": 24878, "tipo_publicacion": "pedimento", "fuente_pdf": "http://www.diariooficial.interior.gob.cl/publicaciones/2026/09/17/44553/07/2871708.pdf", "archivo": "gm_pedimento_2871708.pdf", "fecha": "17-09-2026", "edicion": "44553" }, "geometry": { "type": "Polygon", "coordinates": [ [ [ -72.370680215508244, -36.542722689301947 ], [ -72.337198939721432, -36.541979330815913 ], [ -72.336889854337926, -36.550984682140431 ], [ -72.370375005483638, -36.551728283398624 ], [ -72.370680215508244, -36.542722689301947 ] ] ] } },
{ "type": "Feature", "properties": { "cve": "2871709", "nombre": "LEA 159", "solicitante": "Varela Echaurren Juan Francisco", "region": "REGIÓN DE ÑUBLE", "provincia": "Provincia de Punilla", "comuna": "San Nicolás", "superficie_ha": 300.0, "datum_original": "PSAD56", "huso": 18, "epsg_origen": 24878, "tipo_publicacion": "pedimento", "fuente_pdf": "http://www.diariooficial.interior.gob.cl/publicaciones/2026/09/17/44553/07/2871709.pdf", "archivo": "gm_pedimento_2871709.pdf", "fecha": "17-09-2026", "edicion": "44553" }, "geometry": { "type": "Polygon", "coordinates": [ [ [ -72.370375005483638, -36.551728283398624 ], [ -72.336889854337926, -36.550984682140431 ], [ -72.336580631676625, -36.559990017484246 ], [ -72.370069659898647, -36.560733861569979 ], [ -72.370375005483638, -36.551728283398624 ] ] ] } },
{ "type": "Feature", "properties": { "cve": "2871710", "nombre": "LEA 160", "solicitante": "Varela Echaurren Juan Francisco", "region": "REGIÓN DE ÑUBLE", "provincia": "Provincia de Punilla", "comuna": "San Nicolás", "superficie_ha": 300.0, "datum_original": "PSAD56", "huso": 18, "epsg_origen": 24878, "tipo_publicacion": "pedimento", "fuente_pdf": "http://www.diariooficial.interior.gob.cl/publicaciones/2026/09/17/44553/07/2871710.pdf", "archivo": "gm_pedimento_2871710.pdf", "fecha": "17-09-2026", "edicion": "44553" }, "geometry": { "type": "Polygon", "coordinates": [ [ [ -72.370069659898647, -36.560733861569979 ], [ -72.336580631676625, -36.559990017484246 ], [ -72.336271271674732, -36.568995336844836 ], [ -72.36976417869117, -36.569739423813502 ], [ -72.370069659898647, -36.560733861569979 ] ] ] } },
{ "type": "Feature", "properties": { "cve": "2871711", "nombre": "LEA 161", "solicitante": "Varela Echaurren Juan Francisco", "region": "REGIÓN DE ÑUBLE", "provincia": "Provincia de Punilla", "comuna": "San Nicolás", "superficie_ha": 300.0, "datum_original": "PSAD56", "huso": 18, "epsg_origen": 24878, "tipo_publicacion": "pedimento", "fuente_pdf": "http://www.diariooficial.interior.gob.cl/publicaciones/2026/09/17/44553/07/2871711.pdf", "archivo": "gm_pedimento_2871711.pdf", "fecha": "17-09-2026", "edicion": "44553" }, "geometry": { "type": "Polygon", "coordinates": [ [ [ -72.36976417869117, -36.569739423813502 ], [ -72.336271271674732, -36.568995336844836 ], [ -72.335961774269322, -36.578000640219642 ], [ -72.369458561799149, -36.578744970126699 ], [ -72.36976417869117, -36.569739423813502 ] ] ] } },
{ "type": "Feature", "properties": { "cve": "2871839", "nombre": "LUNA 105", "solicitante": "Varela Echaurren Juan Francisco", "region": "REGIÓN DEL BIOBÍO", "provincia": "Provincia de Arauco", "comuna": null, "superficie_ha": 300.0, "datum_original": "PSAD56", "huso": 18, "epsg_origen": 24878, "tipo_publicacion": "pedimento", "fuente_pdf": "http://www.diariooficial.interior.gob.cl/publicaciones/2026/09/17/44553/07/2871839.pdf", "archivo": "gm_pedimento_2871839.pdf", "fecha": "17-09-2026", "edicion": "44553" }, "geometry": { "type": "Polygon", "coordinates": [ [ [ -73.212820681333838, -37.600237761945614 ], [ -73.178851807236938, -37.599718374674012 ], [ -73.178632115769872, -37.608727300295918 ], [ -73.21260508228211, -37.60924685546761 ], [ -73.212820681333838, -37.600237761945614 ] ] ] } },
{ "type": "Feature", "properties": { "cve": "2871840", "nombre": "LUNA 107", "solicitante": "Varela Echaurren Juan Francisco", "region": "REGIÓN DEL BIOBÍO", "provincia": "Provincia de Arauco", "comuna": null, "superficie_ha": 300.0, "datum_original": "PSAD56", "huso": 18, "epsg_origen": 24878, "tipo_publicacion": "pedimento", "fuente_pdf": "http://www.diariooficial.interior.gob.cl/publicaciones/2026/09/17/44553/07/2871840.pdf", "archivo": "gm_pedimento_2871840.pdf", "fecha": "17-09-2026", "edicion": "44553" }, "geometry": { "type": "Polygon", "coordinates": [ [ [ -73.212389387191479, -37.618255934049841 ], [ -73.178412326442896, -37.617736210938212 ], [ -73.17819243920988, -37.62674510659911 ], [ -73.212173596016612, -37.62726499769061 ], [ -73.212389387191479, -37.618255934049841 ] ] ] } },
{ "type": "Feature", "properties": { "cve": "2871841", "nombre": "LUNA 110", "solicitante": "Varela Echaurren Juan Francisco", "region": "REGIÓN DEL BIOBÍO", "provincia": "Provincia de Arauco", "comuna": null, "superficie_ha": 300.0, "datum_original": "PSAD56", "huso": 18, "epsg_origen": 24878, "tipo_publicacion": "pedimento", "fuente_pdf": "http://www.diariooficial.interior.gob.cl/publicaciones/2026/09/17/44553/07/2871841.pdf", "archivo": "gm_pedimento_2871841.pdf", "fecha": "17-09-2026", "edicion": "44553" }, "geometry": { "type": "Polygon", "coordinates": [ [ [ -73.178851807236938, -37.599718374674012 ], [ -73.167529044023809, -37.599543074570832 ], [ -73.166865582035825, -37.626569636451613 ], [ -73.17819243920988, -37.62674510659911 ], [ -73.178851807236938, -37.599718374674012 ] ] ] } },
{ "type": "Feature", "properties": { "cve": "2871842", "nombre": "LUNA 112", "solicitante": "Varela Echaurren Juan Francisco", "region": "REGIÓN DEL BIOBÍO", "provincia": "Provincia de Arauco", "comuna": null, "superficie_ha": 300.0, "datum_original": "PSAD56", "huso": 18, "epsg_origen": 24878, "tipo_publicacion": "pedimento", "fuente_pdf": "http://www.diariooficial.interior.gob.cl/publicaciones/2026/09/17/44553/07/2871842.pdf", "archivo": "gm_pedimento_2871842.pdf", "fecha": "17-09-2026", "edicion": "44553" }, "geometry": { "type": "Polygon", "coordinates": [ [ [ -73.177972454024626, -37.635753987276928 ], [ -73.143988081324821, -37.635224146155451 ], [ -73.143763898852868, -37.644232840629975 ], [ -73.177752370840963, -37.644762852969876 ], [ -73.177972454024626, -37.635753987276928 ] ] ] } },
{ "type": "Feature", "properties": { "cve": "2871843", "nombre": "LUNA 114", "solicitante": "Varela Echaurren Juan Francisco", "region": "REGIÓN DEL BIOBÍO", "provincia": "Provincia de Arauco", "comuna": null, "superficie_ha": 300.0, "datum_original": "PSAD56", "huso": 18, "epsg_origen": 24878, "tipo_publicacion": "pedimento", "fuente_pdf": "http://www.diariooficial.interior.gob.cl/publicaciones/2026/09/17/44553/07/2871843.pdf", "archivo": "gm_pedimento_2871843.pdf", "fecha": "17-09-2026", "edicion": "44553" }, "geometry": { "type": "Polygon", "coordinates": [ [ [ -73.17753218961262, -37.653771703676263 ], [ -73.143539616512115, -37.653241520077202 ], [ -73.143315234255425, -37.662250184495385 ], [ -73.177311910293341, -37.662780539394348 ], [ -73.17753218961262, -37.653771703676263 ] ] ] } },
{ "type": "Feature", "properties": { "cve": "2871844", "nombre": "LUNA 115", "solicitante": "Varela Echaurren Juan Francisco", "region": "REGIÓN DEL BIOBÍO", "provincia": "Provincia de Arauco", "comuna": null, "superficie_ha": 200.0, "datum_original": "PSAD56", "huso": 18, "epsg_origen": 24878, "tipo_publicacion": "pedimento", "fuente_pdf": "http://www.diariooficial.interior.gob.cl/publicaciones/2026/09/17/44553/07/2871844.pdf", "archivo": "gm_pedimento_2871844.pdf", "fecha": "17-09-2026", "edicion": "44553" }, "geometry": { "type": "Polygon", "coordinates": [ [ [ -73.177311910293341, -37.662780539394348 ], [ -73.15464736044953, -37.662428057356294 ], [ -73.154424246437358, -37.671436764208423 ], [ -73.17709153283684, -37.671789360122382 ], [ -73.177311910293341, -37.662780539394348 ] ] ] } },
{ "type": "Feature", "properties": { "cve": "2871845", "nombre": "LUNA 117", "solicitante": "Varela Echaurren Juan Francisco", "region": "REGIÓN DEL BIOBÍO", "provincia": "Provincia de Arauco", "comuna": null, "superficie_ha": 300.0, "datum_original": "PSAD56", "huso": 18, "epsg_origen": 24878, "tipo_publicacion": "pedimento", "fuente_pdf": "http://www.diariooficial.interior.gob.cl/publicaciones/2026/09/17/44553/07/2871845.pdf", "archivo": "gm_pedimento_2871845.pdf", "fecha": "17-09-2026", "edicion": "44553" }, "geometry": { "type": "Polygon", "coordinates": [ [ [ -73.143539616512115, -37.653241520077202 ], [ -73.109547942656846, -37.652701548941323 ], [ -73.109319457887267, -37.661710038899784 ], [ -73.143315234255425, -37.662250184495385 ], [ -73.143539616512115, -37.653241520077202 ] ] ] } },
{ "type": "Feature", "properties": { "cve": "2871945", "nombre": "LUNA 100", "solicitante": "Varela Echaurren Juan Francisco", "region": "REGIÓN DEL BIOBÍO", "provincia": "Provincia de Biobío", "comuna": null, "superficie_ha": 300.0, "datum_original": "PSAD56", "huso": 18, "epsg_origen": 24878, "tipo_publicacion": "pedimento", "fuente_pdf": "http://www.diariooficial.interior.gob.cl/publicaciones/2026/09/17/44553/07/2871945.pdf", "archivo": "gm_pedimento_2871945.pdf", "fecha": "17-09-2026", "edicion": "44553" }, "geometry": { "type": "Polygon", "coordinates": [ [ [ -72.728043842496632, -37.226015045230596 ], [ -72.694253797584693, -37.225361752502216 ], [ -72.693979410116697, -37.234368501084447 ], [ -72.727773467600159, -37.235022005708295 ], [ -72.728043842496632, -37.226015045230596 ] ] ] } },
{ "type": "Feature", "properties": { "cve": "2871946", "nombre": "LUNA 101", "solicitante": "Varela Echaurren Juan Francisco", "region": "REGIÓN DEL BIOBÍO", "provincia": "Provincia de Biobío", "comuna": null, "superficie_ha": 300.0, "datum_original": "PSAD56", "huso": 18, "epsg_origen": 24878, "tipo_publicacion": "pedimento", "fuente_pdf": "http://www.diariooficial.interior.gob.cl/publicaciones/2026/09/17/44553/07/2871946.pdf", "archivo": "gm_pedimento_2871946.pdf", "fecha": "17-09-2026", "edicion": "44553" }, "geometry": { "type": "Polygon", "coordinates": [ [ [ -72.727773467600159, -37.235022005708295 ], [ -72.693979410116697, -37.234368501084447 ], [ -72.693704900583782, -37.243375234106459 ], [ -72.72750297242078, -37.244028950675364 ], [ -72.727773467600159, -37.235022005708295 ] ] ] } },
{ "type": "Feature", "properties": { "cve": "2871947", "nombre": "LUNA 102", "solicitante": "Varela Echaurren Juan Francisco", "region": "REGIÓN DEL BIOBÍO", "provincia": "Provincia de Biobío", "comuna": null, "superficie_ha": 200.0, "datum_original": "PSAD56", "huso": 18, "epsg_origen": 24878, "tipo_publicacion": "pedimento", "fuente_pdf": "http://www.diariooficial.interior.gob.cl/publicaciones/2026/09/17/44553/07/2871947.pdf", "archivo": "gm_pedimento_2871947.pdf", "fecha": "17-09-2026", "edicion": "44553" }, "geometry": { "type": "Polygon", "coordinates": [ [ [ -72.695350127945403, -37.189334602614061 ], [ -72.672834727576443, -37.188894296177367 ], [ -72.67255815778141, -37.197900964115945 ], [ -72.695076228168276, -37.198341413415676 ], [ -72.695350127945403, -37.189334602614061 ] ] ] } },
{ "type": "Feature", "properties": { "cve": "2871948", "nombre": "LUNA 103", "solicitante": "Varela Echaurren Juan Francisco", "region": "REGIÓN DEL BIOBÍO", "provincia": "Provincia de Biobío", "comuna": null, "superficie_ha": 200.0, "datum_original": "PSAD56", "huso": 18, "epsg_origen": 24878, "tipo_publicacion": "pedimento", "fuente_pdf": "http://www.diariooficial.interior.gob.cl/publicaciones/2026/09/17/44553/07/2871948.pdf", "archivo": "gm_pedimento_2871948.pdf", "fecha": "17-09-2026", "edicion": "44553" }, "geometry": { "type": "Polygon", "coordinates": [ [ [ -72.695076228168276, -37.198341413415676 ], [ -72.67255815778141, -37.197900964115945 ], [ -72.672281464963305, -37.206907616469515 ], [ -72.694802206553675, -37.207348208665678 ], [ -72.695076228168276, -37.198341413415676 ] ] ] } },
{ "type": "Feature", "properties": { "cve": "2871949", "nombre": "LUNA 104", "solicitante": "Varela Echaurren Juan Francisco", "region": "REGIÓN DEL BIOBÍO", "provincia": "Provincia de Biobío", "comuna": null, "superficie_ha": 300.0, "datum_original": "PSAD56", "huso": 18, "epsg_origen": 24878, "tipo_publicacion": "pedimento", "fuente_pdf": "http://www.diariooficial.interior.gob.cl/publicaciones/2026/09/17/44553/07/2871949.pdf", "archivo": "gm_pedimento_2871949.pdf", "fecha": "17-09-2026", "edicion": "44553" }, "geometry": { "type": "Polygon", "coordinates": [ [ [ -72.694528063044743, -37.216354988361886 ], [ -72.683266294782371, -37.216135155561958 ], [ -72.682439120089938, -37.24315518733129 ], [ -72.693704900583782, -37.243375234106459 ], [ -72.694528063044743, -37.216354988361886 ] ] ] } },
{ "type": "Feature", "properties": { "cve": "2872057", "nombre": "LUNA 75", "solicitante": "Varela Echaurren Juan Francisco", "region": "REGIÓN DEL BIOBÍO", "provincia": "Provincia de Biobío", "comuna": null, "superficie_ha": 300.0, "datum_original": "PSAD56", "huso": 18, "epsg_origen": 24878, "tipo_publicacion": "pedimento", "fuente_pdf": "http://www.diariooficial.interior.gob.cl/publicaciones/2026/09/17/44553/07/2872057.pdf", "archivo": "gm_pedimento_2872057.pdf", "fecha": "17-09-2026", "edicion": "44553" }, "geometry": { "type": "Polygon", "coordinates": [ [ [ -72.846818791511467, -37.011935069171749 ], [ -72.813121010736182, -37.011318702373053 ], [ -72.81286277126398, -37.020326514065829 ], [ -72.846564523714974, -37.020943081233945 ], [ -72.846818791511467, -37.011935069171749 ] ] ] } },
{ "type": "Feature", "properties": { "cve": "2872058", "nombre": "LUNA 78", "solicitante": "Varela Echaurren Juan Francisco", "region": "REGIÓN DEL BIOBÍO", "provincia": "Provincia de Biobío", "comuna": null, "superficie_ha": 300.0, "datum_original": "PSAD56", "huso": 18, "epsg_origen": 24878, "tipo_publicacion": "pedimento", "fuente_pdf": "http://www.diariooficial.interior.gob.cl/publicaciones/2026/09/17/44553/07/2872058.pdf", "archivo": "gm_pedimento_2872058.pdf", "fecha": "17-09-2026", "edicion": "44553" }, "geometry": { "type": "Polygon", "coordinates": [ [ [ -72.846055648856364, -37.038959059451479 ], [ -72.812345947762751, -37.038342091404878 ], [ -72.812087363627143, -37.047349857046989 ], [ -72.845801041689285, -37.04796702560273 ], [ -72.846055648856364, -37.038959059451479 ] ] ] } },
{ "type": "Feature", "properties": { "cve": "2872059", "nombre": "LUNA 81", "solicitante": "Varela Echaurren Juan Francisco", "region": "REGIÓN DEL BIOBÍO", "provincia": "Provincia de Biobío", "comuna": null, "superficie_ha": 300.0, "datum_original": "PSAD56", "huso": 18, "epsg_origen": 24878, "tipo_publicacion": "pedimento", "fuente_pdf": "http://www.diariooficial.interior.gob.cl/publicaciones/2026/09/17/44553/07/2872059.pdf", "archivo": "gm_pedimento_2872059.pdf", "fecha": "17-09-2026", "edicion": "44553" }, "geometry": { "type": "Polygon", "coordinates": [ [ [ -72.81286277126398, -37.020326514065829 ], [ -72.779162052325574, -37.019700386135973 ], [ -72.778899725059105, -37.028707978960199 ], [ -72.812604416957257, -37.029334310410476 ], [ -72.81286277126398, -37.020326514065829 ] ] ] } },
{ "type": "Feature", "properties": { "cve": "2871916", "nombre": "LUNA 86", "solicitante": "Varela Echaurren Juan Francisco", "region": "REGIÓN DEL BIOBÍO", "provincia": "Provincia de Biobío", "comuna": null, "superficie_ha": 300.0, "datum_original": "PSAD56", "huso": 18, "epsg_origen": 24878, "tipo_publicacion": "pedimento", "fuente_pdf": "http://www.diariooficial.interior.gob.cl/publicaciones/2026/09/17/44553/07/2871916.pdf", "archivo": "gm_pedimento_2871916.pdf", "fecha": "17-09-2026", "edicion": "44553" }, "geometry": { "type": "Polygon", "coordinates": [ [ [ -72.730471813075326, -37.144951703303605 ], [ -72.69671780125303, -37.144300315406902 ], [ -72.696444509813105, -37.153307203934361 ], [ -72.730202518205985, -37.15395880328137 ], [ -72.730471813075326, -37.144951703303605 ] ] ] } },
{ "type": "Feature", "properties": { "cve": "2871918", "nombre": "LUNA 87", "solicitante": "Varela Echaurren Juan Francisco", "region": "REGIÓN DEL BIOBÍO", "provincia": "Provincia de Biobío", "comuna": null, "superficie_ha": 300.0, "datum_original": "PSAD56", "huso": 18, "epsg_origen": 24878, "tipo_publicacion": "pedimento", "fuente_pdf": "http://www.diariooficial.interior.gob.cl/publicaciones/2026/09/17/44553/07/2871918.pdf", "archivo": "gm_pedimento_2871918.pdf", "fecha": "17-09-2026", "edicion": "44553" }, "geometry": { "type": "Polygon", "coordinates": [ [ [ -72.730202518205985, -37.15395880328137 ], [ -72.696444509813105, -37.153307203934361 ], [ -72.696171096818958, -37.162314076920971 ], [ -72.72993310355703, -37.162965887767641 ], [ -72.730202518205985, -37.15395880328137 ] ] ] } },
{ "type": "Feature", "properties": { "cve": "2871919", "nombre": "LUNA 88", "solicitante": "Varela Echaurren Juan Francisco", "region": "REGIÓN DEL BIOBÍO", "provincia": "Provincia de Biobío", "comuna": null, "superficie_ha": 300.0, "datum_original": "PSAD56", "huso": 18, "epsg_origen": 24878, "tipo_publicacion": "pedimento", "fuente_pdf": "http://www.diariooficial.interior.gob.cl/publicaciones/2026/09/17/44553/07/2871919.pdf", "archivo": "gm_pedimento_2871919.pdf", "fecha": "17-09-2026", "edicion": "44553" }, "geometry": { "type": "Polygon", "coordinates": [ [ [ -72.72993310355703, -37.162965887767641 ], [ -72.718678980686306, -37.162749685029837 ], [ -72.717866015438332, -37.189770634958307 ], [ -72.729124140374793, -37.189987048256071 ], [ -72.72993310355703, -37.162965887767641 ] ] ] } },
{ "type": "Feature", "properties": { "cve": "2871920", "nombre": "LUNA 89", "solicitante": "Varela Echaurren Juan Francisco", "region": "REGIÓN DEL BIOBÍO", "provincia": "Provincia de Biobío", "comuna": null, "superficie_ha": 300.0, "datum_original": "PSAD56", "huso": 18, "epsg_origen": 24878, "tipo_publicacion": "pedimento", "fuente_pdf": "http://www.diariooficial.interior.gob.cl/publicaciones/2026/09/17/44553/07/2871920.pdf", "archivo": "gm_pedimento_2871920.pdf", "fecha": "17-09-2026", "edicion": "44553" }, "geometry": { "type": "Polygon", "coordinates": [ [ [ -72.718678980686306, -37.162749685029837 ], [ -72.707424978243012, -37.162532414735722 ], [ -72.706608011097657, -37.18955315306571 ], [ -72.717866015438332, -37.189770634958307 ], [ -72.718678980686306, -37.162749685029837 ] ] ] } },
{ "type": "Feature", "properties": { "cve": "2871921", "nombre": "LUNA 90", "solicitante": "Varela Echaurren Juan Francisco", "region": "REGIÓN DEL BIOBÍO", "provincia": "Provincia de Biobío", "comuna": null, "superficie_ha": 300.0, "datum_original": "PSAD56", "huso": 18, "epsg_origen": 24878, "tipo_publicacion": "pedimento", "fuente_pdf": "http://www.diariooficial.interior.gob.cl/publicaciones/2026/09/17/44553/07/2871921.pdf", "archivo": "gm_pedimento_2871921.pdf", "fecha": "17-09-2026", "edicion": "44553" }, "geometry": { "type": "Polygon", "coordinates": [ [ [ -72.707424978243012, -37.162532414735722 ], [ -72.696171096818958, -37.162314076920971 ], [ -72.695350127945403, -37.189334602614061 ], [ -72.706608011097657, -37.18955315306571 ], [ -72.707424978243012, -37.162532414735722 ] ] ] } },
{ "type": "Feature", "properties": { "cve": "2871922", "nombre": "LUNA 91", "solicitante": "Varela Echaurren Juan Francisco", "region": "REGIÓN DEL BIOBÍO", "provincia": "Provincia de Biobío", "comuna": null, "superficie_ha": 200.0, "datum_original": "PSAD56", "huso": 18, "epsg_origen": 24878, "tipo_publicacion": "pedimento", "fuente_pdf": "http://www.diariooficial.interior.gob.cl/publicaciones/2026/09/17/44553/07/2871922.pdf", "archivo": "gm_pedimento_2871922.pdf", "fecha": "17-09-2026", "edicion": "44553" }, "geometry": { "type": "Polygon", "coordinates": [ [ [ -72.69671780125303, -37.144300315406902 ], [ -72.674215733208825, -37.143860722785149 ], [ -72.673939777670739, -37.152867468616243 ], [ -72.696444509813105, -37.153307203934361 ], [ -72.69671780125303, -37.144300315406902 ] ] ] } },
{ "type": "Feature", "properties": { "cve": "2871923", "nombre": "LUNA 92", "solicitante": "Varela Echaurren Juan Francisco", "region": "REGIÓN DEL BIOBÍO", "provincia": "Provincia de Biobío", "comuna": null, "superficie_ha": 200.0, "datum_original": "PSAD56", "huso": 18, "epsg_origen": 24878, "tipo_publicacion": "pedimento", "fuente_pdf": "http://www.diariooficial.interior.gob.cl/publicaciones/2026/09/17/44553/07/2871923.pdf", "archivo": "gm_pedimento_2871923.pdf", "fecha": "17-09-2026", "edicion": "44553" }, "geometry": { "type": "Polygon", "coordinates": [ [ [ -72.696444509813105, -37.153307203934361 ], [ -72.673939777670739, -37.152867468616243 ], [ -72.673663699395604, -37.161874198873207 ], [ -72.696171096818958, -37.162314076920971 ], [ -72.696444509813105, -37.153307203934361 ] ] ] } },
{ "type": "Feature", "properties": { "cve": "2871924", "nombre": "LUNA 93", "solicitante": "Varela Echaurren Juan Francisco", "region": "REGIÓN DEL BIOBÍO", "provincia": "Provincia de Biobío", "comuna": null, "superficie_ha": 200.0, "datum_original": "PSAD56", "huso": 18, "epsg_origen": 24878, "tipo_publicacion": "pedimento", "fuente_pdf": "http://www.diariooficial.interior.gob.cl/publicaciones/2026/09/17/44553/07/2871924.pdf", "archivo": "gm_pedimento_2871924.pdf", "fecha": "17-09-2026", "edicion": "44553" }, "geometry": { "type": "Polygon", "coordinates": [ [ [ -72.696171096818958, -37.162314076920971 ], [ -72.673663699395604, -37.161874198873207 ], [ -72.673387498326292, -37.170880913553816 ], [ -72.695897562214057, -37.171320934364545 ], [ -72.696171096818958, -37.162314076920971 ] ] ] } },
{ "type": "Feature", "properties": { "cve": "2871925", "nombre": "LUNA 94", "solicitante": "Varela Echaurren Juan Francisco", "region": "REGIÓN DEL BIOBÍO", "provincia": "Provincia de Biobío", "comuna": null, "superficie_ha": 200.0, "datum_original": "PSAD56", "huso": 18, "epsg_origen": 24878, "tipo_publicacion": "pedimento", "fuente_pdf": "http://www.diariooficial.interior.gob.cl/publicaciones/2026/09/17/44553/07/2871925.pdf", "archivo": "gm_pedimento_2871925.pdf", "fecha": "17-09-2026", "edicion": "44553" }, "geometry": { "type": "Polygon", "coordinates": [ [ [ -72.695897562214057, -37.171320934364545 ], [ -72.673387498326292, -37.170880913553816 ], [ -72.673111174405648, -37.179887612655939 ], [ -72.695623905941758, -37.180327776262956 ], [ -72.695897562214057, -37.171320934364545 ] ] ] } },
{ "type": "Feature", "properties": { "cve": "2871926", "nombre": "LUNA 95", "solicitante": "Varela Echaurren Juan Francisco", "region": "REGIÓN DEL BIOBÍO", "provincia": "Provincia de Biobío", "comuna": null, "superficie_ha": 200.0, "datum_original": "PSAD56", "huso": 18, "epsg_origen": 24878, "tipo_publicacion": "pedimento", "fuente_pdf": "http://www.diariooficial.interior.gob.cl/publicaciones/2026/09/17/44553/07/2871926.pdf", "archivo": "gm_pedimento_2871926.pdf", "fecha": "17-09-2026", "edicion": "44553" }, "geometry": { "type": "Polygon", "coordinates": [ [ [ -72.695623905941758, -37.180327776262956 ], [ -72.673111174405648, -37.179887612655939 ], [ -72.672834727576443, -37.188894296177367 ], [ -72.695350127945403, -37.189334602614061 ], [ -72.695623905941758, -37.180327776262956 ] ] ] } },
{ "type": "Feature", "properties": { "cve": "2871941", "nombre": "LUNA 96", "solicitante": "Varela Echaurren Juan Francisco", "region": "REGIÓN DEL BIOBÍO", "provincia": "Provincia de Biobío", "comuna": null, "superficie_ha": 300.0, "datum_original": "PSAD56", "huso": 18, "epsg_origen": 24878, "tipo_publicacion": "pedimento", "fuente_pdf": "http://www.diariooficial.interior.gob.cl/publicaciones/2026/09/17/44553/07/2871941.pdf", "archivo": "gm_pedimento_2871941.pdf", "fecha": "17-09-2026", "edicion": "44553" }, "geometry": { "type": "Polygon", "coordinates": [ [ [ -72.729124140374793, -37.189987048256071 ], [ -72.695350127945403, -37.189334602614061 ], [ -72.695076228168276, -37.198341413415676 ], [ -72.728854246049423, -37.198994070755028 ], [ -72.729124140374793, -37.189987048256071 ] ] ] } },
{ "type": "Feature", "properties": { "cve": "2871942", "nombre": "LUNA 97", "solicitante": "Varela Echaurren Juan Francisco", "region": "REGIÓN DEL BIOBÍO", "provincia": "Provincia de Biobío", "comuna": null, "superficie_ha": 300.0, "datum_original": "PSAD56", "huso": 18, "epsg_origen": 24878, "tipo_publicacion": "pedimento", "fuente_pdf": "http://www.diariooficial.interior.gob.cl/publicaciones/2026/09/17/44553/07/2871942.pdf", "archivo": "gm_pedimento_2871942.pdf", "fecha": "17-09-2026", "edicion": "44553" }, "geometry": { "type": "Polygon", "coordinates": [ [ [ -72.728854246049423, -37.198994070755028 ], [ -72.695076228168276, -37.198341413415676 ], [ -72.694802206553675, -37.207348208665678 ], [ -72.728584231665252, -37.208001077751845 ], [ -72.728854246049423, -37.198994070755028 ] ] ] } },
{ "type": "Feature", "properties": { "cve": "2871943", "nombre": "LUNA 98", "solicitante": "Varela Echaurren Juan Francisco", "region": "REGIÓN DEL BIOBÍO", "provincia": "Provincia de Biobío", "comuna": null, "superficie_ha": 300.0, "datum_original": "PSAD56", "huso": 18, "epsg_origen": 24878, "tipo_publicacion": "pedimento", "fuente_pdf": "http://www.diariooficial.interior.gob.cl/publicaciones/2026/09/17/44553/07/2871943.pdf", "archivo": "gm_pedimento_2871943.pdf", "fecha": "17-09-2026", "edicion": "44553" }, "geometry": { "type": "Polygon", "coordinates": [ [ [ -72.728584231665252, -37.208001077751845 ], [ -72.694802206553675, -37.207348208665678 ], [ -72.694528063044743, -37.216354988361886 ], [ -72.728314097166333, -37.217008069244415 ], [ -72.728584231665252, -37.208001077751845 ] ] ] } },
{ "type": "Feature", "properties": { "cve": "2871944", "nombre": "LUNA 99", "solicitante": "Varela Echaurren Juan Francisco", "region": "REGIÓN DEL BIOBÍO", "provincia": "Provincia de Biobío", "comuna": null, "superficie_ha": 300.0, "datum_original": "PSAD56", "huso": 18, "epsg_origen": 24878, "tipo_publicacion": "pedimento", "fuente_pdf": "http://www.diariooficial.interior.gob.cl/publicaciones/2026/09/17/44553/07/2871944.pdf", "archivo": "gm_pedimento_2871944.pdf", "fecha": "17-09-2026", "edicion": "44553" }, "geometry": { "type": "Polygon", "coordinates": [ [ [ -72.728314097166333, -37.217008069244415 ], [ -72.694528063044743, -37.216354988361886 ], [ -72.694253797584693, -37.225361752502216 ], [ -72.728043842496632, -37.226015045230596 ], [ -72.728314097166333, -37.217008069244415 ] ] ] } },
{ "type": "Feature", "properties": { "cve": "2871723", "nombre": "ENRIQUE I", "solicitante": "Vargas Echeverría Claudio Ignacio", "region": "REGIÓN DE MAGALLANES Y DE LA ANTÁRTICA CHILENA", "provincia": "Provincia de Tierra del Fuego", "comuna": "Porvenir", "superficie_ha": 300.0, "datum_original": "WGS84", "huso": 19, "epsg_origen": 32719, "tipo_publicacion": "pedimento", "fuente_pdf": "http://www.diariooficial.interior.gob.cl/publicaciones/2026/09/17/44553/07/2871723.pdf", "archivo": "gm_pedimento_2871723.pdf", "fecha": "17-09-2026", "edicion": "44553" }, "geometry": { "type": "Polygon", "coordinates": [ [ [ -70.25600232039065, -53.281305777660428 ], [ -70.241007364626071, -53.281462775070892 ], [ -70.241789147297638, -53.308423387260561 ], [ -70.256793543233684, -53.308266236559611 ], [ -70.25600232039065, -53.281305777660428 ] ] ] } },
{ "type": "Feature", "properties": { "cve": "2871724", "nombre": "ENRIQUE II", "solicitante": "Vargas Echeverría Claudio Ignacio", "region": "REGIÓN DE MAGALLANES Y DE LA ANTÁRTICA CHILENA", "provincia": "Provincia de Tierra del Fuego", "comuna": "Porvenir", "superficie_ha": 300.0, "datum_original": "WGS84", "huso": 19, "epsg_origen": 32719, "tipo_publicacion": "pedimento", "fuente_pdf": "http://www.diariooficial.interior.gob.cl/publicaciones/2026/09/17/44553/07/2871724.pdf", "archivo": "gm_pedimento_2871724.pdf", "fecha": "17-09-2026", "edicion": "44553" }, "geometry": { "type": "Polygon", "coordinates": [ [ [ -70.241002156963916, -53.281283037218117 ], [ -70.226007124372899, -53.281438148623344 ], [ -70.226779458280191, -53.308398913133395 ], [ -70.241783931243759, -53.308243650278328 ], [ -70.241002156963916, -53.281283037218117 ] ] ] } }
]
}
