{
"type": "FeatureCollection",
"name": "boletin_mineria_20260625",
"crs": { "type": "name", "properties": { "name": "urn:ogc:def:crs:OGC:1.3:CRS84" } },
"features": [
{ "type": "Feature", "properties": { "cve": "2829010", "nombre": "EL DESQUITE 1 AL 7", "solicitante": "Fritis Castillo Luis", "region": "REGIÓN DE ATACAMA", "provincia": "Provincia de Copiapó", "comuna": null, "superficie_ha": 49.0, "datum_original": "WGS84", "huso": 19, "epsg_origen": 32719, "tipo_publicacion": "manifestacion", "fuente_pdf": "http://www.diariooficial.interior.gob.cl/publicaciones/2026/06/25/44484/07/2829010.pdf", "archivo": "gm_manifestacion_2829010.pdf", "fecha": "25-06-2026", "edicion": "44484" }, "geometry": { "type": "Polygon", "coordinates": [ [ [ -70.768958400000443, -27.965134584466885 ], [ -70.761844651739679, -27.965225874537623 ], [ -70.761947279928819, -27.971542012152824 ], [ -70.769061442042641, -27.971450697894845 ], [ -70.768958400000443, -27.965134584466885 ] ] ] } },
{ "type": "Feature", "properties": { "cve": "2828965", "nombre": "MARIELA 1, 1 AL 30", "solicitante": "Salar de Maricunga SpA", "region": "REGIÓN DE ATACAMA", "provincia": "Provincia de Copiapó", "comuna": null, "superficie_ha": 300.0, "datum_original": "WGS84", "huso": 19, "epsg_origen": 32719, "tipo_publicacion": "manifestacion", "fuente_pdf": "http://www.diariooficial.interior.gob.cl/publicaciones/2026/06/25/44484/07/2828965.pdf", "archivo": "gm_manifestacion_2828965.pdf", "fecha": "25-06-2026", "edicion": "44484" }, "geometry": { "type": "Polygon", "coordinates": [ [ [ -69.150127665692125, -26.961681695846949 ], [ -69.140052008581904, -26.961692061884879 ], [ -69.140085531701544, -26.988777862187973 ], [ -69.150163600519207, -26.988767484074053 ], [ -69.150127665692125, -26.961681695846949 ] ] ] } },
{ "type": "Feature", "properties": { "cve": "2828966", "nombre": "MARIELA 2", "solicitante": "Salar de Maricunga SpA", "region": "REGIÓN DE ATACAMA", "provincia": "Provincia de Copiapó", "comuna": null, "superficie_ha": 5.0, "datum_original": "WGS84", "huso": 19, "epsg_origen": 32719, "tipo_publicacion": "manifestacion", "fuente_pdf": "http://www.diariooficial.interior.gob.cl/publicaciones/2026/06/25/44484/07/2828966.pdf", "archivo": "gm_manifestacion_2828966.pdf", "fecha": "25-06-2026", "edicion": "44484" }, "geometry": { "type": "Polygon", "coordinates": [ [ [ -69.130999060928374, -26.974792263896038 ], [ -69.129991377944492, -26.974793196645305 ], [ -69.129996563665202, -26.979307497412151 ], [ -69.131004286848125, -26.979306564481877 ], [ -69.130999060928374, -26.974792263896038 ] ] ] } },
{ "type": "Feature", "properties": { "cve": "2828984", "nombre": "RECUPERADA I 1 AL 8", "solicitante": "Navarro Reyes Celmira Petronila", "region": "REGIÓN DE ATACAMA", "provincia": "Provincia de Copiapó", "comuna": null, "superficie_ha": 80.0, "datum_original": "PSAD56", "huso": 19, "epsg_origen": 24879, "tipo_publicacion": "manifestacion", "fuente_pdf": "http://www.diariooficial.interior.gob.cl/publicaciones/2026/06/25/44484/07/2828984.pdf", "archivo": "gm_manifestacion_2828984.pdf", "fecha": "25-06-2026", "edicion": "44484" }, "geometry": { "type": "Polygon", "coordinates": [ [ [ -70.34085446946635, -28.094082069771854 ], [ -70.330677780926734, -28.094181156502973 ], [ -70.330766845037644, -28.101400933811828 ], [ -70.340944214221565, -28.101301817161524 ], [ -70.34085446946635, -28.094082069771854 ] ] ] } },
{ "type": "Feature", "properties": { "cve": "2828956", "nombre": "ROSA I 1/5", "solicitante": "Ghiglino Saltori Sergio", "region": "REGIÓN DE ATACAMA", "provincia": "Provincia de Copiapó", "comuna": null, "superficie_ha": 25.0, "datum_original": "WGS84", "huso": 19, "epsg_origen": 32719, "tipo_publicacion": "manifestacion", "fuente_pdf": "http://www.diariooficial.interior.gob.cl/publicaciones/2026/06/25/44484/07/2828956.pdf", "archivo": "gm_manifestacion_2828956.pdf", "fecha": "25-06-2026", "edicion": "44484" }, "geometry": { "type": "Polygon", "coordinates": [ [ [ -70.144953331610893, -27.592176482163904 ], [ -70.1398879828145, -27.592218166591628 ], [ -70.139934670638581, -27.596731183419706 ], [ -70.14500022679259, -27.596689491029316 ], [ -70.144953331610893, -27.592176482163904 ] ] ] } },
{ "type": "Feature", "properties": { "cve": "2828713", "nombre": "ALEA UNO 1", "solicitante": "Ghiglino Zaro Mario Antonio", "region": "REGIÓN DE ATACAMA", "provincia": "Provincia de Chañaral", "comuna": null, "superficie_ha": 1.0, "datum_original": "PSAD56", "huso": 19, "epsg_origen": 24879, "tipo_publicacion": "manifestacion", "fuente_pdf": "http://www.diariooficial.interior.gob.cl/publicaciones/2026/06/25/44484/07/2828713.pdf", "archivo": "gm_manifestacion_2828713.pdf", "fecha": "25-06-2026", "edicion": "44484" }, "geometry": { "type": "Polygon", "coordinates": [ [ [ -69.877259271276458, -26.614382068545755 ], [ -69.876254881408073, -26.614388257108335 ], [ -69.876261762543194, -26.615291060992952 ], [ -69.877266160296472, -26.615284872187939 ], [ -69.877259271276458, -26.614382068545755 ] ] ] } },
{ "type": "Feature", "properties": { "cve": "2828675", "nombre": "BLANCO III 31, 1 AL 25", "solicitante": "Minera Salar Blanco S.A.", "region": "REGIÓN DE ATACAMA", "provincia": "Provincia de Chañaral", "comuna": null, "superficie_ha": 125.0, "datum_original": "WGS84", "huso": 19, "epsg_origen": 32719, "tipo_publicacion": "manifestacion", "fuente_pdf": "http://www.diariooficial.interior.gob.cl/publicaciones/2026/06/25/44484/07/2828675.pdf", "archivo": "gm_manifestacion_2828675.pdf", "fecha": "25-06-2026", "edicion": "44484" }, "geometry": { "type": "Polygon", "coordinates": [ [ [ -69.040163000919591, -26.56493588998455 ], [ -69.035142626616988, -26.564937216782862 ], [ -69.035149516109229, -26.587510051935006 ], [ -69.040170874624238, -26.587508723835249 ], [ -69.040163000919591, -26.56493588998455 ] ] ] } },
{ "type": "Feature", "properties": { "cve": "2828676", "nombre": "BOSTON H 1, 1 AL 15", "solicitante": "Corporación Nacional del Cobre de Chile", "region": "REGIÓN DE ATACAMA", "provincia": "Provincia de Chañaral", "comuna": null, "superficie_ha": 150.0, "datum_original": "WGS84", "huso": 19, "epsg_origen": 32719, "tipo_publicacion": "manifestacion", "fuente_pdf": "http://www.diariooficial.interior.gob.cl/publicaciones/2026/06/25/44484/07/2828676.pdf", "archivo": "gm_manifestacion_2828676.pdf", "fecha": "25-06-2026", "edicion": "44484" }, "geometry": { "type": "Polygon", "coordinates": [ [ [ -70.016476610308374, -26.265632841009388 ], [ -70.001456638255618, -26.265738385403171 ], [ -70.001534117249506, -26.274766522222812 ], [ -70.016555250857792, -26.274660936095426 ], [ -70.016476610308374, -26.265632841009388 ] ] ] } },
{ "type": "Feature", "properties": { "cve": "2828677", "nombre": "BOSTON H 2, 1 AL 70", "solicitante": "Corporación Nacional del Cobre de Chile", "region": "REGIÓN DE ATACAMA", "provincia": "Provincia de Chañaral", "comuna": null, "superficie_ha": 700.0, "datum_original": "WGS84", "huso": 19, "epsg_origen": 32719, "tipo_publicacion": "manifestacion", "fuente_pdf": "http://www.diariooficial.interior.gob.cl/publicaciones/2026/06/25/44484/07/2828677.pdf", "archivo": "gm_manifestacion_2828677.pdf", "fecha": "25-06-2026", "edicion": "44484" }, "geometry": { "type": "Polygon", "coordinates": [ [ [ -70.036623407193034, -26.279031725345828 ], [ -70.001572870518373, -26.27928058629486 ], [ -70.00172797544252, -26.297336813656329 ], [ -70.036783937760845, -26.297087755959343 ], [ -70.036623407193034, -26.279031725345828 ] ] ] } },
{ "type": "Feature", "properties": { "cve": "2828678", "nombre": "BOSTON H 5, 1 AL 20", "solicitante": "Corporación Nacional del Cobre de Chile", "region": "REGIÓN DE ATACAMA", "provincia": "Provincia de Chañaral", "comuna": null, "superficie_ha": 200.0, "datum_original": "WGS84", "huso": 19, "epsg_origen": 32719, "tipo_publicacion": "manifestacion", "fuente_pdf": "http://www.diariooficial.interior.gob.cl/publicaciones/2026/06/25/44484/07/2828678.pdf", "archivo": "gm_manifestacion_2828678.pdf", "fecha": "25-06-2026", "edicion": "44484" }, "geometry": { "type": "Polygon", "coordinates": [ [ [ -70.016398007024137, -26.256604734352063 ], [ -69.996372907214976, -26.256745055680394 ], [ -69.996449962486111, -26.265773217836177 ], [ -70.016476610308374, -26.265632841009388 ], [ -70.016398007024137, -26.256604734352063 ] ] ] } },
{ "type": "Feature", "properties": { "cve": "2828819", "nombre": "CONDOR 1 AL 10", "solicitante": "Olivares Pardo Bernardino Oriel", "region": "REGIÓN DE ATACAMA", "provincia": "Provincia de Chañaral", "comuna": "Diego de Almagro", "superficie_ha": 100.0, "datum_original": "WGS84", "huso": 19, "epsg_origen": 32719, "tipo_publicacion": "manifestacion", "fuente_pdf": "http://www.diariooficial.interior.gob.cl/publicaciones/2026/06/25/44484/07/2828819.pdf", "archivo": "gm_manifestacion_2828819.pdf", "fecha": "25-06-2026", "edicion": "44484" }, "geometry": { "type": "Polygon", "coordinates": [ [ [ -69.593202697111792, -26.720807037122615 ], [ -69.583148836572292, -26.720848712817414 ], [ -69.583194859727016, -26.729877189418136 ], [ -69.593249513622808, -26.729835497441467 ], [ -69.593202697111792, -26.720807037122615 ] ] ] } },
{ "type": "Feature", "properties": { "cve": "2828791", "nombre": "ISABEL 1 AL 4", "solicitante": "Aguilar Egaña Melitón Segundo", "region": "REGIÓN DE ATACAMA", "provincia": "Provincia de Huasco", "comuna": null, "superficie_ha": 4.0, "datum_original": "PSAD56", "huso": 19, "epsg_origen": 24879, "tipo_publicacion": "manifestacion", "fuente_pdf": "http://www.diariooficial.interior.gob.cl/publicaciones/2026/06/25/44484/07/2828791.pdf", "archivo": "gm_manifestacion_2828791.pdf", "fecha": "25-06-2026", "edicion": "44484" }, "geometry": { "type": "Polygon", "coordinates": [ [ [ -70.957334385194827, -28.33393136640543 ], [ -70.955295133523165, -28.333960613487164 ], [ -70.955328173153291, -28.335764928218612 ], [ -70.957367459229616, -28.335735678942324 ], [ -70.957334385194827, -28.33393136640543 ] ] ] } },
{ "type": "Feature", "properties": { "cve": "2828985", "nombre": "LA REBELDE II, 1 AL 20", "solicitante": "Maya Vega David Alfonso y otros", "region": "REGIÓN DE COQUIMBO", "provincia": "Provincia de Limarí", "comuna": "Monte Patria", "superficie_ha": 100.0, "datum_original": "WGS84", "huso": 19, "epsg_origen": 32719, "tipo_publicacion": "manifestacion", "fuente_pdf": "http://www.diariooficial.interior.gob.cl/publicaciones/2026/06/25/44484/07/2828985.pdf", "archivo": "gm_manifestacion_2828985.pdf", "fecha": "25-06-2026", "edicion": "44484" }, "geometry": { "type": "Polygon", "coordinates": [ [ [ -70.666927853749527, -31.087557032455841 ], [ -70.656447752713007, -31.087692135549563 ], [ -70.656604278448853, -31.096711447237084 ], [ -70.667085368686159, -31.096576296295471 ], [ -70.666927853749527, -31.087557032455841 ] ] ] } },
{ "type": "Feature", "properties": { "cve": "2830578", "nombre": "MANTOS GRANDES TRES B 1 AL 98", "solicitante": "Ossveg Minerales Limitada", "region": "REGIÓN DE COQUIMBO", "provincia": "Provincia de Limarí", "comuna": "Combarbalá", "superficie_ha": 98.0, "datum_original": "WGS84", "huso": 19, "epsg_origen": 32719, "tipo_publicacion": "manifestacion", "fuente_pdf": "http://www.diariooficial.interior.gob.cl/publicaciones/2026/06/25/44484/07/2830578.pdf", "archivo": "gm_manifestacion_2830578.pdf", "fecha": "25-06-2026", "edicion": "44484" }, "geometry": { "type": "Polygon", "coordinates": [ [ [ -70.998078868396746, -30.983433182178935 ], [ -70.9834253695456, -30.983659089747484 ], [ -70.983556011902763, -30.989971562175278 ], [ -70.998210474376563, -30.989745598503667 ], [ -70.998078868396746, -30.983433182178935 ] ] ] } },
{ "type": "Feature", "properties": { "cve": "2828781", "nombre": "SAN JUAN 3, 1 AL 14", "solicitante": "Rivera Duclos Juan Andrés", "region": "REGIÓN DE VALPARAÍSO", "provincia": "Provincia de Valparaíso", "comuna": "Valparaíso", "superficie_ha": 56.0, "datum_original": "PSAD56", "huso": 19, "epsg_origen": 24879, "tipo_publicacion": "manifestacion", "fuente_pdf": "http://www.diariooficial.interior.gob.cl/publicaciones/2026/06/25/44484/07/2828781.pdf", "archivo": "gm_manifestacion_2828781.pdf", "fecha": "25-06-2026", "edicion": "44484" }, "geometry": { "type": "Polygon", "coordinates": [ [ [ -71.637078416789308, -33.099698388321727 ], [ -71.632796230842956, -33.099788960947919 ], [ -71.633172674196231, -33.112403822236097 ], [ -71.637455470690327, -33.112313206257369 ], [ -71.637078416789308, -33.099698388321727 ] ] ] } },
{ "type": "Feature", "properties": { "cve": "2828780", "nombre": "SAN JUAN 4, 1 AL 8", "solicitante": "Rivera Duclos Juan Andrés", "region": "REGIÓN DE VALPARAÍSO", "provincia": "Provincia de Valparaíso", "comuna": "Valparaíso", "superficie_ha": 40.0, "datum_original": "PSAD56", "huso": 19, "epsg_origen": 24879, "tipo_publicacion": "manifestacion", "fuente_pdf": "http://www.diariooficial.interior.gob.cl/publicaciones/2026/06/25/44484/07/2828780.pdf", "archivo": "gm_manifestacion_2828780.pdf", "fecha": "25-06-2026", "edicion": "44484" }, "geometry": { "type": "Polygon", "coordinates": [ [ [ -71.633466461901449, -33.10788946458824 ], [ -71.622759936930052, -33.108115359775319 ], [ -71.622867092583803, -33.111719633092775 ], [ -71.633574053751403, -33.111493707019868 ], [ -71.633466461901449, -33.10788946458824 ] ] ] } },
{ "type": "Feature", "properties": { "cve": "2828882", "nombre": "LONGOTOMA DOS 1 AL 46", "solicitante": "Fernández Riesco Pedro Pablo", "region": "REGIÓN DE VALPARAÍSO", "provincia": "Provincia de Petorca", "comuna": null, "superficie_ha": 138.0, "datum_original": "WGS84", "huso": 19, "epsg_origen": 32719, "tipo_publicacion": "manifestacion", "fuente_pdf": "http://www.diariooficial.interior.gob.cl/publicaciones/2026/06/25/44484/07/2828882.pdf", "archivo": "gm_manifestacion_2828882.pdf", "fecha": "25-06-2026", "edicion": "44484" }, "geometry": { "type": "Polygon", "coordinates": [ [ [ -71.406492769510251, -32.41693586918889 ], [ -71.382052663968437, -32.41740054312789 ], [ -71.382194865240123, -32.422808577889271 ], [ -71.40663642636548, -32.422343807559365 ], [ -71.406492769510251, -32.41693586918889 ] ] ] } },
{ "type": "Feature", "properties": { "cve": "2828881", "nombre": "LONGOTOMA UNO 1 AL 100", "solicitante": "Fernández Riesco Pedro Pablo", "region": "REGIÓN DE VALPARAÍSO", "provincia": "Provincia de Petorca", "comuna": null, "superficie_ha": 300.0, "datum_original": "WGS84", "huso": 19, "epsg_origen": 32719, "tipo_publicacion": "manifestacion", "fuente_pdf": "http://www.diariooficial.interior.gob.cl/publicaciones/2026/06/25/44484/07/2828881.pdf", "archivo": "gm_manifestacion_2828881.pdf", "fecha": "25-06-2026", "edicion": "44484" }, "geometry": { "type": "Polygon", "coordinates": [ [ [ -71.427635909338775, -32.412472062717342 ], [ -71.4063850521256, -32.412879911988135 ], [ -71.406744194268811, -32.426399757914005 ], [ -71.427998215513298, -32.425991697103967 ], [ -71.427635909338775, -32.412472062717342 ] ] ] } },
{ "type": "Feature", "properties": { "cve": "2828845", "nombre": "ALTA CUMBRE 7, 1 AL 20", "solicitante": "Álvarez Araya Carlos Elías", "region": "REGIÓN METROPOLITANA DE SANTIAGO", "provincia": "Provincia de Melipilla", "comuna": null, "superficie_ha": 100.0, "datum_original": "PSAD56", "huso": 19, "epsg_origen": 24879, "tipo_publicacion": "manifestacion", "fuente_pdf": "http://www.diariooficial.interior.gob.cl/publicaciones/2026/06/25/44484/07/2828845.pdf", "archivo": "gm_manifestacion_2828845.pdf", "fecha": "25-06-2026", "edicion": "44484" }, "geometry": { "type": "Polygon", "coordinates": [ [ [ -71.172168373959451, -33.439968250477371 ], [ -71.161417612352622, -33.440156156739178 ], [ -71.161641237628672, -33.449169391725007 ], [ -71.172393109406883, -33.448981421537674 ], [ -71.172168373959451, -33.439968250477371 ] ] ] } },
{ "type": "Feature", "properties": { "cve": "2828853", "nombre": "MONTIPORA 1 al 54", "solicitante": "Allibera Inversiones Limitada", "region": "REGIÓN DE LOS LAGOS", "provincia": "Provincia de Chiloé", "comuna": "Ancud", "superficie_ha": 54.0, "datum_original": "PSAD56", "huso": 18, "epsg_origen": 24878, "tipo_publicacion": "manifestacion", "fuente_pdf": "http://www.diariooficial.interior.gob.cl/publicaciones/2026/06/25/44484/07/2828853.pdf", "archivo": "gm_manifestacion_2828853.pdf", "fecha": "25-06-2026", "edicion": "44484" }, "geometry": { "type": "Polygon", "coordinates": [ [ [ -73.704504692393797, -42.143950987740801 ], [ -73.697245396545725, -42.143868786502594 ], [ -73.697079218006749, -42.151972419111168 ], [ -73.704339439212774, -42.152054643565222 ], [ -73.704504692393797, -42.143950987740801 ] ] ] } },
{ "type": "Feature", "properties": { "cve": "2828948", "nombre": "DESIERTO 1 al 12", "solicitante": "Araya Altamirano Ercilia Ernestina", "region": "REGIÓN DE ATACAMA", "provincia": "Provincia de Copiapó", "comuna": null, "superficie_ha": 96.0, "datum_original": "PSAD56", "huso": 19, "epsg_origen": 24879, "tipo_publicacion": "mensura", "fuente_pdf": "http://www.diariooficial.interior.gob.cl/publicaciones/2026/06/25/44484/07/2828948.pdf", "archivo": "gm_mensura_2828948.pdf", "fecha": "25-06-2026", "edicion": "44484" }, "geometry": { "type": "Polygon", "coordinates": [ [ [ -70.623843828254451, -27.835563246265117 ], [ -70.615722895831482, -27.835658556332611 ], [ -70.615883362186366, -27.84648723818075 ], [ -70.624005100282048, -27.846391884680823 ], [ -70.623843828254451, -27.835563246265117 ] ] ] } },
{ "type": "Feature", "properties": { "cve": "2828858", "nombre": "MARCELA 1 AL 20", "solicitante": "SLM Marcela Una de Sector Quebrada Cortadera", "region": "REGIÓN DE ATACAMA", "provincia": "Provincia de Huasco", "comuna": null, "superficie_ha": null, "datum_original": "WGS84", "huso": 19, "epsg_origen": 32719, "tipo_publicacion": "mensura", "fuente_pdf": "http://www.diariooficial.interior.gob.cl/publicaciones/2026/06/25/44484/07/2828858.pdf", "archivo": "gm_mensura_2828858.pdf", "fecha": "25-06-2026", "edicion": "44484" }, "geometry": { "type": "Polygon", "coordinates": [ [ [ -71.178660905635311, -29.092187481042917 ], [ -71.168392240840703, -29.092353921093331 ], [ -71.168581332289776, -29.101373270680032 ], [ -71.178850890825061, -29.10120676925666 ], [ -71.178660905635311, -29.092187481042917 ] ] ] } },
{ "type": "Feature", "properties": { "cve": "2828779", "nombre": "MINA VIOLETA 1 AL 9", "solicitante": "Compañía Minera Yor Andacollo SpA", "region": "REGIÓN DE COQUIMBO", "provincia": "Provincia de Elqui", "comuna": "La Serena", "superficie_ha": 9.0, "datum_original": "PSAD56", "huso": 19, "epsg_origen": 24879, "tipo_publicacion": "mensura", "fuente_pdf": "http://www.diariooficial.interior.gob.cl/publicaciones/2026/06/25/44484/07/2828779.pdf", "archivo": "gm_mensura_2828779.pdf", "fecha": "25-06-2026", "edicion": "44484" }, "geometry": { "type": "Polygon", "coordinates": [ [ [ -71.126077374356328, -30.206018427291195 ], [ -71.127605663314171, -30.204640446634937 ], [ -71.124490915174917, -30.20469096894319 ], [ -71.124549042865866, -30.207396391892377 ], [ -71.127663876070358, -30.207345864124768 ], [ -71.126077374356328, -30.206018427291195 ] ] ] } },
{ "type": "Feature", "properties": { "cve": "2828886", "nombre": "LOS DOS AMIGOS 1 AL 20", "solicitante": "SLM Los Dos Amigos Uno de Huallillinga", "region": "REGIÓN DE COQUIMBO", "provincia": "Provincia de Limarí", "comuna": null, "superficie_ha": 100.0, "datum_original": "PSAD56", "huso": 19, "epsg_origen": 24879, "tipo_publicacion": "mensura", "fuente_pdf": "http://www.diariooficial.interior.gob.cl/publicaciones/2026/06/25/44484/07/2828886.pdf", "archivo": "gm_mensura_2828886.pdf", "fecha": "25-06-2026", "edicion": "44484" }, "geometry": { "type": "Polygon", "coordinates": [ [ [ -71.172873222117275, -30.663958800333589 ], [ -71.162442241732592, -30.66413284973839 ], [ -71.162643141988326, -30.673150057259882 ], [ -71.173075089601568, -30.672975945729299 ], [ -71.172873222117275, -30.663958800333589 ] ] ] } },
{ "type": "Feature", "properties": { "cve": "2828641", "nombre": "ESCORPION NEGRO I", "solicitante": "Villar García Rodolfo Francisco", "region": "REGIÓN DE ATACAMA", "provincia": "Provincia de Copiapó", "comuna": null, "superficie_ha": 300.0, "datum_original": "WGS84", "huso": 19, "epsg_origen": 32719, "tipo_publicacion": "pedimento", "fuente_pdf": "http://www.diariooficial.interior.gob.cl/publicaciones/2026/06/25/44484/07/2828641.pdf", "archivo": "gm_pedimento_2828641.pdf", "fecha": "25-06-2026", "edicion": "44484" }, "geometry": { "type": "Polygon", "coordinates": [ [ [ -69.925002829696638, -27.941398279316299 ], [ -69.914839026338157, -27.941466190959034 ], [ -69.915067330217241, -27.96854479378775 ], [ -69.925233669140312, -27.968476804946405 ], [ -69.925002829696638, -27.941398279316299 ] ] ] } },
{ "type": "Feature", "properties": { "cve": "2829002", "nombre": "LORENZO I", "solicitante": "Ghiglino Zaro Mario Antonio", "region": "REGIÓN DE ATACAMA", "provincia": "Provincia de Copiapó", "comuna": null, "superficie_ha": 200.0, "datum_original": "PSAD56", "huso": 19, "epsg_origen": 24879, "tipo_publicacion": "pedimento", "fuente_pdf": "http://www.diariooficial.interior.gob.cl/publicaciones/2026/06/25/44484/07/2829002.pdf", "archivo": "gm_pedimento_2829002.pdf", "fecha": "25-06-2026", "edicion": "44484" }, "geometry": { "type": "Polygon", "coordinates": [ [ [ -69.314734931485944, -27.152589800231272 ], [ -69.304642310478215, -27.152612067439925 ], [ -69.304691306766486, -27.170668600391821 ], [ -69.314785550928221, -27.17064631597448 ], [ -69.314734931485944, -27.152589800231272 ] ] ] } },
{ "type": "Feature", "properties": { "cve": "2829003", "nombre": "LORENZO II", "solicitante": "Ghiglino Zaro Mario Antonio", "region": "REGIÓN DE ATACAMA", "provincia": "Provincia de Copiapó", "comuna": null, "superficie_ha": 300.0, "datum_original": "PSAD56", "huso": 19, "epsg_origen": 24879, "tipo_publicacion": "pedimento", "fuente_pdf": "http://www.diariooficial.interior.gob.cl/publicaciones/2026/06/25/44484/07/2829003.pdf", "archivo": "gm_pedimento_2829003.pdf", "fecha": "25-06-2026", "edicion": "44484" }, "geometry": { "type": "Polygon", "coordinates": [ [ [ -69.294526008070221, -27.143605316595618 ], [ -69.284434175536987, -27.143626124447312 ], [ -69.284502784418535, -27.170710990572683 ], [ -69.29459705113662, -27.170690158592237 ], [ -69.294526008070221, -27.143605316595618 ] ] ] } },
{ "type": "Feature", "properties": { "cve": "2829004", "nombre": "LORENZO III", "solicitante": "Ghiglino Zaro Mario Antonio", "region": "REGIÓN DE ATACAMA", "provincia": "Provincia de Copiapó", "comuna": null, "superficie_ha": 300.0, "datum_original": "PSAD56", "huso": 19, "epsg_origen": 24879, "tipo_publicacion": "pedimento", "fuente_pdf": "http://www.diariooficial.interior.gob.cl/publicaciones/2026/06/25/44484/07/2829004.pdf", "archivo": "gm_pedimento_2829004.pdf", "fecha": "25-06-2026", "edicion": "44484" }, "geometry": { "type": "Polygon", "coordinates": [ [ [ -69.294549678010299, -27.152633608992449 ], [ -69.284457034461809, -27.152654424885803 ], [ -69.284525675457871, -27.179739255815818 ], [ -69.294620754330566, -27.17971841578996 ], [ -69.294549678010299, -27.152633608992449 ] ] ] } },
{ "type": "Feature", "properties": { "cve": "2828952", "nombre": "RAMONA I", "solicitante": "Ghiglino Saltori Sergio", "region": "REGIÓN DE ATACAMA", "provincia": "Provincia de Copiapó", "comuna": null, "superficie_ha": 200.0, "datum_original": "PSAD56", "huso": 19, "epsg_origen": 24879, "tipo_publicacion": "pedimento", "fuente_pdf": "http://www.diariooficial.interior.gob.cl/publicaciones/2026/06/25/44484/07/2828952.pdf", "archivo": "gm_pedimento_2828952.pdf", "fecha": "25-06-2026", "edicion": "44484" }, "geometry": { "type": "Polygon", "coordinates": [ [ [ -70.566090847838112, -27.509767648527831 ], [ -70.555969454351981, -27.509881232774418 ], [ -70.556223525237854, -27.527930404709011 ], [ -70.566346569782795, -27.527816733496643 ], [ -70.566090847838112, -27.509767648527831 ] ] ] } },
{ "type": "Feature", "properties": { "cve": "2828953", "nombre": "RAMONA II", "solicitante": "Ghiglino Saltori Sergio", "region": "REGIÓN DE ATACAMA", "provincia": "Provincia de Copiapó", "comuna": null, "superficie_ha": 200.0, "datum_original": "PSAD56", "huso": 19, "epsg_origen": 24879, "tipo_publicacion": "pedimento", "fuente_pdf": "http://www.diariooficial.interior.gob.cl/publicaciones/2026/06/25/44484/07/2828953.pdf", "archivo": "gm_pedimento_2828953.pdf", "fecha": "25-06-2026", "edicion": "44484" }, "geometry": { "type": "Polygon", "coordinates": [ [ [ -70.582948448016566, -27.485206724740628 ], [ -70.572829382325466, -27.485321441249763 ], [ -70.573085937211701, -27.503370531735957 ], [ -70.58320665181725, -27.503255727341298 ], [ -70.582948448016566, -27.485206724740628 ] ] ] } },
{ "type": "Feature", "properties": { "cve": "2828954", "nombre": "RAMONA III", "solicitante": "Ghiglino Saltori Sergio", "region": "REGIÓN DE ATACAMA", "provincia": "Provincia de Copiapó", "comuna": null, "superficie_ha": 200.0, "datum_original": "PSAD56", "huso": 19, "epsg_origen": 24879, "tipo_publicacion": "pedimento", "fuente_pdf": "http://www.diariooficial.interior.gob.cl/publicaciones/2026/06/25/44484/07/2828954.pdf", "archivo": "gm_pedimento_2828954.pdf", "fecha": "25-06-2026", "edicion": "44484" }, "geometry": { "type": "Polygon", "coordinates": [ [ [ -70.572816560853553, -27.484418985428466 ], [ -70.562697517846203, -27.484532962505799 ], [ -70.56295241190422, -27.502582142783822 ], [ -70.573073103791032, -27.502468078385288 ], [ -70.572816560853553, -27.484418985428466 ] ] ] } },
{ "type": "Feature", "properties": { "cve": "2828955", "nombre": "RAMONA IV", "solicitante": "Ghiglino Saltori Sergio", "region": "REGIÓN DE ATACAMA", "provincia": "Provincia de Copiapó", "comuna": null, "superficie_ha": 200.0, "datum_original": "PSAD56", "huso": 19, "epsg_origen": 24879, "tipo_publicacion": "pedimento", "fuente_pdf": "http://www.diariooficial.interior.gob.cl/publicaciones/2026/06/25/44484/07/2828955.pdf", "archivo": "gm_pedimento_2828955.pdf", "fecha": "25-06-2026", "edicion": "44484" }, "geometry": { "type": "Polygon", "coordinates": [ [ [ -70.562672041497564, -27.482728041762133 ], [ -70.552553103959781, -27.482841275110701 ], [ -70.552806325507618, -27.500890547082452 ], [ -70.562926911812795, -27.500777226978439 ], [ -70.562672041497564, -27.482728041762133 ] ] ] } },
{ "type": "Feature", "properties": { "cve": "2828980", "nombre": "TRUFA 1", "solicitante": "Díaz Herrera Andrés Eric", "region": "REGIÓN DE ATACAMA", "provincia": "Provincia de Copiapó", "comuna": null, "superficie_ha": 100.0, "datum_original": "PSAD56", "huso": 19, "epsg_origen": 24879, "tipo_publicacion": "pedimento", "fuente_pdf": "http://www.diariooficial.interior.gob.cl/publicaciones/2026/06/25/44484/07/2828980.pdf", "archivo": "gm_pedimento_2828980.pdf", "fecha": "25-06-2026", "edicion": "44484" }, "geometry": { "type": "Polygon", "coordinates": [ [ [ -70.6068019276304, -27.455147795468893 ], [ -70.5966857240292, -27.455264128892026 ], [ -70.596815749753858, -27.464288615185549 ], [ -70.606932776304333, -27.464172237171034 ], [ -70.6068019276304, -27.455147795468893 ] ] ] } },
{ "type": "Feature", "properties": { "cve": "2828981", "nombre": "TRUFA 2", "solicitante": "Díaz Herrera Andrés Eric", "region": "REGIÓN DE ATACAMA", "provincia": "Provincia de Copiapó", "comuna": null, "superficie_ha": 100.0, "datum_original": "PSAD56", "huso": 19, "epsg_origen": 24879, "tipo_publicacion": "pedimento", "fuente_pdf": "http://www.diariooficial.interior.gob.cl/publicaciones/2026/06/25/44484/07/2828981.pdf", "archivo": "gm_pedimento_2828981.pdf", "fecha": "25-06-2026", "edicion": "44484" }, "geometry": { "type": "Polygon", "coordinates": [ [ [ -70.601842167323383, -27.531925271501969 ], [ -70.591718919927061, -27.53204154228505 ], [ -70.591848965656766, -27.541065950077588 ], [ -70.601973039277567, -27.540949634811863 ], [ -70.601842167323383, -27.531925271501969 ] ] ] } },
{ "type": "Feature", "properties": { "cve": "2828746", "nombre": "LA OLVIDADA III", "solicitante": "Godoy Molina Dionisio del Carmen", "region": "REGIÓN DE ATACAMA", "provincia": "Provincia de Chañaral", "comuna": null, "superficie_ha": 100.0, "datum_original": "PSAD56", "huso": 19, "epsg_origen": 24879, "tipo_publicacion": "pedimento", "fuente_pdf": "http://www.diariooficial.interior.gob.cl/publicaciones/2026/06/25/44484/07/2828746.pdf", "archivo": "gm_pedimento_2828746.pdf", "fecha": "25-06-2026", "edicion": "44484" }, "geometry": { "type": "Polygon", "coordinates": [ [ [ -69.183348409937309, -46.357298147227354 ], [ -69.170350636740636, -46.357318247534984 ], [ -69.170378607565482, -46.366317568291521 ], [ -69.183378514911183, -46.366297461703894 ], [ -69.183348409937309, -46.357298147227354 ] ] ] } }
]
}
