{
"type": "FeatureCollection",
"name": "boletin_mineria_20260803",
"crs": { "type": "name", "properties": { "name": "urn:ogc:def:crs:OGC:1.3:CRS84" } },
"features": [
{ "type": "Feature", "properties": { "cve": "2847476", "nombre": "DIEGO III 1 AL 28", "solicitante": "Servicios Grekad-Met Limitada", "region": "REGIÓN DE TARAPACÁ", "provincia": "Provincia de Iquique", "comuna": null, "superficie_ha": 28.0, "datum_original": "WGS84", "huso": 19, "epsg_origen": 32719, "tipo_publicacion": "manifestacion", "fuente_pdf": "http://www.diariooficial.interior.gob.cl/publicaciones/2026/08/03/44515/07/2847476.pdf", "archivo": "gm_manifestacion_2847476.pdf", "fecha": "03-08-2026", "edicion": "44515" }, "geometry": { "type": "Polygon", "coordinates": [ [ [ -70.063804747731538, -20.260808526490205 ], [ -70.057102965971694, -20.260849066577169 ], [ -70.057127439155749, -20.264463015921969 ], [ -70.063829375998665, -20.264422467985966 ], [ -70.063804747731538, -20.260808526490205 ] ] ] } },
{ "type": "Feature", "properties": { "cve": "2847545", "nombre": "FLOR A 1 AL 30", "solicitante": "Compañía Minera Doña Inés de Collahuasi SCM", "region": "REGIÓN DE TARAPACÁ", "provincia": "Provincia del Tamarugal", "comuna": null, "superficie_ha": 30.0, "datum_original": "WGS84", "huso": 19, "epsg_origen": 32719, "tipo_publicacion": "manifestacion", "fuente_pdf": "http://www.diariooficial.interior.gob.cl/publicaciones/2026/08/03/44515/07/2847545.pdf", "archivo": "gm_manifestacion_2847545.pdf", "fecha": "03-08-2026", "edicion": "44515" }, "geometry": { "type": "Polygon", "coordinates": [ [ [ -68.620014098867287, -20.968424765873266 ], [ -68.615204232186841, -20.968413975967156 ], [ -68.615190358156454, -20.973835260630455 ], [ -68.620000398249147, -20.97384605358279 ], [ -68.620014098867287, -20.968424765873266 ] ] ] } },
{ "type": "Feature", "properties": { "cve": "2847553", "nombre": "PACUGA DEL 1 AL 50", "solicitante": "García García Pablo Cupertino", "region": "REGIÓN DE TARAPACÁ", "provincia": "Provincia del Tamarugal", "comuna": "Alto Hospicio", "superficie_ha": 50.0, "datum_original": "PSAD56", "huso": 19, "epsg_origen": 24879, "tipo_publicacion": "manifestacion", "fuente_pdf": "http://www.diariooficial.interior.gob.cl/publicaciones/2026/08/03/44515/07/2847553.pdf", "archivo": "gm_manifestacion_2847553.pdf", "fecha": "03-08-2026", "edicion": "44515" }, "geometry": { "type": "Polygon", "coordinates": [ [ [ -69.546047036500667, -20.244928948261222 ], [ -69.536472854406838, -20.244958481890137 ], [ -69.536488364467147, -20.249476482709035 ], [ -69.546062823328597, -20.24944694192607 ], [ -69.546047036500667, -20.244928948261222 ] ] ] } },
{ "type": "Feature", "properties": { "cve": "2847548", "nombre": "PEPITA A 1 AL 20", "solicitante": "Zabaleta Andrade José Iván", "region": "REGIÓN DE TARAPACÁ", "provincia": "Provincia del Tamarugal", "comuna": "HUARA", "superficie_ha": 200.0, "datum_original": "WGS84", "huso": 19, "epsg_origen": 32719, "tipo_publicacion": "manifestacion", "fuente_pdf": "http://www.diariooficial.interior.gob.cl/publicaciones/2026/08/03/44515/07/2847548.pdf", "archivo": "gm_manifestacion_2847548.pdf", "fecha": "03-08-2026", "edicion": "44515" }, "geometry": { "type": "Polygon", "coordinates": [ [ [ -70.172580510272738, -19.56258842626109 ], [ -70.153517062834723, -19.562711266435223 ], [ -70.153581344911089, -19.571746550548241 ], [ -70.172645854109817, -19.57162364913771 ], [ -70.172580510272738, -19.56258842626109 ] ] ] } },
{ "type": "Feature", "properties": { "cve": "2847549", "nombre": "PEPITA B 1 AL 20", "solicitante": "Zabaleta Andrade José Iván", "region": "REGIÓN DE TARAPACÁ", "provincia": "Provincia del Tamarugal", "comuna": "HUARA", "superficie_ha": 200.0, "datum_original": "WGS84", "huso": 19, "epsg_origen": 32719, "tipo_publicacion": "manifestacion", "fuente_pdf": "http://www.diariooficial.interior.gob.cl/publicaciones/2026/08/03/44515/07/2847549.pdf", "archivo": "gm_manifestacion_2847549.pdf", "fecha": "03-08-2026", "edicion": "44515" }, "geometry": { "type": "Polygon", "coordinates": [ [ [ -70.153517062834723, -19.562711266435223 ], [ -70.143985285450881, -19.562771931844445 ], [ -70.144112823208303, -19.580842551316113 ], [ -70.153645662674933, -19.580781825419596 ], [ -70.153517062834723, -19.562711266435223 ] ] ] } },
{ "type": "Feature", "properties": { "cve": "2847550", "nombre": "PEPITA C 1 AL 30", "solicitante": "Zabaleta Andrade José Iván", "region": "REGIÓN DE TARAPACÁ", "provincia": "Provincia del Tamarugal", "comuna": "HUARA", "superficie_ha": 300.0, "datum_original": "WGS84", "huso": 19, "epsg_origen": 32719, "tipo_publicacion": "manifestacion", "fuente_pdf": "http://www.diariooficial.interior.gob.cl/publicaciones/2026/08/03/44515/07/2847550.pdf", "archivo": "gm_manifestacion_2847550.pdf", "fecha": "03-08-2026", "edicion": "44515" }, "geometry": { "type": "Polygon", "coordinates": [ [ [ -70.143985285450881, -19.562771931844445 ], [ -70.134453472683319, -19.562832094124381 ], [ -70.134643238824211, -19.589938099454059 ], [ -70.144176645185183, -19.589877847190731 ], [ -70.143985285450881, -19.562771931844445 ] ] ] } },
{ "type": "Feature", "properties": { "cve": "2847551", "nombre": "PEPITA D 1 AL 30", "solicitante": "Zabaleta Andrade José Iván", "region": "REGIÓN DE TARAPACÁ", "provincia": "Provincia del Tamarugal", "comuna": "HUARA", "superficie_ha": 300.0, "datum_original": "WGS84", "huso": 19, "epsg_origen": 32719, "tipo_publicacion": "manifestacion", "fuente_pdf": "http://www.diariooficial.interior.gob.cl/publicaciones/2026/08/03/44515/07/2847551.pdf", "archivo": "gm_manifestacion_2847551.pdf", "fecha": "03-08-2026", "edicion": "44515" }, "geometry": { "type": "Polygon", "coordinates": [ [ [ -70.134453472683319, -19.562832094124381 ], [ -70.124921624826626, -19.562891753267099 ], [ -70.12510979734725, -19.589997847827686 ], [ -70.134643238824211, -19.589938099454059 ], [ -70.134453472683319, -19.562832094124381 ] ] ] } },
{ "type": "Feature", "properties": { "cve": "2847540", "nombre": "COTAIPIN 1 DEL 1 AL 10", "solicitante": "Gallardo Funes Julio Enrique", "region": "REGIÓN DE ANTOFAGASTA", "provincia": "Provincia de Antofagasta", "comuna": null, "superficie_ha": 40.0, "datum_original": "PSAD56", "huso": 19, "epsg_origen": 24879, "tipo_publicacion": "manifestacion", "fuente_pdf": "http://www.diariooficial.interior.gob.cl/publicaciones/2026/08/03/44515/07/2847540.pdf", "archivo": "gm_manifestacion_2847540.pdf", "fecha": "03-08-2026", "edicion": "44515" }, "geometry": { "type": "Polygon", "coordinates": [ [ [ -70.557940695418196, -24.517131112076239 ], [ -70.548072800698407, -24.517232670065237 ], [ -70.548117065256093, -24.520843982790545 ], [ -70.557985241854553, -24.520742407910131 ], [ -70.557940695418196, -24.517131112076239 ] ] ] } },
{ "type": "Feature", "properties": { "cve": "2847541", "nombre": "COTAIPIN DEL 1 AL 6", "solicitante": "Gallardo Funes Julio Enrique", "region": "REGIÓN DE ANTOFAGASTA", "provincia": "Provincia de Antofagasta", "comuna": null, "superficie_ha": 30.0, "datum_original": "PSAD56", "huso": 19, "epsg_origen": 24879, "tipo_publicacion": "manifestacion", "fuente_pdf": "http://www.diariooficial.interior.gob.cl/publicaciones/2026/08/03/44515/07/2847541.pdf", "archivo": "gm_manifestacion_2847541.pdf", "fecha": "03-08-2026", "edicion": "44515" }, "geometry": { "type": "Polygon", "coordinates": [ [ [ -70.560413237249207, -24.51755703338516 ], [ -70.555479285844797, -24.517607974627051 ], [ -70.55554600468389, -24.523024923704369 ], [ -70.560480167510207, -24.522973969753458 ], [ -70.560413237249207, -24.51755703338516 ] ] ] } },
{ "type": "Feature", "properties": { "cve": "2847558", "nombre": "DAYAN 14 1 AL 32", "solicitante": "Compañía Minera Nortearido Minerals SCM", "region": "REGIÓN DE ANTOFAGASTA", "provincia": "Provincia de Antofagasta", "comuna": null, "superficie_ha": 320.0, "datum_original": "PSAD56", "huso": 19, "epsg_origen": 24879, "tipo_publicacion": "manifestacion", "fuente_pdf": "http://www.diariooficial.interior.gob.cl/publicaciones/2026/08/03/44515/07/2847558.pdf", "archivo": "gm_manifestacion_2847558.pdf", "fecha": "03-08-2026", "edicion": "44515" }, "geometry": { "type": "Polygon", "coordinates": [ [ [ -70.078551448951657, -23.907218551865384 ], [ -70.062834740719609, -23.907327974021065 ], [ -70.062982498517229, -23.925389479439438 ], [ -70.078701390698143, -23.925279964502767 ], [ -70.078551448951657, -23.907218551865384 ] ] ] } },
{ "type": "Feature", "properties": { "cve": "2847559", "nombre": "DAYAN 17 1 AL 20", "solicitante": "Compañía Minera Nortearido Minerals SCM", "region": "REGIÓN DE ANTOFAGASTA", "provincia": "Provincia de Antofagasta", "comuna": null, "superficie_ha": 200.0, "datum_original": "PSAD56", "huso": 19, "epsg_origen": 24879, "tipo_publicacion": "manifestacion", "fuente_pdf": "http://www.diariooficial.interior.gob.cl/publicaciones/2026/08/03/44515/07/2847559.pdf", "archivo": "gm_manifestacion_2847559.pdf", "fecha": "03-08-2026", "edicion": "44515" }, "geometry": { "type": "Polygon", "coordinates": [ [ [ -70.062982498517229, -23.925389479439438 ], [ -70.0531581433127, -23.925457110256115 ], [ -70.053304680929273, -23.943518629326025 ], [ -70.063130402481136, -23.943450941197018 ], [ -70.062982498517229, -23.925389479439438 ] ] ] } },
{ "type": "Feature", "properties": { "cve": "2847500", "nombre": "GABY 1 AL 20", "solicitante": "Gerald Tapia Glen Alan", "region": "REGIÓN DE ANTOFAGASTA", "provincia": "Provincia de Antofagasta", "comuna": null, "superficie_ha": 20.0, "datum_original": "PSAD56", "huso": 19, "epsg_origen": 24879, "tipo_publicacion": "manifestacion", "fuente_pdf": "http://www.diariooficial.interior.gob.cl/publicaciones/2026/08/03/44515/07/2847500.pdf", "archivo": "gm_manifestacion_2847500.pdf", "fecha": "03-08-2026", "edicion": "44515" }, "geometry": { "type": "Polygon", "coordinates": [ [ [ -70.384301606532688, -23.08746508849422 ], [ -70.382349360310329, -23.087482188930316 ], [ -70.382441737820045, -23.096512825242748 ], [ -70.38439411440261, -23.096495717359765 ], [ -70.384301606532688, -23.08746508849422 ] ] ] } },
{ "type": "Feature", "properties": { "cve": "2847510", "nombre": "JACQUELINE I 1 AL 20", "solicitante": "SLM Río Blanco Primera de la Comuna de Taltal", "region": "REGIÓN DE ANTOFAGASTA", "provincia": "Provincia de Antofagasta", "comuna": null, "superficie_ha": 100.0, "datum_original": "PSAD56", "huso": 19, "epsg_origen": 24879, "tipo_publicacion": "manifestacion", "fuente_pdf": "http://www.diariooficial.interior.gob.cl/publicaciones/2026/08/03/44515/07/2847510.pdf", "archivo": "gm_manifestacion_2847510.pdf", "fecha": "03-08-2026", "edicion": "44515" }, "geometry": { "type": "Polygon", "coordinates": [ [ [ -70.519087695837754, -24.27821486631704 ], [ -70.509238161537269, -24.278312981544136 ], [ -70.50934487498499, -24.287341711124554 ], [ -70.519195105064057, -24.28724355479536 ], [ -70.519087695837754, -24.27821486631704 ] ] ] } },
{ "type": "Feature", "properties": { "cve": "2847511", "nombre": "JACQUELINE II 1 AL 20", "solicitante": "SLM Río Blanco Primera de la Comuna de Taltal", "region": "REGIÓN DE ANTOFAGASTA", "provincia": "Provincia de Antofagasta", "comuna": null, "superficie_ha": 100.0, "datum_original": "PSAD56", "huso": 19, "epsg_origen": 24879, "tipo_publicacion": "manifestacion", "fuente_pdf": "http://www.diariooficial.interior.gob.cl/publicaciones/2026/08/03/44515/07/2847511.pdf", "archivo": "gm_manifestacion_2847511.pdf", "fecha": "03-08-2026", "edicion": "44515" }, "geometry": { "type": "Polygon", "coordinates": [ [ [ -70.498677969269764, -24.215253605014162 ], [ -70.488833188413025, -24.215350163073989 ], [ -70.488938151203996, -24.224379052512415 ], [ -70.498783625486922, -24.224282453922754 ], [ -70.498677969269764, -24.215253605014162 ] ] ] } },
{ "type": "Feature", "properties": { "cve": "2847512", "nombre": "JACQUELINE III 1 AL 20", "solicitante": "SLM Río Blanco Primera de la Comuna de Taltal", "region": "REGIÓN DE ANTOFAGASTA", "provincia": "Provincia de Antofagasta", "comuna": null, "superficie_ha": 100.0, "datum_original": "PSAD56", "huso": 19, "epsg_origen": 24879, "tipo_publicacion": "manifestacion", "fuente_pdf": "http://www.diariooficial.interior.gob.cl/publicaciones/2026/08/03/44515/07/2847512.pdf", "archivo": "gm_manifestacion_2847512.pdf", "fecha": "03-08-2026", "edicion": "44515" }, "geometry": { "type": "Polygon", "coordinates": [ [ [ -70.509229165470956, -24.278385309221814 ], [ -70.499379573195839, -24.27848278641563 ], [ -70.499485590569023, -24.287511556781748 ], [ -70.509335878641807, -24.287414038753155 ], [ -70.509229165470956, -24.278385309221814 ] ] ] } },
{ "type": "Feature", "properties": { "cve": "2847513", "nombre": "JACQUELINE V 1 AL 5", "solicitante": "SLM Río Blanco Primera de la Comuna de Taltal", "region": "REGIÓN DE ANTOFAGASTA", "provincia": "Provincia de Antofagasta", "comuna": null, "superficie_ha": 25.0, "datum_original": "PSAD56", "huso": 19, "epsg_origen": 24879, "tipo_publicacion": "manifestacion", "fuente_pdf": "http://www.diariooficial.interior.gob.cl/publicaciones/2026/08/03/44515/07/2847513.pdf", "archivo": "gm_manifestacion_2847513.pdf", "fecha": "03-08-2026", "edicion": "44515" }, "geometry": { "type": "Polygon", "coordinates": [ [ [ -70.450475941610378, -24.226890434758115 ], [ -70.44555300355583, -24.226937256745369 ], [ -70.445603980911656, -24.231451783694663 ], [ -70.450527092425247, -24.231404951884446 ], [ -70.450475941610378, -24.226890434758115 ] ] ] } },
{ "type": "Feature", "properties": { "cve": "2847514", "nombre": "NEGRA I 1 AL 5", "solicitante": "SLM Río Blanco Primera de la Comuna de Taltal", "region": "REGIÓN DE ANTOFAGASTA", "provincia": "Provincia de Antofagasta", "comuna": null, "superficie_ha": 25.0, "datum_original": "PSAD56", "huso": 19, "epsg_origen": 24879, "tipo_publicacion": "manifestacion", "fuente_pdf": "http://www.diariooficial.interior.gob.cl/publicaciones/2026/08/03/44515/07/2847514.pdf", "archivo": "gm_manifestacion_2847514.pdf", "fecha": "03-08-2026", "edicion": "44515" }, "geometry": { "type": "Polygon", "coordinates": [ [ [ -70.221998710578333, -23.437615963902221 ], [ -70.217105010639742, -23.437654192469175 ], [ -70.217146363975203, -23.442169605822656 ], [ -70.222040230085398, -23.442131369028541 ], [ -70.221998710578333, -23.437615963902221 ] ] ] } },
{ "type": "Feature", "properties": { "cve": "2847515", "nombre": "NEGRA II 1 AL 5", "solicitante": "SLM Río Blanco Primera de la Comuna de Taltal", "region": "REGIÓN DE ANTOFAGASTA", "provincia": "Provincia de Antofagasta", "comuna": null, "superficie_ha": 25.0, "datum_original": "PSAD56", "huso": 19, "epsg_origen": 24879, "tipo_publicacion": "manifestacion", "fuente_pdf": "http://www.diariooficial.interior.gob.cl/publicaciones/2026/08/03/44515/07/2847515.pdf", "archivo": "gm_manifestacion_2847515.pdf", "fecha": "03-08-2026", "edicion": "44515" }, "geometry": { "type": "Polygon", "coordinates": [ [ [ -70.235253650988113, -23.443084040332462 ], [ -70.23035977406164, -23.443122692809876 ], [ -70.230401588608146, -23.447638080553542 ], [ -70.235295631753218, -23.447599419759275 ], [ -70.235253650988113, -23.443084040332462 ] ] ] } },
{ "type": "Feature", "properties": { "cve": "2847571", "nombre": "APOLO 2 DEL 1 AL 25", "solicitante": "Grupo Mawida SpA", "region": "REGIÓN DE ANTOFAGASTA", "provincia": "Provincia de El Loa", "comuna": null, "superficie_ha": 250.0, "datum_original": "PSAD56", "huso": 19, "epsg_origen": 24879, "tipo_publicacion": "manifestacion", "fuente_pdf": "http://www.diariooficial.interior.gob.cl/publicaciones/2026/08/03/44515/07/2847571.pdf", "archivo": "gm_manifestacion_2847571.pdf", "fecha": "03-08-2026", "edicion": "44515" }, "geometry": { "type": "Polygon", "coordinates": [ [ [ -68.643790304351626, -21.817095219243374 ], [ -68.634114945239162, -21.817074064319897 ], [ -68.634057510435483, -21.839660363458965 ], [ -68.643734388258025, -21.839681542481969 ], [ -68.643790304351626, -21.817095219243374 ] ] ] } },
{ "type": "Feature", "properties": { "cve": "2847546", "nombre": "FRANCISCA, 1 AL 10", "solicitante": "Cortés Gómez Sergio Alejandro", "region": "REGIÓN DE ANTOFAGASTA", "provincia": "Provincia de El Loa", "comuna": "Calama", "superficie_ha": 60.0, "datum_original": "PSAD56", "huso": 19, "epsg_origen": 24879, "tipo_publicacion": "manifestacion", "fuente_pdf": "http://www.diariooficial.interior.gob.cl/publicaciones/2026/08/03/44515/07/2847546.pdf", "archivo": "gm_manifestacion_2847546.pdf", "fecha": "03-08-2026", "edicion": "44515" }, "geometry": { "type": "Polygon", "coordinates": [ [ [ -68.495600058881635, -22.674486208937576 ], [ -68.485865840038386, -22.674455260589426 ], [ -68.485845636119905, -22.679875293292465 ], [ -68.495580237448621, -22.679906249844478 ], [ -68.495600058881635, -22.674486208937576 ] ] ] } },
{ "type": "Feature", "properties": { "cve": "2847572", "nombre": "SABIDURIA 2 DEL 1 AL 30", "solicitante": "Grupo Mawida SpA", "region": "REGIÓN DE ANTOFAGASTA", "provincia": "Provincia de El Loa", "comuna": null, "superficie_ha": 300.0, "datum_original": "PSAD56", "huso": 19, "epsg_origen": 24879, "tipo_publicacion": "manifestacion", "fuente_pdf": "http://www.diariooficial.interior.gob.cl/publicaciones/2026/08/03/44515/07/2847572.pdf", "archivo": "gm_manifestacion_2847572.pdf", "fecha": "03-08-2026", "edicion": "44515" }, "geometry": { "type": "Polygon", "coordinates": [ [ [ -68.672704399683553, -21.866393536138546 ], [ -68.643668313860417, -21.866333323500339 ], [ -68.643645892796854, -21.875367805772751 ], [ -68.672683805542391, -21.875428045796145 ], [ -68.672704399683553, -21.866393536138546 ] ] ] } },
{ "type": "Feature", "properties": { "cve": "2847573", "nombre": "TURQUESA 2 DEL 1 AL 25", "solicitante": "Grupo Mawida SpA", "region": "REGIÓN DE ANTOFAGASTA", "provincia": "Provincia de El Loa", "comuna": null, "superficie_ha": 250.0, "datum_original": "PSAD56", "huso": 19, "epsg_origen": 24879, "tipo_publicacion": "manifestacion", "fuente_pdf": "http://www.diariooficial.interior.gob.cl/publicaciones/2026/08/03/44515/07/2847573.pdf", "archivo": "gm_manifestacion_2847573.pdf", "fecha": "03-08-2026", "edicion": "44515" }, "geometry": { "type": "Polygon", "coordinates": [ [ [ -68.653465675075282, -21.817115807281539 ], [ -68.643790304351626, -21.817095219243374 ], [ -68.643734388258025, -21.839681542481969 ], [ -68.653411277699945, -21.83970215397385 ], [ -68.653465675075282, -21.817115807281539 ] ] ] } },
{ "type": "Feature", "properties": { "cve": "2847594", "nombre": "CHERE B73 1/60", "solicitante": "SCM El Abra", "region": "REGIÓN DE ANTOFAGASTA", "provincia": "Provincia de Tocopilla", "comuna": null, "superficie_ha": 300.0, "datum_original": "PSAD56", "huso": 19, "epsg_origen": 24879, "tipo_publicacion": "manifestacion", "fuente_pdf": "http://www.diariooficial.interior.gob.cl/publicaciones/2026/08/03/44515/07/2847594.pdf", "archivo": "gm_manifestacion_2847594.pdf", "fecha": "03-08-2026", "edicion": "44515" }, "geometry": { "type": "Polygon", "coordinates": [ [ [ -69.054094381341287, -21.982352427488895 ], [ -69.044407673602535, -21.982355334028366 ], [ -69.044416109771106, -22.009458883630405 ], [ -69.054104657701075, -22.009455973141506 ], [ -69.054094381341287, -21.982352427488895 ] ] ] } },
{ "type": "Feature", "properties": { "cve": "2847122", "nombre": "ALTA GRACIA 1 AL 20", "solicitante": "Vargas Rojo Gonzalo Andrés y otro", "region": "REGIÓN DE COQUIMBO", "provincia": "Provincia de Choapa", "comuna": null, "superficie_ha": 80.0, "datum_original": "WGS84", "huso": 19, "epsg_origen": 32719, "tipo_publicacion": "manifestacion", "fuente_pdf": "http://www.diariooficial.interior.gob.cl/publicaciones/2026/08/03/44515/07/2847122.pdf", "archivo": "gm_manifestacion_2847122.pdf", "fecha": "03-08-2026", "edicion": "44515" }, "geometry": { "type": "Polygon", "coordinates": [ [ [ -71.135372755742978, -31.316972253268311 ], [ -71.126970705226313, -31.317111774740813 ], [ -71.127173496720786, -31.326128309592647 ], [ -71.135576346831684, -31.325988738931155 ], [ -71.135372755742978, -31.316972253268311 ] ] ] } },
{ "type": "Feature", "properties": { "cve": "2847115", "nombre": "EL TREBOL 1 AL 7", "solicitante": "Moyano Bravo Carlos Roberto", "region": "REGIÓN DE COQUIMBO", "provincia": "Provincia de Choapa", "comuna": null, "superficie_ha": 35.0, "datum_original": "WGS84", "huso": 19, "epsg_origen": 32719, "tipo_publicacion": "manifestacion", "fuente_pdf": "http://www.diariooficial.interior.gob.cl/publicaciones/2026/08/03/44515/07/2847115.pdf", "archivo": "gm_manifestacion_2847115.pdf", "fecha": "03-08-2026", "edicion": "44515" }, "geometry": { "type": "Polygon", "coordinates": [ [ [ -71.244234697768306, -31.608696355398997 ], [ -71.238967500101197, -31.60878883458275 ], [ -71.239118631026983, -31.615099650865705 ], [ -71.244386183504588, -31.615007148982226 ], [ -71.244234697768306, -31.608696355398997 ] ] ] } },
{ "type": "Feature", "properties": { "cve": "2847074", "nombre": "RAFAELLA 1, 1 AL 25", "solicitante": "Michea Gómez Diego Alfredo", "region": "REGIÓN DE COQUIMBO", "provincia": "Provincia de Limarí", "comuna": null, "superficie_ha": 200.0, "datum_original": "PSAD56", "huso": 19, "epsg_origen": 24879, "tipo_publicacion": "manifestacion", "fuente_pdf": "http://www.diariooficial.interior.gob.cl/publicaciones/2026/08/03/44515/07/2847074.pdf", "archivo": "gm_manifestacion_2847074.pdf", "fecha": "03-08-2026", "edicion": "44515" }, "geometry": { "type": "Polygon", "coordinates": [ [ [ -70.835665597685264, -31.092406570336376 ], [ -70.814706219153393, -31.092703362427475 ], [ -70.814877708930894, -31.101721875350972 ], [ -70.835839065428274, -31.101424978163671 ], [ -70.835665597685264, -31.092406570336376 ] ] ] } },
{ "type": "Feature", "properties": { "cve": "2847075", "nombre": "RAFAELLA 2, 1 AL 38", "solicitante": "Michea Gómez Diego Alfredo", "region": "REGIÓN DE COQUIMBO", "provincia": "Provincia de Limarí", "comuna": null, "superficie_ha": 228.0, "datum_original": "PSAD56", "huso": 19, "epsg_origen": 24879, "tipo_publicacion": "manifestacion", "fuente_pdf": "http://www.diariooficial.interior.gob.cl/publicaciones/2026/08/03/44515/07/2847075.pdf", "archivo": "gm_manifestacion_2847075.pdf", "fecha": "03-08-2026", "edicion": "44515" }, "geometry": { "type": "Polygon", "coordinates": [ [ [ -70.8334306724079, -31.087927933695951 ], [ -70.813520179171348, -31.08820958565606 ], [ -70.813725805279248, -31.099031814262126 ], [ -70.833638553001791, -31.098750042607669 ], [ -70.8334306724079, -31.087927933695951 ] ] ] } },
{ "type": "Feature", "properties": { "cve": "2847076", "nombre": "RAFAELLA 3, 1 AL 38", "solicitante": "Michea Gómez Diego Alfredo", "region": "REGIÓN DE COQUIMBO", "provincia": "Provincia de Limarí", "comuna": null, "superficie_ha": 190.0, "datum_original": "PSAD56", "huso": 19, "epsg_origen": 24879, "tipo_publicacion": "manifestacion", "fuente_pdf": "http://www.diariooficial.interior.gob.cl/publicaciones/2026/08/03/44515/07/2847076.pdf", "archivo": "gm_manifestacion_2847076.pdf", "fecha": "03-08-2026", "edicion": "44515" }, "geometry": { "type": "Polygon", "coordinates": [ [ [ -70.833621225331839, -31.097848200946078 ], [ -70.813708665529589, -31.098129962625006 ], [ -70.813880097732024, -31.107148472885971 ], [ -70.833794537117356, -31.106866611443298 ], [ -70.833621225331839, -31.097848200946078 ] ] ] } },
{ "type": "Feature", "properties": { "cve": "2847552", "nombre": "RAMONA UNO 1-32", "solicitante": "Consorcio Salinero del Tarapacá S.A.", "region": "REGIÓN DE TARAPACÁ", "provincia": "Provincia de Iquique", "comuna": null, "superficie_ha": 32.0, "datum_original": "WGS84", "huso": 19, "epsg_origen": 32719, "tipo_publicacion": "mensura", "fuente_pdf": "http://www.diariooficial.interior.gob.cl/publicaciones/2026/08/03/44515/07/2847552.pdf", "archivo": "gm_mensura_2847552.pdf", "fecha": "03-08-2026", "edicion": "44515" }, "geometry": { "type": "Polygon", "coordinates": [ [ [ -70.049368808495146, -20.81092738379386 ], [ -70.041682157156274, -20.810974246226071 ], [ -70.041706988113702, -20.814587984405822 ], [ -70.049393822600422, -20.814541113099889 ], [ -70.049368808495146, -20.81092738379386 ] ] ] } },
{ "type": "Feature", "properties": { "cve": "2847543", "nombre": "SIRKA DOS DEL 1 AL 30", "solicitante": "Inversiones Sirka SpA", "region": "REGIÓN DE TARAPACÁ", "provincia": "Provincia de Iquique", "comuna": null, "superficie_ha": 300.0, "datum_original": "PSAD56", "huso": 19, "epsg_origen": 24879, "tipo_publicacion": "mensura", "fuente_pdf": "http://www.diariooficial.interior.gob.cl/publicaciones/2026/08/03/44515/07/2847543.pdf", "archivo": "gm_mensura_2847543.pdf", "fecha": "03-08-2026", "edicion": "44515" }, "geometry": { "type": "Polygon", "coordinates": [ [ [ -70.145315848075612, -20.75066194912835 ], [ -70.116503276080579, -20.750851476127874 ], [ -70.116569600988242, -20.759885617995554 ], [ -70.1453838836686, -20.75969600105002 ], [ -70.145315848075612, -20.75066194912835 ] ] ] } },
{ "type": "Feature", "properties": { "cve": "2847542", "nombre": "SIRKA UNO DEL 1 AL 18", "solicitante": "Inversiones Sirka SpA", "region": "REGIÓN DE TARAPACÁ", "provincia": "Provincia de Iquique", "comuna": null, "superficie_ha": 180.0, "datum_original": "PSAD56", "huso": 19, "epsg_origen": 24879, "tipo_publicacion": "mensura", "fuente_pdf": "http://www.diariooficial.interior.gob.cl/publicaciones/2026/08/03/44515/07/2847542.pdf", "archivo": "gm_mensura_2847542.pdf", "fecha": "03-08-2026", "edicion": "44515" }, "geometry": { "type": "Polygon", "coordinates": [ [ [ -70.145275044187102, -20.74524151327585 ], [ -70.116463498164109, -20.745430986312734 ], [ -70.116503276080579, -20.750851476127874 ], [ -70.145315848075612, -20.75066194912835 ], [ -70.145275044187102, -20.74524151327585 ] ] ] } },
{ "type": "Feature", "properties": { "cve": "2847592", "nombre": "AGUILA VII 1 AL 6", "solicitante": "Araya Zúñiga Eduardo Esteban", "region": "REGIÓN DE ANTOFAGASTA", "provincia": "Provincia de Antofagasta", "comuna": null, "superficie_ha": 14.0, "datum_original": "PSAD56", "huso": 19, "epsg_origen": 24879, "tipo_publicacion": "mensura", "fuente_pdf": "http://www.diariooficial.interior.gob.cl/publicaciones/2026/08/03/44515/07/2847592.pdf", "archivo": "gm_mensura_2847592.pdf", "fecha": "03-08-2026", "edicion": "44515" }, "geometry": { "type": "Polygon", "coordinates": [ [ [ -70.283665260319779, -25.713400782972691 ], [ -70.28167214656041, -25.713418321022459 ], [ -70.281691492160988, -25.715223892287504 ], [ -70.279698346487521, -25.715241404506781 ], [ -70.279708004948461, -25.716144190668111 ], [ -70.277714842394573, -25.716161676350534 ], [ -70.277724486283418, -25.717064463097682 ], [ -70.283704013501918, -25.717011922221872 ], [ -70.283665260319779, -25.713400782972691 ] ] ] } },
{ "type": "Feature", "properties": { "cve": "2847478", "nombre": "GEORGINA 1 AL 2", "solicitante": "Rojas Flores Rojas Georgina del Carmen", "region": "REGIÓN DE ANTOFAGASTA", "provincia": "Provincia de Antofagasta", "comuna": null, "superficie_ha": 2.0, "datum_original": "PSAD56", "huso": 19, "epsg_origen": 24879, "tipo_publicacion": "mensura", "fuente_pdf": "http://www.diariooficial.interior.gob.cl/publicaciones/2026/08/03/44515/07/2847478.pdf", "archivo": "gm_mensura_2847478.pdf", "fecha": "03-08-2026", "edicion": "44515" }, "geometry": { "type": "Polygon", "coordinates": [ [ [ -70.47308694992941, -25.417463514708555 ], [ -70.472092918281731, -25.417473474150164 ], [ -70.472114844920569, -25.419278974127018 ], [ -70.473108891361179, -25.419269013879038 ], [ -70.47308694992941, -25.417463514708555 ] ] ] } },
{ "type": "Feature", "properties": { "cve": "2847479", "nombre": "MAR Y TIERRA 1 AL 1", "solicitante": "Bustos Rojas Daniza Zoraida", "region": "REGIÓN DE ANTOFAGASTA", "provincia": "Provincia de Antofagasta", "comuna": null, "superficie_ha": 1.0, "datum_original": "PSAD56", "huso": 19, "epsg_origen": 24879, "tipo_publicacion": "mensura", "fuente_pdf": "http://www.diariooficial.interior.gob.cl/publicaciones/2026/08/03/44515/07/2847479.pdf", "archivo": "gm_mensura_2847479.pdf", "fecha": "03-08-2026", "edicion": "44515" }, "geometry": { "type": "Polygon", "coordinates": [ [ [ -70.593665931573497, -25.509584425131578 ], [ -70.592671199098277, -25.509595236182921 ], [ -70.592683109097138, -25.510497923763367 ], [ -70.593677849003313, -25.510487112275531 ], [ -70.593665931573497, -25.509584425131578 ] ] ] } },
{ "type": "Feature", "properties": { "cve": "2847060", "nombre": "LA ESPERANZA I DEL 1 AL 10", "solicitante": "Servicios Mineros JyD Limitada", "region": "REGIÓN DE COQUIMBO", "provincia": "Provincia de Choapa", "comuna": null, "superficie_ha": 50.0, "datum_original": "PSAD56", "huso": 19, "epsg_origen": 24879, "tipo_publicacion": "mensura", "fuente_pdf": "http://www.diariooficial.interior.gob.cl/publicaciones/2026/08/03/44515/07/2847060.pdf", "archivo": "gm_mensura_2847060.pdf", "fecha": "03-08-2026", "edicion": "44515" }, "geometry": { "type": "Polygon", "coordinates": [ [ [ -71.368711115436511, -31.474542369436634 ], [ -71.363451928669235, -31.474639600694974 ], [ -71.363678624697869, -31.483654411662783 ], [ -71.368938314763454, -31.483557146228108 ], [ -71.368711115436511, -31.474542369436634 ] ] ] } },
{ "type": "Feature", "properties": { "cve": "2847061", "nombre": "LA ESPERANZA II DEL 1 AL 10", "solicitante": "Servicios Mineros JyD Limitada", "region": "REGIÓN DE COQUIMBO", "provincia": "Provincia de Choapa", "comuna": null, "superficie_ha": 50.0, "datum_original": "PSAD56", "huso": 19, "epsg_origen": 24879, "tipo_publicacion": "mensura", "fuente_pdf": "http://www.diariooficial.interior.gob.cl/publicaciones/2026/08/03/44515/07/2847061.pdf", "archivo": "gm_mensura_2847061.pdf", "fecha": "03-08-2026", "edicion": "44515" }, "geometry": { "type": "Polygon", "coordinates": [ [ [ -71.358249255141899, -31.476990328825586 ], [ -71.352989891772097, -31.477087137121693 ], [ -71.353215606492697, -31.486102012650296 ], [ -71.358475473237334, -31.486005170327786 ], [ -71.358249255141899, -31.476990328825586 ] ] ] } },
{ "type": "Feature", "properties": { "cve": "2847102", "nombre": "LA PLANTA DOS 1 AL 40", "solicitante": "Empresa Minera Patricio Javier Gatica Rossi E.I.R.L.", "region": "REGIÓN DE COQUIMBO", "provincia": "Provincia de Choapa", "comuna": null, "superficie_ha": 155.0, "datum_original": "PSAD56", "huso": 19, "epsg_origen": 24879, "tipo_publicacion": "mensura", "fuente_pdf": "http://www.diariooficial.interior.gob.cl/publicaciones/2026/08/03/44515/07/2847102.pdf", "archivo": "gm_mensura_2847102.pdf", "fecha": "03-08-2026", "edicion": "44515" }, "geometry": { "type": "Polygon", "coordinates": [ [ [ -71.097366580636262, -31.576238398522481 ], [ -71.094207066316983, -31.57629022485046 ], [ -71.094307896540727, -31.580798387298962 ], [ -71.086935310505226, -31.5809190331446 ], [ -71.087136329918764, -31.589935389883397 ], [ -71.089242990125996, -31.589900950915013 ], [ -71.089343634952115, -31.594409118000339 ], [ -71.097770644846022, -31.594270990956932 ], [ -71.097366580636262, -31.576238398522481 ] ] ] } },
{ "type": "Feature", "properties": { "cve": "2847051", "nombre": "TRINIDAD VI B25, 1 al 60", "solicitante": "Minera Freeport-McMoran South America Limitada", "region": "REGIÓN DE COQUIMBO", "provincia": "Provincia de Choapa", "comuna": null, "superficie_ha": 300.0, "datum_original": "PSAD56", "huso": 19, "epsg_origen": 24879, "tipo_publicacion": "mensura", "fuente_pdf": "http://www.diariooficial.interior.gob.cl/publicaciones/2026/08/03/44515/07/2847051.pdf", "archivo": "gm_mensura_2847051.pdf", "fecha": "03-08-2026", "edicion": "44515" }, "geometry": { "type": "Polygon", "coordinates": [ [ [ -70.293411637174017, -31.9928527274724 ], [ -70.261661080058943, -31.993172401063585 ], [ -70.261784589984245, -32.002191979527346 ], [ -70.293538253223915, -32.001872194535601 ], [ -70.293411637174017, -31.9928527274724 ] ] ] } },
{ "type": "Feature", "properties": { "cve": "2847052", "nombre": "TRINIDAD VI B26, 1 al 60", "solicitante": "Minera Freeport-McMoran South America Limitada", "region": "REGIÓN DE COQUIMBO", "provincia": "Provincia de Choapa", "comuna": null, "superficie_ha": 300.0, "datum_original": "PSAD56", "huso": 19, "epsg_origen": 24879, "tipo_publicacion": "mensura", "fuente_pdf": "http://www.diariooficial.interior.gob.cl/publicaciones/2026/08/03/44515/07/2847052.pdf", "archivo": "gm_mensura_2847052.pdf", "fecha": "03-08-2026", "edicion": "44515" }, "geometry": { "type": "Polygon", "coordinates": [ [ [ -70.293538253223915, -32.001872194535601 ], [ -70.261784589984245, -32.002191979527346 ], [ -70.261908155219842, -32.011211544629418 ], [ -70.293664925974511, -32.010891648215747 ], [ -70.293538253223915, -32.001872194535601 ] ] ] } },
{ "type": "Feature", "properties": { "cve": "2847053", "nombre": "TRINIDAD VI B27, 1 al 40", "solicitante": "Minera Freeport-McMoran South America Limitada", "region": "REGIÓN DE COQUIMBO", "provincia": "Provincia de Choapa", "comuna": null, "superficie_ha": 200.0, "datum_original": "PSAD56", "huso": 19, "epsg_origen": 24879, "tipo_publicacion": "mensura", "fuente_pdf": "http://www.diariooficial.interior.gob.cl/publicaciones/2026/08/03/44515/07/2847053.pdf", "archivo": "gm_mensura_2847053.pdf", "fecha": "03-08-2026", "edicion": "44515" }, "geometry": { "type": "Polygon", "coordinates": [ [ [ -70.261661080058943, -31.993172401063585 ], [ -70.251077449827264, -31.993277194302642 ], [ -70.251322453685361, -32.011316410912976 ], [ -70.261908155219842, -32.011211544629418 ], [ -70.261661080058943, -31.993172401063585 ] ] ] } },
{ "type": "Feature", "properties": { "cve": "2847534", "nombre": "FRANCO 15", "solicitante": "Interconexiones del Norte S.A.", "region": "REGIÓN DE TARAPACÁ", "provincia": "Provincia del Tamarugal", "comuna": "Pozo Almonte", "superficie_ha": 200.0, "datum_original": "PSAD56", "huso": 19, "epsg_origen": 24879, "tipo_publicacion": "pedimento", "fuente_pdf": "http://www.diariooficial.interior.gob.cl/publicaciones/2026/08/03/44515/07/2847534.pdf", "archivo": "gm_pedimento_2847534.pdf", "fecha": "03-08-2026", "edicion": "44515" }, "geometry": { "type": "Polygon", "coordinates": [ [ [ -69.499784418659885, -21.453077799935681 ], [ -69.490133433373771, -21.453106341402734 ], [ -69.490193846817704, -21.471175889832388 ], [ -69.499846021556792, -21.471147321998359 ], [ -69.499784418659885, -21.453077799935681 ] ] ] } },
{ "type": "Feature", "properties": { "cve": "2847535", "nombre": "FRANCO 16", "solicitante": "Interconexiones del Norte S.A.", "region": "REGIÓN DE TARAPACÁ", "provincia": "Provincia del Tamarugal", "comuna": "Pozo Almonte", "superficie_ha": 200.0, "datum_original": "PSAD56", "huso": 19, "epsg_origen": 24879, "tipo_publicacion": "pedimento", "fuente_pdf": "http://www.diariooficial.interior.gob.cl/publicaciones/2026/08/03/44515/07/2847535.pdf", "archivo": "gm_pedimento_2847535.pdf", "fecha": "03-08-2026", "edicion": "44515" }, "geometry": { "type": "Polygon", "coordinates": [ [ [ -69.498727215789714, -21.425976317939607 ], [ -69.489078010748642, -21.42600476429832 ], [ -69.489138210429729, -21.444074374603677 ], [ -69.498788603054237, -21.444045901938804 ], [ -69.498727215789714, -21.425976317939607 ] ] ] } },
{ "type": "Feature", "properties": { "cve": "2847536", "nombre": "FRANCO 17", "solicitante": "Interconexiones del Norte S.A.", "region": "REGIÓN DE TARAPACÁ", "provincia": "Provincia del Tamarugal", "comuna": "Pozo Almonte", "superficie_ha": 100.0, "datum_original": "PSAD56", "huso": 19, "epsg_origen": 24879, "tipo_publicacion": "pedimento", "fuente_pdf": "http://www.diariooficial.interior.gob.cl/publicaciones/2026/08/03/44515/07/2847536.pdf", "archivo": "gm_pedimento_2847536.pdf", "fecha": "03-08-2026", "edicion": "44515" }, "geometry": { "type": "Polygon", "coordinates": [ [ [ -69.495756257267772, -21.403397864744708 ], [ -69.486108530186868, -21.403426111712953 ], [ -69.486138404799775, -21.41246095036422 ], [ -69.495786724739276, -21.412432690324664 ], [ -69.495756257267772, -21.403397864744708 ] ] ] } },
{ "type": "Feature", "properties": { "cve": "2847537", "nombre": "FRANCO 18", "solicitante": "Interconexiones del Norte S.A.", "region": "REGIÓN DE TARAPACÁ", "provincia": "Provincia del Tamarugal", "comuna": "Pozo Almonte", "superficie_ha": 300.0, "datum_original": "PSAD56", "huso": 19, "epsg_origen": 24879, "tipo_publicacion": "pedimento", "fuente_pdf": "http://www.diariooficial.interior.gob.cl/publicaciones/2026/08/03/44515/07/2847537.pdf", "archivo": "gm_pedimento_2847537.pdf", "fecha": "03-08-2026", "edicion": "44515" }, "geometry": { "type": "Polygon", "coordinates": [ [ [ -69.553743930967613, -21.17282433501121 ], [ -69.54411131855062, -21.172855595061886 ], [ -69.544210503079213, -21.199960582439971 ], [ -69.553844871181354, -21.199929278602184 ], [ -69.553743930967613, -21.17282433501121 ] ] ] } },
{ "type": "Feature", "properties": { "cve": "2847538", "nombre": "FRANCO 19", "solicitante": "Interconexiones del Norte S.A.", "region": "REGIÓN DE TARAPACÁ", "provincia": "Provincia del Tamarugal", "comuna": "Pozo Almonte", "superficie_ha": 200.0, "datum_original": "PSAD56", "huso": 19, "epsg_origen": 24879, "tipo_publicacion": "pedimento", "fuente_pdf": "http://www.diariooficial.interior.gob.cl/publicaciones/2026/08/03/44515/07/2847538.pdf", "archivo": "gm_pedimento_2847538.pdf", "fecha": "03-08-2026", "edicion": "44515" }, "geometry": { "type": "Polygon", "coordinates": [ [ [ -69.54133674616682, -21.204514462919313 ], [ -69.531702060759059, -21.204545059890421 ], [ -69.531766764722775, -21.222615029841108 ], [ -69.54140262245771, -21.222584404334352 ], [ -69.54133674616682, -21.204514462919313 ] ] ] } },
{ "type": "Feature", "properties": { "cve": "2847566", "nombre": "CAPRICORNIO I", "solicitante": "Engie Energía Chile S.A.", "region": "REGIÓN DE ANTOFAGASTA", "provincia": "Provincia de Antofagasta", "comuna": null, "superficie_ha": 100.0, "datum_original": "PSAD56", "huso": 19, "epsg_origen": 24879, "tipo_publicacion": "pedimento", "fuente_pdf": "http://www.diariooficial.interior.gob.cl/publicaciones/2026/08/03/44515/07/2847566.pdf", "archivo": "gm_pedimento_2847566.pdf", "fecha": "03-08-2026", "edicion": "44515" }, "geometry": { "type": "Polygon", "coordinates": [ [ [ -70.17813435778946, -23.400733994891464 ], [ -70.168349503385272, -23.400807440285348 ], [ -70.168428767556279, -23.409838468011383 ], [ -70.178214285420225, -23.409764990964945 ], [ -70.17813435778946, -23.400733994891464 ] ] ] } },
{ "type": "Feature", "properties": { "cve": "2847567", "nombre": "CAPRICORNIO II", "solicitante": "Engie Energía Chile S.A.", "region": "REGIÓN DE ANTOFAGASTA", "provincia": "Provincia de Antofagasta", "comuna": null, "superficie_ha": 200.0, "datum_original": "PSAD56", "huso": 19, "epsg_origen": 24879, "tipo_publicacion": "pedimento", "fuente_pdf": "http://www.diariooficial.interior.gob.cl/publicaciones/2026/08/03/44515/07/2847567.pdf", "archivo": "gm_pedimento_2847567.pdf", "fecha": "03-08-2026", "edicion": "44515" }, "geometry": { "type": "Polygon", "coordinates": [ [ [ -70.183107029388225, -23.409728022756223 ], [ -70.163535993743224, -23.409874976846577 ], [ -70.163614965641884, -23.418906009522747 ], [ -70.183187328869622, -23.418758992118956 ], [ -70.183107029388225, -23.409728022756223 ] ] ] } },
{ "type": "Feature", "properties": { "cve": "2847568", "nombre": "CAPRICORNIO III", "solicitante": "Engie Energía Chile S.A.", "region": "REGIÓN DE ANTOFAGASTA", "provincia": "Provincia de Antofagasta", "comuna": null, "superficie_ha": 200.0, "datum_original": "PSAD56", "huso": 19, "epsg_origen": 24879, "tipo_publicacion": "pedimento", "fuente_pdf": "http://www.diariooficial.interior.gob.cl/publicaciones/2026/08/03/44515/07/2847568.pdf", "archivo": "gm_pedimento_2847568.pdf", "fecha": "03-08-2026", "edicion": "44515" }, "geometry": { "type": "Polygon", "coordinates": [ [ [ -70.188080394694566, -23.418721854794978 ], [ -70.168508071355106, -23.41886948495813 ], [ -70.168587414793706, -23.427900491122383 ], [ -70.188161066367314, -23.427752797373575 ], [ -70.188080394694566, -23.418721854794978 ] ] ] } },
{ "type": "Feature", "properties": { "cve": "2847601", "nombre": "CICLON 10", "solicitante": "Eco Earth Elements SpA", "region": "REGIÓN DE ANTOFAGASTA", "provincia": "Provincia de Antofagasta", "comuna": "Taltal", "superficie_ha": 300.0, "datum_original": "PSAD56", "huso": 19, "epsg_origen": 24879, "tipo_publicacion": "pedimento", "fuente_pdf": "http://www.diariooficial.interior.gob.cl/publicaciones/2026/08/03/44515/07/2847601.pdf", "archivo": "gm_pedimento_2847601.pdf", "fecha": "03-08-2026", "edicion": "44515" }, "geometry": { "type": "Polygon", "coordinates": [ [ [ -69.351074616301318, -25.834213317070681 ], [ -69.341096623881313, -25.834237082374202 ], [ -69.341174326198939, -25.861326475638769 ], [ -69.351154591508219, -25.861302681796964 ], [ -69.351074616301318, -25.834213317070681 ] ] ] } },
{ "type": "Feature", "properties": { "cve": "2847602", "nombre": "CICLON 11", "solicitante": "Eco Earth Elements SpA", "region": "REGIÓN DE ANTOFAGASTA", "provincia": "Provincia de Antofagasta", "comuna": "Taltal", "superficie_ha": 300.0, "datum_original": "PSAD56", "huso": 19, "epsg_origen": 24879, "tipo_publicacion": "pedimento", "fuente_pdf": "http://www.diariooficial.interior.gob.cl/publicaciones/2026/08/03/44515/07/2847602.pdf", "archivo": "gm_pedimento_2847602.pdf", "fecha": "03-08-2026", "edicion": "44515" }, "geometry": { "type": "Polygon", "coordinates": [ [ [ -69.330892978044304, -25.752991287602249 ], [ -69.300979291031979, -25.753056182708409 ], [ -69.301002052283522, -25.76208612902299 ], [ -69.330918001391808, -25.762021207885194 ], [ -69.330892978044304, -25.752991287602249 ] ] ] } },
{ "type": "Feature", "properties": { "cve": "2847603", "nombre": "CICLON 12", "solicitante": "Eco Earth Elements SpA", "region": "REGIÓN DE ANTOFAGASTA", "provincia": "Provincia de Antofagasta", "comuna": "Taltal", "superficie_ha": 300.0, "datum_original": "PSAD56", "huso": 19, "epsg_origen": 24879, "tipo_publicacion": "pedimento", "fuente_pdf": "http://www.diariooficial.interior.gob.cl/publicaciones/2026/08/03/44515/07/2847603.pdf", "archivo": "gm_pedimento_2847603.pdf", "fecha": "03-08-2026", "edicion": "44515" }, "geometry": { "type": "Polygon", "coordinates": [ [ [ -69.330918001391808, -25.762021207885194 ], [ -69.301002052283522, -25.76208612902299 ], [ -69.301024824415009, -25.771116064025133 ], [ -69.330943036700546, -25.771051116851869 ], [ -69.330918001391808, -25.762021207885194 ] ] ] } },
{ "type": "Feature", "properties": { "cve": "2847604", "nombre": "CICLON 13", "solicitante": "Eco Earth Elements SpA", "region": "REGIÓN DE ANTOFAGASTA", "provincia": "Provincia de Antofagasta", "comuna": "Taltal", "superficie_ha": 300.0, "datum_original": "PSAD56", "huso": 19, "epsg_origen": 24879, "tipo_publicacion": "pedimento", "fuente_pdf": "http://www.diariooficial.interior.gob.cl/publicaciones/2026/08/03/44515/07/2847604.pdf", "archivo": "gm_pedimento_2847604.pdf", "fecha": "03-08-2026", "edicion": "44515" }, "geometry": { "type": "Polygon", "coordinates": [ [ [ -69.330943036700546, -25.771051116851869 ], [ -69.301024824415009, -25.771116064025133 ], [ -69.30104760743005, -25.780145987712036 ], [ -69.330968083974454, -25.780081014499459 ], [ -69.330943036700546, -25.771051116851869 ] ] ] } },
{ "type": "Feature", "properties": { "cve": "2847605", "nombre": "CICLON 15", "solicitante": "Eco Earth Elements SpA", "region": "REGIÓN DE ANTOFAGASTA", "provincia": "Provincia de Antofagasta", "comuna": "Taltal", "superficie_ha": 200.0, "datum_original": "PSAD56", "huso": 19, "epsg_origen": 24879, "tipo_publicacion": "pedimento", "fuente_pdf": "http://www.diariooficial.interior.gob.cl/publicaciones/2026/08/03/44515/07/2847605.pdf", "archivo": "gm_pedimento_2847605.pdf", "fecha": "03-08-2026", "edicion": "44515" }, "geometry": { "type": "Polygon", "coordinates": [ [ [ -69.331043297626636, -25.807170639499816 ], [ -69.321067550521221, -25.807193007619265 ], [ -69.321116240108012, -25.825252718892088 ], [ -69.331093499959607, -25.825230332853366 ], [ -69.331043297626636, -25.807170639499816 ] ] ] } },
{ "type": "Feature", "properties": { "cve": "2847606", "nombre": "CICLON 16", "solicitante": "Eco Earth Elements SpA", "region": "REGIÓN DE ANTOFAGASTA", "provincia": "Provincia de Antofagasta", "comuna": "Taltal", "superficie_ha": 300.0, "datum_original": "PSAD56", "huso": 19, "epsg_origen": 24879, "tipo_publicacion": "pedimento", "fuente_pdf": "http://www.diariooficial.interior.gob.cl/publicaciones/2026/08/03/44515/07/2847606.pdf", "archivo": "gm_pedimento_2847606.pdf", "fecha": "03-08-2026", "edicion": "44515" }, "geometry": { "type": "Polygon", "coordinates": [ [ [ -69.320994603280965, -25.780103355749922 ], [ -69.311021110979297, -25.780125013488455 ], [ -69.311091791796116, -25.807214691404774 ], [ -69.321067550521221, -25.807193007619265 ], [ -69.320994603280965, -25.780103355749922 ] ] ] } },
{ "type": "Feature", "properties": { "cve": "2847607", "nombre": "CICLON 17", "solicitante": "Eco Earth Elements SpA", "region": "REGIÓN DE ANTOFAGASTA", "provincia": "Provincia de Antofagasta", "comuna": "Taltal", "superficie_ha": 200.0, "datum_original": "PSAD56", "huso": 19, "epsg_origen": 24879, "tipo_publicacion": "pedimento", "fuente_pdf": "http://www.diariooficial.interior.gob.cl/publicaciones/2026/08/03/44515/07/2847607.pdf", "archivo": "gm_pedimento_2847607.pdf", "fecha": "03-08-2026", "edicion": "44515" }, "geometry": { "type": "Polygon", "coordinates": [ [ [ -69.321067550521221, -25.807193007619265 ], [ -69.311091791796116, -25.807214691404774 ], [ -69.311138968629066, -25.825274420048643 ], [ -69.321116240108012, -25.825252718892088 ], [ -69.321067550521221, -25.807193007619265 ] ] ] } },
{ "type": "Feature", "properties": { "cve": "2847608", "nombre": "CICLON 18", "solicitante": "Eco Earth Elements SpA", "region": "REGIÓN DE ANTOFAGASTA", "provincia": "Provincia de Antofagasta", "comuna": "Taltal", "superficie_ha": 300.0, "datum_original": "PSAD56", "huso": 19, "epsg_origen": 24879, "tipo_publicacion": "pedimento", "fuente_pdf": "http://www.diariooficial.interior.gob.cl/publicaciones/2026/08/03/44515/07/2847608.pdf", "archivo": "gm_pedimento_2847608.pdf", "fecha": "03-08-2026", "edicion": "44515" }, "geometry": { "type": "Polygon", "coordinates": [ [ [ -69.311021110979297, -25.780125013488455 ], [ -69.281100568031576, -25.780185885602691 ], [ -69.281121851688397, -25.789215813963786 ], [ -69.311044659998814, -25.78915491745024 ], [ -69.311021110979297, -25.780125013488455 ] ] ] } },
{ "type": "Feature", "properties": { "cve": "2847609", "nombre": "CICLON 19", "solicitante": "Eco Earth Elements SpA", "region": "REGIÓN DE ANTOFAGASTA", "provincia": "Provincia de Antofagasta", "comuna": "Taltal", "superficie_ha": 300.0, "datum_original": "PSAD56", "huso": 19, "epsg_origen": 24879, "tipo_publicacion": "pedimento", "fuente_pdf": "http://www.diariooficial.interior.gob.cl/publicaciones/2026/08/03/44515/07/2847609.pdf", "archivo": "gm_pedimento_2847609.pdf", "fecha": "03-08-2026", "edicion": "44515" }, "geometry": { "type": "Polygon", "coordinates": [ [ [ -69.311044659998814, -25.78915491745024 ], [ -69.281121851688397, -25.789215813963786 ], [ -69.281143145514349, -25.798245731006404 ], [ -69.31106822026986, -25.798184810089943 ], [ -69.311044659998814, -25.78915491745024 ] ] ] } },
{ "type": "Feature", "properties": { "cve": "2847610", "nombre": "CICLON 20", "solicitante": "Eco Earth Elements SpA", "region": "REGIÓN DE ANTOFAGASTA", "provincia": "Provincia de Antofagasta", "comuna": "Taltal", "superficie_ha": 300.0, "datum_original": "PSAD56", "huso": 19, "epsg_origen": 24879, "tipo_publicacion": "pedimento", "fuente_pdf": "http://www.diariooficial.interior.gob.cl/publicaciones/2026/08/03/44515/07/2847610.pdf", "archivo": "gm_pedimento_2847610.pdf", "fecha": "03-08-2026", "edicion": "44515" }, "geometry": { "type": "Polygon", "coordinates": [ [ [ -69.360970465614614, -25.807099429169529 ], [ -69.331043297626636, -25.807170639499816 ], [ -69.331068392800674, -25.816200491843119 ], [ -69.360997829342026, -25.816129252991395 ], [ -69.360970465614614, -25.807099429169529 ] ] ] } },
{ "type": "Feature", "properties": { "cve": "2847600", "nombre": "CICLON 9", "solicitante": "Eco Earth Elements SpA", "region": "REGIÓN DE ANTOFAGASTA", "provincia": "Provincia de Antofagasta", "comuna": "Taltal", "superficie_ha": 300.0, "datum_original": "PSAD56", "huso": 19, "epsg_origen": 24879, "tipo_publicacion": "pedimento", "fuente_pdf": "http://www.diariooficial.interior.gob.cl/publicaciones/2026/08/03/44515/07/2847600.pdf", "archivo": "gm_pedimento_2847600.pdf", "fecha": "03-08-2026", "edicion": "44515" }, "geometry": { "type": "Polygon", "coordinates": [ [ [ -69.360997829342026, -25.816129252991395 ], [ -69.331068392800674, -25.816200491843119 ], [ -69.331093499959607, -25.825230332853366 ], [ -69.361025206137697, -25.82515906547599 ], [ -69.360997829342026, -25.816129252991395 ] ] ] } },
{ "type": "Feature", "properties": { "cve": "2847577", "nombre": "OMICRON 3", "solicitante": "Barros Ramírez Cristian Edmundo", "region": "REGIÓN DE ANTOFAGASTA", "provincia": "Provincia de Antofagasta", "comuna": "Antofagasta", "superficie_ha": 100.0, "datum_original": "PSAD56", "huso": 19, "epsg_origen": 24879, "tipo_publicacion": "pedimento", "fuente_pdf": "http://www.diariooficial.interior.gob.cl/publicaciones/2026/08/03/44515/07/2847577.pdf", "archivo": "gm_pedimento_2847577.pdf", "fecha": "03-08-2026", "edicion": "44515" }, "geometry": { "type": "Polygon", "coordinates": [ [ [ -70.534781144747981, -24.316009058041526 ], [ -70.524928765568234, -24.316108334325321 ], [ -70.525036777836974, -24.325136952835319 ], [ -70.534889854205161, -24.32503763501229 ], [ -70.534781144747981, -24.316009058041526 ] ] ] } },
{ "type": "Feature", "properties": { "cve": "2847521", "nombre": "PASCUAL 1", "solicitante": "Sáez Sáez Ana Carolina", "region": "REGIÓN DE ANTOFAGASTA", "provincia": "Provincia de El Loa", "comuna": null, "superficie_ha": 300.0, "datum_original": "PSAD56", "huso": 19, "epsg_origen": 24879, "tipo_publicacion": "pedimento", "fuente_pdf": "http://www.diariooficial.interior.gob.cl/publicaciones/2026/08/03/44515/07/2847521.pdf", "archivo": "gm_pedimento_2847521.pdf", "fecha": "03-08-2026", "edicion": "44515" }, "geometry": { "type": "Polygon", "coordinates": [ [ [ -68.422830915446227, -23.756371835259035 ], [ -68.393392580444797, -23.756259085412097 ], [ -68.393350722660628, -23.765291074808356 ], [ -68.422791088716181, -23.765403872691969 ], [ -68.422830915446227, -23.756371835259035 ] ] ] } },
{ "type": "Feature", "properties": { "cve": "2847522", "nombre": "PASCUAL 2", "solicitante": "Sáez Sáez Ana Carolina", "region": "REGIÓN DE ANTOFAGASTA", "provincia": "Provincia de El Loa", "comuna": null, "superficie_ha": 300.0, "datum_original": "PSAD56", "huso": 19, "epsg_origen": 24879, "tipo_publicacion": "pedimento", "fuente_pdf": "http://www.diariooficial.interior.gob.cl/publicaciones/2026/08/03/44515/07/2847522.pdf", "archivo": "gm_pedimento_2847522.pdf", "fecha": "03-08-2026", "edicion": "44515" }, "geometry": { "type": "Polygon", "coordinates": [ [ [ -68.393392580444797, -23.756259085412097 ], [ -68.363954432319858, -23.756140728571754 ], [ -68.363910543538694, -23.765172667542586 ], [ -68.393350722660628, -23.765291074808356 ], [ -68.393392580444797, -23.756259085412097 ] ] ] } },
{ "type": "Feature", "properties": { "cve": "2847523", "nombre": "PASCUAL 3", "solicitante": "Sáez Sáez Ana Carolina", "region": "REGIÓN DE ANTOFAGASTA", "provincia": "Provincia de El Loa", "comuna": null, "superficie_ha": 300.0, "datum_original": "PSAD56", "huso": 19, "epsg_origen": 24879, "tipo_publicacion": "pedimento", "fuente_pdf": "http://www.diariooficial.interior.gob.cl/publicaciones/2026/08/03/44515/07/2847523.pdf", "archivo": "gm_pedimento_2847523.pdf", "fecha": "03-08-2026", "edicion": "44515" }, "geometry": { "type": "Polygon", "coordinates": [ [ [ -68.334516480138205, -23.756016764883949 ], [ -68.305078732966308, -23.755887194501568 ], [ -68.305030782373478, -23.764919025455622 ], [ -68.334470560419888, -23.765048651040694 ], [ -68.334516480138205, -23.756016764883949 ] ] ] } },
{ "type": "Feature", "properties": { "cve": "2847524", "nombre": "PASCUAL 4", "solicitante": "Sáez Sáez Ana Carolina", "region": "REGIÓN DE ANTOFAGASTA", "provincia": "Provincia de El Loa", "comuna": null, "superficie_ha": 300.0, "datum_original": "PSAD56", "huso": 19, "epsg_origen": 24879, "tipo_publicacion": "pedimento", "fuente_pdf": "http://www.diariooficial.interior.gob.cl/publicaciones/2026/08/03/44515/07/2847524.pdf", "archivo": "gm_pedimento_2847524.pdf", "fecha": "03-08-2026", "edicion": "44515" }, "geometry": { "type": "Polygon", "coordinates": [ [ [ -68.363954432319858, -23.756140728571754 ], [ -68.334516480138205, -23.756016764883949 ], [ -68.334470560419888, -23.765048651040694 ], [ -68.363910543538694, -23.765172667542586 ], [ -68.363954432319858, -23.756140728571754 ] ] ] } },
{ "type": "Feature", "properties": { "cve": "2847525", "nombre": "PASCUAL 5", "solicitante": "Sáez Sáez Ana Carolina", "region": "REGIÓN DE ANTOFAGASTA", "provincia": "Provincia de El Loa", "comuna": null, "superficie_ha": 200.0, "datum_original": "PSAD56", "huso": 19, "epsg_origen": 24879, "tipo_publicacion": "pedimento", "fuente_pdf": "http://www.diariooficial.interior.gob.cl/publicaciones/2026/08/03/44515/07/2847525.pdf", "archivo": "gm_pedimento_2847525.pdf", "fecha": "03-08-2026", "edicion": "44515" }, "geometry": { "type": "Polygon", "coordinates": [ [ [ -68.324657277837417, -23.765006065736049 ], [ -68.314844018376647, -23.764962857205724 ], [ -68.314749400713836, -23.783026524231552 ], [ -68.324564015098758, -23.783069769571082 ], [ -68.324657277837417, -23.765006065736049 ] ] ] } },
{ "type": "Feature", "properties": { "cve": "2847526", "nombre": "PASCUAL 6", "solicitante": "Sáez Sáez Ana Carolina", "region": "REGIÓN DE ANTOFAGASTA", "provincia": "Provincia de El Loa", "comuna": null, "superficie_ha": 200.0, "datum_original": "PSAD56", "huso": 19, "epsg_origen": 24879, "tipo_publicacion": "pedimento", "fuente_pdf": "http://www.diariooficial.interior.gob.cl/publicaciones/2026/08/03/44515/07/2847526.pdf", "archivo": "gm_pedimento_2847526.pdf", "fecha": "03-08-2026", "edicion": "44515" }, "geometry": { "type": "Polygon", "coordinates": [ [ [ -68.314844018376647, -23.764962857205724 ], [ -68.305030782373478, -23.764919025455622 ], [ -68.304934809800841, -23.782982655141364 ], [ -68.314749400713836, -23.783026524231552 ], [ -68.314844018376647, -23.764962857205724 ] ] ] } },
{ "type": "Feature", "properties": { "cve": "2847527", "nombre": "PASCUAL 7", "solicitante": "Sáez Sáez Ana Carolina", "region": "REGIÓN DE ANTOFAGASTA", "provincia": "Provincia de El Loa", "comuna": null, "superficie_ha": 100.0, "datum_original": "PSAD56", "huso": 19, "epsg_origen": 24879, "tipo_publicacion": "pedimento", "fuente_pdf": "http://www.diariooficial.interior.gob.cl/publicaciones/2026/08/03/44515/07/2847527.pdf", "archivo": "gm_pedimento_2847527.pdf", "fecha": "03-08-2026", "edicion": "44515" }, "geometry": { "type": "Polygon", "coordinates": [ [ [ -68.334470560419888, -23.765048651040694 ], [ -68.324657277837417, -23.765006065736049 ], [ -68.324610658032356, -23.774037923022501 ], [ -68.334424617915985, -23.774080526465074 ], [ -68.334470560419888, -23.765048651040694 ] ] ] } },
{ "type": "Feature", "properties": { "cve": "2847031", "nombre": "NUEVE COLAS", "solicitante": "Veth Raffo Daniela", "region": "REGIÓN DE COQUIMBO", "provincia": "Provincia de Choapa", "comuna": "Salamanca", "superficie_ha": 300.0, "datum_original": "PSAD56", "huso": 19, "epsg_origen": 24879, "tipo_publicacion": "pedimento", "fuente_pdf": "http://www.diariooficial.interior.gob.cl/publicaciones/2026/08/03/44515/07/2847031.pdf", "archivo": "gm_pedimento_2847031.pdf", "fecha": "03-08-2026", "edicion": "44515" }, "geometry": { "type": "Polygon", "coordinates": [ [ [ -70.355454023056453, -31.892977078155692 ], [ -70.344882263902221, -31.893089380076464 ], [ -70.345275874703603, -31.920147608047543 ], [ -70.355850725625871, -31.920035188497007 ], [ -70.355454023056453, -31.892977078155692 ] ] ] } },
{ "type": "Feature", "properties": { "cve": "2847032", "nombre": "NUEVE COLAS 2", "solicitante": "Veth Raffo Daniela", "region": "REGIÓN DE COQUIMBO", "provincia": "Provincia de Choapa", "comuna": "Salamanca", "superficie_ha": 300.0, "datum_original": "PSAD56", "huso": 19, "epsg_origen": 24879, "tipo_publicacion": "pedimento", "fuente_pdf": "http://www.diariooficial.interior.gob.cl/publicaciones/2026/08/03/44515/07/2847032.pdf", "archivo": "gm_pedimento_2847032.pdf", "fecha": "03-08-2026", "edicion": "44515" }, "geometry": { "type": "Polygon", "coordinates": [ [ [ -70.344882263902221, -31.893089380076464 ], [ -70.334310446014555, -31.893200803182467 ], [ -70.334700964977159, -31.920259147863121 ], [ -70.345275874703603, -31.920147608047543 ], [ -70.344882263902221, -31.893089380076464 ] ] ] } },
{ "type": "Feature", "properties": { "cve": "2847033", "nombre": "NUEVE COLAS 3", "solicitante": "Veth Raffo Daniela", "region": "REGIÓN DE COQUIMBO", "provincia": "Provincia de Choapa", "comuna": "Salamanca", "superficie_ha": 300.0, "datum_original": "PSAD56", "huso": 19, "epsg_origen": 24879, "tipo_publicacion": "pedimento", "fuente_pdf": "http://www.diariooficial.interior.gob.cl/publicaciones/2026/08/03/44515/07/2847033.pdf", "archivo": "gm_pedimento_2847033.pdf", "fecha": "03-08-2026", "edicion": "44515" }, "geometry": { "type": "Polygon", "coordinates": [ [ [ -70.334180389603205, -31.884181328181128 ], [ -70.323609543157133, -31.884291833873849 ], [ -70.323996796707021, -31.911350334485615 ], [ -70.334570733678149, -31.911239713025672 ], [ -70.334180389603205, -31.884181328181128 ] ] ] } },
{ "type": "Feature", "properties": { "cve": "2847034", "nombre": "NUEVE COLAS 4", "solicitante": "Veth Raffo Daniela", "region": "REGIÓN DE COQUIMBO", "provincia": "Provincia de Choapa", "comuna": "Salamanca", "superficie_ha": 300.0, "datum_original": "PSAD56", "huso": 19, "epsg_origen": 24879, "tipo_publicacion": "pedimento", "fuente_pdf": "http://www.diariooficial.interior.gob.cl/publicaciones/2026/08/03/44515/07/2847034.pdf", "archivo": "gm_pedimento_2847034.pdf", "fecha": "03-08-2026", "edicion": "44515" }, "geometry": { "type": "Polygon", "coordinates": [ [ [ -70.323609543157133, -31.884291833873849 ], [ -70.313038638923146, -31.88440146102495 ], [ -70.31342280187836, -31.91146007648382 ], [ -70.323996796707021, -31.911350334485615 ], [ -70.323609543157133, -31.884291833873849 ] ] ] } },
{ "type": "Feature", "properties": { "cve": "2847035", "nombre": "NUEVE COLAS 5", "solicitante": "Veth Raffo Daniela", "region": "REGIÓN DE COQUIMBO", "provincia": "Provincia de Choapa", "comuna": "Salamanca", "superficie_ha": 300.0, "datum_original": "PSAD56", "huso": 19, "epsg_origen": 24879, "tipo_publicacion": "pedimento", "fuente_pdf": "http://www.diariooficial.interior.gob.cl/publicaciones/2026/08/03/44515/07/2847035.pdf", "archivo": "gm_pedimento_2847035.pdf", "fecha": "03-08-2026", "edicion": "44515" }, "geometry": { "type": "Polygon", "coordinates": [ [ [ -70.313038638923146, -31.88440146102495 ], [ -70.302467677362273, -31.884510209617901 ], [ -70.30284874965372, -31.911568939003775 ], [ -70.31342280187836, -31.91146007648382 ], [ -70.313038638923146, -31.88440146102495 ] ] ] } },
{ "type": "Feature", "properties": { "cve": "2847036", "nombre": "NUEVE COLAS 6", "solicitante": "Veth Raffo Daniela", "region": "REGIÓN DE COQUIMBO", "provincia": "Provincia de Choapa", "comuna": "Salamanca", "superficie_ha": 300.0, "datum_original": "PSAD56", "huso": 19, "epsg_origen": 24879, "tipo_publicacion": "pedimento", "fuente_pdf": "http://www.diariooficial.interior.gob.cl/publicaciones/2026/08/03/44515/07/2847036.pdf", "archivo": "gm_pedimento_2847036.pdf", "fecha": "03-08-2026", "edicion": "44515" }, "geometry": { "type": "Polygon", "coordinates": [ [ [ -70.302467677362273, -31.884510209617901 ], [ -70.291896658935471, -31.884618079636304 ], [ -70.292274640494611, -31.911676922028992 ], [ -70.30284874965372, -31.911568939003775 ], [ -70.302467677362273, -31.884510209617901 ] ] ] } },
{ "type": "Feature", "properties": { "cve": "2847038", "nombre": "NUEVE COLAS 8", "solicitante": "Veth Raffo Daniela", "region": "REGIÓN DE COQUIMBO", "provincia": "Provincia de Choapa", "comuna": "Salamanca", "superficie_ha": 100.0, "datum_original": "PSAD56", "huso": 19, "epsg_origen": 24879, "tipo_publicacion": "pedimento", "fuente_pdf": "http://www.diariooficial.interior.gob.cl/publicaciones/2026/08/03/44515/07/2847038.pdf", "archivo": "gm_pedimento_2847038.pdf", "fecha": "03-08-2026", "edicion": "44515" }, "geometry": { "type": "Polygon", "coordinates": [ [ [ -70.344751177800433, -31.884069943963468 ], [ -70.334180389603205, -31.884181328181128 ], [ -70.334310446014555, -31.893200803182467 ], [ -70.344882263902221, -31.893089380076464 ], [ -70.344751177800433, -31.884069943963468 ] ] ] } }
]
}
