{
"type": "FeatureCollection",
"name": "boletin_mineria_20260722",
"crs": { "type": "name", "properties": { "name": "urn:ogc:def:crs:OGC:1.3:CRS84" } },
"features": [
{ "type": "Feature", "properties": { "cve": "2841108", "nombre": "AZU B 1, 1 AL 30", "solicitante": "Antofagasta Minerals S.A.", "region": "REGIÓN DE ANTOFAGASTA", "provincia": "Provincia de Tocopilla", "comuna": null, "superficie_ha": 300.0, "datum_original": "PSAD56", "huso": 19, "epsg_origen": 24879, "tipo_publicacion": "manifestacion", "fuente_pdf": "http://www.diariooficial.interior.gob.cl/publicaciones/2026/07/22/44505/07/2841108.pdf", "archivo": "gm_manifestacion_2841108.pdf", "fecha": "22-07-2026", "edicion": "44505" }, "geometry": { "type": "Polygon", "coordinates": [ [ [ -69.040359162799533, -21.358949923918047 ], [ -69.030713994922777, -21.358951964601577 ], [ -69.030719647777815, -21.386057572663848 ], [ -69.040366590829152, -21.386055529142105 ], [ -69.040359162799533, -21.358949923918047 ] ] ] } },
{ "type": "Feature", "properties": { "cve": "2841109", "nombre": "AZU B 2, 1 AL 30", "solicitante": "Antofagasta Minerals S.A.", "region": "REGIÓN DE ANTOFAGASTA", "provincia": "Provincia de Tocopilla", "comuna": null, "superficie_ha": 300.0, "datum_original": "PSAD56", "huso": 19, "epsg_origen": 24879, "tipo_publicacion": "manifestacion", "fuente_pdf": "http://www.diariooficial.interior.gob.cl/publicaciones/2026/07/22/44505/07/2841109.pdf", "archivo": "gm_manifestacion_2841109.pdf", "fecha": "22-07-2026", "edicion": "44505" }, "geometry": { "type": "Polygon", "coordinates": [ [ [ -69.050010463231317, -21.377017740255344 ], [ -69.040364113517541, -21.377020337212031 ], [ -69.040371549359392, -21.404125883551885 ], [ -69.050019676113692, -21.404123282985793 ], [ -69.050010463231317, -21.377017740255344 ] ] ] } },
{ "type": "Feature", "properties": { "cve": "2841110", "nombre": "AZU B 3, 1 AL 20", "solicitante": "Antofagasta Minerals S.A.", "region": "REGIÓN DE ANTOFAGASTA", "provincia": "Provincia de Tocopilla", "comuna": null, "superficie_ha": 200.0, "datum_original": "PSAD56", "huso": 19, "epsg_origen": 24879, "tipo_publicacion": "manifestacion", "fuente_pdf": "http://www.diariooficial.interior.gob.cl/publicaciones/2026/07/22/44505/07/2841110.pdf", "archivo": "gm_manifestacion_2841110.pdf", "fecha": "22-07-2026", "edicion": "44505" }, "geometry": { "type": "Polygon", "coordinates": [ [ [ -69.040365352010582, -21.381537934403823 ], [ -69.030718705016128, -21.381539977452459 ], [ -69.030722477549503, -21.399610343572984 ], [ -69.040370309238355, -21.399608298631765 ], [ -69.040365352010582, -21.381537934403823 ] ] ] } },
{ "type": "Feature", "properties": { "cve": "2841136", "nombre": "BARBARA 1 AL 25", "solicitante": "Tello Orellana Alberto Segundo", "region": "REGIÓN DE ATACAMA", "provincia": "Provincia de Copiapó", "comuna": null, "superficie_ha": 25.0, "datum_original": "WGS84", "huso": 19, "epsg_origen": 32719, "tipo_publicacion": "manifestacion", "fuente_pdf": "http://www.diariooficial.interior.gob.cl/publicaciones/2026/07/22/44505/07/2841136.pdf", "archivo": "gm_manifestacion_2841136.pdf", "fecha": "22-07-2026", "edicion": "44505" }, "geometry": { "type": "Polygon", "coordinates": [ [ [ -70.375982903146991, -28.05392756165471 ], [ -70.370896529649869, -28.053978441736071 ], [ -70.370953783263531, -28.058490756312032 ], [ -70.376040369022988, -28.058439866620393 ], [ -70.375982903146991, -28.05392756165471 ] ] ] } },
{ "type": "Feature", "properties": { "cve": "2841024", "nombre": "GABRIELA I 1 AL 34", "solicitante": "Hidalgo Álvarez Pablo Eduardo", "region": "REGIÓN DE ATACAMA", "provincia": "Provincia de Copiapó", "comuna": null, "superficie_ha": 170.0, "datum_original": "PSAD56", "huso": 19, "epsg_origen": 24879, "tipo_publicacion": "manifestacion", "fuente_pdf": "http://www.diariooficial.interior.gob.cl/publicaciones/2026/07/22/44505/07/2841024.pdf", "archivo": "gm_manifestacion_2841024.pdf", "fecha": "22-07-2026", "edicion": "44505" }, "geometry": { "type": "Polygon", "coordinates": [ [ [ -69.909803967030783, -27.105306679454678 ], [ -69.899716702508101, -27.105371626858201 ], [ -69.899839438019001, -27.120718104401192 ], [ -69.909928078143054, -27.120653114287844 ], [ -69.909803967030783, -27.105306679454678 ] ] ] } },
{ "type": "Feature", "properties": { "cve": "2841025", "nombre": "GABRIELA II 1 AL 12", "solicitante": "Hidalgo Álvarez Pablo Eduardo", "region": "REGIÓN DE ATACAMA", "provincia": "Provincia de Copiapó", "comuna": null, "superficie_ha": 96.0, "datum_original": "PSAD56", "huso": 19, "epsg_origen": 24879, "tipo_publicacion": "manifestacion", "fuente_pdf": "http://www.diariooficial.interior.gob.cl/publicaciones/2026/07/22/44505/07/2841025.pdf", "archivo": "gm_manifestacion_2841025.pdf", "fecha": "22-07-2026", "edicion": "44505" }, "geometry": { "type": "Polygon", "coordinates": [ [ [ -69.998694570954953, -27.118695906530611 ], [ -69.990624010088197, -27.118753052578793 ], [ -69.990719443577319, -27.129585558242468 ], [ -69.998790781621878, -27.129528385678285 ], [ -69.998694570954953, -27.118695906530611 ] ] ] } },
{ "type": "Feature", "properties": { "cve": "2840634", "nombre": "TRES CHAÑARES 1 AL 15", "solicitante": "Bugueño Carvajal José Marcelino y otro", "region": "REGIÓN DE ATACAMA", "provincia": "Provincia de Copiapó", "comuna": null, "superficie_ha": 45.0, "datum_original": "WGS84", "huso": 19, "epsg_origen": 32719, "tipo_publicacion": "manifestacion", "fuente_pdf": "http://www.diariooficial.interior.gob.cl/publicaciones/2026/07/22/44505/07/2840634.pdf", "archivo": "gm_manifestacion_2840634.pdf", "fecha": "22-07-2026", "edicion": "44505" }, "geometry": { "type": "Polygon", "coordinates": [ [ [ -69.907273858550894, -28.009171306287691 ], [ -69.904222799826385, -28.009191410433722 ], [ -69.904335909873808, -28.022730632027983 ], [ -69.907387350130605, -28.022710516475112 ], [ -69.907273858550894, -28.009171306287691 ] ] ] } },
{ "type": "Feature", "properties": { "cve": "2841086", "nombre": "LALY 1 AL 10", "solicitante": "Mascareña Santana Iván Arcadio y otro", "region": "REGIÓN DE ATACAMA", "provincia": "Provincia de Huasco", "comuna": null, "superficie_ha": 50.0, "datum_original": "PSAD56", "huso": 19, "epsg_origen": 24879, "tipo_publicacion": "manifestacion", "fuente_pdf": "http://www.diariooficial.interior.gob.cl/publicaciones/2026/07/22/44505/07/2841086.pdf", "archivo": "gm_manifestacion_2841086.pdf", "fecha": "22-07-2026", "edicion": "44505" }, "geometry": { "type": "Polygon", "coordinates": [ [ [ -70.931161773840941, -28.889396340052681 ], [ -70.92603667020083, -28.889469709030383 ], [ -70.926203220187901, -28.898490689232752 ], [ -70.931328766339988, -28.898417293073535 ], [ -70.931161773840941, -28.889396340052681 ] ] ] } },
{ "type": "Feature", "properties": { "cve": "2841087", "nombre": "MICHEL 1 AL 10", "solicitante": "Mascareña Santana Iván Arcadio", "region": "REGIÓN DE ATACAMA", "provincia": "Provincia de Huasco", "comuna": null, "superficie_ha": 50.0, "datum_original": "PSAD56", "huso": 19, "epsg_origen": 24879, "tipo_publicacion": "manifestacion", "fuente_pdf": "http://www.diariooficial.interior.gob.cl/publicaciones/2026/07/22/44505/07/2841087.pdf", "archivo": "gm_manifestacion_2841087.pdf", "fecha": "22-07-2026", "edicion": "44505" }, "geometry": { "type": "Polygon", "coordinates": [ [ [ -70.928165239524191, -28.554556847331636 ], [ -70.923056427388218, -28.554629329077638 ], [ -70.923220432323845, -28.563650775293716 ], [ -70.928329679499768, -28.563578266490403 ], [ -70.928165239524191, -28.554556847331636 ] ] ] } },
{ "type": "Feature", "properties": { "cve": "2841088", "nombre": "Sharon 1 AL 10", "solicitante": "Mascareña Santana Iván Arcadio y otro", "region": "REGIÓN DE ATACAMA", "provincia": "Provincia de Huasco", "comuna": null, "superficie_ha": 40.0, "datum_original": "PSAD56", "huso": 19, "epsg_origen": 24879, "tipo_publicacion": "manifestacion", "fuente_pdf": "http://www.diariooficial.interior.gob.cl/publicaciones/2026/07/22/44505/07/2841088.pdf", "archivo": "gm_manifestacion_2841088.pdf", "fecha": "22-07-2026", "edicion": "44505" }, "geometry": { "type": "Polygon", "coordinates": [ [ [ -70.440462372960468, -28.307381432435314 ], [ -70.430265887841003, -28.307488644379614 ], [ -70.430314176867057, -28.311098268781567 ], [ -70.440511005953908, -28.310991040733313 ], [ -70.440462372960468, -28.307381432435314 ] ] ] } },
{ "type": "Feature", "properties": { "cve": "2840935", "nombre": "ESPERANZA I 1 AL 20", "solicitante": "Rui Juan Pablo", "region": "REGIÓN DE COQUIMBO", "provincia": "Provincia de Limarí", "comuna": null, "superficie_ha": 100.0, "datum_original": "PSAD56", "huso": 19, "epsg_origen": 24879, "tipo_publicacion": "manifestacion", "fuente_pdf": "http://www.diariooficial.interior.gob.cl/publicaciones/2026/07/22/44505/07/2840935.pdf", "archivo": "gm_manifestacion_2840935.pdf", "fecha": "22-07-2026", "edicion": "44505" }, "geometry": { "type": "Polygon", "coordinates": [ [ [ -70.832259230496604, -30.862292266762466 ], [ -70.821804669998414, -30.8624398272216 ], [ -70.821975271574985, -30.871458628629359 ], [ -70.83243080975133, -30.871311015689656 ], [ -70.832259230496604, -30.862292266762466 ] ] ] } },
{ "type": "Feature", "properties": { "cve": "2840936", "nombre": "ESPERANZA II 1 AL 20", "solicitante": "Rui Juan Pablo", "region": "REGIÓN DE COQUIMBO", "provincia": "Provincia de Limarí", "comuna": null, "superficie_ha": 100.0, "datum_original": "PSAD56", "huso": 19, "epsg_origen": 24879, "tipo_publicacion": "manifestacion", "fuente_pdf": "http://www.diariooficial.interior.gob.cl/publicaciones/2026/07/22/44505/07/2840936.pdf", "archivo": "gm_manifestacion_2840936.pdf", "fecha": "22-07-2026", "edicion": "44505" }, "geometry": { "type": "Polygon", "coordinates": [ [ [ -70.842809919687909, -30.866626007691668 ], [ -70.832354950730007, -30.866774438662112 ], [ -70.832526569391462, -30.875793180810334 ], [ -70.842982516216182, -30.875644697054401 ], [ -70.842809919687909, -30.866626007691668 ] ] ] } },
{ "type": "Feature", "properties": { "cve": "2840937", "nombre": "ESPERANZA III 1 AL 20", "solicitante": "Rui Juan Pablo", "region": "REGIÓN DE COQUIMBO", "provincia": "Provincia de Limarí", "comuna": null, "superficie_ha": 100.0, "datum_original": "PSAD56", "huso": 19, "epsg_origen": 24879, "tipo_publicacion": "manifestacion", "fuente_pdf": "http://www.diariooficial.interior.gob.cl/publicaciones/2026/07/22/44505/07/2840937.pdf", "archivo": "gm_manifestacion_2840937.pdf", "fecha": "22-07-2026", "edicion": "44505" }, "geometry": { "type": "Polygon", "coordinates": [ [ [ -70.853134681434781, -30.859712747055092 ], [ -70.842680523319842, -30.859861981781943 ], [ -70.842853061529297, -30.868880681302088 ], [ -70.853308197150696, -30.868731393497203 ], [ -70.853134681434781, -30.859712747055092 ] ] ] } },
{ "type": "Feature", "properties": { "cve": "2840939", "nombre": "ESPERANZA IV 1 AL 8", "solicitante": "Rui Juan Pablo", "region": "REGIÓN DE COQUIMBO", "provincia": "Provincia de Limarí", "comuna": null, "superficie_ha": 80.0, "datum_original": "PSAD56", "huso": 19, "epsg_origen": 24879, "tipo_publicacion": "manifestacion", "fuente_pdf": "http://www.diariooficial.interior.gob.cl/publicaciones/2026/07/22/44505/07/2840939.pdf", "archivo": "gm_manifestacion_2840939.pdf", "fecha": "22-07-2026", "edicion": "44505" }, "geometry": { "type": "Polygon", "coordinates": [ [ [ -70.853290842060503, -30.86782952946287 ], [ -70.842835804209543, -30.8679788119595 ], [ -70.842973884542602, -30.875193762907955 ], [ -70.853429704680423, -30.875044437942677 ], [ -70.853290842060503, -30.86782952946287 ] ] ] } },
{ "type": "Feature", "properties": { "cve": "2840938", "nombre": "ESPERANZA V 1 AL 10", "solicitante": "Rui Juan Pablo", "region": "REGIÓN DE COQUIMBO", "provincia": "Provincia de Limarí", "comuna": null, "superficie_ha": 50.0, "datum_original": "PSAD56", "huso": 19, "epsg_origen": 24879, "tipo_publicacion": "manifestacion", "fuente_pdf": "http://www.diariooficial.interior.gob.cl/publicaciones/2026/07/22/44505/07/2840938.pdf", "archivo": "gm_manifestacion_2840938.pdf", "fecha": "22-07-2026", "edicion": "44505" }, "geometry": { "type": "Polygon", "coordinates": [ [ [ -70.839269417115958, -30.873442235257862 ], [ -70.828813687603855, -30.873590409641388 ], [ -70.828899344610548, -30.878099786560895 ], [ -70.839355563171424, -30.87795158583485 ], [ -70.839269417115958, -30.873442235257862 ] ] ] } },
{ "type": "Feature", "properties": { "cve": "2840867", "nombre": "BOYÉN 1 AL 10", "solicitante": "Céspedes Palacios Raúl Armando", "region": "REGIÓN DE VALPARAÍSO", "provincia": "Provincia de Valparaíso", "comuna": null, "superficie_ha": 100.0, "datum_original": "PSAD56", "huso": 19, "epsg_origen": 24879, "tipo_publicacion": "manifestacion", "fuente_pdf": "http://www.diariooficial.interior.gob.cl/publicaciones/2026/07/22/44505/07/2840867.pdf", "archivo": "gm_manifestacion_2840867.pdf", "fecha": "22-07-2026", "edicion": "44505" }, "geometry": { "type": "Polygon", "coordinates": [ [ [ -71.376461017219455, -32.794850525126968 ], [ -71.365790065960724, -32.795052643719607 ], [ -71.366028883826161, -32.804065544325553 ], [ -71.376700909811788, -32.803863356281923 ], [ -71.376461017219455, -32.794850525126968 ] ] ] } },
{ "type": "Feature", "properties": { "cve": "2840881", "nombre": "LA COMADRE 1 AL 5", "solicitante": "Quiroz Gallardo Eduardo de Jesús", "region": "REGIÓN DE VALPARAÍSO", "provincia": "Provincia de Petorca", "comuna": null, "superficie_ha": 25.0, "datum_original": "PSAD56", "huso": 19, "epsg_origen": 24879, "tipo_publicacion": "manifestacion", "fuente_pdf": "http://www.diariooficial.interior.gob.cl/publicaciones/2026/07/22/44505/07/2840881.pdf", "archivo": "gm_manifestacion_2840881.pdf", "fecha": "22-07-2026", "edicion": "44505" }, "geometry": { "type": "Polygon", "coordinates": [ [ [ -70.874055599271415, -32.179074186175846 ], [ -70.868754621257125, -32.179152627801564 ], [ -70.868846733965754, -32.183660975165878 ], [ -70.874147972898058, -32.183582519920741 ], [ -70.874055599271415, -32.179074186175846 ] ] ] } },
{ "type": "Feature", "properties": { "cve": "2841068", "nombre": "LA NEGRA 10 1/40", "solicitante": "Alto Sur Minerals SpA", "region": "REGIÓN DEL LIBERTADOR GENERAL BERNARDO O’HIGGINS", "provincia": "Provincia de Cachapoal", "comuna": null, "superficie_ha": 200.0, "datum_original": "WGS84", "huso": 19, "epsg_origen": 32719, "tipo_publicacion": "manifestacion", "fuente_pdf": "http://www.diariooficial.interior.gob.cl/publicaciones/2026/07/22/44505/07/2841068.pdf", "archivo": "gm_manifestacion_2841068.pdf", "fecha": "22-07-2026", "edicion": "44505" }, "geometry": { "type": "Polygon", "coordinates": [ [ [ -70.908777745746477, -34.137072332657503 ], [ -70.897937661159716, -34.137240430638563 ], [ -70.898341006564024, -34.155267912679946 ], [ -70.909183391459578, -34.155099701465872 ], [ -70.908777745746477, -34.137072332657503 ] ] ] } },
{ "type": "Feature", "properties": { "cve": "2841069", "nombre": "LA NEGRA 11 1/30", "solicitante": "Alto Sur Minerals SpA", "region": "REGIÓN DEL LIBERTADOR GENERAL BERNARDO O’HIGGINS", "provincia": "Provincia de Cachapoal", "comuna": null, "superficie_ha": 300.0, "datum_original": "WGS84", "huso": 19, "epsg_origen": 32719, "tipo_publicacion": "manifestacion", "fuente_pdf": "http://www.diariooficial.interior.gob.cl/publicaciones/2026/07/22/44505/07/2841069.pdf", "archivo": "gm_manifestacion_2841069.pdf", "fecha": "22-07-2026", "edicion": "44505" }, "geometry": { "type": "Polygon", "coordinates": [ [ [ -70.897937661159716, -34.137240430638563 ], [ -70.865416871963816, -34.137738986675686 ], [ -70.865615049930298, -34.146752902749924 ], [ -70.898139289052921, -34.14625417881205 ], [ -70.897937661159716, -34.137240430638563 ] ] ] } },
{ "type": "Feature", "properties": { "cve": "2841070", "nombre": "LA NEGRA 12 1/60", "solicitante": "Alto Sur Minerals SpA", "region": "REGIÓN DEL LIBERTADOR GENERAL BERNARDO O’HIGGINS", "provincia": "Provincia de Cachapoal", "comuna": null, "superficie_ha": 300.0, "datum_original": "WGS84", "huso": 19, "epsg_origen": 32719, "tipo_publicacion": "manifestacion", "fuente_pdf": "http://www.diariooficial.interior.gob.cl/publicaciones/2026/07/22/44505/07/2841070.pdf", "archivo": "gm_manifestacion_2841070.pdf", "fecha": "22-07-2026", "edicion": "44505" }, "geometry": { "type": "Polygon", "coordinates": [ [ [ -70.898139289052921, -34.14625417881205 ], [ -70.865615049930298, -34.146752902749924 ], [ -70.865813315982848, -34.155766804553544 ], [ -70.898341006564024, -34.155267912679946 ], [ -70.898139289052921, -34.14625417881205 ] ] ] } },
{ "type": "Feature", "properties": { "cve": "2841063", "nombre": "LA NEGRA 5 1/40", "solicitante": "Alto Sur Minerals SpA", "region": "REGIÓN DEL LIBERTADOR GENERAL BERNARDO O’HIGGINS", "provincia": "Provincia de Cachapoal", "comuna": null, "superficie_ha": 400.0, "datum_original": "WGS84", "huso": 19, "epsg_origen": 32719, "tipo_publicacion": "manifestacion", "fuente_pdf": "http://www.diariooficial.interior.gob.cl/publicaciones/2026/07/22/44505/07/2841063.pdf", "archivo": "gm_manifestacion_2841063.pdf", "fecha": "22-07-2026", "edicion": "44505" }, "geometry": { "type": "Polygon", "coordinates": [ [ [ -70.940164843680719, -34.086987685811117 ], [ -70.89683030795328, -34.087664560070657 ], [ -70.897031443633338, -34.096678386885408 ], [ -70.940370567509049, -34.096001284513868 ], [ -70.940164843680719, -34.086987685811117 ] ] ] } },
{ "type": "Feature", "properties": { "cve": "2841064", "nombre": "LA NEGRA 6 1/40", "solicitante": "Alto Sur Minerals SpA", "region": "REGIÓN DEL LIBERTADOR GENERAL BERNARDO O’HIGGINS", "provincia": "Provincia de Cachapoal", "comuna": null, "superficie_ha": 400.0, "datum_original": "WGS84", "huso": 19, "epsg_origen": 32719, "tipo_publicacion": "manifestacion", "fuente_pdf": "http://www.diariooficial.interior.gob.cl/publicaciones/2026/07/22/44505/07/2841064.pdf", "archivo": "gm_manifestacion_2841064.pdf", "fecha": "22-07-2026", "edicion": "44505" }, "geometry": { "type": "Polygon", "coordinates": [ [ [ -70.940370567509049, -34.096001284513868 ], [ -70.897031443633338, -34.096678386885408 ], [ -70.897232668720548, -34.105692199406711 ], [ -70.940576382781813, -34.105014868875713 ], [ -70.940370567509049, -34.096001284513868 ] ] ] } },
{ "type": "Feature", "properties": { "cve": "2841065", "nombre": "LA NEGRA 7 1/40", "solicitante": "Alto Sur Minerals SpA", "region": "REGIÓN DEL LIBERTADOR GENERAL BERNARDO O’HIGGINS", "provincia": "Provincia de Cachapoal", "comuna": null, "superficie_ha": 400.0, "datum_original": "WGS84", "huso": 19, "epsg_origen": 32719, "tipo_publicacion": "manifestacion", "fuente_pdf": "http://www.diariooficial.interior.gob.cl/publicaciones/2026/07/22/44505/07/2841065.pdf", "archivo": "gm_manifestacion_2841065.pdf", "fecha": "22-07-2026", "edicion": "44505" }, "geometry": { "type": "Polygon", "coordinates": [ [ [ -70.940576382781813, -34.105014868875713 ], [ -70.897232668720548, -34.105692199406711 ], [ -70.89743398325318, -34.114705997632377 ], [ -70.94078228953812, -34.114028438894472 ], [ -70.940576382781813, -34.105014868875713 ] ] ] } },
{ "type": "Feature", "properties": { "cve": "2841066", "nombre": "LA NEGRA 8 1/40", "solicitante": "Alto Sur Minerals SpA", "region": "REGIÓN DEL LIBERTADOR GENERAL BERNARDO O’HIGGINS", "provincia": "Provincia de Cachapoal", "comuna": null, "superficie_ha": 400.0, "datum_original": "WGS84", "huso": 19, "epsg_origen": 32719, "tipo_publicacion": "manifestacion", "fuente_pdf": "http://www.diariooficial.interior.gob.cl/publicaciones/2026/07/22/44505/07/2841066.pdf", "archivo": "gm_manifestacion_2841066.pdf", "fecha": "22-07-2026", "edicion": "44505" }, "geometry": { "type": "Polygon", "coordinates": [ [ [ -70.94078228953812, -34.114028438894472 ], [ -70.89743398325318, -34.114705997632377 ], [ -70.897635387269489, -34.12371978156019 ], [ -70.94098828781712, -34.123041994567849 ], [ -70.94078228953812, -34.114028438894472 ] ] ] } },
{ "type": "Feature", "properties": { "cve": "2841067", "nombre": "LA NEGRA 9 1/200", "solicitante": "Alto Sur Minerals SpA", "region": "REGIÓN DEL LIBERTADOR GENERAL BERNARDO O’HIGGINS", "provincia": "Provincia de Cachapoal", "comuna": null, "superficie_ha": 400.0, "datum_original": "WGS84", "huso": 19, "epsg_origen": 32719, "tipo_publicacion": "manifestacion", "fuente_pdf": "http://www.diariooficial.interior.gob.cl/publicaciones/2026/07/22/44505/07/2841067.pdf", "archivo": "gm_manifestacion_2841067.pdf", "fecha": "22-07-2026", "edicion": "44505" }, "geometry": { "type": "Polygon", "coordinates": [ [ [ -70.94098828781712, -34.123041994567849 ], [ -70.897635387269489, -34.12371978156019 ], [ -70.89783688080783, -34.132733551187926 ], [ -70.941194377658036, -34.132055535893642 ], [ -70.94098828781712, -34.123041994567849 ] ] ] } },
{ "type": "Feature", "properties": { "cve": "2840656", "nombre": "EL ALTO 1 AL 98", "solicitante": "Oyarce Suazo José Alejandro y otros", "region": "REGIÓN DE ÑUBLE", "provincia": "Provincia de Itata", "comuna": "Cobquecura", "superficie_ha": 98.0, "datum_original": "WGS84", "huso": 19, "epsg_origen": 32719, "tipo_publicacion": "manifestacion", "fuente_pdf": "http://www.diariooficial.interior.gob.cl/publicaciones/2026/07/22/44505/07/2840656.pdf", "archivo": "gm_manifestacion_2840656.pdf", "fecha": "22-07-2026", "edicion": "44505" }, "geometry": { "type": "Polygon", "coordinates": [ [ [ -66.740253984865802, -36.070666885463915 ], [ -66.724718811358457, -36.070372848135264 ], [ -66.724537073603315, -36.076678941262919 ], [ -66.740073485396579, -36.076973046185323 ], [ -66.740253984865802, -36.070666885463915 ] ] ] } },
{ "type": "Feature", "properties": { "cve": "2841055", "nombre": "HALIME 2, 1 AL 15", "solicitante": "Gold Fields Pedernales Limitada", "region": "REGIÓN DE ATACAMA", "provincia": "Provincia de Chañaral", "comuna": null, "superficie_ha": 75.0, "datum_original": "PSAD56", "huso": 19, "epsg_origen": 24879, "tipo_publicacion": "mensura", "fuente_pdf": "http://www.diariooficial.interior.gob.cl/publicaciones/2026/07/22/44505/07/2841055.pdf", "archivo": "gm_mensura_2841055.pdf", "fecha": "22-07-2026", "edicion": "44505" }, "geometry": { "type": "Polygon", "coordinates": [ [ [ -69.067145049519397, -26.615716022302383 ], [ -69.062122454674181, -26.615718303579765 ], [ -69.062129775408422, -26.629261929777964 ], [ -69.067152962133292, -26.629259647159788 ], [ -69.067145049519397, -26.615716022302383 ] ] ] } },
{ "type": "Feature", "properties": { "cve": "2840904", "nombre": "SALVADORA VI 10 1 AL 60", "solicitante": "Compañía Minera San Lorenzo Limitada", "region": "REGIÓN DE ATACAMA", "provincia": "Provincia de Chañaral", "comuna": null, "superficie_ha": 300.0, "datum_original": "PSAD56", "huso": 19, "epsg_origen": 24879, "tipo_publicacion": "mensura", "fuente_pdf": "http://www.diariooficial.interior.gob.cl/publicaciones/2026/07/22/44505/07/2840904.pdf", "archivo": "gm_mensura_2840904.pdf", "fecha": "22-07-2026", "edicion": "44505" }, "geometry": { "type": "Polygon", "coordinates": [ [ [ -69.71350380704763, -26.365650155491171 ], [ -69.683435563039708, -26.365796783907324 ], [ -69.68348866503986, -26.374825549905182 ], [ -69.71355924483592, -26.374678863658325 ], [ -69.71350380704763, -26.365650155491171 ] ] ] } },
{ "type": "Feature", "properties": { "cve": "2840898", "nombre": "SALVADORA VI 4 1 AL 60", "solicitante": "Compañía Minera San Lorenzo Limitada", "region": "REGIÓN DE ATACAMA", "provincia": "Provincia de Chañaral", "comuna": null, "superficie_ha": 300.0, "datum_original": "PSAD56", "huso": 19, "epsg_origen": 24879, "tipo_publicacion": "mensura", "fuente_pdf": "http://www.diariooficial.interior.gob.cl/publicaciones/2026/07/22/44505/07/2840898.pdf", "archivo": "gm_mensura_2840898.pdf", "fecha": "22-07-2026", "edicion": "44505" }, "geometry": { "type": "Polygon", "coordinates": [ [ [ -69.743687389297477, -26.383554500162226 ], [ -69.733663189352583, -26.383606221951791 ], [ -69.733834417067698, -26.41069212226413 ], [ -69.743860956011986, -26.410640339297547 ], [ -69.743687389297477, -26.383554500162226 ] ] ] } },
{ "type": "Feature", "properties": { "cve": "2840899", "nombre": "SALVADORA VI 5 1 AL 60", "solicitante": "Compañía Minera San Lorenzo Limitada", "region": "REGIÓN DE ATACAMA", "provincia": "Provincia de Chañaral", "comuna": null, "superficie_ha": 300.0, "datum_original": "PSAD56", "huso": 19, "epsg_origen": 24879, "tipo_publicacion": "mensura", "fuente_pdf": "http://www.diariooficial.interior.gob.cl/publicaciones/2026/07/22/44505/07/2840899.pdf", "archivo": "gm_mensura_2840899.pdf", "fecha": "22-07-2026", "edicion": "44505" }, "geometry": { "type": "Polygon", "coordinates": [ [ [ -69.733663189352583, -26.383606221951791 ], [ -69.723638962419415, -26.383657241979073 ], [ -69.723807851107864, -26.410743202638425 ], [ -69.733834417067698, -26.41069212226413 ], [ -69.733663189352583, -26.383606221951791 ] ] ] } },
{ "type": "Feature", "properties": { "cve": "2840900", "nombre": "SALVADORA VI 6 1 AL 60", "solicitante": "Compañía Minera San Lorenzo Limitada", "region": "REGIÓN DE ATACAMA", "provincia": "Provincia de Chañaral", "comuna": null, "superficie_ha": 300.0, "datum_original": "PSAD56", "huso": 19, "epsg_origen": 24879, "tipo_publicacion": "mensura", "fuente_pdf": "http://www.diariooficial.interior.gob.cl/publicaciones/2026/07/22/44505/07/2840900.pdf", "archivo": "gm_mensura_2840900.pdf", "fecha": "22-07-2026", "edicion": "44505" }, "geometry": { "type": "Polygon", "coordinates": [ [ [ -69.723638962419415, -26.383657241979073 ], [ -69.713614708866615, -26.383707560236886 ], [ -69.713781258501498, -26.410793580413259 ], [ -69.723807851107864, -26.410743202638425 ], [ -69.723638962419415, -26.383657241979073 ] ] ] } },
{ "type": "Feature", "properties": { "cve": "2840901", "nombre": "SALVADORA VI 7 1 AL 60", "solicitante": "Compañía Minera San Lorenzo Limitada", "region": "REGIÓN DE ATACAMA", "provincia": "Provincia de Chañaral", "comuna": null, "superficie_ha": 300.0, "datum_original": "PSAD56", "huso": 19, "epsg_origen": 24879, "tipo_publicacion": "mensura", "fuente_pdf": "http://www.diariooficial.interior.gob.cl/publicaciones/2026/07/22/44505/07/2840901.pdf", "archivo": "gm_mensura_2840901.pdf", "fecha": "22-07-2026", "edicion": "44505" }, "geometry": { "type": "Polygon", "coordinates": [ [ [ -69.743860956011986, -26.410640339297547 ], [ -69.733834417067698, -26.41069212226413 ], [ -69.73400588792488, -26.437777918124883 ], [ -69.744034769189568, -26.437726073953467 ], [ -69.743860956011986, -26.410640339297547 ] ] ] } },
{ "type": "Feature", "properties": { "cve": "2840902", "nombre": "SALVADORA VI 8 1 AL 60", "solicitante": "Compañía Minera San Lorenzo Limitada", "region": "REGIÓN DE ATACAMA", "provincia": "Provincia de Chañaral", "comuna": null, "superficie_ha": 300.0, "datum_original": "PSAD56", "huso": 19, "epsg_origen": 24879, "tipo_publicacion": "mensura", "fuente_pdf": "http://www.diariooficial.interior.gob.cl/publicaciones/2026/07/22/44505/07/2840902.pdf", "archivo": "gm_mensura_2840902.pdf", "fecha": "22-07-2026", "edicion": "44505" }, "geometry": { "type": "Polygon", "coordinates": [ [ [ -69.733834417067698, -26.41069212226413 ], [ -69.723807851107864, -26.410743202638425 ], [ -69.723976979617333, -26.437829058873643 ], [ -69.73400588792488, -26.437777918124883 ], [ -69.733834417067698, -26.41069212226413 ] ] ] } },
{ "type": "Feature", "properties": { "cve": "2840903", "nombre": "SALVADORA VI 9 1 AL 60", "solicitante": "Compañía Minera San Lorenzo Limitada", "region": "REGIÓN DE ATACAMA", "provincia": "Provincia de Chañaral", "comuna": null, "superficie_ha": 281.0, "datum_original": "PSAD56", "huso": 19, "epsg_origen": 24879, "tipo_publicacion": "mensura", "fuente_pdf": "http://www.diariooficial.interior.gob.cl/publicaciones/2026/07/22/44505/07/2840903.pdf", "archivo": "gm_mensura_2840903.pdf", "fecha": "22-07-2026", "edicion": "44505" }, "geometry": { "type": "Polygon", "coordinates": [ [ [ -69.713448395492932, -26.356621435738194 ], [ -69.712446202262811, -26.356626423063013 ], [ -69.712451734457531, -26.357529295756336 ], [ -69.706438522907121, -26.357559073680594 ], [ -69.706433037395541, -26.356656199812669 ], [ -69.694406679696471, -26.356714996282538 ], [ -69.69441207184083, -26.357617872469817 ], [ -69.691405453306132, -26.357632414445344 ], [ -69.691410822362641, -26.358535291090476 ], [ -69.69040860789454, -26.358540124586526 ], [ -69.690403246619098, -26.357637247750734 ], [ -69.684390001180361, -26.35766610037485 ], [ -69.684395315769322, -26.358568978348771 ], [ -69.683393099532424, -26.3585737627734 ], [ -69.683435563039708, -26.365796783907324 ], [ -69.71350380704763, -26.365650155491171 ], [ -69.713448395492932, -26.356621435738194 ] ] ] } },
{ "type": "Feature", "properties": { "cve": "2840931", "nombre": "VALLE 4B DEL 1 AL 11", "solicitante": "Exploraciones y Explotación de Minerales SpA", "region": "REGIÓN DE VALPARAÍSO", "provincia": "Provincia de Petorca", "comuna": null, "superficie_ha": 110.0, "datum_original": "PSAD56", "huso": 19, "epsg_origen": 24879, "tipo_publicacion": "mensura", "fuente_pdf": "http://www.diariooficial.interior.gob.cl/publicaciones/2026/07/22/44505/07/2840931.pdf", "archivo": "gm_mensura_2840931.pdf", "fecha": "22-07-2026", "edicion": "44505" }, "geometry": { "type": "Polygon", "coordinates": [ [ [ -70.786968926099561, -32.329878008522741 ], [ -70.775286888408161, -32.330042940703919 ], [ -70.775462945119955, -32.339059884352899 ], [ -70.78714613983081, -32.33889489503995 ], [ -70.786968926099561, -32.329878008522741 ] ] ] } },
{ "type": "Feature", "properties": { "cve": "2840956", "nombre": "CRISTAL I", "solicitante": "Montt Rodríguez Alejandro", "region": "REGIÓN DE ARICA Y PARINACOTA", "provincia": "Provincia de Arica", "comuna": "Arica", "superficie_ha": 300.0, "datum_original": "PSAD56", "huso": 19, "epsg_origen": 24879, "tipo_publicacion": "pedimento", "fuente_pdf": "http://www.diariooficial.interior.gob.cl/publicaciones/2026/07/22/44505/07/2840956.pdf", "archivo": "gm_pedimento_2840956.pdf", "fecha": "22-07-2026", "edicion": "44505" }, "geometry": { "type": "Polygon", "coordinates": [ [ [ -69.795801833753373, -18.108429547741736 ], [ -69.767448969661586, -18.108544495022183 ], [ -69.767488323099201, -18.117582057500535 ], [ -69.795842640708784, -18.117467048977403 ], [ -69.795801833753373, -18.108429547741736 ] ] ] } },
{ "type": "Feature", "properties": { "cve": "2840958", "nombre": "CRISTAL III", "solicitante": "Montt Rodríguez Alejandro", "region": "REGIÓN DE ARICA Y PARINACOTA", "provincia": "Provincia de Arica", "comuna": "Arica", "superficie_ha": 300.0, "datum_original": "PSAD56", "huso": 19, "epsg_origen": 24879, "tipo_publicacion": "pedimento", "fuente_pdf": "http://www.diariooficial.interior.gob.cl/publicaciones/2026/07/22/44505/07/2840958.pdf", "archivo": "gm_pedimento_2840958.pdf", "fecha": "22-07-2026", "edicion": "44505" }, "geometry": { "type": "Polygon", "coordinates": [ [ [ -69.795842640708784, -18.117467048977403 ], [ -69.767488323099201, -18.117582057500535 ], [ -69.767527699556084, -18.126619611342143 ], [ -69.795883471533671, -18.126504541570284 ], [ -69.795842640708784, -18.117467048977403 ] ] ] } },
{ "type": "Feature", "properties": { "cve": "2840960", "nombre": "CRISTAL V", "solicitante": "Montt Rodríguez Alejandro", "region": "REGIÓN DE ARICA Y PARINACOTA", "provincia": "Provincia de Arica", "comuna": "Arica", "superficie_ha": 300.0, "datum_original": "PSAD56", "huso": 19, "epsg_origen": 24879, "tipo_publicacion": "pedimento", "fuente_pdf": "http://www.diariooficial.interior.gob.cl/publicaciones/2026/07/22/44505/07/2840960.pdf", "archivo": "gm_pedimento_2840960.pdf", "fecha": "22-07-2026", "edicion": "44505" }, "geometry": { "type": "Polygon", "coordinates": [ [ [ -69.767527699556084, -18.126619611342143 ], [ -69.75807572913665, -18.126657040567434 ], [ -69.758192540575706, -18.153769710014817 ], [ -69.767645967097238, -18.153732221009754 ], [ -69.767527699556084, -18.126619611342143 ] ] ] } },
{ "type": "Feature", "properties": { "cve": "2840961", "nombre": "CRISTAL VI", "solicitante": "Montt Rodríguez Alejandro", "region": "REGIÓN DE ARICA Y PARINACOTA", "provincia": "Provincia de Arica", "comuna": "Arica", "superficie_ha": 200.0, "datum_original": "PSAD56", "huso": 19, "epsg_origen": 24879, "tipo_publicacion": "pedimento", "fuente_pdf": "http://www.diariooficial.interior.gob.cl/publicaciones/2026/07/22/44505/07/2840961.pdf", "archivo": "gm_pedimento_2840961.pdf", "fecha": "22-07-2026", "edicion": "44505" }, "geometry": { "type": "Polygon", "coordinates": [ [ [ -69.767645967097238, -18.153732221009754 ], [ -69.758192540575706, -18.153769710014817 ], [ -69.758270528647031, -18.171844779738436 ], [ -69.767724927321524, -18.171807250870298 ], [ -69.767645967097238, -18.153732221009754 ] ] ] } },
{ "type": "Feature", "properties": { "cve": "2840962", "nombre": "FRONTERA I", "solicitante": "Montt Rodríguez Alejandro", "region": "REGIÓN DE ARICA Y PARINACOTA", "provincia": "Provincia de Arica", "comuna": "Arica", "superficie_ha": 300.0, "datum_original": "PSAD56", "huso": 19, "epsg_origen": 24879, "tipo_publicacion": "pedimento", "fuente_pdf": "http://www.diariooficial.interior.gob.cl/publicaciones/2026/07/22/44505/07/2840962.pdf", "archivo": "gm_pedimento_2840962.pdf", "fecha": "22-07-2026", "edicion": "44505" }, "geometry": { "type": "Polygon", "coordinates": [ [ [ -69.767724927321524, -18.171807250870298 ], [ -69.758270528647031, -18.171844779738436 ], [ -69.75838768153028, -18.198957319388306 ], [ -69.767843540562836, -18.19891973071071 ], [ -69.767724927321524, -18.171807250870298 ] ] ] } },
{ "type": "Feature", "properties": { "cve": "2840963", "nombre": "FRONTERA II", "solicitante": "Montt Rodríguez Alejandro", "region": "REGIÓN DE ARICA Y PARINACOTA", "provincia": "Provincia de Arica", "comuna": "Arica", "superficie_ha": 300.0, "datum_original": "PSAD56", "huso": 19, "epsg_origen": 24879, "tipo_publicacion": "pedimento", "fuente_pdf": "http://www.diariooficial.interior.gob.cl/publicaciones/2026/07/22/44505/07/2840963.pdf", "archivo": "gm_pedimento_2840963.pdf", "fecha": "22-07-2026", "edicion": "44505" }, "geometry": { "type": "Polygon", "coordinates": [ [ [ -69.767843540562836, -18.19891973071071 ], [ -69.75838768153028, -18.198957319388306 ], [ -69.758505039475295, -18.226069781027217 ], [ -69.767962361421937, -18.226032132522324 ], [ -69.767843540562836, -18.19891973071071 ] ] ] } },
{ "type": "Feature", "properties": { "cve": "2840964", "nombre": "OLIVIA I", "solicitante": "Montt Rodríguez Alejandro", "region": "REGIÓN DE ARICA Y PARINACOTA", "provincia": "Provincia de Arica", "comuna": "Arica", "superficie_ha": 300.0, "datum_original": "PSAD56", "huso": 19, "epsg_origen": 24879, "tipo_publicacion": "pedimento", "fuente_pdf": "http://www.diariooficial.interior.gob.cl/publicaciones/2026/07/22/44505/07/2840964.pdf", "archivo": "gm_pedimento_2840964.pdf", "fecha": "22-07-2026", "edicion": "44505" }, "geometry": { "type": "Polygon", "coordinates": [ [ [ -69.805129011610731, -18.081277812804139 ], [ -69.795679556047233, -18.081316992214898 ], [ -69.795801833753373, -18.108429547741736 ], [ -69.805252741101356, -18.108390305620087 ], [ -69.805129011610731, -18.081277812804139 ] ] ] } },
{ "type": "Feature", "properties": { "cve": "2840965", "nombre": "OLIVIA II", "solicitante": "Montt Rodríguez Alejandro", "region": "REGIÓN DE ARICA Y PARINACOTA", "provincia": "Provincia de Arica", "comuna": "Arica", "superficie_ha": 300.0, "datum_original": "PSAD56", "huso": 19, "epsg_origen": 24879, "tipo_publicacion": "pedimento", "fuente_pdf": "http://www.diariooficial.interior.gob.cl/publicaciones/2026/07/22/44505/07/2840965.pdf", "archivo": "gm_pedimento_2840965.pdf", "fecha": "22-07-2026", "edicion": "44505" }, "geometry": { "type": "Polygon", "coordinates": [ [ [ -69.795720291428253, -18.090354519356794 ], [ -69.767370331822463, -18.090469344170067 ], [ -69.767409639237854, -18.099506923910809 ], [ -69.795761050661753, -18.099392037866973 ], [ -69.795720291428253, -18.090354519356794 ] ] ] } },
{ "type": "Feature", "properties": { "cve": "2840966", "nombre": "OLIVIA III", "solicitante": "Montt Rodríguez Alejandro", "region": "REGIÓN DE ARICA Y PARINACOTA", "provincia": "Provincia de Arica", "comuna": "Arica", "superficie_ha": 300.0, "datum_original": "PSAD56", "huso": 19, "epsg_origen": 24879, "tipo_publicacion": "pedimento", "fuente_pdf": "http://www.diariooficial.interior.gob.cl/publicaciones/2026/07/22/44505/07/2840966.pdf", "archivo": "gm_pedimento_2840966.pdf", "fecha": "22-07-2026", "edicion": "44505" }, "geometry": { "type": "Polygon", "coordinates": [ [ [ -69.795761050661753, -18.099392037866973 ], [ -69.767409639237854, -18.099506923910809 ], [ -69.767448969661586, -18.108544495022183 ], [ -69.795801833753373, -18.108429547741736 ], [ -69.795761050661753, -18.099392037866973 ] ] ] } },
{ "type": "Feature", "properties": { "cve": "2840967", "nombre": "OLIVIA IV", "solicitante": "Montt Rodríguez Alejandro", "region": "REGIÓN DE ARICA Y PARINACOTA", "provincia": "Provincia de Arica", "comuna": "Arica", "superficie_ha": 200.0, "datum_original": "PSAD56", "huso": 19, "epsg_origen": 24879, "tipo_publicacion": "pedimento", "fuente_pdf": "http://www.diariooficial.interior.gob.cl/publicaciones/2026/07/22/44505/07/2840967.pdf", "archivo": "gm_pedimento_2840967.pdf", "fecha": "22-07-2026", "edicion": "44505" }, "geometry": { "type": "Polygon", "coordinates": [ [ [ -69.786431571038051, -18.126543361838589 ], [ -69.767527699556084, -18.126619611342143 ], [ -69.767567099037748, -18.135657156543338 ], [ -69.786471940670864, -18.13558086645007 ], [ -69.786431571038051, -18.126543361838589 ] ] ] } },
{ "type": "Feature", "properties": { "cve": "2840968", "nombre": "OLIVIA V", "solicitante": "Montt Rodríguez Alejandro", "region": "REGIÓN DE ARICA Y PARINACOTA", "provincia": "Provincia de Arica", "comuna": "Arica", "superficie_ha": 300.0, "datum_original": "PSAD56", "huso": 19, "epsg_origen": 24879, "tipo_publicacion": "pedimento", "fuente_pdf": "http://www.diariooficial.interior.gob.cl/publicaciones/2026/07/22/44505/07/2840968.pdf", "archivo": "gm_pedimento_2840968.pdf", "fecha": "22-07-2026", "edicion": "44505" }, "geometry": { "type": "Polygon", "coordinates": [ [ [ -69.777019531511044, -18.135619243460628 ], [ -69.767567099037748, -18.135657156543338 ], [ -69.767685435686047, -18.162769740267599 ], [ -69.777139325095789, -18.162731766658556 ], [ -69.777019531511044, -18.135619243460628 ] ] ] } },
{ "type": "Feature", "properties": { "cve": "2840957", "nombre": "CRISTAL II", "solicitante": "Montt Rodríguez Alejandro", "region": "REGIÓN DE ARICA Y PARINACOTA", "provincia": "Provincia de Parinacota", "comuna": "General Lagos", "superficie_ha": 300.0, "datum_original": "PSAD56", "huso": 19, "epsg_origen": 24879, "tipo_publicacion": "pedimento", "fuente_pdf": "http://www.diariooficial.interior.gob.cl/publicaciones/2026/07/22/44505/07/2840957.pdf", "archivo": "gm_pedimento_2840957.pdf", "fecha": "22-07-2026", "edicion": "44505" }, "geometry": { "type": "Polygon", "coordinates": [ [ [ -69.767448969661586, -18.108544495022183 ], [ -69.739095898447871, -18.108655273571348 ], [ -69.739133798318463, -18.117692895071382 ], [ -69.767488323099201, -18.117582057500535 ], [ -69.767448969661586, -18.108544495022183 ] ] ] } },
{ "type": "Feature", "properties": { "cve": "2840959", "nombre": "CRISTAL IV", "solicitante": "Montt Rodríguez Alejandro", "region": "REGIÓN DE ARICA Y PARINACOTA", "provincia": "Provincia de Parinacota", "comuna": "General Lagos", "superficie_ha": 300.0, "datum_original": "PSAD56", "huso": 19, "epsg_origen": 24879, "tipo_publicacion": "pedimento", "fuente_pdf": "http://www.diariooficial.interior.gob.cl/publicaciones/2026/07/22/44505/07/2840959.pdf", "archivo": "gm_pedimento_2840959.pdf", "fecha": "22-07-2026", "edicion": "44505" }, "geometry": { "type": "Polygon", "coordinates": [ [ [ -69.767488323099201, -18.117582057500535 ], [ -69.739133798318463, -18.117692895071382 ], [ -69.739171720358158, -18.126730507940518 ], [ -69.767527699556084, -18.126619611342143 ], [ -69.767488323099201, -18.117582057500535 ] ] ] } },
{ "type": "Feature", "properties": { "cve": "2840906", "nombre": "VALENTINA 14", "solicitante": "Saavedra Rojas Carlos Álvaro", "region": "REGIÓN DE TARAPACÁ", "provincia": "Provincia del Tamarugal", "comuna": "Pozo Almonte", "superficie_ha": 300.0, "datum_original": "PSAD56", "huso": 19, "epsg_origen": 24879, "tipo_publicacion": "pedimento", "fuente_pdf": "http://www.diariooficial.interior.gob.cl/publicaciones/2026/07/22/44505/07/2840906.pdf", "archivo": "gm_pedimento_2840906.pdf", "fecha": "22-07-2026", "edicion": "44505" }, "geometry": { "type": "Polygon", "coordinates": [ [ [ -69.521821146433737, -21.543358455423451 ], [ -69.512164238271055, -21.543388386616112 ], [ -69.512259394670096, -21.57049230720936 ], [ -69.521918096819618, -21.570462334679423 ], [ -69.521821146433737, -21.543358455423451 ] ] ] } },
{ "type": "Feature", "properties": { "cve": "2840986", "nombre": "CASILLA 10", "solicitante": "Olcay Montti Luis Gonzalo", "region": "REGIÓN DE ATACAMA", "provincia": "Provincia de Copiapó", "comuna": null, "superficie_ha": 300.0, "datum_original": "PSAD56", "huso": 19, "epsg_origen": 24879, "tipo_publicacion": "pedimento", "fuente_pdf": "http://www.diariooficial.interior.gob.cl/publicaciones/2026/07/22/44505/07/2840986.pdf", "archivo": "gm_pedimento_2840986.pdf", "fecha": "22-07-2026", "edicion": "44505" }, "geometry": { "type": "Polygon", "coordinates": [ [ [ -69.809966767018466, -28.612969702566705 ], [ -69.799738710088675, -28.613030415632959 ], [ -69.799943945850146, -28.640107147103219 ], [ -69.810174626895801, -28.640046366092452 ], [ -69.809966767018466, -28.612969702566705 ] ] ] } },
{ "type": "Feature", "properties": { "cve": "2840987", "nombre": "CASILLA 11", "solicitante": "Olcay Montti Luis Gonzalo", "region": "REGIÓN DE ATACAMA", "provincia": "Provincia de Copiapó", "comuna": null, "superficie_ha": 300.0, "datum_original": "PSAD56", "huso": 19, "epsg_origen": 24879, "tipo_publicacion": "pedimento", "fuente_pdf": "http://www.diariooficial.interior.gob.cl/publicaciones/2026/07/22/44505/07/2840987.pdf", "archivo": "gm_pedimento_2840987.pdf", "fecha": "22-07-2026", "edicion": "44505" }, "geometry": { "type": "Polygon", "coordinates": [ [ [ -69.799738710088675, -28.613030415632959 ], [ -69.789510621727487, -28.613090357321838 ], [ -69.789713233338844, -28.640167155873456 ], [ -69.799943945850146, -28.640107147103219 ], [ -69.799738710088675, -28.613030415632959 ] ] ] } },
{ "type": "Feature", "properties": { "cve": "2840984", "nombre": "CASILLA 8", "solicitante": "Olcay Montti Luis Gonzalo", "region": "REGIÓN DE ATACAMA", "provincia": "Provincia de Copiapó", "comuna": null, "superficie_ha": 300.0, "datum_original": "PSAD56", "huso": 19, "epsg_origen": 24879, "tipo_publicacion": "pedimento", "fuente_pdf": "http://www.diariooficial.interior.gob.cl/publicaciones/2026/07/22/44505/07/2840984.pdf", "archivo": "gm_pedimento_2840984.pdf", "fecha": "22-07-2026", "edicion": "44505" }, "geometry": { "type": "Polygon", "coordinates": [ [ [ -69.830422784976548, -28.612845962337275 ], [ -69.820194792115032, -28.612908218131846 ], [ -69.820405276073558, -28.639984812849896 ], [ -69.830635892981164, -28.639922487384478 ], [ -69.830422784976548, -28.612845962337275 ] ] ] } },
{ "type": "Feature", "properties": { "cve": "2840985", "nombre": "CASILLA 9", "solicitante": "Olcay Montti Luis Gonzalo", "region": "REGIÓN DE ATACAMA", "provincia": "Provincia de Copiapó", "comuna": null, "superficie_ha": 300.0, "datum_original": "PSAD56", "huso": 19, "epsg_origen": 24879, "tipo_publicacion": "pedimento", "fuente_pdf": "http://www.diariooficial.interior.gob.cl/publicaciones/2026/07/22/44505/07/2840985.pdf", "archivo": "gm_pedimento_2840985.pdf", "fecha": "22-07-2026", "edicion": "44505" }, "geometry": { "type": "Polygon", "coordinates": [ [ [ -69.820194792115032, -28.612908218131846 ], [ -69.809966767018466, -28.612969702566705 ], [ -69.810174626895801, -28.640046366092452 ], [ -69.820405276073558, -28.639984812849896 ], [ -69.820194792115032, -28.612908218131846 ] ] ] } },
{ "type": "Feature", "properties": { "cve": "2840794", "nombre": "IMPERIO 10", "solicitante": "Navea Dantagnan Carlos Enrique", "region": "REGIÓN DE ATACAMA", "provincia": "Provincia de Copiapó", "comuna": "Copiapó", "superficie_ha": 200.0, "datum_original": "WGS84", "huso": 19, "epsg_origen": 32719, "tipo_publicacion": "pedimento", "fuente_pdf": "http://www.diariooficial.interior.gob.cl/publicaciones/2026/07/22/44505/07/2840794.pdf", "archivo": "gm_pedimento_2840794.pdf", "fecha": "22-07-2026", "edicion": "44505" }, "geometry": { "type": "Polygon", "coordinates": [ [ [ -68.957230007581458, -26.824518411652949 ], [ -68.937102960528961, -26.824510897603073 ], [ -68.937097974141494, -26.833539706296506 ], [ -68.957226616836067, -26.833547223274177 ], [ -68.957230007581458, -26.824518411652949 ] ] ] } },
{ "type": "Feature", "properties": { "cve": "2840795", "nombre": "IMPERIO 11", "solicitante": "Navea Dantagnan Carlos Enrique", "region": "REGIÓN DE ATACAMA", "provincia": "Provincia de Copiapó", "comuna": "Copiapó", "superficie_ha": 300.0, "datum_original": "WGS84", "huso": 19, "epsg_origen": 32719, "tipo_publicacion": "pedimento", "fuente_pdf": "http://www.diariooficial.interior.gob.cl/publicaciones/2026/07/22/44505/07/2840795.pdf", "archivo": "gm_pedimento_2840795.pdf", "fecha": "22-07-2026", "edicion": "44505" }, "geometry": { "type": "Polygon", "coordinates": [ [ [ -68.957226616836067, -26.833547223274177 ], [ -68.927033656123527, -26.833534873955685 ], [ -68.927027869196422, -26.8425636692407 ], [ -68.95722322449636, -26.842576023369887 ], [ -68.957226616836067, -26.833547223274177 ] ] ] } },
{ "type": "Feature", "properties": { "cve": "2840796", "nombre": "IMPERIO 12", "solicitante": "Navea Dantagnan Carlos Enrique", "region": "REGIÓN DE ATACAMA", "provincia": "Provincia de Copiapó", "comuna": "Copiapó", "superficie_ha": 300.0, "datum_original": "WGS84", "huso": 19, "epsg_origen": 32719, "tipo_publicacion": "pedimento", "fuente_pdf": "http://www.diariooficial.interior.gob.cl/publicaciones/2026/07/22/44505/07/2840796.pdf", "archivo": "gm_pedimento_2840796.pdf", "fecha": "22-07-2026", "edicion": "44505" }, "geometry": { "type": "Polygon", "coordinates": [ [ [ -68.95722322449636, -26.842576023369887 ], [ -68.927027869196422, -26.8425636692407 ], [ -68.927022079548649, -26.851592452996808 ], [ -68.957219830561769, -26.851604811937438 ], [ -68.95722322449636, -26.842576023369887 ] ] ] } },
{ "type": "Feature", "properties": { "cve": "2840797", "nombre": "IMPERIO 13", "solicitante": "Navea Dantagnan Carlos Enrique", "region": "REGIÓN DE ATACAMA", "provincia": "Provincia de Copiapó", "comuna": "Copiapó", "superficie_ha": 300.0, "datum_original": "WGS84", "huso": 19, "epsg_origen": 32719, "tipo_publicacion": "pedimento", "fuente_pdf": "http://www.diariooficial.interior.gob.cl/publicaciones/2026/07/22/44505/07/2840797.pdf", "archivo": "gm_pedimento_2840797.pdf", "fecha": "22-07-2026", "edicion": "44505" }, "geometry": { "type": "Polygon", "coordinates": [ [ [ -68.957219830561769, -26.851604811937438 ], [ -68.927022079548649, -26.851592452996808 ], [ -68.927016287179299, -26.860621225221358 ], [ -68.957216435031768, -26.860633588974157 ], [ -68.957219830561769, -26.851604811937438 ] ] ] } },
{ "type": "Feature", "properties": { "cve": "2840798", "nombre": "IMPERIO 14", "solicitante": "Navea Dantagnan Carlos Enrique", "region": "REGIÓN DE ATACAMA", "provincia": "Provincia de Copiapó", "comuna": "Copiapó", "superficie_ha": 200.0, "datum_original": "WGS84", "huso": 19, "epsg_origen": 32719, "tipo_publicacion": "pedimento", "fuente_pdf": "http://www.diariooficial.interior.gob.cl/publicaciones/2026/07/22/44505/07/2840798.pdf", "archivo": "gm_pedimento_2840798.pdf", "fecha": "22-07-2026", "edicion": "44505" }, "geometry": { "type": "Polygon", "coordinates": [ [ [ -68.949666396326009, -26.860631102783923 ], [ -68.939599679721937, -26.860627160717371 ], [ -68.939590085587582, -26.87868467518263 ], [ -68.949658401211693, -26.878688620318538 ], [ -68.949666396326009, -26.860631102783923 ] ] ] } },
{ "type": "Feature", "properties": { "cve": "2840799", "nombre": "IMPERIO 15", "solicitante": "Navea Dantagnan Carlos Enrique", "region": "REGIÓN DE ATACAMA", "provincia": "Provincia de Copiapó", "comuna": "Copiapó", "superficie_ha": 300.0, "datum_original": "WGS84", "huso": 19, "epsg_origen": 32719, "tipo_publicacion": "pedimento", "fuente_pdf": "http://www.diariooficial.interior.gob.cl/publicaciones/2026/07/22/44505/07/2840799.pdf", "archivo": "gm_pedimento_2840799.pdf", "fecha": "22-07-2026", "edicion": "44505" }, "geometry": { "type": "Polygon", "coordinates": [ [ [ -68.939599679721937, -26.860627160717371 ], [ -68.929532965370981, -26.860622501912754 ], [ -68.929516171696505, -26.887708750861705 ], [ -68.93958528513879, -26.887713415107857 ], [ -68.939599679721937, -26.860627160717371 ] ] ] } },
{ "type": "Feature", "properties": { "cve": "2840800", "nombre": "IMPERIO 16", "solicitante": "Navea Dantagnan Carlos Enrique", "region": "REGIÓN DE ATACAMA", "provincia": "Provincia de Copiapó", "comuna": "Copiapó", "superficie_ha": 300.0, "datum_original": "WGS84", "huso": 19, "epsg_origen": 32719, "tipo_publicacion": "pedimento", "fuente_pdf": "http://www.diariooficial.interior.gob.cl/publicaciones/2026/07/22/44505/07/2840800.pdf", "archivo": "gm_pedimento_2840800.pdf", "fecha": "22-07-2026", "edicion": "44505" }, "geometry": { "type": "Polygon", "coordinates": [ [ [ -68.967277957848893, -26.878693798310973 ], [ -68.937073007019151, -26.878683576821107 ], [ -68.937068006552082, -26.887712316318975 ], [ -68.967275357604024, -26.887722541785955 ], [ -68.967277957848893, -26.878693798310973 ] ] ] } },
{ "type": "Feature", "properties": { "cve": "2840801", "nombre": "IMPERIO 17", "solicitante": "Navea Dantagnan Carlos Enrique", "region": "REGIÓN DE ATACAMA", "provincia": "Provincia de Copiapó", "comuna": "Copiapó", "superficie_ha": 300.0, "datum_original": "WGS84", "huso": 19, "epsg_origen": 32719, "tipo_publicacion": "pedimento", "fuente_pdf": "http://www.diariooficial.interior.gob.cl/publicaciones/2026/07/22/44505/07/2840801.pdf", "archivo": "gm_pedimento_2840801.pdf", "fecha": "22-07-2026", "edicion": "44505" }, "geometry": { "type": "Polygon", "coordinates": [ [ [ -68.967275357604024, -26.887722541785955 ], [ -68.937068006552082, -26.887712316318975 ], [ -68.937063003735588, -26.896741044274968 ], [ -68.967272756137461, -26.896751273719691 ], [ -68.967275357604024, -26.887722541785955 ] ] ] } },
{ "type": "Feature", "properties": { "cve": "2840802", "nombre": "IMPERIO 18", "solicitante": "Navea Dantagnan Carlos Enrique", "region": "REGIÓN DE ATACAMA", "provincia": "Provincia de Copiapó", "comuna": "Copiapó", "superficie_ha": 300.0, "datum_original": "WGS84", "huso": 19, "epsg_origen": 32719, "tipo_publicacion": "pedimento", "fuente_pdf": "http://www.diariooficial.interior.gob.cl/publicaciones/2026/07/22/44505/07/2840802.pdf", "archivo": "gm_pedimento_2840802.pdf", "fecha": "22-07-2026", "edicion": "44505" }, "geometry": { "type": "Polygon", "coordinates": [ [ [ -68.959720316609236, -26.896749322048787 ], [ -68.949650398581809, -26.896746091697491 ], [ -68.949638380534068, -26.923832212177789 ], [ -68.959710702168721, -26.923835446298639 ], [ -68.959720316609236, -26.896749322048787 ] ] ] } },
{ "type": "Feature", "properties": { "cve": "2840816", "nombre": "IMPERIO 19", "solicitante": "Navea Dantagnan Carlos Enrique", "region": "REGIÓN DE ATACAMA", "provincia": "Provincia de Copiapó", "comuna": "Copiapó", "superficie_ha": 300.0, "datum_original": "WGS84", "huso": 19, "epsg_origen": 32719, "tipo_publicacion": "pedimento", "fuente_pdf": "http://www.diariooficial.interior.gob.cl/publicaciones/2026/07/22/44505/07/2840816.pdf", "archivo": "gm_pedimento_2840816.pdf", "fecha": "22-07-2026", "edicion": "44505" }, "geometry": { "type": "Polygon", "coordinates": [ [ [ -68.949650398581809, -26.896746091697491 ], [ -68.93958048243455, -26.896742143491284 ], [ -68.93956606078153, -26.923828259364353 ], [ -68.949638380534068, -26.923832212177789 ], [ -68.949650398581809, -26.896746091697491 ] ] ] } },
{ "type": "Feature", "properties": { "cve": "2840803", "nombre": "IMPERIO 20", "solicitante": "Navea Dantagnan Carlos Enrique", "region": "REGIÓN DE ATACAMA", "provincia": "Provincia de Copiapó", "comuna": "Copiapó", "superficie_ha": 300.0, "datum_original": "WGS84", "huso": 19, "epsg_origen": 32719, "tipo_publicacion": "pedimento", "fuente_pdf": "http://www.diariooficial.interior.gob.cl/publicaciones/2026/07/22/44505/07/2840803.pdf", "archivo": "gm_pedimento_2840803.pdf", "fecha": "22-07-2026", "edicion": "44505" }, "geometry": { "type": "Polygon", "coordinates": [ [ [ -68.939575677474124, -26.905770860330279 ], [ -68.909363541602247, -26.905754702306687 ], [ -68.909356330784817, -26.914783401316004 ], [ -68.939570870256716, -26.914799565622179 ], [ -68.939575677474124, -26.905770860330279 ] ] ] } },
{ "type": "Feature", "properties": { "cve": "2840804", "nombre": "IMPERIO 21", "solicitante": "Navea Dantagnan Carlos Enrique", "region": "REGIÓN DE ATACAMA", "provincia": "Provincia de Copiapó", "comuna": "Copiapó", "superficie_ha": 300.0, "datum_original": "WGS84", "huso": 19, "epsg_origen": 32719, "tipo_publicacion": "pedimento", "fuente_pdf": "http://www.diariooficial.interior.gob.cl/publicaciones/2026/07/22/44505/07/2840804.pdf", "archivo": "gm_pedimento_2840804.pdf", "fecha": "22-07-2026", "edicion": "44505" }, "geometry": { "type": "Polygon", "coordinates": [ [ [ -68.939570870256716, -26.914799565622179 ], [ -68.909356330784817, -26.914783401316004 ], [ -68.909349116580771, -26.923812088774621 ], [ -68.93956606078153, -26.923828259364353 ], [ -68.939570870256716, -26.914799565622179 ] ] ] } },
{ "type": "Feature", "properties": { "cve": "2840805", "nombre": "IMPERIO 22", "solicitante": "Navea Dantagnan Carlos Enrique", "region": "REGIÓN DE ATACAMA", "provincia": "Provincia de Copiapó", "comuna": "Copiapó", "superficie_ha": 300.0, "datum_original": "WGS84", "huso": 19, "epsg_origen": 32719, "tipo_publicacion": "pedimento", "fuente_pdf": "http://www.diariooficial.interior.gob.cl/publicaciones/2026/07/22/44505/07/2840805.pdf", "archivo": "gm_pedimento_2840805.pdf", "fecha": "22-07-2026", "edicion": "44505" }, "geometry": { "type": "Polygon", "coordinates": [ [ [ -68.957192621604193, -26.923834705145886 ], [ -68.92697566431103, -26.923822307686965 ], [ -68.926969850135379, -26.932850987563722 ], [ -68.957189213291187, -26.932863389840783 ], [ -68.957192621604193, -26.923834705145886 ] ] ] } },
{ "type": "Feature", "properties": { "cve": "2840806", "nombre": "IMPERIO 23", "solicitante": "Navea Dantagnan Carlos Enrique", "region": "REGIÓN DE ATACAMA", "provincia": "Provincia de Copiapó", "comuna": "Copiapó", "superficie_ha": 300.0, "datum_original": "WGS84", "huso": 19, "epsg_origen": 32719, "tipo_publicacion": "pedimento", "fuente_pdf": "http://www.diariooficial.interior.gob.cl/publicaciones/2026/07/22/44505/07/2840806.pdf", "archivo": "gm_pedimento_2840806.pdf", "fecha": "22-07-2026", "edicion": "44505" }, "geometry": { "type": "Polygon", "coordinates": [ [ [ -68.957189213291187, -26.932863389840783 ], [ -68.926969850135379, -26.932850987563722 ], [ -68.926964033229751, -26.941879655885106 ], [ -68.95718580337784, -26.941892062981054 ], [ -68.957189213291187, -26.932863389840783 ] ] ] } },
{ "type": "Feature", "properties": { "cve": "2840807", "nombre": "IMPERIO 24", "solicitante": "Navea Dantagnan Carlos Enrique", "region": "REGIÓN DE ATACAMA", "provincia": "Provincia de Copiapó", "comuna": "Copiapó", "superficie_ha": 300.0, "datum_original": "WGS84", "huso": 19, "epsg_origen": 32719, "tipo_publicacion": "pedimento", "fuente_pdf": "http://www.diariooficial.interior.gob.cl/publicaciones/2026/07/22/44505/07/2840807.pdf", "archivo": "gm_pedimento_2840807.pdf", "fecha": "22-07-2026", "edicion": "44505" }, "geometry": { "type": "Polygon", "coordinates": [ [ [ -68.95718580337784, -26.941892062981054 ], [ -68.926964033229751, -26.941879655885106 ], [ -68.926958213593181, -26.95090831264848 ], [ -68.957182391863583, -26.950920724564071 ], [ -68.95718580337784, -26.941892062981054 ] ] ] } },
{ "type": "Feature", "properties": { "cve": "2840808", "nombre": "IMPERIO 25", "solicitante": "Navea Dantagnan Carlos Enrique", "region": "REGIÓN DE ATACAMA", "provincia": "Provincia de Copiapó", "comuna": "Copiapó", "superficie_ha": 300.0, "datum_original": "WGS84", "huso": 19, "epsg_origen": 32719, "tipo_publicacion": "pedimento", "fuente_pdf": "http://www.diariooficial.interior.gob.cl/publicaciones/2026/07/22/44505/07/2840808.pdf", "archivo": "gm_pedimento_2840808.pdf", "fecha": "22-07-2026", "edicion": "44505" }, "geometry": { "type": "Polygon", "coordinates": [ [ [ -68.929493743287523, -26.923823587858887 ], [ -68.919421428428464, -26.923818197662062 ], [ -68.919402172469859, -26.950904197830869 ], [ -68.929476894316963, -26.950909594313213 ], [ -68.929493743287523, -26.923823587858887 ] ] ] } },
{ "type": "Feature", "properties": { "cve": "2840809", "nombre": "IMPERIO 26", "solicitante": "Navea Dantagnan Carlos Enrique", "region": "REGIÓN DE ATACAMA", "provincia": "Provincia de Copiapó", "comuna": "Copiapó", "superficie_ha": 300.0, "datum_original": "WGS84", "huso": 19, "epsg_origen": 32719, "tipo_publicacion": "pedimento", "fuente_pdf": "http://www.diariooficial.interior.gob.cl/publicaciones/2026/07/22/44505/07/2840809.pdf", "archivo": "gm_pedimento_2840809.pdf", "fecha": "22-07-2026", "edicion": "44505" }, "geometry": { "type": "Polygon", "coordinates": [ [ [ -68.919421428428464, -26.923818197662062 ], [ -68.909349116580771, -26.923812088774621 ], [ -68.909327453637232, -26.950898081819865 ], [ -68.919402172469859, -26.950904197830869 ], [ -68.919421428428464, -26.923818197662062 ] ] ] } },
{ "type": "Feature", "properties": { "cve": "2840810", "nombre": "IMPERIO 27", "solicitante": "Navea Dantagnan Carlos Enrique", "region": "REGIÓN DE ATACAMA", "provincia": "Provincia de Copiapó", "comuna": "Copiapó", "superficie_ha": 300.0, "datum_original": "WGS84", "huso": 19, "epsg_origen": 32719, "tipo_publicacion": "pedimento", "fuente_pdf": "http://www.diariooficial.interior.gob.cl/publicaciones/2026/07/22/44505/07/2840810.pdf", "archivo": "gm_pedimento_2840810.pdf", "fecha": "22-07-2026", "edicion": "44505" }, "geometry": { "type": "Polygon", "coordinates": [ [ [ -68.959701074177019, -26.950921466581086 ], [ -68.949626345547358, -26.950918228688931 ], [ -68.949614293604199, -26.978004141159651 ], [ -68.959691432620176, -26.97800738282487 ], [ -68.959701074177019, -26.950921466581086 ] ] ] } },
{ "type": "Feature", "properties": { "cve": "2840811", "nombre": "IMPERIO 28", "solicitante": "Navea Dantagnan Carlos Enrique", "region": "REGIÓN DE ATACAMA", "provincia": "Provincia de Copiapó", "comuna": "Copiapó", "superficie_ha": 300.0, "datum_original": "WGS84", "huso": 19, "epsg_origen": 32719, "tipo_publicacion": "pedimento", "fuente_pdf": "http://www.diariooficial.interior.gob.cl/publicaciones/2026/07/22/44505/07/2840811.pdf", "archivo": "gm_pedimento_2840811.pdf", "fecha": "22-07-2026", "edicion": "44505" }, "geometry": { "type": "Polygon", "coordinates": [ [ [ -68.949626345547358, -26.950918228688931 ], [ -68.93955161880173, -26.950914271266118 ], [ -68.939537156474216, -26.97800017912531 ], [ -68.949614293604199, -26.978004141159651 ], [ -68.949626345547358, -26.950918228688931 ] ] ] } },
{ "type": "Feature", "properties": { "cve": "2840812", "nombre": "IMPERIO 29", "solicitante": "Navea Dantagnan Carlos Enrique", "region": "REGIÓN DE ATACAMA", "provincia": "Provincia de Copiapó", "comuna": "Copiapó", "superficie_ha": 300.0, "datum_original": "WGS84", "huso": 19, "epsg_origen": 32719, "tipo_publicacion": "pedimento", "fuente_pdf": "http://www.diariooficial.interior.gob.cl/publicaciones/2026/07/22/44505/07/2840812.pdf", "archivo": "gm_pedimento_2840812.pdf", "fecha": "22-07-2026", "edicion": "44505" }, "geometry": { "type": "Polygon", "coordinates": [ [ [ -68.93955161880173, -26.950914271266118 ], [ -68.929476894316963, -26.950909594313213 ], [ -68.929460021607426, -26.977995496722428 ], [ -68.939537156474216, -26.97800017912531 ], [ -68.93955161880173, -26.950914271266118 ] ] ] } },
{ "type": "Feature", "properties": { "cve": "2840813", "nombre": "IMPERIO 30", "solicitante": "Navea Dantagnan Carlos Enrique", "region": "REGIÓN DE ATACAMA", "provincia": "Provincia de Copiapó", "comuna": "Copiapó", "superficie_ha": 300.0, "datum_original": "WGS84", "huso": 19, "epsg_origen": 32719, "tipo_publicacion": "pedimento", "fuente_pdf": "http://www.diariooficial.interior.gob.cl/publicaciones/2026/07/22/44505/07/2840813.pdf", "archivo": "gm_pedimento_2840813.pdf", "fecha": "22-07-2026", "edicion": "44505" }, "geometry": { "type": "Polygon", "coordinates": [ [ [ -68.929476894316963, -26.950909594313213 ], [ -68.919402172469859, -26.950904197830869 ], [ -68.919382889381012, -26.977990093951657 ], [ -68.929460021607426, -26.977995496722428 ], [ -68.929476894316963, -26.950909594313213 ] ] ] } },
{ "type": "Feature", "properties": { "cve": "2840814", "nombre": "IMPERIO 31", "solicitante": "Navea Dantagnan Carlos Enrique", "region": "REGIÓN DE ATACAMA", "provincia": "Provincia de Copiapó", "comuna": "Copiapó", "superficie_ha": 300.0, "datum_original": "WGS84", "huso": 19, "epsg_origen": 32719, "tipo_publicacion": "pedimento", "fuente_pdf": "http://www.diariooficial.interior.gob.cl/publicaciones/2026/07/22/44505/07/2840814.pdf", "archivo": "gm_pedimento_2840814.pdf", "fecha": "22-07-2026", "edicion": "44505" }, "geometry": { "type": "Polygon", "coordinates": [ [ [ -68.919402172469859, -26.950904197830869 ], [ -68.909327453637232, -26.950898081819865 ], [ -68.909305760172174, -26.977983970813757 ], [ -68.919382889381012, -26.977990093951657 ], [ -68.919402172469859, -26.950904197830869 ] ] ] } },
{ "type": "Feature", "properties": { "cve": "2840815", "nombre": "IMPERIO 32", "solicitante": "Navea Dantagnan Carlos Enrique", "region": "REGIÓN DE ATACAMA", "provincia": "Provincia de Copiapó", "comuna": "Copiapó", "superficie_ha": 300.0, "datum_original": "WGS84", "huso": 19, "epsg_origen": 32719, "tipo_publicacion": "pedimento", "fuente_pdf": "http://www.diariooficial.interior.gob.cl/publicaciones/2026/07/22/44505/07/2840815.pdf", "archivo": "gm_pedimento_2840815.pdf", "fecha": "22-07-2026", "edicion": "44505" }, "geometry": { "type": "Polygon", "coordinates": [ [ [ -68.949614293604199, -26.978004141159651 ], [ -68.919382889381012, -26.977990093951657 ], [ -68.919376455650962, -26.987018702857835 ], [ -68.949610272518697, -26.987032755517497 ], [ -68.949614293604199, -26.978004141159651 ] ] ] } },
{ "type": "Feature", "properties": { "cve": "2840817", "nombre": "LOS MELLIZOS 1", "solicitante": "Villar García Rodolfo Francisco", "region": "REGIÓN DE ATACAMA", "provincia": "Provincia de Copiapó", "comuna": null, "superficie_ha": 300.0, "datum_original": "WGS84", "huso": 19, "epsg_origen": 32719, "tipo_publicacion": "pedimento", "fuente_pdf": "http://www.diariooficial.interior.gob.cl/publicaciones/2026/07/22/44505/07/2840817.pdf", "archivo": "gm_pedimento_2840817.pdf", "fecha": "22-07-2026", "edicion": "44505" }, "geometry": { "type": "Polygon", "coordinates": [ [ [ -69.815952122924699, -28.30626681709936 ], [ -69.805753552903795, -28.306327391791068 ], [ -69.805957735403297, -28.333405330015523 ], [ -69.81615888910467, -28.333344687055881 ], [ -69.815952122924699, -28.30626681709936 ] ] ] } },
{ "type": "Feature", "properties": { "cve": "2840818", "nombre": "LOS MELLIZOS 2", "solicitante": "Villar García Rodolfo Francisco", "region": "REGIÓN DE ATACAMA", "provincia": "Provincia de Copiapó", "comuna": null, "superficie_ha": 300.0, "datum_original": "WGS84", "huso": 19, "epsg_origen": 32719, "tipo_publicacion": "pedimento", "fuente_pdf": "http://www.diariooficial.interior.gob.cl/publicaciones/2026/07/22/44505/07/2840818.pdf", "archivo": "gm_pedimento_2840818.pdf", "fecha": "22-07-2026", "edicion": "44505" }, "geometry": { "type": "Polygon", "coordinates": [ [ [ -69.805753552903795, -28.306327391791068 ], [ -69.795554951507938, -28.306387204763741 ], [ -69.795756550293149, -28.333465210397758 ], [ -69.805957735403297, -28.333405330015523 ], [ -69.805753552903795, -28.306327391791068 ] ] ] } },
{ "type": "Feature", "properties": { "cve": "2840819", "nombre": "LOS MELLIZOS 3", "solicitante": "Villar García Rodolfo Francisco", "region": "REGIÓN DE ATACAMA", "provincia": "Provincia de Copiapó", "comuna": null, "superficie_ha": 300.0, "datum_original": "WGS84", "huso": 19, "epsg_origen": 32719, "tipo_publicacion": "pedimento", "fuente_pdf": "http://www.diariooficial.interior.gob.cl/publicaciones/2026/07/22/44505/07/2840819.pdf", "archivo": "gm_pedimento_2840819.pdf", "fecha": "22-07-2026", "edicion": "44505" }, "geometry": { "type": "Polygon", "coordinates": [ [ [ -69.795554951507938, -28.306387204763741 ], [ -69.785356319134124, -28.30644625600878 ], [ -69.785555334171619, -28.333524328193946 ], [ -69.795756550293149, -28.333465210397758 ], [ -69.795554951507938, -28.306387204763741 ] ] ] } },
{ "type": "Feature", "properties": { "cve": "2840820", "nombre": "LOS MELLIZOS 4", "solicitante": "Villar García Rodolfo Francisco", "region": "REGIÓN DE ATACAMA", "provincia": "Provincia de Copiapó", "comuna": null, "superficie_ha": 300.0, "datum_original": "WGS84", "huso": 19, "epsg_origen": 32719, "tipo_publicacion": "pedimento", "fuente_pdf": "http://www.diariooficial.interior.gob.cl/publicaciones/2026/07/22/44505/07/2840820.pdf", "archivo": "gm_pedimento_2840820.pdf", "fecha": "22-07-2026", "edicion": "44505" }, "geometry": { "type": "Polygon", "coordinates": [ [ [ -69.81615888910467, -28.333344687055881 ], [ -69.785555334171619, -28.333524328193946 ], [ -69.785621733730764, -28.342550328078957 ], [ -69.816227874761736, -28.342370619509126 ], [ -69.81615888910467, -28.333344687055881 ] ] ] } },
{ "type": "Feature", "properties": { "cve": "2840821", "nombre": "LOS MELLIZOS 5", "solicitante": "Villar García Rodolfo Francisco", "region": "REGIÓN DE ATACAMA", "provincia": "Provincia de Copiapó", "comuna": null, "superficie_ha": 300.0, "datum_original": "WGS84", "huso": 19, "epsg_origen": 32719, "tipo_publicacion": "pedimento", "fuente_pdf": "http://www.diariooficial.interior.gob.cl/publicaciones/2026/07/22/44505/07/2840821.pdf", "archivo": "gm_pedimento_2840821.pdf", "fecha": "22-07-2026", "edicion": "44505" }, "geometry": { "type": "Polygon", "coordinates": [ [ [ -69.816227874761736, -28.342370619509126 ], [ -69.785621733730764, -28.342550328078957 ], [ -69.785688163914912, -28.351576315871384 ], [ -69.81629689223638, -28.351396539858666 ], [ -69.816227874761736, -28.342370619509126 ] ] ] } },
{ "type": "Feature", "properties": { "cve": "2841116", "nombre": "TESORO 1", "solicitante": "Miranda Arcos Francisco Nicolás", "region": "REGIÓN DE ATACAMA", "provincia": "Provincia de Chañaral", "comuna": null, "superficie_ha": 300.0, "datum_original": "PSAD56", "huso": 19, "epsg_origen": 24879, "tipo_publicacion": "pedimento", "fuente_pdf": "http://www.diariooficial.interior.gob.cl/publicaciones/2026/07/22/44505/07/2841116.pdf", "archivo": "gm_pedimento_2841116.pdf", "fecha": "22-07-2026", "edicion": "44505" }, "geometry": { "type": "Polygon", "coordinates": [ [ [ -68.701162863297739, -26.358086215406743 ], [ -68.691140168183807, -26.358064958602213 ], [ -68.691068163204548, -26.385152791782001 ], [ -68.70109319483899, -26.385174073748313 ], [ -68.701162863297739, -26.358086215406743 ] ] ] } },
{ "type": "Feature", "properties": { "cve": "2841117", "nombre": "TESORO 2", "solicitante": "Miranda Arcos Francisco Nicolás", "region": "REGIÓN DE ATACAMA", "provincia": "Provincia de Chañaral", "comuna": "DIEGO DE ALMAGRO", "superficie_ha": 300.0, "datum_original": "PSAD56", "huso": 19, "epsg_origen": 24879, "tipo_publicacion": "pedimento", "fuente_pdf": "http://www.diariooficial.interior.gob.cl/publicaciones/2026/07/22/44505/07/2841117.pdf", "archivo": "gm_pedimento_2841117.pdf", "fecha": "22-07-2026", "edicion": "44505" }, "geometry": { "type": "Polygon", "coordinates": [ [ [ -68.691140168183807, -26.358064958602213 ], [ -68.681117484424519, -26.358043000647587 ], [ -68.68104314293619, -26.385130807835647 ], [ -68.691068163204548, -26.385152791782001 ], [ -68.691140168183807, -26.358064958602213 ] ] ] } },
{ "type": "Feature", "properties": { "cve": "2841118", "nombre": "TESORO 3", "solicitante": "Miranda Arcos Francisco Nicolás", "region": "REGIÓN DE ATACAMA", "provincia": "Provincia de Chañaral", "comuna": "DIEGO DE ALMAGRO", "superficie_ha": 300.0, "datum_original": "PSAD56", "huso": 19, "epsg_origen": 24879, "tipo_publicacion": "pedimento", "fuente_pdf": "http://www.diariooficial.interior.gob.cl/publicaciones/2026/07/22/44505/07/2841118.pdf", "archivo": "gm_pedimento_2841118.pdf", "fecha": "22-07-2026", "edicion": "44505" }, "geometry": { "type": "Polygon", "coordinates": [ [ [ -68.731189250414573, -26.376204409618527 ], [ -68.701116428650721, -26.376144799134728 ], [ -68.70109319483899, -26.385174073748313 ], [ -68.731168354250997, -26.385233707737559 ], [ -68.731189250414573, -26.376204409618527 ] ] ] } },
{ "type": "Feature", "properties": { "cve": "2841119", "nombre": "TESORO 4", "solicitante": "Miranda Arcos Francisco Nicolás", "region": "REGIÓN DE ATACAMA", "provincia": "Provincia de Chañaral", "comuna": null, "superficie_ha": 300.0, "datum_original": "PSAD56", "huso": 19, "epsg_origen": 24879, "tipo_publicacion": "pedimento", "fuente_pdf": "http://www.diariooficial.interior.gob.cl/publicaciones/2026/07/22/44505/07/2841119.pdf", "archivo": "gm_pedimento_2841119.pdf", "fecha": "22-07-2026", "edicion": "44505" }, "geometry": { "type": "Polygon", "coordinates": [ [ [ -68.721143290731035, -26.385214531728938 ], [ -68.691068163204548, -26.385152791782001 ], [ -68.691044138818114, -26.394182046501889 ], [ -68.721121605088456, -26.394243810788037 ], [ -68.721143290731035, -26.385214531728938 ] ] ] } },
{ "type": "Feature", "properties": { "cve": "2841120", "nombre": "TESORO 5", "solicitante": "Miranda Arcos Francisco Nicolás", "region": "REGIÓN DE ATACAMA", "provincia": "Provincia de Chañaral", "comuna": null, "superficie_ha": 200.0, "datum_original": "PSAD56", "huso": 19, "epsg_origen": 24879, "tipo_publicacion": "pedimento", "fuente_pdf": "http://www.diariooficial.interior.gob.cl/publicaciones/2026/07/22/44505/07/2841120.pdf", "archivo": "gm_pedimento_2841120.pdf", "fecha": "22-07-2026", "edicion": "44505" }, "geometry": { "type": "Polygon", "coordinates": [ [ [ -68.691068163204548, -26.385152791782001 ], [ -68.68104314293619, -26.385130807835647 ], [ -68.68099352327711, -26.40318928843315 ], [ -68.691020103061987, -26.403211289713891 ], [ -68.691068163204548, -26.385152791782001 ] ] ] } },
{ "type": "Feature", "properties": { "cve": "2841121", "nombre": "TESORO 6", "solicitante": "Miranda Arcos Francisco Nicolás", "region": "REGIÓN DE ATACAMA", "provincia": "Provincia de Chañaral", "comuna": null, "superficie_ha": 200.0, "datum_original": "PSAD56", "huso": 19, "epsg_origen": 24879, "tipo_publicacion": "pedimento", "fuente_pdf": "http://www.diariooficial.interior.gob.cl/publicaciones/2026/07/22/44505/07/2841121.pdf", "archivo": "gm_pedimento_2841121.pdf", "fecha": "22-07-2026", "edicion": "44505" }, "geometry": { "type": "Polygon", "coordinates": [ [ [ -68.68104314293619, -26.385130807835647 ], [ -68.671018134402786, -26.385108121912339 ], [ -68.670966955235073, -26.403166584621975 ], [ -68.68099352327711, -26.40318928843315 ], [ -68.68104314293619, -26.385130807835647 ] ] ] } },
{ "type": "Feature", "properties": { "cve": "2841122", "nombre": "TESORO 7", "solicitante": "Miranda Arcos Francisco Nicolás", "region": "REGIÓN DE ATACAMA", "provincia": "Provincia de Chañaral", "comuna": null, "superficie_ha": 200.0, "datum_original": "PSAD56", "huso": 19, "epsg_origen": 24879, "tipo_publicacion": "pedimento", "fuente_pdf": "http://www.diariooficial.interior.gob.cl/publicaciones/2026/07/22/44505/07/2841122.pdf", "archivo": "gm_pedimento_2841122.pdf", "fecha": "22-07-2026", "edicion": "44505" }, "geometry": { "type": "Polygon", "coordinates": [ [ [ -68.671018134402786, -26.385108121912339 ], [ -68.660993137973094, -26.38508473401529 ], [ -68.66094039930492, -26.403143178283543 ], [ -68.670966955235073, -26.403166584621975 ], [ -68.671018134402786, -26.385108121912339 ] ] ] } },
{ "type": "Feature", "properties": { "cve": "2841123", "nombre": "TESORO 8", "solicitante": "Miranda Arcos Francisco Nicolás", "region": "REGIÓN DE ATACAMA", "provincia": "Provincia de Chañaral", "comuna": null, "superficie_ha": 300.0, "datum_original": "PSAD56", "huso": 19, "epsg_origen": 24879, "tipo_publicacion": "pedimento", "fuente_pdf": "http://www.diariooficial.interior.gob.cl/publicaciones/2026/07/22/44505/07/2841123.pdf", "archivo": "gm_pedimento_2841123.pdf", "fecha": "22-07-2026", "edicion": "44505" }, "geometry": { "type": "Polygon", "coordinates": [ [ [ -68.661019488596651, -26.376055494615958 ], [ -68.650995283832273, -26.37603141424373 ], [ -68.650913855855691, -26.403119069421162 ], [ -68.66094039930492, -26.403143178283543 ], [ -68.661019488596651, -26.376055494615958 ] ] ] } },
{ "type": "Feature", "properties": { "cve": "2841124", "nombre": "TESORO 9", "solicitante": "Miranda Arcos Francisco Nicolás", "region": "REGIÓN DE ATACAMA", "provincia": "Provincia de Chañaral", "comuna": null, "superficie_ha": 200.0, "datum_original": "PSAD56", "huso": 19, "epsg_origen": 24879, "tipo_publicacion": "pedimento", "fuente_pdf": "http://www.diariooficial.interior.gob.cl/publicaciones/2026/07/22/44505/07/2841124.pdf", "archivo": "gm_pedimento_2841124.pdf", "fecha": "22-07-2026", "edicion": "44505" }, "geometry": { "type": "Polygon", "coordinates": [ [ [ -68.650995283832273, -26.37603141424373 ], [ -68.640971091904902, -26.37600663218112 ], [ -68.64091526068546, -26.394065060933148 ], [ -68.65094101135854, -26.394089862541172 ], [ -68.650995283832273, -26.37603141424373 ] ] ] } },
{ "type": "Feature", "properties": { "cve": "2841133", "nombre": "NUEVA 1", "solicitante": "Compañía Minera La Patagua", "region": "REGIÓN DE VALPARAÍSO", "provincia": "Provincia de Petorca", "comuna": null, "superficie_ha": 300.0, "datum_original": "PSAD56", "huso": 19, "epsg_origen": 24879, "tipo_publicacion": "pedimento", "fuente_pdf": "http://www.diariooficial.interior.gob.cl/publicaciones/2026/07/22/44505/07/2841133.pdf", "archivo": "gm_pedimento_2841133.pdf", "fecha": "22-07-2026", "edicion": "44505" }, "geometry": { "type": "Polygon", "coordinates": [ [ [ -70.955991081787275, -32.291023804338494 ], [ -70.945376605819774, -32.291187835982136 ], [ -70.945954752735759, -32.318236175490817 ], [ -70.956572378329852, -32.31807197325918 ], [ -70.955991081787275, -32.291023804338494 ] ] ] } },
{ "type": "Feature", "properties": { "cve": "2841134", "nombre": "NUEVA 2", "solicitante": "Compañía Minera La Patagua", "region": "REGIÓN DE VALPARAÍSO", "provincia": "Provincia de Petorca", "comuna": null, "superficie_ha": 300.0, "datum_original": "PSAD56", "huso": 19, "epsg_origen": 24879, "tipo_publicacion": "pedimento", "fuente_pdf": "http://www.diariooficial.interior.gob.cl/publicaciones/2026/07/22/44505/07/2841134.pdf", "archivo": "gm_pedimento_2841134.pdf", "fecha": "22-07-2026", "edicion": "44505" }, "geometry": { "type": "Polygon", "coordinates": [ [ [ -70.96660547120895, -32.290858881223727 ], [ -70.955991081787275, -32.291023804338494 ], [ -70.956572378329852, -32.31807197325918 ], [ -70.967189917272592, -32.317906878629941 ], [ -70.96660547120895, -32.290858881223727 ] ] ] } },
{ "type": "Feature", "properties": { "cve": "2841135", "nombre": "NUEVA 3", "solicitante": "Compañía Minera La Patagua", "region": "REGIÓN DE VALPARAÍSO", "provincia": "Provincia de Petorca", "comuna": null, "superficie_ha": 300.0, "datum_original": "PSAD56", "huso": 19, "epsg_origen": 24879, "tipo_publicacion": "pedimento", "fuente_pdf": "http://www.diariooficial.interior.gob.cl/publicaciones/2026/07/22/44505/07/2841135.pdf", "archivo": "gm_pedimento_2841135.pdf", "fecha": "22-07-2026", "edicion": "44505" }, "geometry": { "type": "Polygon", "coordinates": [ [ [ -70.977219773616397, -32.290693066662826 ], [ -70.96660547120895, -32.290858881223727 ], [ -70.967189917272592, -32.317906878629941 ], [ -70.977807369095018, -32.317740891628105 ], [ -70.977219773616397, -32.290693066662826 ] ] ] } },
{ "type": "Feature", "properties": { "cve": "2840739", "nombre": "ISABEL 1", "solicitante": "Piro Vergara Alejandra Carolina", "region": "REGIÓN DE ÑUBLE", "provincia": "Provincia de Itata", "comuna": null, "superficie_ha": 300.0, "datum_original": "PSAD56", "huso": 18, "epsg_origen": 24878, "tipo_publicacion": "pedimento", "fuente_pdf": "http://www.diariooficial.interior.gob.cl/publicaciones/2026/07/22/44505/07/2840739.pdf", "archivo": "gm_pedimento_2840739.pdf", "fecha": "22-07-2026", "edicion": "44505" }, "geometry": { "type": "Polygon", "coordinates": [ [ [ -72.771954121819874, -36.415701518618498 ], [ -72.738517388673316, -36.415072708105335 ], [ -72.738256072082564, -36.424080973114144 ], [ -72.771696661024563, -36.424709989338197 ], [ -72.771954121819874, -36.415701518618498 ] ] ] } },
{ "type": "Feature", "properties": { "cve": "2840748", "nombre": "ISABEL 10", "solicitante": "Piro Vergara Alejandra Carolina", "region": "REGIÓN DE ÑUBLE", "provincia": "Provincia de Itata", "comuna": null, "superficie_ha": 300.0, "datum_original": "PSAD56", "huso": 18, "epsg_origen": 24878, "tipo_publicacion": "pedimento", "fuente_pdf": "http://www.diariooficial.interior.gob.cl/publicaciones/2026/07/22/44505/07/2840748.pdf", "archivo": "gm_pedimento_2840748.pdf", "fecha": "22-07-2026", "edicion": "44505" }, "geometry": { "type": "Polygon", "coordinates": [ [ [ -72.798801185725324, -36.452252850634046 ], [ -72.765348159146214, -36.451631021142319 ], [ -72.765089596769755, -36.460639396589848 ], [ -72.798546486381753, -36.461261429430152 ], [ -72.798801185725324, -36.452252850634046 ] ] ] } },
{ "type": "Feature", "properties": { "cve": "2840749", "nombre": "Isabel 11", "solicitante": "Piro Vergara Alejandra Carolina", "region": "REGIÓN DE ÑUBLE", "provincia": "Provincia de Itata", "comuna": null, "superficie_ha": 300.0, "datum_original": "PSAD56", "huso": 18, "epsg_origen": 24878, "tipo_publicacion": "pedimento", "fuente_pdf": "http://www.diariooficial.interior.gob.cl/publicaciones/2026/07/22/44505/07/2840749.pdf", "archivo": "gm_pedimento_2840749.pdf", "fecha": "22-07-2026", "edicion": "44505" }, "geometry": { "type": "Polygon", "coordinates": [ [ [ -72.765348159146214, -36.451631021142319 ], [ -72.731896165836616, -36.450999826752422 ], [ -72.731633740899198, -36.460007995792189 ], [ -72.765089596769755, -36.460639396589848 ], [ -72.765348159146214, -36.451631021142319 ] ] ] } },
{ "type": "Feature", "properties": { "cve": "2840750", "nombre": "Isabel 12", "solicitante": "Piro Vergara Alejandra Carolina", "region": "REGIÓN DE ÑUBLE", "provincia": "Provincia de Itata", "comuna": null, "superficie_ha": 200.0, "datum_original": "PSAD56", "huso": 18, "epsg_origen": 24878, "tipo_publicacion": "pedimento", "fuente_pdf": "http://www.diariooficial.interior.gob.cl/publicaciones/2026/07/22/44505/07/2840750.pdf", "archivo": "gm_pedimento_2840750.pdf", "fecha": "22-07-2026", "edicion": "44505" }, "geometry": { "type": "Polygon", "coordinates": [ [ [ -72.820851646142302, -36.461670913120528 ], [ -72.798546486381753, -36.461261429430152 ], [ -72.798291673891654, -36.47026999296726 ], [ -72.82059941040859, -36.470679610554043 ], [ -72.820851646142302, -36.461670913120528 ] ] ] } },
{ "type": "Feature", "properties": { "cve": "2840751", "nombre": "ISABEL 13", "solicitante": "Piro Vergara Alejandra Carolina", "region": "REGIÓN DE ÑUBLE", "provincia": "Provincia de Itata", "comuna": null, "superficie_ha": 300.0, "datum_original": "PSAD56", "huso": 18, "epsg_origen": 24878, "tipo_publicacion": "pedimento", "fuente_pdf": "http://www.diariooficial.interior.gob.cl/publicaciones/2026/07/22/44505/07/2840751.pdf", "archivo": "gm_pedimento_2840751.pdf", "fecha": "22-07-2026", "edicion": "44505" }, "geometry": { "type": "Polygon", "coordinates": [ [ [ -72.798546486381753, -36.461261429430152 ], [ -72.765089596769755, -36.460639396589848 ], [ -72.764830919533367, -36.46964775673213 ], [ -72.798291673891654, -36.47026999296726 ], [ -72.798546486381753, -36.461261429430152 ] ] ] } },
{ "type": "Feature", "properties": { "cve": "2840752", "nombre": "ISABEL 14", "solicitante": "Piro Vergara Alejandra Carolina", "region": "REGIÓN DE ÑUBLE", "provincia": "Provincia de Itata", "comuna": null, "superficie_ha": 300.0, "datum_original": "PSAD56", "huso": 18, "epsg_origen": 24878, "tipo_publicacion": "pedimento", "fuente_pdf": "http://www.diariooficial.interior.gob.cl/publicaciones/2026/07/22/44505/07/2840752.pdf", "archivo": "gm_pedimento_2840752.pdf", "fecha": "22-07-2026", "edicion": "44505" }, "geometry": { "type": "Polygon", "coordinates": [ [ [ -72.765089596769755, -36.460639396589848 ], [ -72.731633740899198, -36.460007995792189 ], [ -72.731371199388761, -36.469016149479749 ], [ -72.764830919533367, -36.46964775673213 ], [ -72.765089596769755, -36.460639396589848 ] ] ] } },
{ "type": "Feature", "properties": { "cve": "2840753", "nombre": "ISABEL 15", "solicitante": "Piro Vergara Alejandra Carolina", "region": "REGIÓN DE ÑUBLE", "provincia": "Provincia de Itata", "comuna": null, "superficie_ha": 200.0, "datum_original": "PSAD56", "huso": 18, "epsg_origen": 24878, "tipo_publicacion": "pedimento", "fuente_pdf": "http://www.diariooficial.interior.gob.cl/publicaciones/2026/07/22/44505/07/2840753.pdf", "archivo": "gm_pedimento_2840753.pdf", "fecha": "22-07-2026", "edicion": "44505" }, "geometry": { "type": "Polygon", "coordinates": [ [ [ -72.819484012899466, -36.470659228604724 ], [ -72.797176298913641, -36.47024940274656 ], [ -72.796921244335721, -36.479257944290481 ], [ -72.819231536210623, -36.479667904143518 ], [ -72.819484012899466, -36.470659228604724 ] ] ] } },
{ "type": "Feature", "properties": { "cve": "2840754", "nombre": "ISABEL 16", "solicitante": "Piro Vergara Alejandra Carolina", "region": "REGIÓN DE ÑUBLE", "provincia": "Provincia de Itata", "comuna": null, "superficie_ha": 300.0, "datum_original": "PSAD56", "huso": 18, "epsg_origen": 24878, "tipo_publicacion": "pedimento", "fuente_pdf": "http://www.diariooficial.interior.gob.cl/publicaciones/2026/07/22/44505/07/2840754.pdf", "archivo": "gm_pedimento_2840754.pdf", "fecha": "22-07-2026", "edicion": "44505" }, "geometry": { "type": "Polygon", "coordinates": [ [ [ -72.797176298913641, -36.47024940274656 ], [ -72.763715578780591, -36.469626854129459 ], [ -72.763456657757871, -36.478635192130248 ], [ -72.796921244335721, -36.479257944290481 ], [ -72.797176298913641, -36.47024940274656 ] ] ] } },
{ "type": "Feature", "properties": { "cve": "2840755", "nombre": "ISABEL 17", "solicitante": "Piro Vergara Alejandra Carolina", "region": "REGIÓN DE ÑUBLE", "provincia": "Provincia de Itata", "comuna": null, "superficie_ha": 300.0, "datum_original": "PSAD56", "huso": 18, "epsg_origen": 24878, "tipo_publicacion": "pedimento", "fuente_pdf": "http://www.diariooficial.interior.gob.cl/publicaciones/2026/07/22/44505/07/2840755.pdf", "archivo": "gm_pedimento_2840755.pdf", "fecha": "22-07-2026", "edicion": "44505" }, "geometry": { "type": "Polygon", "coordinates": [ [ [ -72.763715578780591, -36.469626854129459 ], [ -72.730255893375471, -36.468994934525647 ], [ -72.729993106380732, -36.478003065922756 ], [ -72.763456657757871, -36.478635192130248 ], [ -72.763715578780591, -36.469626854129459 ] ] ] } },
{ "type": "Feature", "properties": { "cve": "2840756", "nombre": "ISABEL 18", "solicitante": "Piro Vergara Alejandra Carolina", "region": "REGIÓN DE ÑUBLE", "provincia": "Provincia de Itata", "comuna": null, "superficie_ha": 300.0, "datum_original": "PSAD56", "huso": 18, "epsg_origen": 24878, "tipo_publicacion": "pedimento", "fuente_pdf": "http://www.diariooficial.interior.gob.cl/publicaciones/2026/07/22/44505/07/2840756.pdf", "archivo": "gm_pedimento_2840756.pdf", "fecha": "22-07-2026", "edicion": "44505" }, "geometry": { "type": "Polygon", "coordinates": [ [ [ -72.730255893375471, -36.468994934525647 ], [ -72.719102897512656, -36.468782212375338 ], [ -72.718310318897281, -36.495806351798521 ], [ -72.729467182127877, -36.496019282640177 ], [ -72.730255893375471, -36.468994934525647 ] ] ] } },
{ "type": "Feature", "properties": { "cve": "2840757", "nombre": "ISABEL 19", "solicitante": "Piro Vergara Alejandra Carolina", "region": "REGIÓN DE ÑUBLE", "provincia": "Provincia de Itata", "comuna": null, "superficie_ha": 200.0, "datum_original": "PSAD56", "huso": 18, "epsg_origen": 24878, "tipo_publicacion": "pedimento", "fuente_pdf": "http://www.diariooficial.interior.gob.cl/publicaciones/2026/07/22/44505/07/2840757.pdf", "archivo": "gm_pedimento_2840757.pdf", "fecha": "22-07-2026", "edicion": "44505" }, "geometry": { "type": "Polygon", "coordinates": [ [ [ -72.819231536210623, -36.479667904143518 ], [ -72.796921244335721, -36.479257944290481 ], [ -72.796666076450663, -36.488266470569549 ], [ -72.818978947358133, -36.488676564447985 ], [ -72.819231536210623, -36.479667904143518 ] ] ] } },
{ "type": "Feature", "properties": { "cve": "2840740", "nombre": "ISABEL 2", "solicitante": "Piro Vergara Alejandra Carolina", "region": "REGIÓN DE ÑUBLE", "provincia": "Provincia de Itata", "comuna": null, "superficie_ha": 200.0, "datum_original": "PSAD56", "huso": 18, "epsg_origen": 24878, "tipo_publicacion": "pedimento", "fuente_pdf": "http://www.diariooficial.interior.gob.cl/publicaciones/2026/07/22/44505/07/2840740.pdf", "archivo": "gm_pedimento_2840740.pdf", "fecha": "22-07-2026", "edicion": "44505" }, "geometry": { "type": "Polygon", "coordinates": [ [ [ -72.78284375349655, -36.424917582374093 ], [ -72.760549682918224, -36.424501356760338 ], [ -72.760290821869845, -36.433509743945038 ], [ -72.78258746427575, -36.433926105711507 ], [ -72.78284375349655, -36.424917582374093 ] ] ] } },
{ "type": "Feature", "properties": { "cve": "2840758", "nombre": "ISABEL 20", "solicitante": "Piro Vergara Alejandra Carolina", "region": "REGIÓN DE ÑUBLE", "provincia": "Provincia de Itata", "comuna": null, "superficie_ha": 300.0, "datum_original": "PSAD56", "huso": 18, "epsg_origen": 24878, "tipo_publicacion": "pedimento", "fuente_pdf": "http://www.diariooficial.interior.gob.cl/publicaciones/2026/07/22/44505/07/2840758.pdf", "archivo": "gm_pedimento_2840758.pdf", "fecha": "22-07-2026", "edicion": "44505" }, "geometry": { "type": "Polygon", "coordinates": [ [ [ -72.796921244335721, -36.479257944290481 ], [ -72.763456657757871, -36.478635192130248 ], [ -72.763197621713076, -36.487643514819865 ], [ -72.796666076450663, -36.488266470569549 ], [ -72.796921244335721, -36.479257944290481 ] ] ] } },
{ "type": "Feature", "properties": { "cve": "2840759", "nombre": "Isabel 21", "solicitante": "Piro Vergara Alejandra Carolina", "region": "REGIÓN DE ÑUBLE", "provincia": "Provincia de Itata", "comuna": null, "superficie_ha": 300.0, "datum_original": "PSAD56", "huso": 18, "epsg_origen": 24878, "tipo_publicacion": "pedimento", "fuente_pdf": "http://www.diariooficial.interior.gob.cl/publicaciones/2026/07/22/44505/07/2840759.pdf", "archivo": "gm_pedimento_2840759.pdf", "fecha": "22-07-2026", "edicion": "44505" }, "geometry": { "type": "Polygon", "coordinates": [ [ [ -72.763456657757871, -36.478635192130248 ], [ -72.729993106380732, -36.478003065922756 ], [ -72.729730202649321, -36.487011181961648 ], [ -72.763197621713076, -36.487643514819865 ], [ -72.763456657757871, -36.478635192130248 ] ] ] } },
{ "type": "Feature", "properties": { "cve": "2840760", "nombre": "Isabel 22", "solicitante": "Piro Vergara Alejandra Carolina", "region": "REGIÓN DE ÑUBLE", "provincia": "Provincia de Itata", "comuna": null, "superficie_ha": 300.0, "datum_original": "PSAD56", "huso": 18, "epsg_origen": 24878, "tipo_publicacion": "pedimento", "fuente_pdf": "http://www.diariooficial.interior.gob.cl/publicaciones/2026/07/22/44505/07/2840760.pdf", "archivo": "gm_pedimento_2840760.pdf", "fecha": "22-07-2026", "edicion": "44505" }, "geometry": { "type": "Polygon", "coordinates": [ [ [ -73.13140418733667, -36.493980093652752 ], [ -73.097926225614373, -36.493450956786077 ], [ -73.097705793394553, -36.502461162661987 ], [ -73.131187629339777, -36.502990472521716 ], [ -73.13140418733667, -36.493980093652752 ] ] ] } },
{ "type": "Feature", "properties": { "cve": "2840761", "nombre": "ISABEL 23", "solicitante": "Piro Vergara Alejandra Carolina", "region": "REGIÓN DE ÑUBLE", "provincia": "Provincia de Itata", "comuna": null, "superficie_ha": 300.0, "datum_original": "PSAD56", "huso": 18, "epsg_origen": 24878, "tipo_publicacion": "pedimento", "fuente_pdf": "http://www.diariooficial.interior.gob.cl/publicaciones/2026/07/22/44505/07/2840761.pdf", "archivo": "gm_pedimento_2840761.pdf", "fecha": "22-07-2026", "edicion": "44505" }, "geometry": { "type": "Polygon", "coordinates": [ [ [ -72.763197621713076, -36.487643514819865 ], [ -72.729730202649321, -36.487011181961648 ], [ -72.729467182127877, -36.496019282640177 ], [ -72.762938470593596, -36.496651822196128 ], [ -72.763197621713076, -36.487643514819865 ] ] ] } },
{ "type": "Feature", "properties": { "cve": "2840762", "nombre": "ISABEL 24", "solicitante": "Piro Vergara Alejandra Carolina", "region": "REGIÓN DE ÑUBLE", "provincia": "Provincia de Itata", "comuna": null, "superficie_ha": 300.0, "datum_original": "PSAD56", "huso": 18, "epsg_origen": 24878, "tipo_publicacion": "pedimento", "fuente_pdf": "http://www.diariooficial.interior.gob.cl/publicaciones/2026/07/22/44505/07/2840762.pdf", "archivo": "gm_pedimento_2840762.pdf", "fecha": "22-07-2026", "edicion": "44505" }, "geometry": { "type": "Polygon", "coordinates": [ [ [ -72.762938470593596, -36.496651822196128 ], [ -72.751781258548064, -36.496442017873292 ], [ -72.750999241220981, -36.523466642329531 ], [ -72.762160326260982, -36.523676652423276 ], [ -72.762938470593596, -36.496651822196128 ] ] ] } },
{ "type": "Feature", "properties": { "cve": "2840763", "nombre": "ISABEL 25", "solicitante": "Piro Vergara Alejandra Carolina", "region": "REGIÓN DE ÑUBLE", "provincia": "Provincia de Itata", "comuna": null, "superficie_ha": 200.0, "datum_original": "PSAD56", "huso": 18, "epsg_origen": 24878, "tipo_publicacion": "pedimento", "fuente_pdf": "http://www.diariooficial.interior.gob.cl/publicaciones/2026/07/22/44505/07/2840763.pdf", "archivo": "gm_pedimento_2840763.pdf", "fecha": "22-07-2026", "edicion": "44505" }, "geometry": { "type": "Polygon", "coordinates": [ [ [ -72.751781258548064, -36.496442017873292 ], [ -72.740624162202153, -36.496231171343226 ], [ -72.740100351787049, -36.514247465136528 ], [ -72.751260029450918, -36.514458449512198 ], [ -72.751781258548064, -36.496442017873292 ] ] ] } },
{ "type": "Feature", "properties": { "cve": "2840741", "nombre": "ISABEL 3", "solicitante": "Piro Vergara Alejandra Carolina", "region": "REGIÓN DE ÑUBLE", "provincia": "Provincia de Itata", "comuna": null, "superficie_ha": 300.0, "datum_original": "PSAD56", "huso": 18, "epsg_origen": 24878, "tipo_publicacion": "pedimento", "fuente_pdf": "http://www.diariooficial.interior.gob.cl/publicaciones/2026/07/22/44505/07/2840741.pdf", "archivo": "gm_pedimento_2840741.pdf", "fecha": "22-07-2026", "edicion": "44505" }, "geometry": { "type": "Polygon", "coordinates": [ [ [ -72.760549682918224, -36.424501356760338 ], [ -72.727109440493237, -36.423869222113964 ], [ -72.726846722097534, -36.432877402522095 ], [ -72.760290821869845, -36.433509743945038 ], [ -72.760549682918224, -36.424501356760338 ] ] ] } },
{ "type": "Feature", "properties": { "cve": "2840742", "nombre": "ISABEL 4", "solicitante": "Piro Vergara Alejandra Carolina", "region": "REGIÓN DE ÑUBLE", "provincia": "Provincia de Itata", "comuna": null, "superficie_ha": 300.0, "datum_original": "PSAD56", "huso": 18, "epsg_origen": 24878, "tipo_publicacion": "pedimento", "fuente_pdf": "http://www.diariooficial.interior.gob.cl/publicaciones/2026/07/22/44505/07/2840742.pdf", "archivo": "gm_pedimento_2840742.pdf", "fecha": "22-07-2026", "edicion": "44505" }, "geometry": { "type": "Polygon", "coordinates": [ [ [ -72.788161696210139, -36.434029546216557 ], [ -72.754716732957732, -36.43340500358795 ], [ -72.754457113712121, -36.442413341207896 ], [ -72.787905936416664, -36.443038088111969 ], [ -72.788161696210139, -36.434029546216557 ] ] ] } },
{ "type": "Feature", "properties": { "cve": "2840743", "nombre": "Isabel 5", "solicitante": "Piro Vergara Alejandra Carolina", "region": "REGIÓN DE ÑUBLE", "provincia": "Provincia de Itata", "comuna": null, "superficie_ha": 300.0, "datum_original": "PSAD56", "huso": 18, "epsg_origen": 24878, "tipo_publicacion": "pedimento", "fuente_pdf": "http://www.diariooficial.interior.gob.cl/publicaciones/2026/07/22/44505/07/2840743.pdf", "archivo": "gm_pedimento_2840743.pdf", "fecha": "22-07-2026", "edicion": "44505" }, "geometry": { "type": "Polygon", "coordinates": [ [ [ -72.754716732957732, -36.43340500358795 ], [ -72.72127280716451, -36.432771102482782 ], [ -72.721009328940355, -36.441779232769598 ], [ -72.754457113712121, -36.442413341207896 ], [ -72.754716732957732, -36.43340500358795 ] ] ] } },
{ "type": "Feature", "properties": { "cve": "2840744", "nombre": "Isabel 6", "solicitante": "Piro Vergara Alejandra Carolina", "region": "REGIÓN DE ÑUBLE", "provincia": "Provincia de Itata", "comuna": null, "superficie_ha": 300.0, "datum_original": "PSAD56", "huso": 18, "epsg_origen": 24878, "tipo_publicacion": "pedimento", "fuente_pdf": "http://www.diariooficial.interior.gob.cl/publicaciones/2026/07/22/44505/07/2840744.pdf", "archivo": "gm_pedimento_2840744.pdf", "fecha": "22-07-2026", "edicion": "44505" }, "geometry": { "type": "Polygon", "coordinates": [ [ [ -72.799055771973997, -36.443244256581082 ], [ -72.765606606715153, -36.442622630391689 ], [ -72.765348159146214, -36.451631021142319 ], [ -72.798801185725324, -36.452252850634046 ], [ -72.799055771973997, -36.443244256581082 ] ] ] } },
{ "type": "Feature", "properties": { "cve": "2840745", "nombre": "ISABEL 7", "solicitante": "Piro Vergara Alejandra Carolina", "region": "REGIÓN DE ÑUBLE", "provincia": "Provincia de Itata", "comuna": null, "superficie_ha": 300.0, "datum_original": "PSAD56", "huso": 18, "epsg_origen": 24878, "tipo_publicacion": "pedimento", "fuente_pdf": "http://www.diariooficial.interior.gob.cl/publicaciones/2026/07/22/44505/07/2840745.pdf", "archivo": "gm_pedimento_2840745.pdf", "fecha": "22-07-2026", "edicion": "44505" }, "geometry": { "type": "Polygon", "coordinates": [ [ [ -72.765606606715153, -36.442622630391689 ], [ -72.732158474254248, -36.441991642362645 ], [ -72.731896165836616, -36.450999826752422 ], [ -72.765348159146214, -36.451631021142319 ], [ -72.765606606715153, -36.442622630391689 ] ] ] } },
{ "type": "Feature", "properties": { "cve": "2840746", "nombre": "ISABEL 8", "solicitante": "Piro Vergara Alejandra Carolina", "region": "REGIÓN DE ÑUBLE", "provincia": "Provincia de Itata", "comuna": null, "superficie_ha": 300.0, "datum_original": "PSAD56", "huso": 18, "epsg_origen": 24878, "tipo_publicacion": "pedimento", "fuente_pdf": "http://www.diariooficial.interior.gob.cl/publicaciones/2026/07/22/44505/07/2840746.pdf", "archivo": "gm_pedimento_2840746.pdf", "fecha": "22-07-2026", "edicion": "44505" }, "geometry": { "type": "Polygon", "coordinates": [ [ [ -72.732158474254248, -36.441991642362645 ], [ -72.721009328940355, -36.441779232769598 ], [ -72.72021819183189, -36.468803531439711 ], [ -72.731371199388761, -36.469016149479749 ], [ -72.732158474254248, -36.441991642362645 ] ] ] } },
{ "type": "Feature", "properties": { "cve": "2840747", "nombre": "ISABEL 9", "solicitante": "Piro Vergara Alejandra Carolina", "region": "REGIÓN DE ÑUBLE", "provincia": "Provincia de Itata", "comuna": null, "superficie_ha": 100.0, "datum_original": "PSAD56", "huso": 18, "epsg_origen": 24878, "tipo_publicacion": "pedimento", "fuente_pdf": "http://www.diariooficial.interior.gob.cl/publicaciones/2026/07/22/44505/07/2840747.pdf", "archivo": "gm_pedimento_2840747.pdf", "fecha": "22-07-2026", "edicion": "44505" }, "geometry": { "type": "Polygon", "coordinates": [ [ [ -72.809952421536494, -36.452458045885507 ], [ -72.798801185725324, -36.452252850634046 ], [ -72.798546486381753, -36.461261429430152 ], [ -72.809699009974224, -36.461466691784594 ], [ -72.809952421536494, -36.452458045885507 ] ] ] } }
]
}
