{
"type": "FeatureCollection",
"name": "boletin_mineria_20260105",
"crs": { "type": "name", "properties": { "name": "urn:ogc:def:crs:OGC:1.3:CRS84" } },
"features": [
{ "type": "Feature", "properties": { "cve": "2749262", "nombre": "Mateo Diez del 1 al 30", "solicitante": "Inversiones Sirka SpA", "region": "REGIÓN DE TARAPACÁ", "provincia": "Provincia del Tamarugal", "comuna": "Pozo Almonte", "superficie_ha": 300.0, "datum_original": "PSAD56", "huso": 19, "epsg_origen": 24879, "tipo_publicacion": "manifestacion", "fuente_pdf": "http://www.diariooficial.interior.gob.cl/publicaciones/2026/01/05/44340/07/2749262.pdf", "archivo": "gm_manifestacion_2749262.pdf", "fecha": "05-01-2026", "edicion": "44340" }, "geometry": { "type": "Polygon", "coordinates": [ [ [ -70.010548434695579, -20.777707824463814 ], [ -69.981729473879525, -20.777874975302673 ], [ -69.981787876464395, -20.786909479683583 ], [ -70.01060855100468, -20.786742249599801 ], [ -70.010548434695579, -20.777707824463814 ] ] ] } },
{ "type": "Feature", "properties": { "cve": "2749261", "nombre": "Mateo Nueve del 1 al 30", "solicitante": "Inversiones Sirka SpA", "region": "REGIÓN DE TARAPACÁ", "provincia": "Provincia del Tamarugal", "comuna": "Pozo Almonte", "superficie_ha": 300.0, "datum_original": "PSAD56", "huso": 19, "epsg_origen": 24879, "tipo_publicacion": "manifestacion", "fuente_pdf": "http://www.diariooficial.interior.gob.cl/publicaciones/2026/01/05/44340/07/2749261.pdf", "archivo": "gm_manifestacion_2749261.pdf", "fecha": "05-01-2026", "edicion": "44340" }, "geometry": { "type": "Polygon", "coordinates": [ [ [ -70.020124359513659, -20.773133830537976 ], [ -70.01051838859, -20.773190608237837 ], [ -70.010698785729446, -20.800293869007298 ], [ -70.020306470783694, -20.800237010530154 ], [ -70.020124359513659, -20.773133830537976 ] ] ] } },
{ "type": "Feature", "properties": { "cve": "2749263", "nombre": "Mateo Once del 1 al 30", "solicitante": "Inversiones Sirka SpA", "region": "REGIÓN DE TARAPACÁ", "provincia": "Provincia del Tamarugal", "comuna": "Pozo Almonte", "superficie_ha": 300.0, "datum_original": "PSAD56", "huso": 19, "epsg_origen": 24879, "tipo_publicacion": "manifestacion", "fuente_pdf": "http://www.diariooficial.interior.gob.cl/publicaciones/2026/01/05/44340/07/2749263.pdf", "archivo": "gm_manifestacion_2749263.pdf", "fecha": "05-01-2026", "edicion": "44340" }, "geometry": { "type": "Polygon", "coordinates": [ [ [ -70.01060855100468, -20.786742249599801 ], [ -69.981787876464395, -20.786909479683583 ], [ -69.981846310271024, -20.795943974316057 ], [ -70.0106686994516, -20.795776664978241 ], [ -70.01060855100468, -20.786742249599801 ] ] ] } },
{ "type": "Feature", "properties": { "cve": "2749268", "nombre": "CHILENITO DEL 1 AL 4", "solicitante": "Gallardo Funes Julio Enrique", "region": "REGIÓN DE ANTOFAGASTA", "provincia": "Provincia de Antofagasta", "comuna": null, "superficie_ha": 4.0, "datum_original": "PSAD56", "huso": 19, "epsg_origen": 24879, "tipo_publicacion": "manifestacion", "fuente_pdf": "http://www.diariooficial.interior.gob.cl/publicaciones/2026/01/05/44340/07/2749268.pdf", "archivo": "gm_manifestacion_2749268.pdf", "fecha": "05-01-2026", "edicion": "44340" }, "geometry": { "type": "Polygon", "coordinates": [ [ [ -70.391333313279731, -23.52017792959154 ], [ -70.387416181950442, -23.520212885756344 ], [ -70.387425646007387, -23.521115897691718 ], [ -70.391342804035844, -23.521080940026586 ], [ -70.391333313279731, -23.52017792959154 ] ] ] } },
{ "type": "Feature", "properties": { "cve": "2749145", "nombre": "MANTOS NEGROS B 7 DEL 1 AL 20", "solicitante": "Geomantos Minerals SpA", "region": "REGIÓN DE ANTOFAGASTA", "provincia": "Provincia de Antofagasta", "comuna": null, "superficie_ha": 200.0, "datum_original": "WGS84", "huso": 19, "epsg_origen": 32719, "tipo_publicacion": "manifestacion", "fuente_pdf": "http://www.diariooficial.interior.gob.cl/publicaciones/2026/01/05/44340/07/2749145.pdf", "archivo": "gm_manifestacion_2749145.pdf", "fecha": "05-01-2026", "edicion": "44340" }, "geometry": { "type": "Polygon", "coordinates": [ [ [ -70.33850344419875, -24.141161437826785 ], [ -70.318823674483099, -24.141332748264322 ], [ -70.318916347280691, -24.150362460410125 ], [ -70.338597498880603, -24.150191077898924 ], [ -70.33850344419875, -24.141161437826785 ] ] ] } },
{ "type": "Feature", "properties": { "cve": "2749093", "nombre": "MARIA 1", "solicitante": "Sociedad Comercial y Transporte Chanida Limitada", "region": "REGIÓN DE ANTOFAGASTA", "provincia": "Provincia de Antofagasta", "comuna": null, "superficie_ha": 2.0, "datum_original": "PSAD56", "huso": 19, "epsg_origen": 24879, "tipo_publicacion": "manifestacion", "fuente_pdf": "http://www.diariooficial.interior.gob.cl/publicaciones/2026/01/05/44340/07/2749093.pdf", "archivo": "gm_manifestacion_2749093.pdf", "fecha": "05-01-2026", "edicion": "44340" }, "geometry": { "type": "Polygon", "coordinates": [ [ [ -70.361220402312526, -23.506175080102256 ], [ -70.360241211294991, -23.506183634213279 ], [ -70.360259756793795, -23.507989681895435 ], [ -70.361238961151557, -23.507981127049742 ], [ -70.361220402312526, -23.506175080102256 ] ] ] } },
{ "type": "Feature", "properties": { "cve": "2749572", "nombre": "ALBACORA 1 E, 1 AL 60", "solicitante": "Norte Abierto SpA", "region": "REGIÓN DE ATACAMA", "provincia": "Provincia de Copiapó", "comuna": "Tierra Amarilla", "superficie_ha": 300.0, "datum_original": "PSAD56", "huso": 19, "epsg_origen": 24879, "tipo_publicacion": "manifestacion", "fuente_pdf": "http://www.diariooficial.interior.gob.cl/publicaciones/2026/01/05/44340/07/2749572.pdf", "archivo": "gm_manifestacion_2749572.pdf", "fecha": "05-01-2026", "edicion": "44340" }, "geometry": { "type": "Polygon", "coordinates": [ [ [ -69.872704327696766, -27.904010362430355 ], [ -69.842222873938056, -27.904200010130495 ], [ -69.842292784045554, -27.913226447232603 ], [ -69.872776767198843, -27.913036727613719 ], [ -69.872704327696766, -27.904010362430355 ] ] ] } },
{ "type": "Feature", "properties": { "cve": "2749618", "nombre": "ATACAMA 1 1 AL 6", "solicitante": "Rozas Peña Juan Felipe", "region": "REGIÓN DE ATACAMA", "provincia": "Provincia de Copiapó", "comuna": null, "superficie_ha": 39.0, "datum_original": "PSAD56", "huso": 19, "epsg_origen": 24879, "tipo_publicacion": "manifestacion", "fuente_pdf": "http://www.diariooficial.interior.gob.cl/publicaciones/2026/01/05/44340/07/2749618.pdf", "archivo": "gm_manifestacion_2749618.pdf", "fecha": "05-01-2026", "edicion": "44340" }, "geometry": { "type": "Polygon", "coordinates": [ [ [ -70.763896606650519, -27.120648646879957 ], [ -70.757845535131011, -27.120724519240877 ], [ -70.757937249995408, -27.126590234362315 ], [ -70.763988636828714, -27.126514342939906 ], [ -70.763896606650519, -27.120648646879957 ] ] ] } },
{ "type": "Feature", "properties": { "cve": "2749573", "nombre": "FIGUEROA 1 E, 1 AL 60", "solicitante": "Norte Abierto SpA", "region": "REGIÓN DE ATACAMA", "provincia": "Provincia de Copiapó", "comuna": "Tierra Amarilla", "superficie_ha": 300.0, "datum_original": "PSAD56", "huso": 19, "epsg_origen": 24879, "tipo_publicacion": "manifestacion", "fuente_pdf": "http://www.diariooficial.interior.gob.cl/publicaciones/2026/01/05/44340/07/2749573.pdf", "archivo": "gm_manifestacion_2749573.pdf", "fecha": "05-01-2026", "edicion": "44340" }, "geometry": { "type": "Polygon", "coordinates": [ [ [ -69.456859281705547, -27.35533158038573 ], [ -69.446748514283456, -27.355364288775174 ], [ -69.446857256217783, -27.382447836939168 ], [ -69.456970484469991, -27.382415090824164 ], [ -69.456859281705547, -27.35533158038573 ] ] ] } },
{ "type": "Feature", "properties": { "cve": "2749578", "nombre": "FIGUEROA 10 E, 1 AL 60", "solicitante": "Norte Abierto SpA", "region": "REGIÓN DE ATACAMA", "provincia": "Provincia de Copiapó", "comuna": "Tierra Amarilla", "superficie_ha": 300.0, "datum_original": "PSAD56", "huso": 19, "epsg_origen": 24879, "tipo_publicacion": "manifestacion", "fuente_pdf": "http://www.diariooficial.interior.gob.cl/publicaciones/2026/01/05/44340/07/2749578.pdf", "archivo": "gm_manifestacion_2749578.pdf", "fecha": "05-01-2026", "edicion": "44340" }, "geometry": { "type": "Polygon", "coordinates": [ [ [ -69.426734714971161, -27.409594645593007 ], [ -69.416618972766585, -27.40962522860854 ], [ -69.416720616212359, -27.436708672130123 ], [ -69.426838826196345, -27.436678053888134 ], [ -69.426734714971161, -27.409594645593007 ] ] ] } },
{ "type": "Feature", "properties": { "cve": "2749574", "nombre": "FIGUEROA 2 E, 1 AL 60", "solicitante": "Norte Abierto SpA", "region": "REGIÓN DE ATACAMA", "provincia": "Provincia de Copiapó", "comuna": "Tierra Amarilla", "superficie_ha": 300.0, "datum_original": "PSAD56", "huso": 19, "epsg_origen": 24879, "tipo_publicacion": "manifestacion", "fuente_pdf": "http://www.diariooficial.interior.gob.cl/publicaciones/2026/01/05/44340/07/2749574.pdf", "archivo": "gm_manifestacion_2749574.pdf", "fecha": "05-01-2026", "edicion": "44340" }, "geometry": { "type": "Polygon", "coordinates": [ [ [ -69.446748514283456, -27.355364288775174 ], [ -69.436637729954882, -27.355396265243563 ], [ -69.436744011041412, -27.382479850288963 ], [ -69.446857256217783, -27.382447836939168 ], [ -69.446748514283456, -27.355364288775174 ] ] ] } },
{ "type": "Feature", "properties": { "cve": "2749575", "nombre": "FIGUEROA 5 E, 1 AL 60", "solicitante": "Norte Abierto SpA", "region": "REGIÓN DE ATACAMA", "provincia": "Provincia de Copiapó", "comuna": "Tierra Amarilla", "superficie_ha": 300.0, "datum_original": "PSAD56", "huso": 19, "epsg_origen": 24879, "tipo_publicacion": "manifestacion", "fuente_pdf": "http://www.diariooficial.interior.gob.cl/publicaciones/2026/01/05/44340/07/2749575.pdf", "archivo": "gm_manifestacion_2749575.pdf", "fecha": "05-01-2026", "edicion": "44340" }, "geometry": { "type": "Polygon", "coordinates": [ [ [ -69.446857256217783, -27.382447836939168 ], [ -69.436744011041412, -27.382479850288963 ], [ -69.436850441000672, -27.409563328958665 ], [ -69.44696615047171, -27.409531278709977 ], [ -69.446857256217783, -27.382447836939168 ] ] ] } },
{ "type": "Feature", "properties": { "cve": "2749576", "nombre": "FIGUEROA 6 E, 1 AL 60", "solicitante": "Norte Abierto SpA", "region": "REGIÓN DE ATACAMA", "provincia": "Provincia de Copiapó", "comuna": "Tierra Amarilla", "superficie_ha": 300.0, "datum_original": "PSAD56", "huso": 19, "epsg_origen": 24879, "tipo_publicacion": "manifestacion", "fuente_pdf": "http://www.diariooficial.interior.gob.cl/publicaciones/2026/01/05/44340/07/2749576.pdf", "archivo": "gm_manifestacion_2749576.pdf", "fecha": "05-01-2026", "edicion": "44340" }, "geometry": { "type": "Polygon", "coordinates": [ [ [ -69.436744011041412, -27.382479850288963 ], [ -69.426630749323877, -27.382511130868984 ], [ -69.426734714971161, -27.409594645593007 ], [ -69.436850441000672, -27.409563328958665 ], [ -69.436744011041412, -27.382479850288963 ] ] ] } },
{ "type": "Feature", "properties": { "cve": "2749577", "nombre": "FIGUEROA 9 E, 1 AL 60", "solicitante": "Norte Abierto SpA", "region": "REGIÓN DE ATACAMA", "provincia": "Provincia de Copiapó", "comuna": "Tierra Amarilla", "superficie_ha": 300.0, "datum_original": "PSAD56", "huso": 19, "epsg_origen": 24879, "tipo_publicacion": "manifestacion", "fuente_pdf": "http://www.diariooficial.interior.gob.cl/publicaciones/2026/01/05/44340/07/2749577.pdf", "archivo": "gm_manifestacion_2749577.pdf", "fecha": "05-01-2026", "edicion": "44340" }, "geometry": { "type": "Polygon", "coordinates": [ [ [ -69.436850441000672, -27.409563328958665 ], [ -69.426734714971161, -27.409594645593007 ], [ -69.426838826196345, -27.436678053888134 ], [ -69.436957019988341, -27.436646701182347 ], [ -69.436850441000672, -27.409563328958665 ] ] ] } },
{ "type": "Feature", "properties": { "cve": "2749579", "nombre": "NIEVE 1 C, 1 AL 40", "solicitante": "Norte Abierto SpA", "region": "REGIÓN DE ATACAMA", "provincia": "Provincia de Copiapó", "comuna": "Tierra Amarilla", "superficie_ha": 200.0, "datum_original": "PSAD56", "huso": 19, "epsg_origen": 24879, "tipo_publicacion": "manifestacion", "fuente_pdf": "http://www.diariooficial.interior.gob.cl/publicaciones/2026/01/05/44340/07/2749579.pdf", "archivo": "gm_manifestacion_2749579.pdf", "fecha": "05-01-2026", "edicion": "44340" }, "geometry": { "type": "Polygon", "coordinates": [ [ [ -69.559677290240003, -27.693495145856634 ], [ -69.549535706405948, -27.693535751853037 ], [ -69.549626150947276, -27.711590294113801 ], [ -69.559769403708785, -27.711549657157633 ], [ -69.559677290240003, -27.693495145856634 ] ] ] } },
{ "type": "Feature", "properties": { "cve": "2749580", "nombre": "NIEVE 3 C, 1 AL 20", "solicitante": "Norte Abierto SpA", "region": "REGIÓN DE ATACAMA", "provincia": "Provincia de Copiapó", "comuna": "Tierra Amarilla", "superficie_ha": 100.0, "datum_original": "PSAD56", "huso": 19, "epsg_origen": 24879, "tipo_publicacion": "manifestacion", "fuente_pdf": "http://www.diariooficial.interior.gob.cl/publicaciones/2026/01/05/44340/07/2749580.pdf", "archivo": "gm_manifestacion_2749580.pdf", "fecha": "05-01-2026", "edicion": "44340" }, "geometry": { "type": "Polygon", "coordinates": [ [ [ -69.503985407721402, -27.712666697988823 ], [ -69.493841960654677, -27.712703249680558 ], [ -69.493882623463534, -27.721730581811631 ], [ -69.504026905653532, -27.721694016193112 ], [ -69.503985407721402, -27.712666697988823 ] ] ] } },
{ "type": "Feature", "properties": { "cve": "2749581", "nombre": "NIEVE 5 C, 1 AL 20", "solicitante": "Norte Abierto SpA", "region": "REGIÓN DE ATACAMA", "provincia": "Provincia de Copiapó", "comuna": "Tierra Amarilla", "superficie_ha": 100.0, "datum_original": "PSAD56", "huso": 19, "epsg_origen": 24879, "tipo_publicacion": "manifestacion", "fuente_pdf": "http://www.diariooficial.interior.gob.cl/publicaciones/2026/01/05/44340/07/2749581.pdf", "archivo": "gm_manifestacion_2749581.pdf", "fecha": "05-01-2026", "edicion": "44340" }, "geometry": { "type": "Polygon", "coordinates": [ [ [ -69.407837016421567, -27.770759341143233 ], [ -69.3976880537125, -27.770788905381242 ], [ -69.397720879964041, -27.779816279432627 ], [ -69.407870680340139, -27.779786703945948 ], [ -69.407837016421567, -27.770759341143233 ] ] ] } },
{ "type": "Feature", "properties": { "cve": "2749582", "nombre": "PANORAMA 1 E, 1 AL 40", "solicitante": "Norte Abierto SpA", "region": "REGIÓN DE ATACAMA", "provincia": "Provincia de Copiapó", "comuna": "Tierra Amarilla", "superficie_ha": 200.0, "datum_original": "PSAD56", "huso": 19, "epsg_origen": 24879, "tipo_publicacion": "manifestacion", "fuente_pdf": "http://www.diariooficial.interior.gob.cl/publicaciones/2026/01/05/44340/07/2749582.pdf", "archivo": "gm_manifestacion_2749582.pdf", "fecha": "05-01-2026", "edicion": "44340" }, "geometry": { "type": "Polygon", "coordinates": [ [ [ -69.37188682785181, -27.6444746935259 ], [ -69.361749500342768, -27.64450150706541 ], [ -69.361808915253434, -27.662556650774 ], [ -69.371947907657741, -27.662529816765581 ], [ -69.37188682785181, -27.6444746935259 ] ] ] } },
{ "type": "Feature", "properties": { "cve": "2749583", "nombre": "PANORAMA 3 E, 1 AL 20", "solicitante": "Norte Abierto SpA", "region": "REGIÓN DE ATACAMA", "provincia": "Provincia de Copiapó", "comuna": "Tierra Amarilla", "superficie_ha": 100.0, "datum_original": "PSAD56", "huso": 19, "epsg_origen": 24879, "tipo_publicacion": "manifestacion", "fuente_pdf": "http://www.diariooficial.interior.gob.cl/publicaciones/2026/01/05/44340/07/2749583.pdf", "archivo": "gm_manifestacion_2749583.pdf", "fecha": "05-01-2026", "edicion": "44340" }, "geometry": { "type": "Polygon", "coordinates": [ [ [ -69.321200056095634, -27.644601351364656 ], [ -69.31106266341574, -27.64462445995693 ], [ -69.311088202623907, -27.653652084679301 ], [ -69.321226427580825, -27.653628967267405 ], [ -69.321200056095634, -27.644601351364656 ] ] ] } },
{ "type": "Feature", "properties": { "cve": "2749451", "nombre": "NICANOR VIII 1 AL 10", "solicitante": "Díaz Luoni Edgardo Daniel", "region": "REGIÓN DE ATACAMA", "provincia": "Provincia de Huasco", "comuna": "Vallenar", "superficie_ha": 100.0, "datum_original": "PSAD56", "huso": 19, "epsg_origen": 24879, "tipo_publicacion": "manifestacion", "fuente_pdf": "http://www.diariooficial.interior.gob.cl/publicaciones/2026/01/05/44340/07/2749451.pdf", "archivo": "gm_manifestacion_2749451.pdf", "fecha": "05-01-2026", "edicion": "44340" }, "geometry": { "type": "Polygon", "coordinates": [ [ [ -70.755927766433643, -28.049011198467703 ], [ -70.745757315448984, -28.049140876576622 ], [ -70.745903094354745, -28.0581638939152 ], [ -70.756074393558862, -28.058034166817311 ], [ -70.755927766433643, -28.049011198467703 ] ] ] } },
{ "type": "Feature", "properties": { "cve": "2749401", "nombre": "POTRA BAYA DOS 1 AL 30", "solicitante": "Reinoso Marín Edith Jael", "region": "REGIÓN DE ATACAMA", "provincia": "Provincia de Huasco", "comuna": null, "superficie_ha": 300.0, "datum_original": "PSAD56", "huso": 19, "epsg_origen": 24879, "tipo_publicacion": "manifestacion", "fuente_pdf": "http://www.diariooficial.interior.gob.cl/publicaciones/2026/01/05/44340/07/2749401.pdf", "archivo": "gm_manifestacion_2749401.pdf", "fecha": "05-01-2026", "edicion": "44340" }, "geometry": { "type": "Polygon", "coordinates": [ [ [ -70.603029049578865, -28.660059950688495 ], [ -70.582569696514653, -28.66030059054922 ], [ -70.582773071786818, -28.673835013571079 ], [ -70.603235051345166, -28.673594239259678 ], [ -70.603029049578865, -28.660059950688495 ] ] ] } },
{ "type": "Feature", "properties": { "cve": "2749340", "nombre": "LOS ROBLES II, 1 AL 20", "solicitante": "Carvajal Ortega Christian Eduardo y otro", "region": "REGIÓN DE COQUIMBO", "provincia": "Provincia de Choapa", "comuna": null, "superficie_ha": 100.0, "datum_original": "PSAD56", "huso": 19, "epsg_origen": 24879, "tipo_publicacion": "manifestacion", "fuente_pdf": "http://www.diariooficial.interior.gob.cl/publicaciones/2026/01/05/44340/07/2749340.pdf", "archivo": "gm_manifestacion_2749340.pdf", "fecha": "05-01-2026", "edicion": "44340" }, "geometry": { "type": "Polygon", "coordinates": [ [ [ -71.238291808581465, -31.530554770680077 ], [ -71.227766172797359, -31.530738595207009 ], [ -71.227980330418021, -31.539754185453052 ], [ -71.238506975988017, -31.539570296372254 ], [ -71.238291808581465, -31.530554770680077 ] ] ] } },
{ "type": "Feature", "properties": { "cve": "2749245", "nombre": "LA PINTA 1 AL 60", "solicitante": "Araya Campos Roberto Antonio", "region": "REGIÓN DE COQUIMBO", "provincia": "Provincia de Limarí", "comuna": null, "superficie_ha": 60.0, "datum_original": "PSAD56", "huso": 19, "epsg_origen": 24879, "tipo_publicacion": "manifestacion", "fuente_pdf": "http://www.diariooficial.interior.gob.cl/publicaciones/2026/01/05/44340/07/2749245.pdf", "archivo": "gm_manifestacion_2749245.pdf", "fecha": "05-01-2026", "edicion": "44340" }, "geometry": { "type": "Polygon", "coordinates": [ [ [ -71.279254529910688, -31.151530026605112 ], [ -71.275061248855465, -31.15160420285104 ], [ -71.27538449378136, -31.165127947766258 ], [ -71.279578369369062, -31.165053732173664 ], [ -71.279254529910688, -31.151530026605112 ] ] ] } },
{ "type": "Feature", "properties": { "cve": "2749317", "nombre": "PULPICA 1 al 20", "solicitante": "García Lara Marcelo Alonso", "region": "REGIÓN DE COQUIMBO", "provincia": "Provincia de Limarí", "comuna": "Combarbalá", "superficie_ha": 100.0, "datum_original": "WGS84", "huso": 19, "epsg_origen": 32719, "tipo_publicacion": "manifestacion", "fuente_pdf": "http://www.diariooficial.interior.gob.cl/publicaciones/2026/01/05/44340/07/2749317.pdf", "archivo": "gm_manifestacion_2749317.pdf", "fecha": "05-01-2026", "edicion": "44340" }, "geometry": { "type": "Polygon", "coordinates": [ [ [ -70.870439354350495, -31.251413694029957 ], [ -70.859942348207653, -31.251566052215935 ], [ -70.860119233993217, -31.260584147283247 ], [ -70.870617237015949, -31.260431735308824 ], [ -70.870439354350495, -31.251413694029957 ] ] ] } },
{ "type": "Feature", "properties": { "cve": "2749486", "nombre": "SAMO A 1 AL 36", "solicitante": "Pruneda Flores Alyson Jenyffer Jesús", "region": "REGIÓN DE COQUIMBO", "provincia": "Provincia de Limarí", "comuna": "Ovalle", "superficie_ha": 36.0, "datum_original": "PSAD56", "huso": 19, "epsg_origen": 24879, "tipo_publicacion": "manifestacion", "fuente_pdf": "http://www.diariooficial.interior.gob.cl/publicaciones/2026/01/05/44340/07/2749486.pdf", "archivo": "gm_manifestacion_2749486.pdf", "fecha": "05-01-2026", "edicion": "44340" }, "geometry": { "type": "Polygon", "coordinates": [ [ [ -71.143194807663178, -30.524631011745864 ], [ -71.136945054686407, -30.524733691821773 ], [ -71.137063504661825, -30.530144225530847 ], [ -71.143313603414228, -30.530041523404744 ], [ -71.143194807663178, -30.524631011745864 ] ] ] } },
{ "type": "Feature", "properties": { "cve": "2749487", "nombre": "SAMO B 1 AL 216", "solicitante": "Pruneda Flores Alyson Jenyffer Jesús", "region": "REGIÓN DE COQUIMBO", "provincia": "Provincia de Limarí", "comuna": "Río Hurtado", "superficie_ha": 216.0, "datum_original": "PSAD56", "huso": 19, "epsg_origen": 24879, "tipo_publicacion": "manifestacion", "fuente_pdf": "http://www.diariooficial.interior.gob.cl/publicaciones/2026/01/05/44340/07/2749487.pdf", "archivo": "gm_manifestacion_2749487.pdf", "fecha": "05-01-2026", "edicion": "44340" }, "geometry": { "type": "Polygon", "coordinates": [ [ [ -71.003563691882661, -30.448369006168981 ], [ -70.991072793265928, -30.448560243226069 ], [ -70.991402981726495, -30.464793515792628 ], [ -71.003895948396064, -30.464602155323199 ], [ -71.003563691882661, -30.448369006168981 ] ] ] } },
{ "type": "Feature", "properties": { "cve": "2749488", "nombre": "SAMO C 1 AL 64", "solicitante": "Pruneda Flores Alyson Jenyffer Jesús", "region": "REGIÓN DE COQUIMBO", "provincia": "Provincia de Limarí", "comuna": "Río Hurtado", "superficie_ha": 64.0, "datum_original": "PSAD56", "huso": 19, "epsg_origen": 24879, "tipo_publicacion": "manifestacion", "fuente_pdf": "http://www.diariooficial.interior.gob.cl/publicaciones/2026/01/05/44340/07/2749488.pdf", "archivo": "gm_manifestacion_2749488.pdf", "fecha": "05-01-2026", "edicion": "44340" }, "geometry": { "type": "Polygon", "coordinates": [ [ [ -70.674545926687571, -30.388950088786977 ], [ -70.666222181428481, -30.389056530598726 ], [ -70.66634467723172, -30.396272701156512 ], [ -70.674669033732911, -30.396166228776639 ], [ -70.674545926687571, -30.388950088786977 ] ] ] } },
{ "type": "Feature", "properties": { "cve": "2749178", "nombre": "SAN JORGE DEL 1/5", "solicitante": "Cortés Madrid Misael Andrés y otro", "region": "REGIÓN DE COQUIMBO", "provincia": "Provincia de Limarí", "comuna": null, "superficie_ha": 25.0, "datum_original": "WGS84", "huso": 19, "epsg_origen": 32719, "tipo_publicacion": "manifestacion", "fuente_pdf": "http://www.diariooficial.interior.gob.cl/publicaciones/2026/01/05/44340/07/2749178.pdf", "archivo": "gm_manifestacion_2749178.pdf", "fecha": "05-01-2026", "edicion": "44340" }, "geometry": { "type": "Polygon", "coordinates": [ [ [ -71.023159033063806, -31.302102897546529 ], [ -71.017908209043867, -31.302185538263188 ], [ -71.018004340660269, -31.306694129583953 ], [ -71.023255414410016, -31.306611474295256 ], [ -71.023159033063806, -31.302102897546529 ] ] ] } },
{ "type": "Feature", "properties": { "cve": "2749105", "nombre": "MORENITA DEL 1 AL 12", "solicitante": "Barriga Barriga Christian Hernán", "region": "REGIÓN DE ANTOFAGASTA", "provincia": "Provincia de Antofagasta", "comuna": null, "superficie_ha": 60.0, "datum_original": "PSAD56", "huso": 19, "epsg_origen": 24879, "tipo_publicacion": "mensura", "fuente_pdf": "http://www.diariooficial.interior.gob.cl/publicaciones/2026/01/05/44340/07/2749105.pdf", "archivo": "gm_mensura_2749105.pdf", "fecha": "05-01-2026", "edicion": "44340" }, "geometry": { "type": "Polygon", "coordinates": [ [ [ -70.390840257016663, -23.807181025035764 ], [ -70.379063163070455, -23.807286757936094 ], [ -70.379110848172814, -23.81180166388366 ], [ -70.390888349027506, -23.811695908502934 ], [ -70.390840257016663, -23.807181025035764 ] ] ] } },
{ "type": "Feature", "properties": { "cve": "2749688", "nombre": "NEGRA 1 AL 10", "solicitante": "Mundaca Ferreira Jaime Enrique", "region": "REGIÓN DE ATACAMA", "provincia": "Provincia de Copiapó", "comuna": null, "superficie_ha": 50.0, "datum_original": "PSAD56", "huso": 19, "epsg_origen": 24879, "tipo_publicacion": "mensura", "fuente_pdf": "http://www.diariooficial.interior.gob.cl/publicaciones/2026/01/05/44340/07/2749688.pdf", "archivo": "gm_mensura_2749688.pdf", "fecha": "05-01-2026", "edicion": "44340" }, "geometry": { "type": "Polygon", "coordinates": [ [ [ -69.337675898304937, -28.055309132243245 ], [ -69.33258808175313, -28.055321547576632 ], [ -69.332615865720086, -28.064348611297802 ], [ -69.337704107281823, -28.064336191272805 ], [ -69.337675898304937, -28.055309132243245 ] ] ] } },
{ "type": "Feature", "properties": { "cve": "2749689", "nombre": "NEGRA I 1 AL 10", "solicitante": "Mundaca Ferreira Jaime Enrique", "region": "REGIÓN DE ATACAMA", "provincia": "Provincia de Copiapó", "comuna": null, "superficie_ha": 50.0, "datum_original": "PSAD56", "huso": 19, "epsg_origen": 24879, "tipo_publicacion": "mensura", "fuente_pdf": "http://www.diariooficial.interior.gob.cl/publicaciones/2026/01/05/44340/07/2749689.pdf", "archivo": "gm_mensura_2749689.pdf", "fecha": "05-01-2026", "edicion": "44340" }, "geometry": { "type": "Polygon", "coordinates": [ [ [ -69.302061116687, -28.055392081551052 ], [ -69.296973278675523, -28.05540317753853 ], [ -69.296998087542079, -28.064430272106701 ], [ -69.302086350571116, -28.064419171926179 ], [ -69.302061116687, -28.055392081551052 ] ] ] } },
{ "type": "Feature", "properties": { "cve": "2749690", "nombre": "NEGRA III 1 AL 10", "solicitante": "Mundaca Ferreira Jaime Enrique", "region": "REGIÓN DE ATACAMA", "provincia": "Provincia de Copiapó", "comuna": null, "superficie_ha": 100.0, "datum_original": "PSAD56", "huso": 19, "epsg_origen": 24879, "tipo_publicacion": "mensura", "fuente_pdf": "http://www.diariooficial.interior.gob.cl/publicaciones/2026/01/05/44340/07/2749690.pdf", "archivo": "gm_mensura_2749690.pdf", "fecha": "05-01-2026", "edicion": "44340" }, "geometry": { "type": "Polygon", "coordinates": [ [ [ -69.300559871966698, -28.064422521778145 ], [ -69.293436301711139, -28.064437930045322 ], [ -69.293460824407688, -28.073465015517193 ], [ -69.30058498996388, -28.07344960142866 ], [ -69.300559871966698, -28.064422521778145 ] ] ] } },
{ "type": "Feature", "properties": { "cve": "2749691", "nombre": "NEGRA IV 1 AL 10", "solicitante": "Mundaca Ferreira Jaime Enrique", "region": "REGIÓN DE ATACAMA", "provincia": "Provincia de Copiapó", "comuna": null, "superficie_ha": 100.0, "datum_original": "PSAD56", "huso": 19, "epsg_origen": 24879, "tipo_publicacion": "mensura", "fuente_pdf": "http://www.diariooficial.interior.gob.cl/publicaciones/2026/01/05/44340/07/2749691.pdf", "archivo": "gm_mensura_2749691.pdf", "fecha": "05-01-2026", "edicion": "44340" }, "geometry": { "type": "Polygon", "coordinates": [ [ [ -69.2765964911125, -28.045515841155403 ], [ -69.266421719355037, -28.04553595148333 ], [ -69.266443966769131, -28.054563082895406 ], [ -69.276619588139965, -28.054542964966213 ], [ -69.2765964911125, -28.045515841155403 ] ] ] } },
{ "type": "Feature", "properties": { "cve": "2749417", "nombre": "LOS MOLLES 1 AL 25", "solicitante": "Robles Robles Víctor Hugo y otros", "region": "REGIÓN DE COQUIMBO", "provincia": "Provincia de Choapa", "comuna": null, "superficie_ha": 96.0, "datum_original": "PSAD56", "huso": 19, "epsg_origen": 24879, "tipo_publicacion": "mensura", "fuente_pdf": "http://www.diariooficial.interior.gob.cl/publicaciones/2026/01/05/44340/07/2749417.pdf", "archivo": "gm_mensura_2749417.pdf", "fecha": "05-01-2026", "edicion": "44340" }, "geometry": { "type": "Polygon", "coordinates": [ [ [ -71.424854580374628, -31.181726590419558 ], [ -71.422757496257589, -31.181766099847895 ], [ -71.422711563573756, -31.179963131311446 ], [ -71.414323344502478, -31.180120816689929 ], [ -71.414552255794803, -31.189135709393188 ], [ -71.425038511097696, -31.188938447692333 ], [ -71.424854580374628, -31.181726590419558 ] ] ] } },
{ "type": "Feature", "properties": { "cve": "2748517", "nombre": "CAMPANA 1", "solicitante": "Invexmin Chile SpA", "region": "REGIÓN DE ARICA Y PARINACOTA", "provincia": "Provincia de Arica", "comuna": "Arica", "superficie_ha": 300.0, "datum_original": "PSAD56", "huso": 19, "epsg_origen": 24879, "tipo_publicacion": "pedimento", "fuente_pdf": "http://www.diariooficial.interior.gob.cl/publicaciones/2026/01/05/44340/07/2748517.pdf", "archivo": "gm_pedimento_2748517.pdf", "fecha": "05-01-2026", "edicion": "44340" }, "geometry": { "type": "Polygon", "coordinates": [ [ [ -69.714276869371005, -18.280465713006862 ], [ -69.68589566065836, -18.280569612772851 ], [ -69.685931189979996, -18.289607175879944 ], [ -69.714313868537587, -18.289503221208687 ], [ -69.714276869371005, -18.280465713006862 ] ] ] } },
{ "type": "Feature", "properties": { "cve": "2748521", "nombre": "CAMPANA 2", "solicitante": "Invexmin Chile SpA", "region": "REGIÓN DE ARICA Y PARINACOTA", "provincia": "Provincia de Arica", "comuna": "Arica", "superficie_ha": 100.0, "datum_original": "PSAD56", "huso": 19, "epsg_origen": 24879, "tipo_publicacion": "pedimento", "fuente_pdf": "http://www.diariooficial.interior.gob.cl/publicaciones/2026/01/05/44340/07/2748521.pdf", "archivo": "gm_pedimento_2748521.pdf", "fecha": "05-01-2026", "edicion": "44340" }, "geometry": { "type": "Polygon", "coordinates": [ [ [ -69.714313868537587, -18.289503221208687 ], [ -69.704852996806281, -18.289538340931845 ], [ -69.70488952724601, -18.29857585898899 ], [ -69.714350889205292, -18.298540720714964 ], [ -69.714313868537587, -18.289503221208687 ] ] ] } },
{ "type": "Feature", "properties": { "cve": "2748526", "nombre": "CAMPANA 3", "solicitante": "Invexmin Chile SpA", "region": "REGIÓN DE ARICA Y PARINACOTA", "provincia": "Provincia de Arica", "comuna": "Arica", "superficie_ha": 100.0, "datum_original": "PSAD56", "huso": 19, "epsg_origen": 24879, "tipo_publicacion": "pedimento", "fuente_pdf": "http://www.diariooficial.interior.gob.cl/publicaciones/2026/01/05/44340/07/2748526.pdf", "archivo": "gm_pedimento_2748526.pdf", "fecha": "05-01-2026", "edicion": "44340" }, "geometry": { "type": "Polygon", "coordinates": [ [ [ -69.695392103858836, -18.289572992490449 ], [ -69.685931189979996, -18.289607175879944 ], [ -69.685966739948626, -18.298644730296964 ], [ -69.695428144065517, -18.298610528851171 ], [ -69.695392103858836, -18.289572992490449 ] ] ] } },
{ "type": "Feature", "properties": { "cve": "2748527", "nombre": "CAMPANA 4", "solicitante": "Invexmin Chile SpA", "region": "REGIÓN DE ARICA Y PARINACOTA", "provincia": "Provincia de Arica", "comuna": "Arica", "superficie_ha": 300.0, "datum_original": "PSAD56", "huso": 19, "epsg_origen": 24879, "tipo_publicacion": "pedimento", "fuente_pdf": "http://www.diariooficial.interior.gob.cl/publicaciones/2026/01/05/44340/07/2748527.pdf", "archivo": "gm_pedimento_2748527.pdf", "fecha": "05-01-2026", "edicion": "44340" }, "geometry": { "type": "Polygon", "coordinates": [ [ [ -69.714350889205292, -18.298540720714964 ], [ -69.685966739948626, -18.298644730296964 ], [ -69.686002310569165, -18.307682276020248 ], [ -69.714387931379235, -18.307578211521996 ], [ -69.714350889205292, -18.298540720714964 ] ] ] } },
{ "type": "Feature", "properties": { "cve": "2749270", "nombre": "MUROROA 5", "solicitante": "FQM Exploration (Chile) S.A.", "region": "REGIÓN DE ANTOFAGASTA", "provincia": "Provincia de Antofagasta", "comuna": "Sierra Gorda", "superficie_ha": 300.0, "datum_original": "PSAD56", "huso": 19, "epsg_origen": 24879, "tipo_publicacion": "pedimento", "fuente_pdf": "http://www.diariooficial.interior.gob.cl/publicaciones/2026/01/05/44340/07/2749270.pdf", "archivo": "gm_pedimento_2749270.pdf", "fecha": "05-01-2026", "edicion": "44340" }, "geometry": { "type": "Polygon", "coordinates": [ [ [ -69.060491231738325, -23.323865659308051 ], [ -69.03114741238096, -23.323874238252767 ], [ -69.031149517881246, -23.332907241188263 ], [ -69.060495320817537, -23.332898658536088 ], [ -69.060491231738325, -23.323865659308051 ] ] ] } },
{ "type": "Feature", "properties": { "cve": "2749271", "nombre": "MUROROA 6", "solicitante": "FQM Exploration (Chile) S.A.", "region": "REGIÓN DE ANTOFAGASTA", "provincia": "Provincia de Antofagasta", "comuna": "Sierra Gorda", "superficie_ha": 200.0, "datum_original": "PSAD56", "huso": 19, "epsg_origen": 24879, "tipo_publicacion": "pedimento", "fuente_pdf": "http://www.diariooficial.interior.gob.cl/publicaciones/2026/01/05/44340/07/2749271.pdf", "archivo": "gm_pedimento_2749271.pdf", "fecha": "05-01-2026", "edicion": "44340" }, "geometry": { "type": "Polygon", "coordinates": [ [ [ -69.060495320817537, -23.332898658536088 ], [ -69.040931453689339, -23.332904991027043 ], [ -69.040934221768879, -23.341937982486414 ], [ -69.060499411944974, -23.341931647259646 ], [ -69.060495320817537, -23.332898658536088 ] ] ] } },
{ "type": "Feature", "properties": { "cve": "2749099", "nombre": "SAN RALLIV I", "solicitante": "Compañía Minera San Francisco SpA", "region": "REGIÓN DE ANTOFAGASTA", "provincia": "Provincia de Antofagasta", "comuna": null, "superficie_ha": 300.0, "datum_original": "PSAD56", "huso": 19, "epsg_origen": 24879, "tipo_publicacion": "pedimento", "fuente_pdf": "http://www.diariooficial.interior.gob.cl/publicaciones/2026/01/05/44340/07/2749099.pdf", "archivo": "gm_pedimento_2749099.pdf", "fecha": "05-01-2026", "edicion": "44340" }, "geometry": { "type": "Polygon", "coordinates": [ [ [ -68.654317655618655, -25.238230215855737 ], [ -68.644388857403143, -25.238206654160017 ], [ -68.644309984087144, -25.265298228649659 ], [ -68.654240984367149, -25.265321819124921 ], [ -68.654317655618655, -25.238230215855737 ] ] ] } },
{ "type": "Feature", "properties": { "cve": "2749100", "nombre": "SAN RALLIV II", "solicitante": "Compañía Minera San Francisco SpA", "region": "REGIÓN DE ANTOFAGASTA", "provincia": "Provincia de Antofagasta", "comuna": null, "superficie_ha": 300.0, "datum_original": "PSAD56", "huso": 19, "epsg_origen": 24879, "tipo_publicacion": "pedimento", "fuente_pdf": "http://www.diariooficial.interior.gob.cl/publicaciones/2026/01/05/44340/07/2749100.pdf", "archivo": "gm_pedimento_2749100.pdf", "fecha": "05-01-2026", "edicion": "44340" }, "geometry": { "type": "Polygon", "coordinates": [ [ [ -68.644388857403143, -25.238206654160017 ], [ -68.634460071855585, -25.238182425328915 ], [ -68.634378996487342, -25.265273970224165 ], [ -68.644309984087144, -25.265298228649659 ], [ -68.644388857403143, -25.238206654160017 ] ] ] } },
{ "type": "Feature", "properties": { "cve": "2749101", "nombre": "SAN RALLIV III", "solicitante": "Compañía Minera San Francisco SpA", "region": "REGIÓN DE ANTOFAGASTA", "provincia": "Provincia de Antofagasta", "comuna": null, "superficie_ha": 300.0, "datum_original": "PSAD56", "huso": 19, "epsg_origen": 24879, "tipo_publicacion": "pedimento", "fuente_pdf": "http://www.diariooficial.interior.gob.cl/publicaciones/2026/01/05/44340/07/2749101.pdf", "archivo": "gm_pedimento_2749101.pdf", "fecha": "05-01-2026", "edicion": "44340" }, "geometry": { "type": "Polygon", "coordinates": [ [ [ -68.634460071855585, -25.238182425328915 ], [ -68.624531299329632, -25.238157529365822 ], [ -68.624448021921808, -25.265249043851792 ], [ -68.634378996487342, -25.265273970224165 ], [ -68.634460071855585, -25.238182425328915 ] ] ] } },
{ "type": "Feature", "properties": { "cve": "2749102", "nombre": "SAN RALLIV IV", "solicitante": "Compañía Minera San Francisco SpA", "region": "REGIÓN DE ANTOFAGASTA", "provincia": "Provincia de Antofagasta", "comuna": null, "superficie_ha": 300.0, "datum_original": "PSAD56", "huso": 19, "epsg_origen": 24879, "tipo_publicacion": "pedimento", "fuente_pdf": "http://www.diariooficial.interior.gob.cl/publicaciones/2026/01/05/44340/07/2749102.pdf", "archivo": "gm_pedimento_2749102.pdf", "fecha": "05-01-2026", "edicion": "44340" }, "geometry": { "type": "Polygon", "coordinates": [ [ [ -68.624531299329632, -25.238157529365822 ], [ -68.614602540178964, -25.238131966274167 ], [ -68.614517060744518, -25.265223449536034 ], [ -68.624448021921808, -25.265249043851792 ], [ -68.624531299329632, -25.238157529365822 ] ] ] } },
{ "type": "Feature", "properties": { "cve": "2749103", "nombre": "SAN RALLIV V", "solicitante": "Compañía Minera San Francisco SpA", "region": "REGIÓN DE ANTOFAGASTA", "provincia": "Provincia de Antofagasta", "comuna": null, "superficie_ha": 300.0, "datum_original": "PSAD56", "huso": 19, "epsg_origen": 24879, "tipo_publicacion": "pedimento", "fuente_pdf": "http://www.diariooficial.interior.gob.cl/publicaciones/2026/01/05/44340/07/2749103.pdf", "archivo": "gm_pedimento_2749103.pdf", "fecha": "05-01-2026", "edicion": "44340" }, "geometry": { "type": "Polygon", "coordinates": [ [ [ -68.614602540178964, -25.238131966274167 ], [ -68.60467379475719, -25.238105736057552 ], [ -68.604586113309452, -25.265197187280439 ], [ -68.614517060744518, -25.265223449536034 ], [ -68.614602540178964, -25.238131966274167 ] ] ] } },
{ "type": "Feature", "properties": { "cve": "2749450", "nombre": "ALICANTO DOCE", "solicitante": "Servicios Integrales Newen SpA", "region": "REGIÓN DE ATACAMA", "provincia": "Provincia de Huasco", "comuna": null, "superficie_ha": 200.0, "datum_original": "PSAD56", "huso": 19, "epsg_origen": 24879, "tipo_publicacion": "pedimento", "fuente_pdf": "http://www.diariooficial.interior.gob.cl/publicaciones/2026/01/05/44340/07/2749450.pdf", "archivo": "gm_pedimento_2749450.pdf", "fecha": "05-01-2026", "edicion": "44340" }, "geometry": { "type": "Polygon", "coordinates": [ [ [ -70.542113443323856, -28.320079319955084 ], [ -70.521718933127772, -28.320308258308089 ], [ -70.521847459654339, -28.329331925827816 ], [ -70.542243690746304, -28.329102901529762 ], [ -70.542113443323856, -28.320079319955084 ] ] ] } },
{ "type": "Feature", "properties": { "cve": "2749449", "nombre": "ALICANTO ONCE", "solicitante": "Servicios Integrales Newen SpA", "region": "REGIÓN DE ATACAMA", "provincia": "Provincia de Huasco", "comuna": null, "superficie_ha": 300.0, "datum_original": "PSAD56", "huso": 19, "epsg_origen": 24879, "tipo_publicacion": "pedimento", "fuente_pdf": "http://www.diariooficial.interior.gob.cl/publicaciones/2026/01/05/44340/07/2749449.pdf", "archivo": "gm_pedimento_2749449.pdf", "fecha": "05-01-2026", "edicion": "44340" }, "geometry": { "type": "Polygon", "coordinates": [ [ [ -70.551917647609613, -28.292893018707794 ], [ -70.541723061252242, -28.293008499756631 ], [ -70.542113443323856, -28.320079319955084 ], [ -70.552310608550002, -28.319963708745775 ], [ -70.551917647609613, -28.292893018707794 ] ] ] } },
{ "type": "Feature", "properties": { "cve": "2749655", "nombre": "PAULINA", "solicitante": "Sociedad Minera La Frontera SpA", "region": "REGIÓN DE ATACAMA", "provincia": "Provincia de Huasco", "comuna": "Vallenar", "superficie_ha": 100.0, "datum_original": "PSAD56", "huso": 19, "epsg_origen": 24879, "tipo_publicacion": "pedimento", "fuente_pdf": "http://www.diariooficial.interior.gob.cl/publicaciones/2026/01/05/44340/07/2749655.pdf", "archivo": "gm_pedimento_2749655.pdf", "fecha": "05-01-2026", "edicion": "44340" }, "geometry": { "type": "Polygon", "coordinates": [ [ [ -70.672238780126577, -28.810830096571195 ], [ -70.66199479666102, -28.810956631756341 ], [ -70.662138056316337, -28.819979025274264 ], [ -70.672382921786692, -28.819852443121324 ], [ -70.672238780126577, -28.810830096571195 ] ] ] } },
{ "type": "Feature", "properties": { "cve": "2749613", "nombre": "EL OLIVO", "solicitante": "Cáceres Pizarro Rocío Soledad y otra", "region": "REGIÓN METROPOLITANA DE SANTIAGO", "provincia": "Provincia Cordillera", "comuna": null, "superficie_ha": 140.0, "datum_original": "PSAD56", "huso": 19, "epsg_origen": 24879, "tipo_publicacion": "pedimento", "fuente_pdf": "http://www.diariooficial.interior.gob.cl/publicaciones/2026/01/05/44340/07/2749613.pdf", "archivo": "gm_pedimento_2749613.pdf", "fecha": "05-01-2026", "edicion": "44340" }, "geometry": { "type": "Polygon", "coordinates": [ [ [ -70.230439110999612, -33.431245993689977 ], [ -70.215382192195221, -33.43139445617502 ], [ -70.215507916901174, -33.440412106549921 ], [ -70.230566392310138, -33.440263593526652 ], [ -70.230439110999612, -33.431245993689977 ] ] ] } },
{ "type": "Feature", "properties": { "cve": "2749468", "nombre": "ROT 1", "solicitante": "UKA Chile y Compañía", "region": "REGIÓN DE ÑUBLE", "provincia": "Provincia de Punilla", "comuna": null, "superficie_ha": 200.0, "datum_original": "PSAD56", "huso": 18, "epsg_origen": 24878, "tipo_publicacion": "pedimento", "fuente_pdf": "http://www.diariooficial.interior.gob.cl/publicaciones/2026/01/05/44340/07/2749468.pdf", "archivo": "gm_pedimento_2749468.pdf", "fecha": "05-01-2026", "edicion": "44340" }, "geometry": { "type": "Polygon", "coordinates": [ [ [ -72.323030639832339, -36.281708587062795 ], [ -72.300785060965779, -36.281208225104457 ], [ -72.300474718437883, -36.290213704209954 ], [ -72.322722847511642, -36.290714230048543 ], [ -72.323030639832339, -36.281708587062795 ] ] ] } },
{ "type": "Feature", "properties": { "cve": "2749469", "nombre": "ROT 2", "solicitante": "UKA Chile y Compañía", "region": "REGIÓN DE ÑUBLE", "provincia": "Provincia de Punilla", "comuna": null, "superficie_ha": 300.0, "datum_original": "PSAD56", "huso": 18, "epsg_origen": 24878, "tipo_publicacion": "pedimento", "fuente_pdf": "http://www.diariooficial.interior.gob.cl/publicaciones/2026/01/05/44340/07/2749469.pdf", "archivo": "gm_pedimento_2749469.pdf", "fecha": "05-01-2026", "edicion": "44340" }, "geometry": { "type": "Polygon", "coordinates": [ [ [ -72.300785060965779, -36.281208225104457 ], [ -72.267417726983169, -36.280449935310742 ], [ -72.267103559614426, -36.289455166062503 ], [ -72.300474718437883, -36.290213704209954 ], [ -72.300785060965779, -36.281208225104457 ] ] ] } },
{ "type": "Feature", "properties": { "cve": "2749470", "nombre": "ROT 3", "solicitante": "UKA Chile y Compañía", "region": "REGIÓN DE ÑUBLE", "provincia": "Provincia de Punilla", "comuna": null, "superficie_ha": 300.0, "datum_original": "PSAD56", "huso": 18, "epsg_origen": 24878, "tipo_publicacion": "pedimento", "fuente_pdf": "http://www.diariooficial.interior.gob.cl/publicaciones/2026/01/05/44340/07/2749470.pdf", "archivo": "gm_pedimento_2749470.pdf", "fecha": "05-01-2026", "edicion": "44340" }, "geometry": { "type": "Polygon", "coordinates": [ [ [ -72.318273177823102, -36.290614455541366 ], [ -72.284901355741866, -36.289860876931627 ], [ -72.284589089643958, -36.298866224508544 ], [ -72.317964738561599, -36.299620049906409 ], [ -72.318273177823102, -36.290614455541366 ] ] ] } },
{ "type": "Feature", "properties": { "cve": "2749471", "nombre": "ROT 4", "solicitante": "UKA Chile y Compañía", "region": "REGIÓN DE ÑUBLE", "provincia": "Provincia de Punilla", "comuna": null, "superficie_ha": 300.0, "datum_original": "PSAD56", "huso": 18, "epsg_origen": 24878, "tipo_publicacion": "pedimento", "fuente_pdf": "http://www.diariooficial.interior.gob.cl/publicaciones/2026/01/05/44340/07/2749471.pdf", "archivo": "gm_pedimento_2749471.pdf", "fecha": "05-01-2026", "edicion": "44340" }, "geometry": { "type": "Polygon", "coordinates": [ [ [ -72.324595514713181, -36.299768702233095 ], [ -72.291219619728992, -36.299016724946924 ], [ -72.290907975550979, -36.308022105794514 ], [ -72.324287699178527, -36.308774329320329 ], [ -72.324595514713181, -36.299768702233095 ] ] ] } },
{ "type": "Feature", "properties": { "cve": "2749472", "nombre": "ROT 5", "solicitante": "UKA Chile y Compañía", "region": "REGIÓN DE ÑUBLE", "provincia": "Provincia de Punilla", "comuna": null, "superficie_ha": 300.0, "datum_original": "PSAD56", "huso": 18, "epsg_origen": 24878, "tipo_publicacion": "pedimento", "fuente_pdf": "http://www.diariooficial.interior.gob.cl/publicaciones/2026/01/05/44340/07/2749472.pdf", "archivo": "gm_pedimento_2749472.pdf", "fecha": "05-01-2026", "edicion": "44340" }, "geometry": { "type": "Polygon", "coordinates": [ [ [ -72.324287699178527, -36.308774329320329 ], [ -72.290907975550979, -36.308022105794514 ], [ -72.29059619301006, -36.317027470639566 ], [ -72.323979746976931, -36.317779940460696 ], [ -72.324287699178527, -36.308774329320329 ] ] ] } },
{ "type": "Feature", "properties": { "cve": "2749473", "nombre": "ROT 6", "solicitante": "UKA Chile y Compañía", "region": "REGIÓN DE ÑUBLE", "provincia": "Provincia de Punilla", "comuna": null, "superficie_ha": 200.0, "datum_original": "PSAD56", "huso": 18, "epsg_origen": 24878, "tipo_publicacion": "pedimento", "fuente_pdf": "http://www.diariooficial.interior.gob.cl/publicaciones/2026/01/05/44340/07/2749473.pdf", "archivo": "gm_pedimento_2749473.pdf", "fecha": "05-01-2026", "edicion": "44340" }, "geometry": { "type": "Polygon", "coordinates": [ [ [ -72.321086456711214, -36.317715094835854 ], [ -72.298830687826253, -36.317213944741532 ], [ -72.29851971204269, -36.326219354630759 ], [ -72.320778035648473, -36.326720668796789 ], [ -72.321086456711214, -36.317715094835854 ] ] ] } },
{ "type": "Feature", "properties": { "cve": "2749474", "nombre": "ROT 7", "solicitante": "UKA Chile y Compañía", "region": "REGIÓN DE ÑUBLE", "provincia": "Provincia de Punilla", "comuna": null, "superficie_ha": 200.0, "datum_original": "PSAD56", "huso": 18, "epsg_origen": 24878, "tipo_publicacion": "pedimento", "fuente_pdf": "http://www.diariooficial.interior.gob.cl/publicaciones/2026/01/05/44340/07/2749474.pdf", "archivo": "gm_pedimento_2749474.pdf", "fecha": "05-01-2026", "edicion": "44340" }, "geometry": { "type": "Polygon", "coordinates": [ [ [ -72.320778035648473, -36.326720668796789 ], [ -72.29851971204269, -36.326219354630759 ], [ -72.298208598189035, -36.335224748526038 ], [ -72.320469477647322, -36.335726226800872 ], [ -72.320778035648473, -36.326720668796789 ] ] ] } },
{ "type": "Feature", "properties": { "cve": "2749475", "nombre": "ROT 8", "solicitante": "UKA Chile y Compañía", "region": "REGIÓN DE ÑUBLE", "provincia": "Provincia de Punilla", "comuna": null, "superficie_ha": 200.0, "datum_original": "PSAD56", "huso": 18, "epsg_origen": 24878, "tipo_publicacion": "pedimento", "fuente_pdf": "http://www.diariooficial.interior.gob.cl/publicaciones/2026/01/05/44340/07/2749475.pdf", "archivo": "gm_pedimento_2749475.pdf", "fecha": "05-01-2026", "edicion": "44340" }, "geometry": { "type": "Polygon", "coordinates": [ [ [ -72.287390757062383, -36.325967145605141 ], [ -72.276261940718186, -36.325713902005489 ], [ -72.275634462543451, -36.343724342839202 ], [ -72.286765834991826, -36.343977752257217 ], [ -72.287390757062383, -36.325967145605141 ] ] ] } },
{ "type": "Feature", "properties": { "cve": "2749476", "nombre": "ROT 9", "solicitante": "UKA Chile y Compañía", "region": "REGIÓN DE ÑUBLE", "provincia": "Provincia de Punilla", "comuna": null, "superficie_ha": 200.0, "datum_original": "PSAD56", "huso": 18, "epsg_origen": 24878, "tipo_publicacion": "pedimento", "fuente_pdf": "http://www.diariooficial.interior.gob.cl/publicaciones/2026/01/05/44340/07/2749476.pdf", "archivo": "gm_pedimento_2749476.pdf", "fecha": "05-01-2026", "edicion": "44340" }, "geometry": { "type": "Polygon", "coordinates": [ [ [ -72.276199217965356, -36.327514948974866 ], [ -72.265070285327113, -36.32726065419601 ], [ -72.264440195239985, -36.345270922113848 ], [ -72.275571684082109, -36.345525383394893 ], [ -72.276199217965356, -36.327514948974866 ] ] ] } }
]
}
