{
"type": "FeatureCollection",
"name": "boletin_mineria_20260413",
"crs": { "type": "name", "properties": { "name": "urn:ogc:def:crs:OGC:1.3:CRS84" } },
"features": [
{ "type": "Feature", "properties": { "cve": "2794092", "nombre": "Nazaria 1 al 20", "solicitante": "Gómez Gallardo Boris Adrián", "region": "REGIÓN DE ARICA Y PARINACOTA", "provincia": "Provincia de Parinacota", "comuna": "Putre", "superficie_ha": 200.0, "datum_original": "PSAD56", "huso": 19, "epsg_origen": 24879, "tipo_publicacion": "manifestacion", "fuente_pdf": "http://www.diariooficial.interior.gob.cl/publicaciones/2026/04/13/44423/07/2794092.pdf", "archivo": "gm_manifestacion_2794092.pdf", "fecha": "13-04-2026", "edicion": "44423" }, "geometry": { "type": "Polygon", "coordinates": [ [ [ -69.030237623755838, -18.901021410414664 ], [ -69.011246476645894, -18.901023529767041 ], [ -69.011247080476323, -18.910061285423094 ], [ -69.030239247232672, -18.91005916498246 ], [ -69.030237623755838, -18.901021410414664 ] ] ] } },
{ "type": "Feature", "properties": { "cve": "2793607", "nombre": "EMILIA 1, 1/20", "solicitante": "Beseler Valdivia Jorge Carlos", "region": "REGIÓN DE TARAPACÁ", "provincia": "Provincia del Tamarugal", "comuna": "Huara", "superficie_ha": 200.0, "datum_original": "PSAD56", "huso": 19, "epsg_origen": 24879, "tipo_publicacion": "manifestacion", "fuente_pdf": "http://www.diariooficial.interior.gob.cl/publicaciones/2026/04/13/44423/07/2793607.pdf", "archivo": "gm_manifestacion_2793607.pdf", "fecha": "13-04-2026", "edicion": "44423" }, "geometry": { "type": "Polygon", "coordinates": [ [ [ -69.326742572860454, -19.976152672991663 ], [ -69.307626307946862, -19.976186847750036 ], [ -69.307643841784014, -19.985223392107258 ], [ -69.326761196225249, -19.985189200605074 ], [ -69.326742572860454, -19.976152672991663 ] ] ] } },
{ "type": "Feature", "properties": { "cve": "2793616", "nombre": "EMILIA 10, 1/30", "solicitante": "Beseler Valdivia Jorge Carlos", "region": "REGIÓN DE TARAPACÁ", "provincia": "Provincia del Tamarugal", "comuna": "Huara", "superficie_ha": 300.0, "datum_original": "PSAD56", "huso": 19, "epsg_origen": 24879, "tipo_publicacion": "manifestacion", "fuente_pdf": "http://www.diariooficial.interior.gob.cl/publicaciones/2026/04/13/44423/07/2793616.pdf", "archivo": "gm_manifestacion_2793616.pdf", "fecha": "13-04-2026", "edicion": "44423" }, "geometry": { "type": "Polygon", "coordinates": [ [ [ -69.297983355132118, -19.931020261570232 ], [ -69.288427918189029, -19.931036023007881 ], [ -69.288477143037824, -19.958145814829688 ], [ -69.298034210711535, -19.95813003017858 ], [ -69.297983355132118, -19.931020261570232 ] ] ] } },
{ "type": "Feature", "properties": { "cve": "2793608", "nombre": "EMILIA 2, 1/20", "solicitante": "Beseler Valdivia Jorge Carlos", "region": "REGIÓN DE TARAPACÁ", "provincia": "Provincia del Tamarugal", "comuna": "Huara", "superficie_ha": 200.0, "datum_original": "PSAD56", "huso": 19, "epsg_origen": 24879, "tipo_publicacion": "manifestacion", "fuente_pdf": "http://www.diariooficial.interior.gob.cl/publicaciones/2026/04/13/44423/07/2793608.pdf", "archivo": "gm_manifestacion_2793608.pdf", "fecha": "13-04-2026", "edicion": "44423" }, "geometry": { "type": "Polygon", "coordinates": [ [ [ -69.307626307946862, -19.976186847750036 ], [ -69.288510004615617, -19.976218962913073 ], [ -69.288526448915121, -19.985255523005023 ], [ -69.307643841784014, -19.985223392107258 ], [ -69.307626307946862, -19.976186847750036 ] ] ] } },
{ "type": "Feature", "properties": { "cve": "2793609", "nombre": "EMILIA 3, 1/30", "solicitante": "Beseler Valdivia Jorge Carlos", "region": "REGIÓN DE TARAPACÁ", "provincia": "Provincia del Tamarugal", "comuna": "Huara", "superficie_ha": 300.0, "datum_original": "PSAD56", "huso": 19, "epsg_origen": 24879, "tipo_publicacion": "manifestacion", "fuente_pdf": "http://www.diariooficial.interior.gob.cl/publicaciones/2026/04/13/44423/07/2793609.pdf", "archivo": "gm_manifestacion_2793609.pdf", "fecha": "13-04-2026", "edicion": "44423" }, "geometry": { "type": "Polygon", "coordinates": [ [ [ -69.326705356732688, -19.958079589854648 ], [ -69.317148317857232, -19.958096917688867 ], [ -69.317202523957349, -19.98520655393061 ], [ -69.326761196225249, -19.985189200605074 ], [ -69.326705356732688, -19.958079589854648 ] ] ] } },
{ "type": "Feature", "properties": { "cve": "2793610", "nombre": "EMILIA 4, 1/30", "solicitante": "Beseler Valdivia Jorge Carlos", "region": "REGIÓN DE TARAPACÁ", "provincia": "Provincia del Tamarugal", "comuna": "Huara", "superficie_ha": 300.0, "datum_original": "PSAD56", "huso": 19, "epsg_origen": 24879, "tipo_publicacion": "manifestacion", "fuente_pdf": "http://www.diariooficial.interior.gob.cl/publicaciones/2026/04/13/44423/07/2793610.pdf", "archivo": "gm_manifestacion_2793610.pdf", "fecha": "13-04-2026", "edicion": "44423" }, "geometry": { "type": "Polygon", "coordinates": [ [ [ -69.317148317857232, -19.958096917688867 ], [ -69.307591269084085, -19.958113731130922 ], [ -69.307643841784014, -19.985223392107258 ], [ -69.317202523957349, -19.98520655393061 ], [ -69.317148317857232, -19.958096917688867 ] ] ] } },
{ "type": "Feature", "properties": { "cve": "2793611", "nombre": "EMILIA 5, 1/30", "solicitante": "Beseler Valdivia Jorge Carlos", "region": "REGIÓN DE TARAPACÁ", "provincia": "Provincia del Tamarugal", "comuna": "Huara", "superficie_ha": 300.0, "datum_original": "PSAD56", "huso": 19, "epsg_origen": 24879, "tipo_publicacion": "manifestacion", "fuente_pdf": "http://www.diariooficial.interior.gob.cl/publicaciones/2026/04/13/44423/07/2793611.pdf", "archivo": "gm_manifestacion_2793611.pdf", "fecha": "13-04-2026", "edicion": "44423" }, "geometry": { "type": "Polygon", "coordinates": [ [ [ -69.307591269084085, -19.958113731130922 ], [ -69.298034210711535, -19.95813003017858 ], [ -69.298085150003786, -19.985239715132789 ], [ -69.307643841784014, -19.985223392107258 ], [ -69.307591269084085, -19.958113731130922 ] ] ] } },
{ "type": "Feature", "properties": { "cve": "2793612", "nombre": "EMILIA 6, 1/30", "solicitante": "Beseler Valdivia Jorge Carlos", "region": "REGIÓN DE TARAPACÁ", "provincia": "Provincia del Tamarugal", "comuna": "Huara", "superficie_ha": 300.0, "datum_original": "PSAD56", "huso": 19, "epsg_origen": 24879, "tipo_publicacion": "manifestacion", "fuente_pdf": "http://www.diariooficial.interior.gob.cl/publicaciones/2026/04/13/44423/07/2793612.pdf", "archivo": "gm_manifestacion_2793612.pdf", "fecha": "13-04-2026", "edicion": "44423" }, "geometry": { "type": "Polygon", "coordinates": [ [ [ -69.298034210711535, -19.95813003017858 ], [ -69.288477143037824, -19.958145814829688 ], [ -69.288526448915121, -19.985255523005023 ], [ -69.298085150003786, -19.985239715132789 ], [ -69.298034210711535, -19.95813003017858 ] ] ] } },
{ "type": "Feature", "properties": { "cve": "2793613", "nombre": "EMILIA 7, 1/30", "solicitante": "Beseler Valdivia Jorge Carlos", "region": "REGIÓN DE TARAPACÁ", "provincia": "Provincia del Tamarugal", "comuna": "Huara", "superficie_ha": 300.0, "datum_original": "PSAD56", "huso": 19, "epsg_origen": 24879, "tipo_publicacion": "manifestacion", "fuente_pdf": "http://www.diariooficial.interior.gob.cl/publicaciones/2026/04/13/44423/07/2793613.pdf", "archivo": "gm_manifestacion_2793613.pdf", "fecha": "13-04-2026", "edicion": "44423" }, "geometry": { "type": "Polygon", "coordinates": [ [ [ -69.326649609005742, -19.930969895425598 ], [ -69.317094200838497, -19.930987197776901 ], [ -69.317148317857232, -19.958096917688867 ], [ -69.326705356732688, -19.958079589854648 ], [ -69.326649609005742, -19.930969895425598 ] ] ] } },
{ "type": "Feature", "properties": { "cve": "2793614", "nombre": "EMILIA 8, 1/30", "solicitante": "Beseler Valdivia Jorge Carlos", "region": "REGIÓN DE TARAPACÁ", "provincia": "Provincia del Tamarugal", "comuna": "Huara", "superficie_ha": 300.0, "datum_original": "PSAD56", "huso": 19, "epsg_origen": 24879, "tipo_publicacion": "manifestacion", "fuente_pdf": "http://www.diariooficial.interior.gob.cl/publicaciones/2026/04/13/44423/07/2793614.pdf", "archivo": "gm_manifestacion_2793614.pdf", "fecha": "13-04-2026", "edicion": "44423" }, "geometry": { "type": "Polygon", "coordinates": [ [ [ -69.317094200838497, -19.930987197776901 ], [ -69.307538782781279, -19.93100398649252 ], [ -69.307591269084085, -19.958113731130922 ], [ -69.317148317857232, -19.958096917688867 ], [ -69.317094200838497, -19.930987197776901 ] ] ] } },
{ "type": "Feature", "properties": { "cve": "2793615", "nombre": "EMILIA 9, 1/30", "solicitante": "Beseler Valdivia Jorge Carlos", "region": "REGIÓN DE TARAPACÁ", "provincia": "Provincia del Tamarugal", "comuna": "Huara", "superficie_ha": 300.0, "datum_original": "PSAD56", "huso": 19, "epsg_origen": 24879, "tipo_publicacion": "manifestacion", "fuente_pdf": "http://www.diariooficial.interior.gob.cl/publicaciones/2026/04/13/44423/07/2793615.pdf", "archivo": "gm_manifestacion_2793615.pdf", "fecha": "13-04-2026", "edicion": "44423" }, "geometry": { "type": "Polygon", "coordinates": [ [ [ -69.307538782781279, -19.93100398649252 ], [ -69.297983355132118, -19.931020261570232 ], [ -69.298034210711535, -19.95813003017858 ], [ -69.307591269084085, -19.958113731130922 ], [ -69.307538782781279, -19.93100398649252 ] ] ] } },
{ "type": "Feature", "properties": { "cve": "2793538", "nombre": "OFELIA E23 1 AL 300", "solicitante": "Compañía Minera Cerro Colorado Limitada", "region": "REGIÓN DE TARAPACÁ", "provincia": "Provincia del Tamarugal", "comuna": null, "superficie_ha": 300.0, "datum_original": "PSAD56", "huso": 19, "epsg_origen": 24879, "tipo_publicacion": "manifestacion", "fuente_pdf": "http://www.diariooficial.interior.gob.cl/publicaciones/2026/04/13/44423/07/2793538.pdf", "archivo": "gm_manifestacion_2793538.pdf", "fecha": "13-04-2026", "edicion": "44423" }, "geometry": { "type": "Polygon", "coordinates": [ [ [ -69.192983037933502, -20.02153166937628 ], [ -69.164300123236572, -20.021560603623485 ], [ -69.164309511002614, -20.030597194880183 ], [ -69.192994064558476, -20.030568246483554 ], [ -69.192983037933502, -20.02153166937628 ] ] ] } },
{ "type": "Feature", "properties": { "cve": "2794311", "nombre": "ALTO VICUÑA 1 AL 56", "solicitante": "Guerrero Soto Jorge Washington", "region": "REGIÓN DE ANTOFAGASTA", "provincia": "Provincia de Antofagasta", "comuna": null, "superficie_ha": 56.0, "datum_original": "PSAD56", "huso": 19, "epsg_origen": 24879, "tipo_publicacion": "manifestacion", "fuente_pdf": "http://www.diariooficial.interior.gob.cl/publicaciones/2026/04/13/44423/07/2794311.pdf", "archivo": "gm_manifestacion_2794311.pdf", "fecha": "13-04-2026", "edicion": "44423" }, "geometry": { "type": "Polygon", "coordinates": [ [ [ -70.040397239829844, -24.563967459609486 ], [ -70.032498378596571, -24.564021782372585 ], [ -70.032550162020641, -24.570342825866664 ], [ -70.04044941923604, -24.570288487311217 ], [ -70.040397239829844, -24.563967459609486 ] ] ] } },
{ "type": "Feature", "properties": { "cve": "2793697", "nombre": "AIFA  V  1  AL  30", "solicitante": "Gallegos Riff Ramón Selim", "region": "REGIÓN DE ATACAMA", "provincia": "Provincia de Copiapó", "comuna": null, "superficie_ha": 300.0, "datum_original": "PSAD56", "huso": 19, "epsg_origen": 24879, "tipo_publicacion": "manifestacion", "fuente_pdf": "http://www.diariooficial.interior.gob.cl/publicaciones/2026/04/13/44423/07/2793697.pdf", "archivo": "gm_manifestacion_2793697.pdf", "fecha": "13-04-2026", "edicion": "44423" }, "geometry": { "type": "Polygon", "coordinates": [ [ [ -70.020389407584958, -27.063471373419844 ], [ -70.010306215548923, -27.063544154906811 ], [ -70.010549064510215, -27.09062543823811 ], [ -70.02063467923935, -27.09055257219331 ], [ -70.020389407584958, -27.063471373419844 ] ] ] } },
{ "type": "Feature", "properties": { "cve": "2793696", "nombre": "AIFA IV  1 AL  10", "solicitante": "Gallegos Riff Ramón Selim", "region": "REGIÓN DE ATACAMA", "provincia": "Provincia de Copiapó", "comuna": null, "superficie_ha": 100.0, "datum_original": "PSAD56", "huso": 19, "epsg_origen": 24879, "tipo_publicacion": "manifestacion", "fuente_pdf": "http://www.diariooficial.interior.gob.cl/publicaciones/2026/04/13/44423/07/2793696.pdf", "archivo": "gm_manifestacion_2793696.pdf", "fecha": "13-04-2026", "edicion": "44423" }, "geometry": { "type": "Polygon", "coordinates": [ [ [ -70.020226084564712, -27.045417181348103 ], [ -70.010144505767101, -27.045489906485162 ], [ -70.010225341714147, -27.054517036647564 ], [ -70.020307726942036, -27.054444283337752 ], [ -70.020226084564712, -27.045417181348103 ] ] ] } },
{ "type": "Feature", "properties": { "cve": "2794087", "nombre": "CAPA 1/ 65", "solicitante": "Ghiglino Saltori Sergio", "region": "REGIÓN DE ATACAMA", "provincia": "Provincia de Copiapó", "comuna": null, "superficie_ha": 650.0, "datum_original": "WGS84", "huso": 19, "epsg_origen": 32719, "tipo_publicacion": "manifestacion", "fuente_pdf": "http://www.diariooficial.interior.gob.cl/publicaciones/2026/04/13/44423/07/2794087.pdf", "archivo": "gm_manifestacion_2794087.pdf", "fecha": "13-04-2026", "edicion": "44423" }, "geometry": { "type": "Polygon", "coordinates": [ [ [ -70.720004312486196, -27.82631708889436 ], [ -70.693614659854603, -27.826643426872717 ], [ -70.693965092621795, -27.849202300461592 ], [ -70.720360199130695, -27.848875652598569 ], [ -70.720004312486196, -27.82631708889436 ] ] ] } },
{ "type": "Feature", "properties": { "cve": "2793330", "nombre": "DOÑA HERMINDA MARILY 1 AL 8", "solicitante": "Alfaro Godoy Cynthia Alejandra", "region": "REGIÓN DE ATACAMA", "provincia": "Provincia de Copiapó", "comuna": null, "superficie_ha": 56.0, "datum_original": "WGS84", "huso": 19, "epsg_origen": 32719, "tipo_publicacion": "manifestacion", "fuente_pdf": "http://www.diariooficial.interior.gob.cl/publicaciones/2026/04/13/44423/07/2793330.pdf", "archivo": "gm_manifestacion_2793330.pdf", "fecha": "13-04-2026", "edicion": "44423" }, "geometry": { "type": "Polygon", "coordinates": [ [ [ -70.71755292777398, -27.409822283752398 ], [ -70.710474884268976, -27.409909302179511 ], [ -70.710586109460834, -27.417128520408315 ], [ -70.717664612671584, -27.417041475270718 ], [ -70.71755292777398, -27.409822283752398 ] ] ] } },
{ "type": "Feature", "properties": { "cve": "2793507", "nombre": "LA BERTUCA 1 AL 7", "solicitante": "Olivares Estay Erwin Juan Carlos", "region": "REGIÓN DE ATACAMA", "provincia": "Provincia de Copiapó", "comuna": null, "superficie_ha": 70.0, "datum_original": "PSAD56", "huso": 19, "epsg_origen": 24879, "tipo_publicacion": "manifestacion", "fuente_pdf": "http://www.diariooficial.interior.gob.cl/publicaciones/2026/04/13/44423/07/2793507.pdf", "archivo": "gm_manifestacion_2793507.pdf", "fecha": "13-04-2026", "edicion": "44423" }, "geometry": { "type": "Polygon", "coordinates": [ [ [ -69.859131170641376, -27.36426937603196 ], [ -69.852053636347804, -27.36431274638965 ], [ -69.852122760757311, -27.373339869033696 ], [ -69.859200869057346, -27.373296482009401 ], [ -69.859131170641376, -27.36426937603196 ] ] ] } },
{ "type": "Feature", "properties": { "cve": "2794075", "nombre": "LAURA 1/18", "solicitante": "Schachtebeck Rivera Alejandra", "region": "REGIÓN DE ATACAMA", "provincia": "Provincia de Copiapó", "comuna": null, "superficie_ha": 72.0, "datum_original": "WGS84", "huso": 19, "epsg_origen": 32719, "tipo_publicacion": "manifestacion", "fuente_pdf": "http://www.diariooficial.interior.gob.cl/publicaciones/2026/04/13/44423/07/2794075.pdf", "archivo": "gm_manifestacion_2794075.pdf", "fecha": "13-04-2026", "edicion": "44423" }, "geometry": { "type": "Polygon", "coordinates": [ [ [ -70.139301785060653, -28.06102382298176 ], [ -70.131162308455487, -28.061091129390537 ], [ -70.131247378886769, -28.069214030273667 ], [ -70.13938746730949, -28.069146700982685 ], [ -70.139301785060653, -28.06102382298176 ] ] ] } },
{ "type": "Feature", "properties": { "cve": "2794228", "nombre": "LAUTARO X 1 AL 11", "solicitante": "Invexmin Chile SpA", "region": "REGIÓN DE ATACAMA", "provincia": "Provincia de Copiapó", "comuna": null, "superficie_ha": 77.0, "datum_original": "PSAD56", "huso": 19, "epsg_origen": 24879, "tipo_publicacion": "manifestacion", "fuente_pdf": "http://www.diariooficial.interior.gob.cl/publicaciones/2026/04/13/44423/07/2794228.pdf", "archivo": "gm_manifestacion_2794228.pdf", "fecha": "13-04-2026", "edicion": "44423" }, "geometry": { "type": "Polygon", "coordinates": [ [ [ -69.899580875837955, -27.959352107304237 ], [ -69.888398763844307, -27.959424738208298 ], [ -69.888450500377772, -27.965743117130003 ], [ -69.899633263356932, -27.965670466971886 ], [ -69.899580875837955, -27.959352107304237 ] ] ] } },
{ "type": "Feature", "properties": { "cve": "2794444", "nombre": "YEGUAS HELADAS 22 1 AL 30", "solicitante": "SCM Carola", "region": "REGIÓN DE ATACAMA", "provincia": "Provincia de Copiapó", "comuna": "Tierra Amarilla", "superficie_ha": 300.0, "datum_original": "WGS84", "huso": 19, "epsg_origen": 32719, "tipo_publicacion": "manifestacion", "fuente_pdf": "http://www.diariooficial.interior.gob.cl/publicaciones/2026/04/13/44423/07/2794444.pdf", "archivo": "gm_manifestacion_2794444.pdf", "fecha": "13-04-2026", "edicion": "44423" }, "geometry": { "type": "Polygon", "coordinates": [ [ [ -69.41579558911134, -27.686452303904865 ], [ -69.385372103443245, -27.686540282384637 ], [ -69.385403803854942, -27.695567779249981 ], [ -69.415829791966161, -27.695479767228974 ], [ -69.41579558911134, -27.686452303904865 ] ] ] } },
{ "type": "Feature", "properties": { "cve": "2794445", "nombre": "YEGUAS HELADAS 23 1 AL 30", "solicitante": "SCM Carola", "region": "REGIÓN DE ATACAMA", "provincia": "Provincia de Copiapó", "comuna": null, "superficie_ha": 300.0, "datum_original": "WGS84", "huso": 19, "epsg_origen": 32719, "tipo_publicacion": "manifestacion", "fuente_pdf": "http://www.diariooficial.interior.gob.cl/publicaciones/2026/04/13/44423/07/2794445.pdf", "archivo": "gm_manifestacion_2794445.pdf", "fecha": "13-04-2026", "edicion": "44423" }, "geometry": { "type": "Polygon", "coordinates": [ [ [ -69.415829791966161, -27.695479767228974 ], [ -69.385403803854942, -27.695567779249981 ], [ -69.385435519001376, -27.704595264309408 ], [ -69.415864010718821, -27.704507218741785 ], [ -69.415829791966161, -27.695479767228974 ] ] ] } },
{ "type": "Feature", "properties": { "cve": "2794446", "nombre": "YEGUAS HELADAS 24 1 AL 30", "solicitante": "SCM Carola", "region": "REGIÓN DE ATACAMA", "provincia": "Provincia de Copiapó", "comuna": null, "superficie_ha": 300.0, "datum_original": "WGS84", "huso": 19, "epsg_origen": 32719, "tipo_publicacion": "manifestacion", "fuente_pdf": "http://www.diariooficial.interior.gob.cl/publicaciones/2026/04/13/44423/07/2794446.pdf", "archivo": "gm_manifestacion_2794446.pdf", "fecha": "13-04-2026", "edicion": "44423" }, "geometry": { "type": "Polygon", "coordinates": [ [ [ -69.420665755451722, -27.713520253315288 ], [ -69.410522112776647, -27.713550705564497 ], [ -69.410623583470255, -27.740632972096989 ], [ -69.420769733219416, -27.740602485036085 ], [ -69.420665755451722, -27.713520253315288 ] ] ] } },
{ "type": "Feature", "properties": { "cve": "2794447", "nombre": "YEGUAS HELADAS 25 1 AL 30", "solicitante": "SCM Carola", "region": "REGIÓN DE ATACAMA", "provincia": "Provincia de Copiapó", "comuna": null, "superficie_ha": 300.0, "datum_original": "WGS84", "huso": 19, "epsg_origen": 32719, "tipo_publicacion": "manifestacion", "fuente_pdf": "http://www.diariooficial.interior.gob.cl/publicaciones/2026/04/13/44423/07/2794447.pdf", "archivo": "gm_manifestacion_2794447.pdf", "fecha": "13-04-2026", "edicion": "44423" }, "geometry": { "type": "Polygon", "coordinates": [ [ [ -69.410522112776647, -27.713550705564497 ], [ -69.400378454398137, -27.713580414589355 ], [ -69.400477418001074, -27.740662715083936 ], [ -69.410623583470255, -27.740632972096989 ], [ -69.410522112776647, -27.713550705564497 ] ] ] } },
{ "type": "Feature", "properties": { "cve": "2794448", "nombre": "YEGUAS HELADAS 26 1 AL 30", "solicitante": "SCM Carola", "region": "REGIÓN DE ATACAMA", "provincia": "Provincia de Copiapó", "comuna": null, "superficie_ha": 300.0, "datum_original": "WGS84", "huso": 19, "epsg_origen": 32719, "tipo_publicacion": "manifestacion", "fuente_pdf": "http://www.diariooficial.interior.gob.cl/publicaciones/2026/04/13/44423/07/2794448.pdf", "archivo": "gm_manifestacion_2794448.pdf", "fecha": "13-04-2026", "edicion": "44423" }, "geometry": { "type": "Polygon", "coordinates": [ [ [ -69.400378454398137, -27.713580414589355 ], [ -69.390234780704219, -27.713609380385613 ], [ -69.390331237200272, -27.740691713992671 ], [ -69.400477418001074, -27.740662715083936 ], [ -69.400378454398137, -27.713580414589355 ] ] ] } },
{ "type": "Feature", "properties": { "cve": "2794449", "nombre": "YEGUAS HELADAS 30 1 AL 30", "solicitante": "SCM Carola", "region": "REGIÓN DE ATACAMA", "provincia": "Provincia de Copiapó", "comuna": null, "superficie_ha": 300.0, "datum_original": "WGS84", "huso": 19, "epsg_origen": 32719, "tipo_publicacion": "manifestacion", "fuente_pdf": "http://www.diariooficial.interior.gob.cl/publicaciones/2026/04/13/44423/07/2794449.pdf", "archivo": "gm_manifestacion_2794449.pdf", "fecha": "13-04-2026", "edicion": "44423" }, "geometry": { "type": "Polygon", "coordinates": [ [ [ -69.421039417025909, -27.731574160528876 ], [ -69.390603430659297, -27.731663422459267 ], [ -69.390635622843661, -27.740690854851788 ], [ -69.421074117464954, -27.740601558928365 ], [ -69.421039417025909, -27.731574160528876 ] ] ] } },
{ "type": "Feature", "properties": { "cve": "2794450", "nombre": "YEGUAS HELADAS 31 1 AL 5", "solicitante": "SCM Carola", "region": "REGIÓN DE ATACAMA", "provincia": "Provincia de Copiapó", "comuna": null, "superficie_ha": 30.0, "datum_original": "WGS84", "huso": 19, "epsg_origen": 32719, "tipo_publicacion": "manifestacion", "fuente_pdf": "http://www.diariooficial.interior.gob.cl/publicaciones/2026/04/13/44423/07/2794450.pdf", "archivo": "gm_manifestacion_2794450.pdf", "fecha": "13-04-2026", "edicion": "44423" }, "geometry": { "type": "Polygon", "coordinates": [ [ [ -69.404422790706761, -27.737500636532662 ], [ -69.394276907678062, -27.737529921740936 ], [ -69.39428665699414, -27.740238149208068 ], [ -69.404432790884428, -27.740208860654711 ], [ -69.404422790706761, -27.737500636532662 ] ] ] } },
{ "type": "Feature", "properties": { "cve": "2794152", "nombre": "ARCO DE ORO NUEVA I 1 AL 15", "solicitante": "Inversiones YM Dos Limitada", "region": "REGIÓN DE ATACAMA", "provincia": "Provincia de Chañaral", "comuna": "DIEGO DE ALMAGRO", "superficie_ha": 15.0, "datum_original": "WGS84", "huso": 19, "epsg_origen": 32719, "tipo_publicacion": "manifestacion", "fuente_pdf": "http://www.diariooficial.interior.gob.cl/publicaciones/2026/04/13/44423/07/2794152.pdf", "archivo": "gm_manifestacion_2794152.pdf", "fecha": "13-04-2026", "edicion": "44423" }, "geometry": { "type": "Polygon", "coordinates": [ [ [ -69.784947023315311, -26.384009928854155 ], [ -69.781939788285982, -26.384026388120475 ], [ -69.781970190520312, -26.388540653858342 ], [ -69.784977542443343, -26.388524191348232 ], [ -69.784947023315311, -26.384009928854155 ] ] ] } },
{ "type": "Feature", "properties": { "cve": "2794153", "nombre": "ARCO DE ORO NUEVA II 1 AL 9", "solicitante": "Inversiones YM Dos Limitada", "region": "REGIÓN DE ATACAMA", "provincia": "Provincia de Chañaral", "comuna": "DIEGO DE ALMAGRO", "superficie_ha": 9.0, "datum_original": "WGS84", "huso": 19, "epsg_origen": 32719, "tipo_publicacion": "manifestacion", "fuente_pdf": "http://www.diariooficial.interior.gob.cl/publicaciones/2026/04/13/44423/07/2794153.pdf", "archivo": "gm_manifestacion_2794153.pdf", "fecha": "13-04-2026", "edicion": "44423" }, "geometry": { "type": "Polygon", "coordinates": [ [ [ -69.780943448113007, -26.384934714099519 ], [ -69.77793618625725, -26.384951089790725 ], [ -69.77795433408248, -26.387659651816872 ], [ -69.780961666074802, -26.387643274189344 ], [ -69.780943448113007, -26.384934714099519 ] ] ] } },
{ "type": "Feature", "properties": { "cve": "2794235", "nombre": "ORION 1 AL 17", "solicitante": "Matogroso Mineral SpA y otra", "region": "REGIÓN DE ATACAMA", "provincia": "Provincia de Chañaral", "comuna": null, "superficie_ha": 68.0, "datum_original": "PSAD56", "huso": 19, "epsg_origen": 24879, "tipo_publicacion": "manifestacion", "fuente_pdf": "http://www.diariooficial.interior.gob.cl/publicaciones/2026/04/13/44423/07/2794235.pdf", "archivo": "gm_manifestacion_2794235.pdf", "fecha": "13-04-2026", "edicion": "44423" }, "geometry": { "type": "Polygon", "coordinates": [ [ [ -70.414771996549675, -26.34103035658703 ], [ -70.410764672401214, -26.341069863337054 ], [ -70.410950831769838, -26.356415235404693 ], [ -70.414958684280791, -26.356375702153059 ], [ -70.414771996549675, -26.34103035658703 ] ] ] } },
{ "type": "Feature", "properties": { "cve": "2794428", "nombre": "ESCONDIDO 1B, 1 AL 20", "solicitante": "Atex Valeriano SpA", "region": "REGIÓN DE ATACAMA", "provincia": "Provincia de Huasco", "comuna": "Alto del Carmen", "superficie_ha": 100.0, "datum_original": "PSAD56", "huso": 19, "epsg_origen": 24879, "tipo_publicacion": "manifestacion", "fuente_pdf": "http://www.diariooficial.interior.gob.cl/publicaciones/2026/04/13/44423/07/2794428.pdf", "archivo": "gm_manifestacion_2794428.pdf", "fecha": "13-04-2026", "edicion": "44423" }, "geometry": { "type": "Polygon", "coordinates": [ [ [ -69.875697162205626, -29.134238522457654 ], [ -69.865418107453394, -29.134305278950873 ], [ -69.865493710790716, -29.143330013611152 ], [ -69.875773663247998, -29.143263232508829 ], [ -69.875697162205626, -29.134238522457654 ] ] ] } },
{ "type": "Feature", "properties": { "cve": "2794429", "nombre": "ESCONDIDO 2B, 1 AL 20", "solicitante": "Atex Valeriano SpA", "region": "REGIÓN DE ATACAMA", "provincia": "Provincia de Huasco", "comuna": "Alto del Carmen", "superficie_ha": 100.0, "datum_original": "PSAD56", "huso": 19, "epsg_origen": 24879, "tipo_publicacion": "manifestacion", "fuente_pdf": "http://www.diariooficial.interior.gob.cl/publicaciones/2026/04/13/44423/07/2794429.pdf", "archivo": "gm_manifestacion_2794429.pdf", "fecha": "13-04-2026", "edicion": "44423" }, "geometry": { "type": "Polygon", "coordinates": [ [ [ -69.844808249219895, -29.128119072343065 ], [ -69.834529720178693, -29.128183448106935 ], [ -69.834602606989634, -29.137208263546558 ], [ -69.844882033486385, -29.13714386404785 ], [ -69.844808249219895, -29.128119072343065 ] ] ] } },
{ "type": "Feature", "properties": { "cve": "2794225", "nombre": "GALVARINO 1 al 28", "solicitante": "Moraleda Godoy Mauricio Daniel y otros", "region": "REGIÓN DE ATACAMA", "provincia": "Provincia de Huasco", "comuna": null, "superficie_ha": 196.0, "datum_original": "PSAD56", "huso": 19, "epsg_origen": 24879, "tipo_publicacion": "manifestacion", "fuente_pdf": "http://www.diariooficial.interior.gob.cl/publicaciones/2026/04/13/44423/07/2794225.pdf", "archivo": "gm_manifestacion_2794225.pdf", "fecha": "13-04-2026", "edicion": "44423" }, "geometry": { "type": "Polygon", "coordinates": [ [ [ -71.16194564131456, -28.810117763552672 ], [ -71.147608243089053, -28.810346705804314 ], [ -71.147867401854327, -28.822974479899862 ], [ -71.162206526944445, -28.82274541870488 ], [ -71.16194564131456, -28.810117763552672 ] ] ] } },
{ "type": "Feature", "properties": { "cve": "2793541", "nombre": "CARBONILLO 1 AL 10", "solicitante": "Doña Rafaella SpA", "region": "REGIÓN DE COQUIMBO", "provincia": "Provincia de Elqui", "comuna": "VICUÑA", "superficie_ha": 50.0, "datum_original": "PSAD56", "huso": 19, "epsg_origen": 24879, "tipo_publicacion": "manifestacion", "fuente_pdf": "http://www.diariooficial.interior.gob.cl/publicaciones/2026/04/13/44423/07/2793541.pdf", "archivo": "gm_manifestacion_2793541.pdf", "fecha": "13-04-2026", "edicion": "44423" }, "geometry": { "type": "Polygon", "coordinates": [ [ [ -70.567368066332705, -29.996441893934346 ], [ -70.562186045444165, -29.996503489251712 ], [ -70.562327371179705, -30.005524708879651 ], [ -70.567509860401188, -30.005463091273374 ], [ -70.567368066332705, -29.996441893934346 ] ] ] } },
{ "type": "Feature", "properties": { "cve": "2793992", "nombre": "LA TESORO 1/10", "solicitante": "Godoy Godoy Enrique de los Ángeles", "region": "REGIÓN DE COQUIMBO", "provincia": "Provincia de Elqui", "comuna": "La Serena", "superficie_ha": 10.0, "datum_original": "PSAD56", "huso": 19, "epsg_origen": 24879, "tipo_publicacion": "manifestacion", "fuente_pdf": "http://www.diariooficial.interior.gob.cl/publicaciones/2026/04/13/44423/07/2793992.pdf", "archivo": "gm_manifestacion_2793992.pdf", "fecha": "13-04-2026", "edicion": "44423" }, "geometry": { "type": "Polygon", "coordinates": [ [ [ -71.088203802264289, -30.084567834308725 ], [ -71.086129764356841, -30.084600781619017 ], [ -71.08622444210188, -30.089110013731201 ], [ -71.088298573971613, -30.089077060472473 ], [ -71.088203802264289, -30.084567834308725 ] ] ] } },
{ "type": "Feature", "properties": { "cve": "2793991", "nombre": "MARLENE 1/6", "solicitante": "Miranda Rivera Ercio Enrique", "region": "REGIÓN DE COQUIMBO", "provincia": "Provincia de Elqui", "comuna": "La Higuera", "superficie_ha": 6.0, "datum_original": "PSAD56", "huso": 19, "epsg_origen": 24879, "tipo_publicacion": "manifestacion", "fuente_pdf": "http://www.diariooficial.interior.gob.cl/publicaciones/2026/04/13/44423/07/2793991.pdf", "archivo": "gm_manifestacion_2793991.pdf", "fecha": "13-04-2026", "edicion": "44423" }, "geometry": { "type": "Polygon", "coordinates": [ [ [ -70.914128964005315, -29.481190194050203 ], [ -70.912067105143564, -29.481219846627674 ], [ -70.912117916391949, -29.483925923183257 ], [ -70.914179829964013, -29.483896267352645 ], [ -70.914128964005315, -29.481190194050203 ] ] ] } },
{ "type": "Feature", "properties": { "cve": "2793736", "nombre": "MINA VIOLETA 1/9", "solicitante": "Compañía Minera Yor Andacollo SpA", "region": "REGIÓN DE COQUIMBO", "provincia": "Provincia de Elqui", "comuna": "Andacollo", "superficie_ha": 9.0, "datum_original": "PSAD56", "huso": 19, "epsg_origen": 24879, "tipo_publicacion": "manifestacion", "fuente_pdf": "http://www.diariooficial.interior.gob.cl/publicaciones/2026/04/13/44423/07/2793736.pdf", "archivo": "gm_manifestacion_2793736.pdf", "fecha": "13-04-2026", "edicion": "44423" }, "geometry": { "type": "Polygon", "coordinates": [ [ [ -71.127634768703984, -30.205993155533296 ], [ -71.124519978033533, -30.206043680571199 ], [ -71.124578109671944, -30.208749102906694 ], [ -71.127692985413404, -30.208698572409308 ], [ -71.127634768703984, -30.205993155533296 ] ] ] } },
{ "type": "Feature", "properties": { "cve": "2793443", "nombre": "LA ESPERANZA I DEL 1 AL 10", "solicitante": "Servicios Mineros JyD Limitada", "region": "REGIÓN DE COQUIMBO", "provincia": "Provincia de Choapa", "comuna": null, "superficie_ha": 50.0, "datum_original": "PSAD56", "huso": 19, "epsg_origen": 24879, "tipo_publicacion": "manifestacion", "fuente_pdf": "http://www.diariooficial.interior.gob.cl/publicaciones/2026/04/13/44423/07/2793443.pdf", "archivo": "gm_manifestacion_2793443.pdf", "fecha": "13-04-2026", "edicion": "44423" }, "geometry": { "type": "Polygon", "coordinates": [ [ [ -71.368824702356648, -31.479049759617027 ], [ -71.363565263968397, -31.479147007962734 ], [ -71.363792010862682, -31.488161811794797 ], [ -71.369051952662005, -31.488064529269526 ], [ -71.368824702356648, -31.479049759617027 ] ] ] } },
{ "type": "Feature", "properties": { "cve": "2793444", "nombre": "LA ESPERANZA II DEL 1 AL 10", "solicitante": "Servicios Mineros JyD Limitada", "region": "REGIÓN DE COQUIMBO", "provincia": "Provincia de Choapa", "comuna": null, "superficie_ha": 50.0, "datum_original": "PSAD56", "huso": 19, "epsg_origen": 24879, "tipo_publicacion": "manifestacion", "fuente_pdf": "http://www.diariooficial.interior.gob.cl/publicaciones/2026/04/13/44423/07/2793444.pdf", "archivo": "gm_manifestacion_2793444.pdf", "fecha": "13-04-2026", "edicion": "44423" }, "geometry": { "type": "Polygon", "coordinates": [ [ [ -71.358362351501398, -31.481497751359822 ], [ -71.35310273647238, -31.481594576668353 ], [ -71.353328501838121, -31.490609445067214 ], [ -71.358588620354723, -31.4905125857291 ], [ -71.358362351501398, -31.481497751359822 ] ] ] } },
{ "type": "Feature", "properties": { "cve": "2793623", "nombre": "RAGNAROCK 1 AL 9", "solicitante": "Gómez Rojas Jorge Antonio", "region": "REGIÓN DE COQUIMBO", "provincia": "Provincia de Choapa", "comuna": "Illapel", "superficie_ha": 81.0, "datum_original": "PSAD56", "huso": 19, "epsg_origen": 24879, "tipo_publicacion": "manifestacion", "fuente_pdf": "http://www.diariooficial.interior.gob.cl/publicaciones/2026/04/13/44423/07/2793623.pdf", "archivo": "gm_manifestacion_2793623.pdf", "fecha": "13-04-2026", "edicion": "44423" }, "geometry": { "type": "Polygon", "coordinates": [ [ [ -71.06470140478956, -31.45635632288943 ], [ -71.055234734138367, -31.456508628204318 ], [ -71.055412035792372, -31.464623671936639 ], [ -71.064879521706004, -31.464471318415146 ], [ -71.06470140478956, -31.45635632288943 ] ] ] } },
{ "type": "Feature", "properties": { "cve": "2793632", "nombre": "Esperanza 1 AL 10", "solicitante": "Barraza Campos Luis Eduardo", "region": "REGIÓN DE COQUIMBO", "provincia": "Provincia de Limarí", "comuna": null, "superficie_ha": 20.0, "datum_original": "PSAD56", "huso": 19, "epsg_origen": 24879, "tipo_publicacion": "manifestacion", "fuente_pdf": "http://www.diariooficial.interior.gob.cl/publicaciones/2026/04/13/44423/07/2793632.pdf", "archivo": "gm_manifestacion_2793632.pdf", "fecha": "13-04-2026", "edicion": "44423" }, "geometry": { "type": "Polygon", "coordinates": [ [ [ -71.208880842752706, -31.165050821107812 ], [ -71.206783805259903, -31.16508679462871 ], [ -71.206992925239277, -31.174103031035958 ], [ -71.209090161058441, -31.174067044796853 ], [ -71.208880842752706, -31.165050821107812 ] ] ] } },
{ "type": "Feature", "properties": { "cve": "2794065", "nombre": "Esperanza 2, 1 a la 12", "solicitante": "Ho Alvin Ka", "region": "REGIÓN DE COQUIMBO", "provincia": "Provincia de Limarí", "comuna": null, "superficie_ha": 12.0, "datum_original": "PSAD56", "huso": 19, "epsg_origen": 24879, "tipo_publicacion": "manifestacion", "fuente_pdf": "http://www.diariooficial.interior.gob.cl/publicaciones/2026/04/13/44423/07/2794065.pdf", "archivo": "gm_manifestacion_2794065.pdf", "fecha": "13-04-2026", "edicion": "44423" }, "geometry": { "type": "Polygon", "coordinates": [ [ [ -71.018098573928043, -31.171160408083889 ], [ -71.016001143375092, -31.171193280166015 ], [ -71.016115789841791, -31.176603685072372 ], [ -71.018213339474698, -31.176570806017395 ], [ -71.018098573928043, -31.171160408083889 ] ] ] } },
{ "type": "Feature", "properties": { "cve": "2794066", "nombre": "Esperanza 3, 1 a la 13", "solicitante": "Ho Alvin Ka", "region": "REGIÓN DE COQUIMBO", "provincia": "Provincia de Limarí", "comuna": null, "superficie_ha": 65.0, "datum_original": "PSAD56", "huso": 19, "epsg_origen": 24879, "tipo_publicacion": "manifestacion", "fuente_pdf": "http://www.diariooficial.interior.gob.cl/publicaciones/2026/04/13/44423/07/2794066.pdf", "archivo": "gm_manifestacion_2794066.pdf", "fecha": "13-04-2026", "edicion": "44423" }, "geometry": { "type": "Polygon", "coordinates": [ [ [ -71.031837698576979, -31.175905397390878 ], [ -71.018203774496513, -31.176119939712663 ], [ -71.018299433955747, -31.180628601207712 ], [ -71.03193400318095, -31.180414020965895 ], [ -71.031837698576979, -31.175905397390878 ] ] ] } },
{ "type": "Feature", "properties": { "cve": "2794067", "nombre": "Esperanza 4, 1 a la 9", "solicitante": "Ho Alvin Ka", "region": "REGIÓN DE COQUIMBO", "provincia": "Provincia de Limarí", "comuna": null, "superficie_ha": 45.0, "datum_original": "PSAD56", "huso": 19, "epsg_origen": 24879, "tipo_publicacion": "manifestacion", "fuente_pdf": "http://www.diariooficial.interior.gob.cl/publicaciones/2026/04/13/44423/07/2794067.pdf", "archivo": "gm_manifestacion_2794067.pdf", "fecha": "13-04-2026", "edicion": "44423" }, "geometry": { "type": "Polygon", "coordinates": [ [ [ -71.031741415621639, -31.171396770362772 ], [ -71.022303007167864, -31.171545427029184 ], [ -71.022398843587865, -31.17605408033431 ], [ -71.031837698576979, -31.175905397390878 ], [ -71.031741415621639, -31.171396770362772 ] ] ] } },
{ "type": "Feature", "properties": { "cve": "2794068", "nombre": "Esperanza 5, 1 a la 13", "solicitante": "Ho Alvin Ka", "region": "REGIÓN DE COQUIMBO", "provincia": "Provincia de Limarí", "comuna": null, "superficie_ha": 65.0, "datum_original": "PSAD56", "huso": 19, "epsg_origen": 24879, "tipo_publicacion": "manifestacion", "fuente_pdf": "http://www.diariooficial.interior.gob.cl/publicaciones/2026/04/13/44423/07/2794068.pdf", "archivo": "gm_manifestacion_2794068.pdf", "fecha": "13-04-2026", "edicion": "44423" }, "geometry": { "type": "Polygon", "coordinates": [ [ [ -71.031645154310723, -31.166888139881952 ], [ -71.018012520085151, -31.167102606374225 ], [ -71.018108136541059, -31.171611274768058 ], [ -71.031741415621639, -31.171396770362772 ], [ -71.031645154310723, -31.166888139881952 ] ] ] } },
{ "type": "Feature", "properties": { "cve": "2793421", "nombre": "MONTE HOREB 1 AL 100", "solicitante": "Guiménez Astudillo Eliseo Elías", "region": "REGIÓN DE COQUIMBO", "provincia": "Provincia de Limarí", "comuna": "Combarbalá", "superficie_ha": 100.0, "datum_original": "PSAD56", "huso": 19, "epsg_origen": 24879, "tipo_publicacion": "manifestacion", "fuente_pdf": "http://www.diariooficial.interior.gob.cl/publicaciones/2026/04/13/44423/07/2793421.pdf", "archivo": "gm_manifestacion_2793421.pdf", "fecha": "13-04-2026", "edicion": "44423" }, "geometry": { "type": "Polygon", "coordinates": [ [ [ -71.114964708247285, -31.210646255452421 ], [ -71.104473806890184, -31.210818358883373 ], [ -71.104673595330993, -31.219835138947811 ], [ -71.115165490837171, -31.219662974718567 ], [ -71.114964708247285, -31.210646255452421 ] ] ] } },
{ "type": "Feature", "properties": { "cve": "2794095", "nombre": "PANDORA 1 AL 24", "solicitante": "Aguirre Toro Jaime Daniel y otro", "region": "REGIÓN DE COQUIMBO", "provincia": "Provincia de Limarí", "comuna": null, "superficie_ha": 96.0, "datum_original": "PSAD56", "huso": 19, "epsg_origen": 24879, "tipo_publicacion": "manifestacion", "fuente_pdf": "http://www.diariooficial.interior.gob.cl/publicaciones/2026/04/13/44423/07/2794095.pdf", "archivo": "gm_manifestacion_2794095.pdf", "fecha": "13-04-2026", "edicion": "44423" }, "geometry": { "type": "Polygon", "coordinates": [ [ [ -71.169815082707089, -31.066315052462674 ], [ -71.161435368566956, -31.06645579698743 ], [ -71.16168021593829, -31.077275773739245 ], [ -71.170060877519788, -31.077134969390052 ], [ -71.169815082707089, -31.066315052462674 ] ] ] } },
{ "type": "Feature", "properties": { "cve": "2793756", "nombre": "SAN ANDRES II 1 AL 36", "solicitante": "Valenzuela León Luis David", "region": "REGIÓN DE COQUIMBO", "provincia": "Provincia de Limarí", "comuna": "Ovalle", "superficie_ha": 36.0, "datum_original": "PSAD56", "huso": 19, "epsg_origen": 24879, "tipo_publicacion": "manifestacion", "fuente_pdf": "http://www.diariooficial.interior.gob.cl/publicaciones/2026/04/13/44423/07/2793756.pdf", "archivo": "gm_manifestacion_2793756.pdf", "fecha": "13-04-2026", "edicion": "44423" }, "geometry": { "type": "Polygon", "coordinates": [ [ [ -71.124358212787584, -30.496974938069787 ], [ -71.118110151599637, -30.497076631913586 ], [ -71.118227428701715, -30.502487255086095 ], [ -71.12447583520354, -30.502385539391714 ], [ -71.124358212787584, -30.496974938069787 ] ] ] } },
{ "type": "Feature", "properties": { "cve": "2793757", "nombre": "SAN ANDRES III 1 AL 297", "solicitante": "Valenzuela León Luis David", "region": "REGIÓN DE COQUIMBO", "provincia": "Provincia de Limarí", "comuna": "Ovalle", "superficie_ha": 297.0, "datum_original": "PSAD56", "huso": 19, "epsg_origen": 24879, "tipo_publicacion": "manifestacion", "fuente_pdf": "http://www.diariooficial.interior.gob.cl/publicaciones/2026/04/13/44423/07/2793757.pdf", "archivo": "gm_manifestacion_2793757.pdf", "fecha": "13-04-2026", "edicion": "44423" }, "geometry": { "type": "Polygon", "coordinates": [ [ [ -71.117904993139703, -30.487608029482406 ], [ -71.106451239323519, -30.487793621561284 ], [ -71.106976137383853, -30.512141605351978 ], [ -71.118432740125499, -30.511955833756531 ], [ -71.117904993139703, -30.487608029482406 ] ] ] } },
{ "type": "Feature", "properties": { "cve": "2794253", "nombre": "ANGELITA 1 AL 20", "solicitante": "Alcaíno Iturriaga Álvaro Claudio", "region": "REGIÓN METROPOLITANA DE SANTIAGO", "provincia": "Provincia de Melipilla", "comuna": null, "superficie_ha": 100.0, "datum_original": "PSAD56", "huso": 19, "epsg_origen": 24879, "tipo_publicacion": "manifestacion", "fuente_pdf": "http://www.diariooficial.interior.gob.cl/publicaciones/2026/04/13/44423/07/2794253.pdf", "archivo": "gm_manifestacion_2794253.pdf", "fecha": "13-04-2026", "edicion": "44423" }, "geometry": { "type": "Polygon", "coordinates": [ [ [ -71.317196983544704, -33.601589767147274 ], [ -71.306427279102252, -33.601791093432375 ], [ -71.306667364238791, -33.610803198522397 ], [ -71.317438187301917, -33.610601803920261 ], [ -71.317196983544704, -33.601589767147274 ] ] ] } },
{ "type": "Feature", "properties": { "cve": "2793588", "nombre": "CHUCARA 1 - 6", "solicitante": "Gutiérrez Maldonado Francisco Javier", "region": "REGIÓN DE TARAPACÁ", "provincia": "Provincia de Iquique", "comuna": null, "superficie_ha": 30.0, "datum_original": "PSAD56", "huso": 19, "epsg_origen": 24879, "tipo_publicacion": "mensura", "fuente_pdf": "http://www.diariooficial.interior.gob.cl/publicaciones/2026/04/13/44423/07/2793588.pdf", "archivo": "gm_mensura_2793588.pdf", "fecha": "13-04-2026", "edicion": "44423" }, "geometry": { "type": "Polygon", "coordinates": [ [ [ -70.062671785647069, -20.854187601562181 ], [ -70.057866301234128, -20.854217357277872 ], [ -70.057904207702848, -20.859637883515195 ], [ -70.062709864231678, -20.859608119361301 ], [ -70.062671785647069, -20.854187601562181 ] ] ] } },
{ "type": "Feature", "properties": { "cve": "2793591", "nombre": "CONDOR DEL 1 AL 10", "solicitante": "Cordero Soto José Emiliano", "region": "REGIÓN DE TARAPACÁ", "provincia": "Provincia de Iquique", "comuna": null, "superficie_ha": 100.0, "datum_original": "PSAD56", "huso": 19, "epsg_origen": 24879, "tipo_publicacion": "mensura", "fuente_pdf": "http://www.diariooficial.interior.gob.cl/publicaciones/2026/04/13/44423/07/2793591.pdf", "archivo": "gm_mensura_2793591.pdf", "fecha": "13-04-2026", "edicion": "44423" }, "geometry": { "type": "Polygon", "coordinates": [ [ [ -70.120657548373188, -20.987526950175791 ], [ -70.111038253852001, -20.98758996235695 ], [ -70.111105077906643, -20.996623868948799 ], [ -70.120724950692122, -20.996560827141373 ], [ -70.120657548373188, -20.987526950175791 ] ] ] } },
{ "type": "Feature", "properties": { "cve": "2794258", "nombre": "BLANCO 01 1 AL 6", "solicitante": "CHK Ing SpA", "region": "REGIÓN DE ANTOFAGASTA", "provincia": "Provincia de El Loa", "comuna": null, "superficie_ha": 12.0, "datum_original": "PSAD56", "huso": 19, "epsg_origen": 24879, "tipo_publicacion": "mensura", "fuente_pdf": "http://www.diariooficial.interior.gob.cl/publicaciones/2026/04/13/44423/07/2794258.pdf", "archivo": "gm_mensura_2794258.pdf", "fecha": "13-04-2026", "edicion": "44423" }, "geometry": { "type": "Polygon", "coordinates": [ [ [ -68.714741341149292, -22.499861460659943 ], [ -68.716203359732759, -22.498057266633982 ], [ -68.713286730645237, -22.498052104319438 ], [ -68.713279284528269, -22.501665640621248 ], [ -68.716195989359932, -22.501670803853763 ], [ -68.714741341149292, -22.499861460659943 ] ] ] } },
{ "type": "Feature", "properties": { "cve": "2794259", "nombre": "BLANCO 03", "solicitante": "CHK Ing SpA", "region": "REGIÓN DE ANTOFAGASTA", "provincia": "Provincia de El Loa", "comuna": null, "superficie_ha": 1.0, "datum_original": "PSAD56", "huso": 19, "epsg_origen": 24879, "tipo_publicacion": "mensura", "fuente_pdf": "http://www.diariooficial.interior.gob.cl/publicaciones/2026/04/13/44423/07/2794259.pdf", "archivo": "gm_mensura_2794259.pdf", "fecha": "13-04-2026", "edicion": "44423" }, "geometry": { "type": "Polygon", "coordinates": [ [ [ -68.71780475800017, -22.499415160245981 ], [ -68.718291782217847, -22.498964318446294 ], [ -68.717319565914096, -22.498962616072578 ], [ -68.717317730626576, -22.499866000516008 ], [ -68.718289953242163, -22.49986770296541 ], [ -68.71780475800017, -22.499415160245981 ] ] ] } },
{ "type": "Feature", "properties": { "cve": "2794108", "nombre": "Almendra I 1 al 9", "solicitante": "Carrasco García Mauricio Benito", "region": "REGIÓN DE ATACAMA", "provincia": "Provincia de Copiapó", "comuna": "Caldera", "superficie_ha": 9.0, "datum_original": "PSAD56", "huso": 19, "epsg_origen": 24879, "tipo_publicacion": "mensura", "fuente_pdf": "http://www.diariooficial.interior.gob.cl/publicaciones/2026/04/13/44423/07/2794108.pdf", "archivo": "gm_mensura_2794108.pdf", "fecha": "13-04-2026", "edicion": "44423" }, "geometry": { "type": "Polygon", "coordinates": [ [ [ -70.777835747589251, -27.236454690520009 ], [ -70.774807113177928, -27.236493109755582 ], [ -70.774850060741798, -27.239200293680494 ], [ -70.777878768347293, -27.239161870003354 ], [ -70.777835747589251, -27.236454690520009 ] ] ] } },
{ "type": "Feature", "properties": { "cve": "2793642", "nombre": "LA FLOR DEL LLANO 1 AL 8", "solicitante": "Mena Flores Óscar Ramón", "region": "REGIÓN DE ATACAMA", "provincia": "Provincia de Huasco", "comuna": null, "superficie_ha": 40.0, "datum_original": "PSAD56", "huso": 19, "epsg_origen": 24879, "tipo_publicacion": "mensura", "fuente_pdf": "http://www.diariooficial.interior.gob.cl/publicaciones/2026/04/13/44423/07/2793642.pdf", "archivo": "gm_mensura_2793642.pdf", "fecha": "13-04-2026", "edicion": "44423" }, "geometry": { "type": "Polygon", "coordinates": [ [ [ -70.922731620552767, -28.263178394480658 ], [ -70.91776600147432, -28.270467490861655 ], [ -70.922861213222475, -28.270395865152164 ], [ -70.922731620552767, -28.263178394480658 ] ] ] } },
{ "type": "Feature", "properties": { "cve": "2793477", "nombre": "LA PINTA 1 AL 60", "solicitante": "RAAC SpA", "region": "REGIÓN DE COQUIMBO", "provincia": "Provincia de Limarí", "comuna": null, "superficie_ha": 60.0, "datum_original": "PSAD56", "huso": 19, "epsg_origen": 24879, "tipo_publicacion": "mensura", "fuente_pdf": "http://www.diariooficial.interior.gob.cl/publicaciones/2026/04/13/44423/07/2793477.pdf", "archivo": "gm_mensura_2793477.pdf", "fecha": "13-04-2026", "edicion": "44423" }, "geometry": { "type": "Polygon", "coordinates": [ [ [ -71.279092692066982, -31.144768161942 ], [ -71.27489970812789, -31.144842318518716 ], [ -71.27522284406794, -31.158366079267307 ], [ -71.279416422339352, -31.158291883349403 ], [ -71.279092692066982, -31.144768161942 ] ] ] } },
{ "type": "Feature", "properties": { "cve": "2794064", "nombre": "LA PODEROSA 1 AL 24", "solicitante": "RAAC SpA", "region": "REGIÓN DE COQUIMBO", "provincia": "Provincia de Limarí", "comuna": null, "superficie_ha": 24.0, "datum_original": "PSAD56", "huso": 19, "epsg_origen": 24879, "tipo_publicacion": "mensura", "fuente_pdf": "http://www.diariooficial.interior.gob.cl/publicaciones/2026/04/13/44423/07/2794064.pdf", "archivo": "gm_mensura_2794064.pdf", "fecha": "13-04-2026", "edicion": "44423" }, "geometry": { "type": "Polygon", "coordinates": [ [ [ -71.3011242886231, -31.084332691141707 ], [ -71.292743744896981, -31.084482042584096 ], [ -71.292808706496643, -31.087186789085347 ], [ -71.301189487163469, -31.087037421780348 ], [ -71.3011242886231, -31.084332691141707 ] ] ] } },
{ "type": "Feature", "properties": { "cve": "2793302", "nombre": "LOS JUANES 1 AL 9", "solicitante": "Beltrán Soto Juan Roberto", "region": "REGIÓN DE LOS RÍOS", "provincia": "Provincia de Valdivia", "comuna": "Mariquina", "superficie_ha": 90.0, "datum_original": "PSAD56", "huso": 18, "epsg_origen": 24878, "tipo_publicacion": "mensura", "fuente_pdf": "http://www.diariooficial.interior.gob.cl/publicaciones/2026/04/13/44423/07/2793302.pdf", "archivo": "gm_mensura_2793302.pdf", "fecha": "13-04-2026", "edicion": "44423" }, "geometry": { "type": "Polygon", "coordinates": [ [ [ -72.759936980454427, -39.570298158958401 ], [ -72.742486852778228, -39.569960350448184 ], [ -72.742311559862728, -39.575362402930999 ], [ -72.759763039744698, -39.575700275887947 ], [ -72.759936980454427, -39.570298158958401 ] ] ] } },
{ "type": "Feature", "properties": { "cve": "2793776", "nombre": "ANA GLORIA 1", "solicitante": "Pampa Camarones SpA", "region": "REGIÓN DE ARICA Y PARINACOTA", "provincia": "Provincia de Arica", "comuna": "Camarones", "superficie_ha": 300.0, "datum_original": "PSAD56", "huso": 19, "epsg_origen": 24879, "tipo_publicacion": "pedimento", "fuente_pdf": "http://www.diariooficial.interior.gob.cl/publicaciones/2026/04/13/44423/07/2793776.pdf", "archivo": "gm_pedimento_2793776.pdf", "fecha": "13-04-2026", "edicion": "44423" }, "geometry": { "type": "Polygon", "coordinates": [ [ [ -70.311626251316312, -18.846698570146636 ], [ -70.283156026772886, -18.846896846331177 ], [ -70.283224702419787, -18.855932376573495 ], [ -70.311696449661554, -18.855733998349322 ], [ -70.311626251316312, -18.846698570146636 ] ] ] } },
{ "type": "Feature", "properties": { "cve": "2793777", "nombre": "ANA GLORIA 2", "solicitante": "Pampa Camarones SpA", "region": "REGIÓN DE ARICA Y PARINACOTA", "provincia": "Provincia de Arica", "comuna": "Camarones", "superficie_ha": 300.0, "datum_original": "PSAD56", "huso": 19, "epsg_origen": 24879, "tipo_publicacion": "pedimento", "fuente_pdf": "http://www.diariooficial.interior.gob.cl/publicaciones/2026/04/13/44423/07/2793777.pdf", "archivo": "gm_pedimento_2793777.pdf", "fecha": "13-04-2026", "edicion": "44423" }, "geometry": { "type": "Polygon", "coordinates": [ [ [ -70.340167837382566, -18.855531269730388 ], [ -70.311696449661554, -18.855733998349322 ], [ -70.311766687953821, -18.864769417451509 ], [ -70.340239599150905, -18.864566584544704 ], [ -70.340167837382566, -18.855531269730388 ] ] ] } },
{ "type": "Feature", "properties": { "cve": "2793778", "nombre": "ANA GLORIA 3", "solicitante": "Pampa Camarones SpA", "region": "REGIÓN DE ARICA Y PARINACOTA", "provincia": "Provincia de Arica", "comuna": "Camarones", "superficie_ha": 300.0, "datum_original": "PSAD56", "huso": 19, "epsg_origen": 24879, "tipo_publicacion": "pedimento", "fuente_pdf": "http://www.diariooficial.interior.gob.cl/publicaciones/2026/04/13/44423/07/2793778.pdf", "archivo": "gm_pedimento_2793778.pdf", "fecha": "13-04-2026", "edicion": "44423" }, "geometry": { "type": "Polygon", "coordinates": [ [ [ -70.340239599150905, -18.864566584544704 ], [ -70.311766687953821, -18.864769417451509 ], [ -70.311836966202947, -18.873804827449469 ], [ -70.340311401742568, -18.873601890244011 ], [ -70.340239599150905, -18.864566584544704 ] ] ] } },
{ "type": "Feature", "properties": { "cve": "2793779", "nombre": "ANA GLORIA 4", "solicitante": "Pampa Camarones SpA", "region": "REGIÓN DE ARICA Y PARINACOTA", "provincia": "Provincia de Arica", "comuna": "Camarones", "superficie_ha": 200.0, "datum_original": "PSAD56", "huso": 19, "epsg_origen": 24879, "tipo_publicacion": "pedimento", "fuente_pdf": "http://www.diariooficial.interior.gob.cl/publicaciones/2026/04/13/44423/07/2793779.pdf", "archivo": "gm_pedimento_2793779.pdf", "fecha": "13-04-2026", "edicion": "44423" }, "geometry": { "type": "Polygon", "coordinates": [ [ [ -70.330819963677328, -18.873670019838929 ], [ -70.311836966202947, -18.873804827449469 ], [ -70.311907284418794, -18.882840228339489 ], [ -70.330891298709332, -18.882705351438005 ], [ -70.330819963677328, -18.873670019838929 ] ] ] } },
{ "type": "Feature", "properties": { "cve": "2794312", "nombre": "EXPLORACION VICUÑA 1", "solicitante": "Faúndez Rojas Daniel Anselmo", "region": "REGIÓN DE ANTOFAGASTA", "provincia": "Provincia de Antofagasta", "comuna": null, "superficie_ha": 200.0, "datum_original": "PSAD56", "huso": 19, "epsg_origen": 24879, "tipo_publicacion": "pedimento", "fuente_pdf": "http://www.diariooficial.interior.gob.cl/publicaciones/2026/04/13/44423/07/2794312.pdf", "archivo": "gm_pedimento_2794312.pdf", "fecha": "13-04-2026", "edicion": "44423" }, "geometry": { "type": "Polygon", "coordinates": [ [ [ -70.031775641484913, -24.564993003541019 ], [ -70.012028231106157, -24.565126910117613 ], [ -70.012100749940544, -24.574157027083711 ], [ -70.03184957475203, -24.574023064895453 ], [ -70.031775641484913, -24.564993003541019 ] ] ] } },
{ "type": "Feature", "properties": { "cve": "2794273", "nombre": "MARA 1", "solicitante": "Céspedes Santis Daniela Carolina", "region": "REGIÓN DE ANTOFAGASTA", "provincia": "Provincia de Antofagasta", "comuna": null, "superficie_ha": 300.0, "datum_original": "PSAD56", "huso": 19, "epsg_origen": 24879, "tipo_publicacion": "pedimento", "fuente_pdf": "http://www.diariooficial.interior.gob.cl/publicaciones/2026/04/13/44423/07/2794273.pdf", "archivo": "gm_pedimento_2794273.pdf", "fecha": "13-04-2026", "edicion": "44423" }, "geometry": { "type": "Polygon", "coordinates": [ [ [ -69.758212114153295, -25.525650393078045 ], [ -69.728357080910286, -25.525801812355219 ], [ -69.728411604322559, -25.534831434184401 ], [ -69.758268871944409, -25.534679953779232 ], [ -69.758212114153295, -25.525650393078045 ] ] ] } },
{ "type": "Feature", "properties": { "cve": "2794274", "nombre": "MARA 2", "solicitante": "Céspedes Santis Daniela Carolina", "region": "REGIÓN DE ANTOFAGASTA", "provincia": "Provincia de Antofagasta", "comuna": null, "superficie_ha": 300.0, "datum_original": "PSAD56", "huso": 19, "epsg_origen": 24879, "tipo_publicacion": "pedimento", "fuente_pdf": "http://www.diariooficial.interior.gob.cl/publicaciones/2026/04/13/44423/07/2794274.pdf", "archivo": "gm_pedimento_2794274.pdf", "fecha": "13-04-2026", "edicion": "44423" }, "geometry": { "type": "Polygon", "coordinates": [ [ [ -69.768278770653879, -25.543657636928593 ], [ -69.738419348230309, -25.54381120702552 ], [ -69.738474669487246, -25.552840786081916 ], [ -69.768336328407514, -25.552687154020731 ], [ -69.768278770653879, -25.543657636928593 ] ] ] } },
{ "type": "Feature", "properties": { "cve": "2794275", "nombre": "MARA 3", "solicitante": "Céspedes Santis Daniela Carolina", "region": "REGIÓN DE ANTOFAGASTA", "provincia": "Provincia de Antofagasta", "comuna": null, "superficie_ha": 300.0, "datum_original": "PSAD56", "huso": 19, "epsg_origen": 24879, "tipo_publicacion": "pedimento", "fuente_pdf": "http://www.diariooficial.interior.gob.cl/publicaciones/2026/04/13/44423/07/2794275.pdf", "archivo": "gm_pedimento_2794275.pdf", "fecha": "13-04-2026", "edicion": "44423" }, "geometry": { "type": "Polygon", "coordinates": [ [ [ -69.319936659922561, -25.382776795930614 ], [ -69.290114758974298, -25.382838612511151 ], [ -69.290136337840096, -25.39186902829352 ], [ -69.319960456866781, -25.391807186653185 ], [ -69.319936659922561, -25.382776795930614 ] ] ] } },
{ "type": "Feature", "properties": { "cve": "2794276", "nombre": "MARA 4", "solicitante": "Céspedes Santis Daniela Carolina", "region": "REGIÓN DE ANTOFAGASTA", "provincia": "Provincia de Antofagasta", "comuna": null, "superficie_ha": 300.0, "datum_original": "PSAD56", "huso": 19, "epsg_origen": 24879, "tipo_publicacion": "pedimento", "fuente_pdf": "http://www.diariooficial.interior.gob.cl/publicaciones/2026/04/13/44423/07/2794276.pdf", "archivo": "gm_pedimento_2794276.pdf", "fecha": "13-04-2026", "edicion": "44423" }, "geometry": { "type": "Polygon", "coordinates": [ [ [ -69.319960456866781, -25.391807186653185 ], [ -69.290136337840096, -25.39186902829352 ], [ -69.290157927085332, -25.400899432880315 ], [ -69.319984265257332, -25.400837566176563 ], [ -69.319960456866781, -25.391807186653185 ] ] ] } },
{ "type": "Feature", "properties": { "cve": "2794277", "nombre": "MARA 5", "solicitante": "Céspedes Santis Daniela Carolina", "region": "REGIÓN DE ANTOFAGASTA", "provincia": "Provincia de Antofagasta", "comuna": null, "superficie_ha": 300.0, "datum_original": "PSAD56", "huso": 19, "epsg_origen": 24879, "tipo_publicacion": "pedimento", "fuente_pdf": "http://www.diariooficial.interior.gob.cl/publicaciones/2026/04/13/44423/07/2794277.pdf", "archivo": "gm_pedimento_2794277.pdf", "fecha": "13-04-2026", "edicion": "44423" }, "geometry": { "type": "Polygon", "coordinates": [ [ [ -69.319984265257332, -25.400837566176563 ], [ -69.290157927085332, -25.400899432880315 ], [ -69.290179526713416, -25.409929826268716 ], [ -69.320008085097939, -25.409867934497903 ], [ -69.319984265257332, -25.400837566176563 ] ] ] } },
{ "type": "Feature", "properties": { "cve": "2794307", "nombre": "NANCY 7", "solicitante": "Anka Mining Chile SpA", "region": "REGIÓN DE ANTOFAGASTA", "provincia": "Provincia de Antofagasta", "comuna": null, "superficie_ha": 300.0, "datum_original": "WGS84", "huso": 19, "epsg_origen": 32719, "tipo_publicacion": "pedimento", "fuente_pdf": "http://www.diariooficial.interior.gob.cl/publicaciones/2026/04/13/44423/07/2794307.pdf", "archivo": "gm_pedimento_2794307.pdf", "fecha": "13-04-2026", "edicion": "44423" }, "geometry": { "type": "Polygon", "coordinates": [ [ [ -68.858989799772033, -25.25327083638679 ], [ -68.849059530341833, -25.253261020640188 ], [ -68.849026024411131, -25.280353227683928 ], [ -68.858958498154962, -25.280363055414082 ], [ -68.858989799772033, -25.25327083638679 ] ] ] } },
{ "type": "Feature", "properties": { "cve": "2793548", "nombre": "AURORA 1", "solicitante": "SCM Montosa", "region": "REGIÓN DE ATACAMA", "provincia": "Provincia de Copiapó", "comuna": null, "superficie_ha": 200.0, "datum_original": "PSAD56", "huso": 19, "epsg_origen": 24879, "tipo_publicacion": "pedimento", "fuente_pdf": "http://www.diariooficial.interior.gob.cl/publicaciones/2026/04/13/44423/07/2793548.pdf", "archivo": "gm_pedimento_2793548.pdf", "fecha": "13-04-2026", "edicion": "44423" }, "geometry": { "type": "Polygon", "coordinates": [ [ [ -69.113540455132437, -27.7983969354283 ], [ -69.10338869394873, -27.798404904454294 ], [ -69.103405785945256, -27.816459975110348 ], [ -69.113559225387903, -27.81645200002367 ], [ -69.113540455132437, -27.7983969354283 ] ] ] } },
{ "type": "Feature", "properties": { "cve": "2793549", "nombre": "AURORA 2", "solicitante": "SCM Montosa", "region": "REGIÓN DE ATACAMA", "provincia": "Provincia de Copiapó", "comuna": null, "superficie_ha": 200.0, "datum_original": "PSAD56", "huso": 19, "epsg_origen": 24879, "tipo_publicacion": "pedimento", "fuente_pdf": "http://www.diariooficial.interior.gob.cl/publicaciones/2026/04/13/44423/07/2793549.pdf", "archivo": "gm_pedimento_2793549.pdf", "fecha": "13-04-2026", "edicion": "44423" }, "geometry": { "type": "Polygon", "coordinates": [ [ [ -69.118626136532711, -27.807420207845563 ], [ -69.108473538543237, -27.807428552972226 ], [ -69.108491477992743, -27.825483596864764 ], [ -69.118645755018676, -27.825475245392781 ], [ -69.118626136532711, -27.807420207845563 ] ] ] } },
{ "type": "Feature", "properties": { "cve": "2793550", "nombre": "AURORA 3", "solicitante": "SCM Montosa", "region": "REGIÓN DE ATACAMA", "provincia": "Provincia de Copiapó", "comuna": null, "superficie_ha": 200.0, "datum_original": "PSAD56", "huso": 19, "epsg_origen": 24879, "tipo_publicacion": "pedimento", "fuente_pdf": "http://www.diariooficial.interior.gob.cl/publicaciones/2026/04/13/44423/07/2793550.pdf", "archivo": "gm_pedimento_2793550.pdf", "fecha": "13-04-2026", "edicion": "44423" }, "geometry": { "type": "Polygon", "coordinates": [ [ [ -69.11863594349974, -27.816447732571074 ], [ -69.108482506186846, -27.816456080870143 ], [ -69.108500453962449, -27.834511100953542 ], [ -69.118655571091054, -27.834502746308111 ], [ -69.11863594349974, -27.816447732571074 ] ] ] } },
{ "type": "Feature", "properties": { "cve": "2793784", "nombre": "PIPO IV", "solicitante": "Aguirre Rodríguez Francisco Javier", "region": "REGIÓN DE ATACAMA", "provincia": "Provincia de Copiapó", "comuna": "Copiapo", "superficie_ha": 200.0, "datum_original": "PSAD56", "huso": 19, "epsg_origen": 24879, "tipo_publicacion": "pedimento", "fuente_pdf": "http://www.diariooficial.interior.gob.cl/publicaciones/2026/04/13/44423/07/2793784.pdf", "archivo": "gm_pedimento_2793784.pdf", "fecha": "13-04-2026", "edicion": "44423" }, "geometry": { "type": "Polygon", "coordinates": [ [ [ -69.861820290443674, -27.196591403751931 ], [ -69.851724694869375, -27.196653097229969 ], [ -69.851861934356833, -27.214707768485319 ], [ -69.861959156159401, -27.214646027386834 ], [ -69.861820290443674, -27.196591403751931 ] ] ] } },
{ "type": "Feature", "properties": { "cve": "2794377", "nombre": "HALIME 1", "solicitante": "Gold Fields Pedernales Limitada", "region": "REGIÓN DE ATACAMA", "provincia": "Provincia de Chañaral", "comuna": "Diego de Almagro", "superficie_ha": 300.0, "datum_original": "PSAD56", "huso": 19, "epsg_origen": 24879, "tipo_publicacion": "pedimento", "fuente_pdf": "http://www.diariooficial.interior.gob.cl/publicaciones/2026/04/13/44423/07/2794377.pdf", "archivo": "gm_pedimento_2794377.pdf", "fecha": "13-04-2026", "edicion": "44423" }, "geometry": { "type": "Polygon", "coordinates": [ [ [ -69.037010926185701, -26.6202415975261 ], [ -69.026965336198245, -26.620243855960602 ], [ -69.026971695084782, -26.647331077948774 ], [ -69.037019653992672, -26.647328816859581 ], [ -69.037010926185701, -26.6202415975261 ] ] ] } },
{ "type": "Feature", "properties": { "cve": "2794378", "nombre": "HALIME 2", "solicitante": "Gold Fields Pedernales Limitada", "region": "REGIÓN DE ATACAMA", "provincia": "Provincia de Chañaral", "comuna": "Diego de Almagro", "superficie_ha": 300.0, "datum_original": "PSAD56", "huso": 19, "epsg_origen": 24879, "tipo_publicacion": "pedimento", "fuente_pdf": "http://www.diariooficial.interior.gob.cl/publicaciones/2026/04/13/44423/07/2794378.pdf", "archivo": "gm_pedimento_2794378.pdf", "fecha": "13-04-2026", "edicion": "44423" }, "geometry": { "type": "Polygon", "coordinates": [ [ [ -69.037019653992672, -26.647328816859581 ], [ -69.026971695084782, -26.647331077948774 ], [ -69.026978062969931, -26.674418195864259 ], [ -69.03702839415061, -26.674415932119139 ], [ -69.037019653992672, -26.647328816859581 ] ] ] } },
{ "type": "Feature", "properties": { "cve": "2794185", "nombre": "RUBI 10B", "solicitante": "Minera Mirasol Chile Limitada", "region": "REGIÓN DE ATACAMA", "provincia": "Provincia de Chañaral", "comuna": "Diego de Almagro", "superficie_ha": 200.0, "datum_original": "WGS84", "huso": 19, "epsg_origen": 32719, "tipo_publicacion": "pedimento", "fuente_pdf": "http://www.diariooficial.interior.gob.cl/publicaciones/2026/04/13/44423/07/2794185.pdf", "archivo": "gm_pedimento_2794185.pdf", "fecha": "13-04-2026", "edicion": "44423" }, "geometry": { "type": "Polygon", "coordinates": [ [ [ -69.682364388745185, -26.497848620029291 ], [ -69.672330176716599, -26.497896243914777 ], [ -69.672435298947164, -26.515953442195325 ], [ -69.682471079581077, -26.515905780876043 ], [ -69.682364388745185, -26.497848620029291 ] ] ] } },
{ "type": "Feature", "properties": { "cve": "2794186", "nombre": "RUBI 11B", "solicitante": "Minera Mirasol Chile Limitada", "region": "REGIÓN DE ATACAMA", "provincia": "Provincia de Chañaral", "comuna": "Diego de Almagro", "superficie_ha": 200.0, "datum_original": "WGS84", "huso": 19, "epsg_origen": 32719, "tipo_publicacion": "pedimento", "fuente_pdf": "http://www.diariooficial.interior.gob.cl/publicaciones/2026/04/13/44423/07/2794186.pdf", "archivo": "gm_pedimento_2794186.pdf", "fecha": "13-04-2026", "edicion": "44423" }, "geometry": { "type": "Polygon", "coordinates": [ [ [ -69.672330176716599, -26.497896243914777 ], [ -69.662295939872081, -26.497943162408951 ], [ -69.662399493480578, -26.516000397568874 ], [ -69.672435298947164, -26.515953442195325 ], [ -69.672330176716599, -26.497896243914777 ] ] ] } },
{ "type": "Feature", "properties": { "cve": "2794183", "nombre": "RUBI 8B", "solicitante": "Minera Mirasol Chile Limitada", "region": "REGIÓN DE ATACAMA", "provincia": "Provincia de Chañaral", "comuna": "DIEGO DE ALMAGRO", "superficie_ha": 300.0, "datum_original": "WGS84", "huso": 19, "epsg_origen": 32719, "tipo_publicacion": "pedimento", "fuente_pdf": "http://www.diariooficial.interior.gob.cl/publicaciones/2026/04/13/44423/07/2794183.pdf", "archivo": "gm_pedimento_2794183.pdf", "fecha": "13-04-2026", "edicion": "44423" }, "geometry": { "type": "Polygon", "coordinates": [ [ [ -69.682204541366445, -26.470762792337993 ], [ -69.67217267946917, -26.470810360094138 ], [ -69.672330176716599, -26.497896243914777 ], [ -69.682364388745185, -26.497848620029291 ], [ -69.682204541366445, -26.470762792337993 ] ] ] } },
{ "type": "Feature", "properties": { "cve": "2794184", "nombre": "RUBI 9B", "solicitante": "Minera Mirasol Chile Limitada", "region": "REGIÓN DE ATACAMA", "provincia": "Provincia de Chañaral", "comuna": "Diego de Almagro", "superficie_ha": 300.0, "datum_original": "WGS84", "huso": 19, "epsg_origen": 32719, "tipo_publicacion": "pedimento", "fuente_pdf": "http://www.diariooficial.interior.gob.cl/publicaciones/2026/04/13/44423/07/2794184.pdf", "archivo": "gm_pedimento_2794184.pdf", "fecha": "13-04-2026", "edicion": "44423" }, "geometry": { "type": "Polygon", "coordinates": [ [ [ -69.67217267946917, -26.470810360094138 ], [ -69.662140792781102, -26.470857223290302 ], [ -69.662295939872081, -26.497943162408951 ], [ -69.672330176716599, -26.497896243914777 ], [ -69.67217267946917, -26.470810360094138 ] ] ] } },
{ "type": "Feature", "properties": { "cve": "2794265", "nombre": "TRINIDAD 1", "solicitante": "Austral Exploraciones SpA", "region": "REGIÓN DE ATACAMA", "provincia": "Provincia de Chañaral", "comuna": null, "superficie_ha": 300.0, "datum_original": "PSAD56", "huso": 19, "epsg_origen": 24879, "tipo_publicacion": "pedimento", "fuente_pdf": "http://www.diariooficial.interior.gob.cl/publicaciones/2026/04/13/44423/07/2794265.pdf", "archivo": "gm_pedimento_2794265.pdf", "fecha": "13-04-2026", "edicion": "44423" }, "geometry": { "type": "Polygon", "coordinates": [ [ [ -70.555645010133787, -26.386061387972084 ], [ -70.545623441624912, -26.386169962363475 ], [ -70.54598417757407, -26.413248183386493 ], [ -70.55600808274292, -26.413139480617549 ], [ -70.555645010133787, -26.386061387972084 ] ] ] } },
{ "type": "Feature", "properties": { "cve": "2794266", "nombre": "TRINIDAD 2", "solicitante": "Austral Exploraciones SpA", "region": "REGIÓN DE ATACAMA", "provincia": "Provincia de Chañaral", "comuna": null, "superficie_ha": 300.0, "datum_original": "PSAD56", "huso": 19, "epsg_origen": 24879, "tipo_publicacion": "pedimento", "fuente_pdf": "http://www.diariooficial.interior.gob.cl/publicaciones/2026/04/13/44423/07/2794266.pdf", "archivo": "gm_pedimento_2794266.pdf", "fecha": "13-04-2026", "edicion": "44423" }, "geometry": { "type": "Polygon", "coordinates": [ [ [ -70.545623441624912, -26.386169962363475 ], [ -70.535601816276198, -26.386277835625908 ], [ -70.535960215507984, -26.413356184197699 ], [ -70.54598417757407, -26.413248183386493 ], [ -70.545623441624912, -26.386169962363475 ] ] ] } },
{ "type": "Feature", "properties": { "cve": "2794267", "nombre": "TRINIDAD 3", "solicitante": "Austral Exploraciones SpA", "region": "REGIÓN DE ATACAMA", "provincia": "Provincia de Chañaral", "comuna": null, "superficie_ha": 300.0, "datum_original": "PSAD56", "huso": 19, "epsg_origen": 24879, "tipo_publicacion": "pedimento", "fuente_pdf": "http://www.diariooficial.interior.gob.cl/publicaciones/2026/04/13/44423/07/2794267.pdf", "archivo": "gm_pedimento_2794267.pdf", "fecha": "13-04-2026", "edicion": "44423" }, "geometry": { "type": "Polygon", "coordinates": [ [ [ -70.55600808274292, -26.413139480617549 ], [ -70.54598417757407, -26.413248183386493 ], [ -70.546345425600606, -26.440326296458434 ], [ -70.556371670744795, -26.4402174652536 ], [ -70.55600808274292, -26.413139480617549 ] ] ] } },
{ "type": "Feature", "properties": { "cve": "2794268", "nombre": "TRINIDAD 4", "solicitante": "Austral Exploraciones SpA", "region": "REGIÓN DE ATACAMA", "provincia": "Provincia de Chañaral", "comuna": null, "superficie_ha": 300.0, "datum_original": "PSAD56", "huso": 19, "epsg_origen": 24879, "tipo_publicacion": "pedimento", "fuente_pdf": "http://www.diariooficial.interior.gob.cl/publicaciones/2026/04/13/44423/07/2794268.pdf", "archivo": "gm_pedimento_2794268.pdf", "fecha": "13-04-2026", "edicion": "44423" }, "geometry": { "type": "Polygon", "coordinates": [ [ [ -70.54598417757407, -26.413248183386493 ], [ -70.535960215507984, -26.413356184197699 ], [ -70.536319123501684, -26.440434424876372 ], [ -70.546345425600606, -26.440326296458434 ], [ -70.54598417757407, -26.413248183386493 ] ] ] } },
{ "type": "Feature", "properties": { "cve": "2794269", "nombre": "TRINIDAD 5", "solicitante": "Austral Exploraciones SpA", "region": "REGIÓN DE ATACAMA", "provincia": "Provincia de Chañaral", "comuna": null, "superficie_ha": 200.0, "datum_original": "PSAD56", "huso": 19, "epsg_origen": 24879, "tipo_publicacion": "pedimento", "fuente_pdf": "http://www.diariooficial.interior.gob.cl/publicaciones/2026/04/13/44423/07/2794269.pdf", "archivo": "gm_pedimento_2794269.pdf", "fecha": "13-04-2026", "edicion": "44423" }, "geometry": { "type": "Polygon", "coordinates": [ [ [ -70.556371670744795, -26.4402174652536 ], [ -70.546345425600606, -26.440326296458434 ], [ -70.546586542361368, -26.458378311827119 ], [ -70.556614349332619, -26.458269394965917 ], [ -70.556371670744795, -26.4402174652536 ] ] ] } },
{ "type": "Feature", "properties": { "cve": "2794270", "nombre": "TRINIDAD 6", "solicitante": "Austral Exploraciones SpA", "region": "REGIÓN DE ATACAMA", "provincia": "Provincia de Chañaral", "comuna": null, "superficie_ha": 200.0, "datum_original": "PSAD56", "huso": 19, "epsg_origen": 24879, "tipo_publicacion": "pedimento", "fuente_pdf": "http://www.diariooficial.interior.gob.cl/publicaciones/2026/04/13/44423/07/2794270.pdf", "archivo": "gm_pedimento_2794270.pdf", "fecha": "13-04-2026", "edicion": "44423" }, "geometry": { "type": "Polygon", "coordinates": [ [ [ -70.546345425600606, -26.440326296458434 ], [ -70.536319123501684, -26.440434424876372 ], [ -70.536558678396943, -26.458486525348437 ], [ -70.546586542361368, -26.458378311827119 ], [ -70.546345425600606, -26.440326296458434 ] ] ] } },
{ "type": "Feature", "properties": { "cve": "2794133", "nombre": "HILDA 1", "solicitante": "Corporación Nacional del Cobre de Chile", "region": "REGIÓN DE ATACAMA", "provincia": "Provincia de Huasco", "comuna": null, "superficie_ha": 600.0, "datum_original": "WGS84", "huso": 19, "epsg_origen": 32719, "tipo_publicacion": "pedimento", "fuente_pdf": "http://www.diariooficial.interior.gob.cl/publicaciones/2026/04/13/44423/07/2794133.pdf", "archivo": "gm_pedimento_2794133.pdf", "fecha": "13-04-2026", "edicion": "44423" }, "geometry": { "type": "Polygon", "coordinates": [ [ [ -70.103893118504061, -29.500983513543289 ], [ -70.072947418405121, -29.501236783916045 ], [ -70.07313777690652, -29.519284165205722 ], [ -70.10408896460099, -29.519030709582694 ], [ -70.103893118504061, -29.500983513543289 ] ] ] } },
{ "type": "Feature", "properties": { "cve": "2794134", "nombre": "HILDA 2", "solicitante": "Corporación Nacional del Cobre de Chile", "region": "REGIÓN DE ATACAMA", "provincia": "Provincia de Huasco", "comuna": null, "superficie_ha": 300.0, "datum_original": "WGS84", "huso": 19, "epsg_origen": 32719, "tipo_publicacion": "pedimento", "fuente_pdf": "http://www.diariooficial.interior.gob.cl/publicaciones/2026/04/13/44423/07/2794134.pdf", "archivo": "gm_pedimento_2794134.pdf", "fecha": "13-04-2026", "edicion": "44423" }, "geometry": { "type": "Polygon", "coordinates": [ [ [ -70.10408896460099, -29.519030709582694 ], [ -70.07313777690652, -29.519284165205722 ], [ -70.073233021223416, -29.528307837046135 ], [ -70.104186954590816, -29.528054288773912 ], [ -70.10408896460099, -29.519030709582694 ] ] ] } },
{ "type": "Feature", "properties": { "cve": "2793458", "nombre": "ENKI II", "solicitante": "Prohens Poblete María Fernanda", "region": "REGIÓN DE COQUIMBO", "provincia": "Provincia de Choapa", "comuna": "Illapel", "superficie_ha": 200.0, "datum_original": "PSAD56", "huso": 19, "epsg_origen": 24879, "tipo_publicacion": "pedimento", "fuente_pdf": "http://www.diariooficial.interior.gob.cl/publicaciones/2026/04/13/44423/07/2793458.pdf", "archivo": "gm_pedimento_2793458.pdf", "fecha": "13-04-2026", "edicion": "44423" }, "geometry": { "type": "Polygon", "coordinates": [ [ [ -70.68322083136421, -31.30723185743793 ], [ -70.662212334300918, -31.307505544038218 ], [ -70.662370750558736, -31.316524484582747 ], [ -70.683381247535266, -31.316250701446666 ], [ -70.68322083136421, -31.30723185743793 ] ] ] } },
{ "type": "Feature", "properties": { "cve": "2793459", "nombre": "ENKI IV", "solicitante": "Prohens Poblete María Fernanda", "region": "REGIÓN DE COQUIMBO", "provincia": "Provincia de Choapa", "comuna": "Illapel", "superficie_ha": 200.0, "datum_original": "PSAD56", "huso": 19, "epsg_origen": 24879, "tipo_publicacion": "pedimento", "fuente_pdf": "http://www.diariooficial.interior.gob.cl/publicaciones/2026/04/13/44423/07/2793459.pdf", "archivo": "gm_pedimento_2793459.pdf", "fecha": "13-04-2026", "edicion": "44423" }, "geometry": { "type": "Polygon", "coordinates": [ [ [ -70.662212334300918, -31.307505544038218 ], [ -70.641203552555879, -31.307775796292511 ], [ -70.641359968788137, -31.316794832162017 ], [ -70.662370750558736, -31.316524484582747 ], [ -70.662212334300918, -31.307505544038218 ] ] ] } },
{ "type": "Feature", "properties": { "cve": "2793460", "nombre": "ENKI V", "solicitante": "Prohens Poblete María Fernanda", "region": "REGIÓN DE COQUIMBO", "provincia": "Provincia de Choapa", "comuna": "Illapel", "superficie_ha": 200.0, "datum_original": "PSAD56", "huso": 19, "epsg_origen": 24879, "tipo_publicacion": "pedimento", "fuente_pdf": "http://www.diariooficial.interior.gob.cl/publicaciones/2026/04/13/44423/07/2793460.pdf", "archivo": "gm_pedimento_2793460.pdf", "fecha": "13-04-2026", "edicion": "44423" }, "geometry": { "type": "Polygon", "coordinates": [ [ [ -70.683381247535266, -31.316250701446666 ], [ -70.662370750558736, -31.316524484582747 ], [ -70.662529238015296, -31.325543411627738 ], [ -70.683541735803303, -31.325269531937845 ], [ -70.683381247535266, -31.316250701446666 ] ] ] } },
{ "type": "Feature", "properties": { "cve": "2793461", "nombre": "ENKI VI", "solicitante": "Prohens Poblete Óscar Ignacio", "region": "REGIÓN DE COQUIMBO", "provincia": "Provincia de Choapa", "comuna": "Illapel", "superficie_ha": 200.0, "datum_original": "PSAD56", "huso": 19, "epsg_origen": 24879, "tipo_publicacion": "pedimento", "fuente_pdf": "http://www.diariooficial.interior.gob.cl/publicaciones/2026/04/13/44423/07/2793461.pdf", "archivo": "gm_pedimento_2793461.pdf", "fecha": "13-04-2026", "edicion": "44423" }, "geometry": { "type": "Polygon", "coordinates": [ [ [ -70.662370750558736, -31.316524484582747 ], [ -70.641359968788137, -31.316794832162017 ], [ -70.641516455320911, -31.325813854549729 ], [ -70.662529238015296, -31.325543411627738 ], [ -70.662370750558736, -31.316524484582747 ] ] ] } },
{ "type": "Feature", "properties": { "cve": "2793462", "nombre": "ENKI VII", "solicitante": "Prohens Poblete Óscar Ignacio", "region": "REGIÓN DE COQUIMBO", "provincia": "Provincia de Choapa", "comuna": "Illapel", "superficie_ha": 200.0, "datum_original": "PSAD56", "huso": 19, "epsg_origen": 24879, "tipo_publicacion": "pedimento", "fuente_pdf": "http://www.diariooficial.interior.gob.cl/publicaciones/2026/04/13/44423/07/2793462.pdf", "archivo": "gm_pedimento_2793462.pdf", "fecha": "13-04-2026", "edicion": "44423" }, "geometry": { "type": "Polygon", "coordinates": [ [ [ -70.641751316994174, -31.339342362847642 ], [ -70.631243318332352, -31.339476366312319 ], [ -70.631554709836493, -31.357514424654539 ], [ -70.642064712202654, -31.3573803267026 ], [ -70.641751316994174, -31.339342362847642 ] ] ] } },
{ "type": "Feature", "properties": { "cve": "2793463", "nombre": "ENKI XII", "solicitante": "Prohens Poblete Óscar Ignacio", "region": "REGIÓN DE COQUIMBO", "provincia": "Provincia de Choapa", "comuna": "Illapel", "superficie_ha": 200.0, "datum_original": "PSAD56", "huso": 19, "epsg_origen": 24879, "tipo_publicacion": "pedimento", "fuente_pdf": "http://www.diariooficial.interior.gob.cl/publicaciones/2026/04/13/44423/07/2793463.pdf", "archivo": "gm_pedimento_2793463.pdf", "fecha": "13-04-2026", "edicion": "44423" }, "geometry": { "type": "Polygon", "coordinates": [ [ [ -70.631087727474494, -31.330457316921432 ], [ -70.620580660097914, -31.330590413751779 ], [ -70.620889908873735, -31.348628592918303 ], [ -70.631398979110486, -31.348495402224152 ], [ -70.631087727474494, -31.330457316921432 ] ] ] } },
{ "type": "Feature", "properties": { "cve": "2793470", "nombre": "MARDUK IX", "solicitante": "Prohens Poblete Francisca Lenka", "region": "REGIÓN DE COQUIMBO", "provincia": "Provincia de Choapa", "comuna": "Illapel", "superficie_ha": 200.0, "datum_original": "PSAD56", "huso": 19, "epsg_origen": 24879, "tipo_publicacion": "pedimento", "fuente_pdf": "http://www.diariooficial.interior.gob.cl/publicaciones/2026/04/13/44423/07/2793470.pdf", "archivo": "gm_pedimento_2793470.pdf", "fecha": "13-04-2026", "edicion": "44423" }, "geometry": { "type": "Polygon", "coordinates": [ [ [ -70.658225484355754, -31.379724766993508 ], [ -70.647713080739138, -31.379860274672129 ], [ -70.648028113947177, -31.39789806955477 ], [ -70.658542525235958, -31.397762466399833 ], [ -70.658225484355754, -31.379724766993508 ] ] ] } },
{ "type": "Feature", "properties": { "cve": "2793465", "nombre": "MARDUK V", "solicitante": "Prohens Poblete Camila Alejandra", "region": "REGIÓN DE COQUIMBO", "provincia": "Provincia de Choapa", "comuna": "Illapel", "superficie_ha": 300.0, "datum_original": "PSAD56", "huso": 19, "epsg_origen": 24879, "tipo_publicacion": "pedimento", "fuente_pdf": "http://www.diariooficial.interior.gob.cl/publicaciones/2026/04/13/44423/07/2793465.pdf", "archivo": "gm_pedimento_2793465.pdf", "fecha": "13-04-2026", "edicion": "44423" }, "geometry": { "type": "Polygon", "coordinates": [ [ [ -70.657750456744964, -31.352668116549264 ], [ -70.647241061259223, -31.352803481080262 ], [ -70.647713080739138, -31.379860274672129 ], [ -70.658225484355754, -31.379724766993508 ], [ -70.657750456744964, -31.352668116549264 ] ] ] } },
{ "type": "Feature", "properties": { "cve": "2793467", "nombre": "MARDUK VI", "solicitante": "Prohens Poblete Camila Alejandra", "region": "REGIÓN DE COQUIMBO", "provincia": "Provincia de Choapa", "comuna": "Illapel", "superficie_ha": 300.0, "datum_original": "PSAD56", "huso": 19, "epsg_origen": 24879, "tipo_publicacion": "pedimento", "fuente_pdf": "http://www.diariooficial.interior.gob.cl/publicaciones/2026/04/13/44423/07/2793467.pdf", "archivo": "gm_pedimento_2793467.pdf", "fecha": "13-04-2026", "edicion": "44423" }, "geometry": { "type": "Polygon", "coordinates": [ [ [ -70.647241061259223, -31.352803481080262 ], [ -70.636731595137277, -31.352937985480168 ], [ -70.637200606402502, -31.37999492131047 ], [ -70.647713080739138, -31.379860274672129 ], [ -70.647241061259223, -31.352803481080262 ] ] ] } },
{ "type": "Feature", "properties": { "cve": "2793468", "nombre": "MARDUK VII", "solicitante": "Prohens Poblete Camila Alejandra", "region": "REGIÓN DE COQUIMBO", "provincia": "Provincia de Choapa", "comuna": "Illapel", "superficie_ha": 200.0, "datum_original": "PSAD56", "huso": 19, "epsg_origen": 24879, "tipo_publicacion": "pedimento", "fuente_pdf": "http://www.diariooficial.interior.gob.cl/publicaciones/2026/04/13/44423/07/2793468.pdf", "archivo": "gm_pedimento_2793468.pdf", "fecha": "13-04-2026", "edicion": "44423" }, "geometry": { "type": "Polygon", "coordinates": [ [ [ -70.679250077627486, -31.379451168596802 ], [ -70.668737816801993, -31.379588398294921 ], [ -70.669056865298089, -31.397626001618534 ], [ -70.679571133682799, -31.397488675231315 ], [ -70.679250077627486, -31.379451168596802 ] ] ] } },
{ "type": "Feature", "properties": { "cve": "2793471", "nombre": "MARDUK X", "solicitante": "Prohens Poblete Francisca Lenka", "region": "REGIÓN DE COQUIMBO", "provincia": "Provincia de Choapa", "comuna": "Illapel", "superficie_ha": 200.0, "datum_original": "PSAD56", "huso": 19, "epsg_origen": 24879, "tipo_publicacion": "pedimento", "fuente_pdf": "http://www.diariooficial.interior.gob.cl/publicaciones/2026/04/13/44423/07/2793471.pdf", "archivo": "gm_pedimento_2793471.pdf", "fecha": "13-04-2026", "edicion": "44423" }, "geometry": { "type": "Polygon", "coordinates": [ [ [ -70.647713080739138, -31.379860274672129 ], [ -70.637200606402502, -31.37999492131047 ], [ -70.637513631882442, -31.398032811063043 ], [ -70.648028113947177, -31.39789806955477 ], [ -70.647713080739138, -31.379860274672129 ] ] ] } },
{ "type": "Feature", "properties": { "cve": "2794379", "nombre": "ALTÍSIMO 1", "solicitante": "Minera BMR SpA", "region": "REGIÓN DE COQUIMBO", "provincia": "Provincia de Limarí", "comuna": null, "superficie_ha": 100.0, "datum_original": "PSAD56", "huso": 19, "epsg_origen": 24879, "tipo_publicacion": "pedimento", "fuente_pdf": "http://www.diariooficial.interior.gob.cl/publicaciones/2026/04/13/44423/07/2794379.pdf", "archivo": "gm_pedimento_2794379.pdf", "fecha": "13-04-2026", "edicion": "44423" }, "geometry": { "type": "Polygon", "coordinates": [ [ [ -71.216912728222468, -30.696139120170233 ], [ -71.206478596592973, -30.696316871164182 ], [ -71.206683848266977, -30.705333768316496 ], [ -71.217118948569379, -30.705155953917036 ], [ -71.216912728222468, -30.696139120170233 ] ] ] } },
{ "type": "Feature", "properties": { "cve": "2794380", "nombre": "ALTÍSIMO 2", "solicitante": "Minera BMR SpA", "region": "REGIÓN DE COQUIMBO", "provincia": "Provincia de Limarí", "comuna": null, "superficie_ha": 200.0, "datum_original": "PSAD56", "huso": 19, "epsg_origen": 24879, "tipo_publicacion": "pedimento", "fuente_pdf": "http://www.diariooficial.interior.gob.cl/publicaciones/2026/04/13/44423/07/2794380.pdf", "archivo": "gm_pedimento_2794380.pdf", "fecha": "13-04-2026", "edicion": "44423" }, "geometry": { "type": "Polygon", "coordinates": [ [ [ -71.180626125750578, -30.707127196925736 ], [ -71.170190557935371, -30.707302089131787 ], [ -71.170594580564071, -30.725336276935288 ], [ -71.181032087415119, -30.725161259969898 ], [ -71.180626125750578, -30.707127196925736 ] ] ] } },
{ "type": "Feature", "properties": { "cve": "2793510", "nombre": "SAPITO 3", "solicitante": "Veth Raffo Daniela", "region": "REGIÓN DE COQUIMBO", "provincia": "Provincia de Limarí", "comuna": null, "superficie_ha": 200.0, "datum_original": "PSAD56", "huso": 19, "epsg_origen": 24879, "tipo_publicacion": "pedimento", "fuente_pdf": "http://www.diariooficial.interior.gob.cl/publicaciones/2026/04/13/44423/07/2793510.pdf", "archivo": "gm_pedimento_2793510.pdf", "fecha": "13-04-2026", "edicion": "44423" }, "geometry": { "type": "Polygon", "coordinates": [ [ [ -71.015008958820317, -31.099496754798299 ], [ -70.994050221817972, -31.099822765248195 ], [ -70.994238706020781, -31.108840326109185 ], [ -71.015199420860725, -31.108514200244173 ], [ -71.015008958820317, -31.099496754798299 ] ] ] } },
{ "type": "Feature", "properties": { "cve": "2793511", "nombre": "SAPITO 4", "solicitante": "Veth Raffo Daniela", "region": "REGIÓN DE COQUIMBO", "provincia": "Provincia de Limarí", "comuna": null, "superficie_ha": 200.0, "datum_original": "PSAD56", "huso": 19, "epsg_origen": 24879, "tipo_publicacion": "pedimento", "fuente_pdf": "http://www.diariooficial.interior.gob.cl/publicaciones/2026/04/13/44423/07/2793511.pdf", "archivo": "gm_pedimento_2793511.pdf", "fecha": "13-04-2026", "edicion": "44423" }, "geometry": { "type": "Polygon", "coordinates": [ [ [ -71.015389968596864, -31.117531631913195 ], [ -70.994427275030333, -31.117857873214675 ], [ -70.994615928879881, -31.126875406562004 ], [ -71.015580602062357, -31.126549049802744 ], [ -71.015389968596864, -31.117531631913195 ] ] ] } },
{ "type": "Feature", "properties": { "cve": "2793670", "nombre": "CN-1", "solicitante": "Inversiones VerdeRoca SpA", "region": "REGIÓN DE LOS RÍOS", "provincia": "Provincia de Valdivia", "comuna": null, "superficie_ha": 300.0, "datum_original": "PSAD56", "huso": 18, "epsg_origen": 24878, "tipo_publicacion": "pedimento", "fuente_pdf": "http://www.diariooficial.interior.gob.cl/publicaciones/2026/04/13/44423/07/2793670.pdf", "archivo": "gm_pedimento_2793670.pdf", "fecha": "13-04-2026", "edicion": "44423" }, "geometry": { "type": "Polygon", "coordinates": [ [ [ -73.018943732561922, -39.294426933638448 ], [ -73.007354123197359, -39.294229100635171 ], [ -73.006587575935626, -39.321245244951697 ], [ -73.018181636552143, -39.321443267127897 ], [ -73.018943732561922, -39.294426933638448 ] ] ] } },
{ "type": "Feature", "properties": { "cve": "2793671", "nombre": "CN-2", "solicitante": "Inversiones VerdeRoca SpA", "region": "REGIÓN DE LOS RÍOS", "provincia": "Provincia de Valdivia", "comuna": null, "superficie_ha": 300.0, "datum_original": "PSAD56", "huso": 18, "epsg_origen": 24878, "tipo_publicacion": "pedimento", "fuente_pdf": "http://www.diariooficial.interior.gob.cl/publicaciones/2026/04/13/44423/07/2793671.pdf", "archivo": "gm_pedimento_2793671.pdf", "fecha": "13-04-2026", "edicion": "44423" }, "geometry": { "type": "Polygon", "coordinates": [ [ [ -73.007354123197359, -39.294229100635171 ], [ -72.995764628296911, -39.294030114945485 ], [ -72.994993629952702, -39.321046068987947 ], [ -73.006587575935626, -39.321245244951697 ], [ -73.007354123197359, -39.294229100635171 ] ] ] } },
{ "type": "Feature", "properties": { "cve": "2793672", "nombre": "CN-3", "solicitante": "Inversiones VerdeRoca SpA", "region": "REGIÓN DE LOS RÍOS", "provincia": "Provincia de Valdivia", "comuna": null, "superficie_ha": 300.0, "datum_original": "PSAD56", "huso": 18, "epsg_origen": 24878, "tipo_publicacion": "pedimento", "fuente_pdf": "http://www.diariooficial.interior.gob.cl/publicaciones/2026/04/13/44423/07/2793672.pdf", "archivo": "gm_pedimento_2793672.pdf", "fecha": "13-04-2026", "edicion": "44423" }, "geometry": { "type": "Polygon", "coordinates": [ [ [ -72.995496952393793, -39.303413672105435 ], [ -72.96072452547503, -39.302809598749107 ], [ -72.960463070383312, -39.311814723635479 ], [ -72.995239948125686, -39.312418989470054 ], [ -72.995496952393793, -39.303413672105435 ] ] ] } }
]
}
