{
"type": "FeatureCollection",
"name": "boletin_mineria_20260818",
"crs": { "type": "name", "properties": { "name": "urn:ogc:def:crs:OGC:1.3:CRS84" } },
"features": [
{ "type": "Feature", "properties": { "cve": "2854980", "nombre": "VETERANA 1 AL 6", "solicitante": "Pérez Vargas Miguel Ángel", "region": "REGIÓN DE ATACAMA", "provincia": "Provincia de Copiapó", "comuna": null, "superficie_ha": 12.0, "datum_original": "PSAD56", "huso": 19, "epsg_origen": 24879, "tipo_publicacion": "manifestacion", "fuente_pdf": "http://www.diariooficial.interior.gob.cl/publicaciones/2026/08/18/44527/07/2854980.pdf", "archivo": "gm_manifestacion_2854980.pdf", "fecha": "18-08-2026", "edicion": "44527" }, "geometry": { "type": "Polygon", "coordinates": [ [ [ -70.415331889993155, -27.783432371998693 ], [ -70.412287703575899, -27.783463515776862 ], [ -70.412334347402592, -27.787073446041187 ], [ -70.415378634278895, -27.787042297526195 ], [ -70.415331889993155, -27.783432371998693 ] ] ] } },
{ "type": "Feature", "properties": { "cve": "2854890", "nombre": "ELBITA 1, 1 AL 4", "solicitante": "Cortés Muñoz Valentina Constanza", "region": "REGIÓN DE ATACAMA", "provincia": "Provincia de Chañaral", "comuna": null, "superficie_ha": 4.0, "datum_original": "PSAD56", "huso": 19, "epsg_origen": 24879, "tipo_publicacion": "manifestacion", "fuente_pdf": "http://www.diariooficial.interior.gob.cl/publicaciones/2026/08/18/44527/07/2854890.pdf", "archivo": "gm_manifestacion_2854890.pdf", "fecha": "18-08-2026", "edicion": "44527" }, "geometry": { "type": "Polygon", "coordinates": [ [ [ -70.458011624255462, -26.433274376548162 ], [ -70.457009016927614, -26.433284598947797 ], [ -70.457054423737929, -26.436895157665649 ], [ -70.458057062284453, -26.436884933656717 ], [ -70.458011624255462, -26.433274376548162 ] ] ] } },
{ "type": "Feature", "properties": { "cve": "2854891", "nombre": "ELBITA 2, 1 AL 6", "solicitante": "Cortés Muñoz Valentina Constanza", "region": "REGIÓN DE ATACAMA", "provincia": "Provincia de Chañaral", "comuna": null, "superficie_ha": 6.0, "datum_original": "PSAD56", "huso": 19, "epsg_origen": 24879, "tipo_publicacion": "manifestacion", "fuente_pdf": "http://www.diariooficial.interior.gob.cl/publicaciones/2026/08/18/44527/07/2854891.pdf", "archivo": "gm_manifestacion_2854891.pdf", "fecha": "18-08-2026", "edicion": "44527" }, "geometry": { "type": "Polygon", "coordinates": [ [ [ -70.464583785426541, -26.437576520843269 ], [ -70.46157585899185, -26.437607309846555 ], [ -70.461598636772862, -26.439412584662538 ], [ -70.464606610043475, -26.439381793236034 ], [ -70.464583785426541, -26.437576520843269 ] ] ] } },
{ "type": "Feature", "properties": { "cve": "2855096", "nombre": "MATURIN 1/100", "solicitante": "Figueroa Romeo Eduardo", "region": "REGIÓN DE ATACAMA", "provincia": "Provincia de Chañaral", "comuna": "Chañaral", "superficie_ha": 100.0, "datum_original": "PSAD56", "huso": 19, "epsg_origen": 24879, "tipo_publicacion": "manifestacion", "fuente_pdf": "http://www.diariooficial.interior.gob.cl/publicaciones/2026/08/18/44527/07/2855096.pdf", "archivo": "gm_manifestacion_2855096.pdf", "fecha": "18-08-2026", "edicion": "44527" }, "geometry": { "type": "Polygon", "coordinates": [ [ [ -70.439063879012551, -26.035194354363551 ], [ -70.42907177928673, -26.035293531922331 ], [ -70.429181204097148, -26.044320540444833 ], [ -70.439174068282099, -26.044221323425695 ], [ -70.439063879012551, -26.035194354363551 ] ] ] } },
{ "type": "Feature", "properties": { "cve": "2855245", "nombre": "Juanita, 1 AL 12", "solicitante": "Onix Inversiones SpA", "region": "REGIÓN DE ATACAMA", "provincia": "Provincia de Huasco", "comuna": null, "superficie_ha": 24.0, "datum_original": "WGS84", "huso": 19, "epsg_origen": 32719, "tipo_publicacion": "manifestacion", "fuente_pdf": "http://www.diariooficial.interior.gob.cl/publicaciones/2026/08/18/44527/07/2855245.pdf", "archivo": "gm_manifestacion_2855245.pdf", "fecha": "18-08-2026", "edicion": "44527" }, "geometry": { "type": "Polygon", "coordinates": [ [ [ -70.91742314696468, -28.880520738526304 ], [ -70.914348319981372, -28.880564462889353 ], [ -70.914480713096111, -28.887781315961742 ], [ -70.917555752411886, -28.887737578637758 ], [ -70.91742314696468, -28.880520738526304 ] ] ] } },
{ "type": "Feature", "properties": { "cve": "2855067", "nombre": "MANKE A; 1 AL 130", "solicitante": "Sáez Sáez Ana Carolina", "region": "REGIÓN DE ATACAMA", "provincia": "Provincia de Huasco", "comuna": null, "superficie_ha": 130.0, "datum_original": "PSAD56", "huso": 19, "epsg_origen": 24879, "tipo_publicacion": "manifestacion", "fuente_pdf": "http://www.diariooficial.interior.gob.cl/publicaciones/2026/08/18/44527/07/2855067.pdf", "archivo": "gm_manifestacion_2855067.pdf", "fecha": "18-08-2026", "edicion": "44527" }, "geometry": { "type": "Polygon", "coordinates": [ [ [ -71.152736461863, -28.860413424350689 ], [ -71.13941668635924, -28.860625491861271 ], [ -71.139601460033376, -28.869645313861284 ], [ -71.152922383758394, -28.869433167744326 ], [ -71.152736461863, -28.860413424350689 ] ] ] } },
{ "type": "Feature", "properties": { "cve": "2855068", "nombre": "MANKE B; 1 AL 50", "solicitante": "Sáez Sáez Ana Carolina", "region": "REGIÓN DE ATACAMA", "provincia": "Provincia de Huasco", "comuna": null, "superficie_ha": 50.0, "datum_original": "PSAD56", "huso": 19, "epsg_origen": 24879, "tipo_publicacion": "manifestacion", "fuente_pdf": "http://www.diariooficial.interior.gob.cl/publicaciones/2026/08/18/44527/07/2855068.pdf", "archivo": "gm_manifestacion_2855068.pdf", "fecha": "18-08-2026", "edicion": "44527" }, "geometry": { "type": "Polygon", "coordinates": [ [ [ -71.17804363796418, -28.860006875612999 ], [ -71.172920770071002, -28.860089555883647 ], [ -71.173108431862858, -28.869109179230641 ], [ -71.178231741334756, -28.869026468313443 ], [ -71.17804363796418, -28.860006875612999 ] ] ] } },
{ "type": "Feature", "properties": { "cve": "2855224", "nombre": "PEQUE 2, 1/25", "solicitante": "Río Tinto Mining and Exploration Limited Agencia en Chile", "region": "REGIÓN DE ATACAMA", "provincia": "Provincia de Huasco", "comuna": null, "superficie_ha": 25.0, "datum_original": "PSAD56", "huso": 19, "epsg_origen": 24879, "tipo_publicacion": "manifestacion", "fuente_pdf": "http://www.diariooficial.interior.gob.cl/publicaciones/2026/08/18/44527/07/2855224.pdf", "archivo": "gm_manifestacion_2855224.pdf", "fecha": "18-08-2026", "edicion": "44527" }, "geometry": { "type": "Polygon", "coordinates": [ [ [ -69.692280161158976, -28.604144215832459 ], [ -69.687166426326627, -28.604170222940848 ], [ -69.687195789978716, -28.608683140652456 ], [ -69.692309743286245, -28.608657128693178 ], [ -69.692280161158976, -28.604144215832459 ] ] ] } },
{ "type": "Feature", "properties": { "cve": "2854772", "nombre": "CAPRICHOSA 1 AL 96", "solicitante": "Sociedad Comercial Las Cruces SpA y otro", "region": "REGIÓN DE COQUIMBO", "provincia": "Provincia de Elqui", "comuna": "la higuera", "superficie_ha": 96.0, "datum_original": "PSAD56", "huso": 19, "epsg_origen": 24879, "tipo_publicacion": "manifestacion", "fuente_pdf": "http://www.diariooficial.interior.gob.cl/publicaciones/2026/08/18/44527/07/2854772.pdf", "archivo": "gm_manifestacion_2854772.pdf", "fecha": "18-08-2026", "edicion": "44527" }, "geometry": { "type": "Polygon", "coordinates": [ [ [ -70.743239678391348, -29.377787534176932 ], [ -70.734999788194997, -29.37789501880879 ], [ -70.735183480685976, -29.388720556441946 ], [ -70.743424242203218, -29.388613024529075 ], [ -70.743239678391348, -29.377787534176932 ] ] ] } },
{ "type": "Feature", "properties": { "cve": "2854771", "nombre": "LA DIABLA 1 AL 100", "solicitante": "Torres Cuevas Carlos Andrés", "region": "REGIÓN DE COQUIMBO", "provincia": "Provincia de Elqui", "comuna": "La Higuera", "superficie_ha": 100.0, "datum_original": "PSAD56", "huso": 19, "epsg_origen": 24879, "tipo_publicacion": "manifestacion", "fuente_pdf": "http://www.diariooficial.interior.gob.cl/publicaciones/2026/08/18/44527/07/2854771.pdf", "archivo": "gm_manifestacion_2854771.pdf", "fecha": "18-08-2026", "edicion": "44527" }, "geometry": { "type": "Polygon", "coordinates": [ [ [ -70.912282370819824, -29.2723385209726 ], [ -70.90199405794651, -29.27248537296823 ], [ -70.902161135430731, -29.281505961169604 ], [ -70.912450350724484, -29.281359055225252 ], [ -70.912282370819824, -29.2723385209726 ] ] ] } },
{ "type": "Feature", "properties": { "cve": "2854773", "nombre": "LOS CRISTALES 1 AL 100", "solicitante": "Sociedad Comercial Las Cruces SpA y otro", "region": "REGIÓN DE COQUIMBO", "provincia": "Provincia de Elqui", "comuna": "la Higuera", "superficie_ha": 100.0, "datum_original": "PSAD56", "huso": 19, "epsg_origen": 24879, "tipo_publicacion": "manifestacion", "fuente_pdf": "http://www.diariooficial.interior.gob.cl/publicaciones/2026/08/18/44527/07/2854773.pdf", "archivo": "gm_manifestacion_2854773.pdf", "fecha": "18-08-2026", "edicion": "44527" }, "geometry": { "type": "Polygon", "coordinates": [ [ [ -70.929749979104983, -29.472934345450277 ], [ -70.919441583601483, -29.473083461507645 ], [ -70.91961157823927, -29.482103684198332 ], [ -70.929920885324336, -29.481954513597326 ], [ -70.929749979104983, -29.472934345450277 ] ] ] } },
{ "type": "Feature", "properties": { "cve": "2854770", "nombre": "SANTA JULIA 1 AL 100", "solicitante": "Torres Cuevas Carlos Andrés", "region": "REGIÓN DE COQUIMBO", "provincia": "Provincia de Elqui", "comuna": "La Higuera", "superficie_ha": 100.0, "datum_original": "PSAD56", "huso": 19, "epsg_origen": 24879, "tipo_publicacion": "manifestacion", "fuente_pdf": "http://www.diariooficial.interior.gob.cl/publicaciones/2026/08/18/44527/07/2854770.pdf", "archivo": "gm_manifestacion_2854770.pdf", "fecha": "18-08-2026", "edicion": "44527" }, "geometry": { "type": "Polygon", "coordinates": [ [ [ -70.934865414296823, -29.269306534498813 ], [ -70.924577541252006, -29.269455110829526 ], [ -70.924746580873645, -29.27847558391138 ], [ -70.935035356152795, -29.278326952995624 ], [ -70.934865414296823, -29.269306534498813 ] ] ] } },
{ "type": "Feature", "properties": { "cve": "2854769", "nombre": "YOLEIMY 1 AL 100", "solicitante": "Torres Cuevas Carlos Andrés", "region": "REGIÓN DE COQUIMBO", "provincia": "Provincia de Elqui", "comuna": "La Higuera", "superficie_ha": 100.0, "datum_original": "PSAD56", "huso": 19, "epsg_origen": 24879, "tipo_publicacion": "manifestacion", "fuente_pdf": "http://www.diariooficial.interior.gob.cl/publicaciones/2026/08/18/44527/07/2854769.pdf", "archivo": "gm_manifestacion_2854769.pdf", "fecha": "18-08-2026", "edicion": "44527" }, "geometry": { "type": "Polygon", "coordinates": [ [ [ -70.676648822450048, -29.110370271169572 ], [ -70.666375336811683, -29.110498338475079 ], [ -70.66652075531367, -29.119520306920968 ], [ -70.676795136460882, -29.119392192394731 ], [ -70.676648822450048, -29.110370271169572 ] ] ] } },
{ "type": "Feature", "properties": { "cve": "2855128", "nombre": "EL SHADDAI DEL 1 AL 8", "solicitante": "Ruah Mining Service SpA", "region": "REGIÓN DE VALPARAÍSO", "provincia": "Provincia de Petorca", "comuna": null, "superficie_ha": 56.0, "datum_original": "PSAD56", "huso": 19, "epsg_origen": 24879, "tipo_publicacion": "manifestacion", "fuente_pdf": "http://www.diariooficial.interior.gob.cl/publicaciones/2026/08/18/44527/07/2855128.pdf", "archivo": "gm_manifestacion_2855128.pdf", "fecha": "18-08-2026", "edicion": "44527" }, "geometry": { "type": "Polygon", "coordinates": [ [ [ -70.836462557797702, -32.387251267617863 ], [ -70.829024053190494, -32.387359434756867 ], [ -70.82916947497786, -32.39457271107554 ], [ -70.836608570195892, -32.394464513992034 ], [ -70.836462557797702, -32.387251267617863 ] ] ] } },
{ "type": "Feature", "properties": { "cve": "2855114", "nombre": "HEKA 20, 1 AL 12", "solicitante": "Delgado Tobar René Luis", "region": "REGIÓN DE VALPARAÍSO", "provincia": "Provincia de Petorca", "comuna": null, "superficie_ha": 60.0, "datum_original": "PSAD56", "huso": 19, "epsg_origen": 24879, "tipo_publicacion": "manifestacion", "fuente_pdf": "http://www.diariooficial.interior.gob.cl/publicaciones/2026/08/18/44527/07/2855114.pdf", "archivo": "gm_manifestacion_2855114.pdf", "fecha": "18-08-2026", "edicion": "44527" }, "geometry": { "type": "Polygon", "coordinates": [ [ [ -70.995668982644986, -32.308891628433827 ], [ -70.989299210260484, -32.308992204793562 ], [ -70.98949632262655, -32.318008068096951 ], [ -70.995866725148701, -32.317907456889891 ], [ -70.995668982644986, -32.308891628433827 ] ] ] } },
{ "type": "Feature", "properties": { "cve": "2855084", "nombre": "CELOSA 1 AL 10", "solicitante": "Farfan Cano Héctor Manuel", "region": "REGIÓN METROPOLITANA DE SANTIAGO", "provincia": "Provincia de Melipilla", "comuna": null, "superficie_ha": 50.0, "datum_original": "PSAD56", "huso": 19, "epsg_origen": 24879, "tipo_publicacion": "manifestacion", "fuente_pdf": "http://www.diariooficial.interior.gob.cl/publicaciones/2026/08/18/44527/07/2855084.pdf", "archivo": "gm_manifestacion_2855084.pdf", "fecha": "18-08-2026", "edicion": "44527" }, "geometry": { "type": "Polygon", "coordinates": [ [ [ -71.162445703412402, -33.259252157626882 ], [ -71.157081393896988, -33.259345360919006 ], [ -71.157303044436802, -33.268358886340074 ], [ -71.162667904114841, -33.268265651251937 ], [ -71.162445703412402, -33.259252157626882 ] ] ] } },
{ "type": "Feature", "properties": { "cve": "2855058", "nombre": "BARBIE 1/25", "solicitante": "González Mena Zunny Andrea", "region": "REGIÓN DEL MAULE", "provincia": "Provincia de Linares", "comuna": null, "superficie_ha": 25.0, "datum_original": "PSAD56", "huso": 19, "epsg_origen": 24879, "tipo_publicacion": "manifestacion", "fuente_pdf": "http://www.diariooficial.interior.gob.cl/publicaciones/2026/08/18/44527/07/2855058.pdf", "archivo": "gm_manifestacion_2855058.pdf", "fecha": "18-08-2026", "edicion": "44527" }, "geometry": { "type": "Polygon", "coordinates": [ [ [ -71.932510871594616, -36.024336301704352 ], [ -71.926968730652604, -36.024471799204044 ], [ -71.927135392575735, -36.028973866036957 ], [ -71.9326778479859, -36.028838346288431 ], [ -71.932510871594616, -36.024336301704352 ] ] ] } },
{ "type": "Feature", "properties": { "cve": "2855053", "nombre": "LA BERTUCA 1 AL 7", "solicitante": "Olivares Estay Erwin Juan Carlos", "region": "REGIÓN DE ATACAMA", "provincia": "Provincia de Copiapó", "comuna": null, "superficie_ha": 70.0, "datum_original": "PSAD56", "huso": 19, "epsg_origen": 24879, "tipo_publicacion": "mensura", "fuente_pdf": "http://www.diariooficial.interior.gob.cl/publicaciones/2026/08/18/44527/07/2855053.pdf", "archivo": "gm_mensura_2855053.pdf", "fecha": "18-08-2026", "edicion": "44527" }, "geometry": { "type": "Polygon", "coordinates": [ [ [ -69.859096333628329, -27.359755818567873 ], [ -69.852019086237576, -27.359799180593235 ], [ -69.852088194520576, -27.368826309203239 ], [ -69.859166015783913, -27.36878293051258 ], [ -69.859096333628329, -27.359755818567873 ] ] ] } },
{ "type": "Feature", "properties": { "cve": "2855212", "nombre": "MOOSE 2, 1 AL 60", "solicitante": "Gold Hart Chile SpA", "region": "REGIÓN DE ATACAMA", "provincia": "Provincia de Copiapó", "comuna": null, "superficie_ha": 300.0, "datum_original": "PSAD56", "huso": 19, "epsg_origen": 24879, "tipo_publicacion": "mensura", "fuente_pdf": "http://www.diariooficial.interior.gob.cl/publicaciones/2026/08/18/44527/07/2855212.pdf", "archivo": "gm_mensura_2855212.pdf", "fecha": "18-08-2026", "edicion": "44527" }, "geometry": { "type": "Polygon", "coordinates": [ [ [ -69.215137803120697, -27.838899845037865 ], [ -69.184671344986754, -27.838943965482194 ], [ -69.184686632315845, -27.84797142098321 ], [ -69.21515561245792, -27.847927283779285 ], [ -69.215137803120697, -27.838899845037865 ] ] ] } },
{ "type": "Feature", "properties": { "cve": "2855213", "nombre": "MOOSE 3, 1 AL 60", "solicitante": "Gold Hart Chile SpA", "region": "REGIÓN DE ATACAMA", "provincia": "Provincia de Copiapó", "comuna": null, "superficie_ha": 300.0, "datum_original": "PSAD56", "huso": 19, "epsg_origen": 24879, "tipo_publicacion": "mensura", "fuente_pdf": "http://www.diariooficial.interior.gob.cl/publicaciones/2026/08/18/44527/07/2855213.pdf", "archivo": "gm_mensura_2855213.pdf", "fecha": "18-08-2026", "edicion": "44527" }, "geometry": { "type": "Polygon", "coordinates": [ [ [ -69.21515561245792, -27.847927283779285 ], [ -69.184686632315845, -27.84797142098321 ], [ -69.184701926737787, -27.856998864567117 ], [ -69.215173430058101, -27.856954710600885 ], [ -69.21515561245792, -27.847927283779285 ] ] ] } },
{ "type": "Feature", "properties": { "cve": "2855132", "nombre": "NONA III 1 AL 7", "solicitante": "Olivares Estay Erwin Juan Carlos", "region": "REGIÓN DE ATACAMA", "provincia": "Provincia de Copiapó", "comuna": null, "superficie_ha": 30.0, "datum_original": "PSAD56", "huso": 19, "epsg_origen": 24879, "tipo_publicacion": "mensura", "fuente_pdf": "http://www.diariooficial.interior.gob.cl/publicaciones/2026/08/18/44527/07/2855132.pdf", "archivo": "gm_mensura_2855132.pdf", "fecha": "18-08-2026", "edicion": "44527" }, "geometry": { "type": "Polygon", "coordinates": [ [ [ -69.932164834614753, -27.003597060751524 ], [ -69.929141405270485, -27.003617033257594 ], [ -69.929215625615257, -27.012644434484997 ], [ -69.932239296387692, -27.012624454233315 ], [ -69.932164834614753, -27.003597060751524 ] ] ] } },
{ "type": "Feature", "properties": { "cve": "2855255", "nombre": "MOMANO 1A, 1 AL 27", "solicitante": "CVE Proyecto Catorce SpA", "region": "REGIÓN DE COQUIMBO", "provincia": "Provincia de Limarí", "comuna": null, "superficie_ha": 98.0, "datum_original": "PSAD56", "huso": 19, "epsg_origen": 24879, "tipo_publicacion": "mensura", "fuente_pdf": "http://www.diariooficial.interior.gob.cl/publicaciones/2026/08/18/44527/07/2855255.pdf", "archivo": "gm_mensura_2855255.pdf", "fecha": "18-08-2026", "edicion": "44527" }, "geometry": { "type": "Polygon", "coordinates": [ [ [ -70.918757920324879, -30.715863013353669 ], [ -70.913538822251439, -30.715940061503467 ], [ -70.913521011542088, -30.715038207330615 ], [ -70.912999105479798, -30.715045900342748 ], [ -70.912821091059058, -30.706027348408757 ], [ -70.908646223290503, -30.706088795129926 ], [ -70.908823849757837, -30.715107368982562 ], [ -70.911433386088405, -30.715068966802971 ], [ -70.911593536743752, -30.723185659346711 ], [ -70.91890082304586, -30.723077819869005 ], [ -70.918757920324879, -30.715863013353669 ] ] ] } },
{ "type": "Feature", "properties": { "cve": "2854838", "nombre": "POTRERO ALTO 1, 1-99", "solicitante": "Minera Las Cenizas S.A.", "region": "REGIÓN DE VALPARAÍSO", "provincia": "Provincia de San Felipe de Aconcagua", "comuna": null, "superficie_ha": 99.0, "datum_original": "PSAD56", "huso": 19, "epsg_origen": 24879, "tipo_publicacion": "mensura", "fuente_pdf": "http://www.diariooficial.interior.gob.cl/publicaciones/2026/08/18/44527/07/2854838.pdf", "archivo": "gm_mensura_2854838.pdf", "fecha": "18-08-2026", "edicion": "44527" }, "geometry": { "type": "Polygon", "coordinates": [ [ [ -70.812039346746346, -32.473557926334465 ], [ -70.808848340016951, -32.473603827862441 ], [ -70.809389718252007, -32.500653498207122 ], [ -70.812581678758576, -32.500607549085117 ], [ -70.812400820679358, -32.491591022096756 ], [ -70.813464699877926, -32.491575693039664 ], [ -70.813283816576927, -32.482559157416418 ], [ -70.811156269321756, -32.482589795958688 ], [ -70.811138206624136, -32.481688140571798 ], [ -70.812201970060428, -32.481672826321294 ], [ -70.812039346746346, -32.473557926334465 ] ] ] } },
{ "type": "Feature", "properties": { "cve": "2854839", "nombre": "POTRERO ALTO 2, 1-258", "solicitante": "Minera Las Cenizas S.A.", "region": "REGIÓN DE VALPARAÍSO", "provincia": "Provincia de San Felipe de Aconcagua", "comuna": null, "superficie_ha": 258.0, "datum_original": "PSAD56", "huso": 19, "epsg_origen": 24879, "tipo_publicacion": "mensura", "fuente_pdf": "http://www.diariooficial.interior.gob.cl/publicaciones/2026/08/18/44527/07/2854839.pdf", "archivo": "gm_mensura_2854839.pdf", "fecha": "18-08-2026", "edicion": "44527" }, "geometry": { "type": "Polygon", "coordinates": [ [ [ -70.808848340016951, -32.473603827862441 ], [ -70.800338953333465, -32.473725836814488 ], [ -70.800572359770925, -32.485447430828522 ], [ -70.798444729633843, -32.485477856927389 ], [ -70.798570317785291, -32.491789482090482 ], [ -70.799634207444782, -32.491774269855185 ], [ -70.799706032137166, -32.495380907642129 ], [ -70.800769963399475, -32.495365684317257 ], [ -70.800877788119351, -32.500775633667182 ], [ -70.809389718252007, -32.500653498207122 ], [ -70.808848340016951, -32.473603827862441 ] ] ] } },
{ "type": "Feature", "properties": { "cve": "2854840", "nombre": "POTRERO ALTO 3, 1-116", "solicitante": "Minera Las Cenizas S.A.", "region": "REGIÓN DE VALPARAÍSO", "provincia": "Provincia de San Felipe de Aconcagua", "comuna": null, "superficie_ha": 116.0, "datum_original": "PSAD56", "huso": 19, "epsg_origen": 24879, "tipo_publicacion": "mensura", "fuente_pdf": "http://www.diariooficial.interior.gob.cl/publicaciones/2026/08/18/44527/07/2854840.pdf", "archivo": "gm_mensura_2854840.pdf", "fecha": "18-08-2026", "edicion": "44527" }, "geometry": { "type": "Polygon", "coordinates": [ [ [ -70.812581678758576, -32.500607549085117 ], [ -70.798749797550229, -32.500806077637556 ], [ -70.79876774993555, -32.501707736426795 ], [ -70.800395679235379, -32.501684449217407 ], [ -70.800539457017251, -32.508897708085954 ], [ -70.811180320033287, -32.508744943643997 ], [ -70.811198401960709, -32.509646595100747 ], [ -70.815454767021038, -32.50958523542554 ], [ -70.815382274422518, -32.505978637237575 ], [ -70.814318226803465, -32.50599398852426 ], [ -70.814300116284159, -32.505092338098756 ], [ -70.812172039834536, -32.50512301263953 ], [ -70.812099690692193, -32.501516405306909 ], [ -70.812599769009168, -32.50150920101774 ], [ -70.812581678758576, -32.500607549085117 ] ] ] } }
]
}
