{
"type": "FeatureCollection",
"name": "boletin_mineria_20260707",
"crs": { "type": "name", "properties": { "name": "urn:ogc:def:crs:OGC:1.3:CRS84" } },
"features": [
{ "type": "Feature", "properties": { "cve": "2833620", "nombre": "NUEVA PROMESA 1 AL 10", "solicitante": "Espinoza Namasay Liliana Karina", "region": "REGIÓN DE ATACAMA", "provincia": "Provincia de Chañaral", "comuna": "Chañaral", "superficie_ha": 100.0, "datum_original": "PSAD56", "huso": 19, "epsg_origen": 24879, "tipo_publicacion": "manifestacion", "fuente_pdf": "http://www.diariooficial.interior.gob.cl/publicaciones/2026/07/07/44493/07/2833620.pdf", "archivo": "gm_manifestacion_2833620.pdf", "fecha": "07-07-2026", "edicion": "44493" }, "geometry": { "type": "Polygon", "coordinates": [ [ [ -70.438331597428714, -26.342149981511835 ], [ -70.428313277717123, -26.34225018908025 ], [ -70.428424132467597, -26.351276812383279 ], [ -70.438443229073314, -26.35117656527709 ], [ -70.438331597428714, -26.342149981511835 ] ] ] } },
{ "type": "Feature", "properties": { "cve": "2833637", "nombre": "SAN JORGE 1/18", "solicitante": "Movimiento Contractual Incahuasi SpA", "region": "REGIÓN DE ATACAMA", "provincia": "Provincia de Huasco", "comuna": "Vallenar", "superficie_ha": 18.0, "datum_original": "PSAD56", "huso": 19, "epsg_origen": 24879, "tipo_publicacion": "manifestacion", "fuente_pdf": "http://www.diariooficial.interior.gob.cl/publicaciones/2026/07/07/44493/07/2833637.pdf", "archivo": "gm_manifestacion_2833637.pdf", "fecha": "07-07-2026", "edicion": "44493" }, "geometry": { "type": "Polygon", "coordinates": [ [ [ -70.988970703067523, -29.19362305680961 ], [ -70.985886718013973, -29.193668854320077 ], [ -70.985991038003206, -29.199081003076966 ], [ -70.989075184800427, -29.199035195455266 ], [ -70.988970703067523, -29.19362305680961 ] ] ] } },
{ "type": "Feature", "properties": { "cve": "2833483", "nombre": "GRACIELA 1A 1 AL 120", "solicitante": "Compañía Minera Teck Carmen de Andacollo", "region": "REGIÓN DE COQUIMBO", "provincia": "Provincia de Elqui", "comuna": "ANDACOLLO", "superficie_ha": 120.0, "datum_original": "PSAD56", "huso": 19, "epsg_origen": 24879, "tipo_publicacion": "manifestacion", "fuente_pdf": "http://www.diariooficial.interior.gob.cl/publicaciones/2026/07/07/44493/07/2833483.pdf", "archivo": "gm_manifestacion_2833483.pdf", "fecha": "07-07-2026", "edicion": "44493" }, "geometry": { "type": "Polygon", "coordinates": [ [ [ -71.134481363034709, -30.268578834963613 ], [ -71.122014313615153, -30.268781519374752 ], [ -71.122208375174992, -30.27779951669519 ], [ -71.134676562621394, -30.277596759367949 ], [ -71.134481363034709, -30.268578834963613 ] ] ] } },
{ "type": "Feature", "properties": { "cve": "2833484", "nombre": "GRACIELA 1B 1 AL 18", "solicitante": "Compañía Minera Teck Carmen de Andacollo", "region": "REGIÓN DE COQUIMBO", "provincia": "Provincia de Elqui", "comuna": "ANDACOLLO", "superficie_ha": 18.0, "datum_original": "PSAD56", "huso": 19, "epsg_origen": 24879, "tipo_publicacion": "manifestacion", "fuente_pdf": "http://www.diariooficial.interior.gob.cl/publicaciones/2026/07/07/44493/07/2833484.pdf", "archivo": "gm_manifestacion_2833484.pdf", "fecha": "07-07-2026", "edicion": "44493" }, "geometry": { "type": "Polygon", "coordinates": [ [ [ -71.120427539285515, -30.267003000373403 ], [ -71.117310810116109, -30.267053445802137 ], [ -71.117426970530545, -30.272464263774047 ], [ -71.12054387037854, -30.272413807456559 ], [ -71.120427539285515, -30.267003000373403 ] ] ] } },
{ "type": "Feature", "properties": { "cve": "2833487", "nombre": "GRACIELA 1C 1 AL 16", "solicitante": "Compañía Minera Teck Carmen de Andacollo", "region": "REGIÓN DE COQUIMBO", "provincia": "Provincia de Elqui", "comuna": "ANDACOLLO", "superficie_ha": 16.0, "datum_original": "PSAD56", "huso": 19, "epsg_origen": 24879, "tipo_publicacion": "manifestacion", "fuente_pdf": "http://www.diariooficial.interior.gob.cl/publicaciones/2026/07/07/44493/07/2833487.pdf", "archivo": "gm_manifestacion_2833487.pdf", "fecha": "07-07-2026", "edicion": "44493" }, "geometry": { "type": "Polygon", "coordinates": [ [ [ -71.122072522863348, -30.271486920004531 ], [ -71.117916697805441, -30.271554225281367 ], [ -71.117994170687709, -30.275161433893853 ], [ -71.122150147486821, -30.275094118932749 ], [ -71.122072522863348, -30.271486920004531 ] ] ] } },
{ "type": "Feature", "properties": { "cve": "2833485", "nombre": "GRACIELA 2A 1 AL 22", "solicitante": "Compañía Minera Teck Carmen de Andacollo", "region": "REGIÓN DE COQUIMBO", "provincia": "Provincia de Elqui", "comuna": "ANDACOLLO", "superficie_ha": 110.0, "datum_original": "PSAD56", "huso": 19, "epsg_origen": 24879, "tipo_publicacion": "manifestacion", "fuente_pdf": "http://www.diariooficial.interior.gob.cl/publicaciones/2026/07/07/44493/07/2833485.pdf", "archivo": "gm_manifestacion_2833485.pdf", "fecha": "07-07-2026", "edicion": "44493" }, "geometry": { "type": "Polygon", "coordinates": [ [ [ -71.13624546721293, -30.277571161731778 ], [ -71.124816314867246, -30.277757204710237 ], [ -71.125010702402179, -30.28677517315619 ], [ -71.136440898403265, -30.286589063260575 ], [ -71.13624546721293, -30.277571161731778 ] ] ] } },
{ "type": "Feature", "properties": { "cve": "2833486", "nombre": "GRACIELA 2B 1 AL 18", "solicitante": "Compañía Minera Teck Carmen de Andacollo", "region": "REGIÓN DE COQUIMBO", "provincia": "Provincia de Elqui", "comuna": "ANDACOLLO", "superficie_ha": 18.0, "datum_original": "PSAD56", "huso": 19, "epsg_origen": 24879, "tipo_publicacion": "manifestacion", "fuente_pdf": "http://www.diariooficial.interior.gob.cl/publicaciones/2026/07/07/44493/07/2833486.pdf", "archivo": "gm_manifestacion_2833486.pdf", "fecha": "07-07-2026", "edicion": "44493" }, "geometry": { "type": "Polygon", "coordinates": [ [ [ -71.123709314069714, -30.27461777398727 ], [ -71.117475380011754, -30.274718769812171 ], [ -71.117533478618057, -30.277424175931838 ], [ -71.123767583407727, -30.277323169208834 ], [ -71.123709314069714, -30.27461777398727 ] ] ] } },
{ "type": "Feature", "properties": { "cve": "2833482", "nombre": "SISTER 1 AL 22", "solicitante": "Compañía Minera Teck Carmen de Andacollo", "region": "REGIÓN DE COQUIMBO", "provincia": "Provincia de Elqui", "comuna": "ANDACOLLO", "superficie_ha": 110.0, "datum_original": "PSAD56", "huso": 19, "epsg_origen": 24879, "tipo_publicacion": "manifestacion", "fuente_pdf": "http://www.diariooficial.interior.gob.cl/publicaciones/2026/07/07/44493/07/2833482.pdf", "archivo": "gm_manifestacion_2833482.pdf", "fecha": "07-07-2026", "edicion": "44493" }, "geometry": { "type": "Polygon", "coordinates": [ [ [ -71.182630034888078, -30.307026032374992 ], [ -71.172237113400726, -30.307199035303281 ], [ -71.172455972223062, -30.317118445686642 ], [ -71.182849938803457, -30.316945374350741 ], [ -71.182630034888078, -30.307026032374992 ] ] ] } },
{ "type": "Feature", "properties": { "cve": "2833492", "nombre": "CARMONA IV 25, 1 AL 30", "solicitante": "Compañía Minera Kairos Chile SpA", "region": "REGIÓN DE COQUIMBO", "provincia": "Provincia de Limarí", "comuna": "Monte Patria", "superficie_ha": 300.0, "datum_original": "PSAD56", "huso": 19, "epsg_origen": 24879, "tipo_publicacion": "manifestacion", "fuente_pdf": "http://www.diariooficial.interior.gob.cl/publicaciones/2026/07/07/44493/07/2833492.pdf", "archivo": "gm_manifestacion_2833492.pdf", "fecha": "07-07-2026", "edicion": "44493" }, "geometry": { "type": "Polygon", "coordinates": [ [ [ -70.659425158903957, -30.540714161198782 ], [ -70.628162223315101, -30.54110873113661 ], [ -70.628312763468884, -30.550128903976201 ], [ -70.659578586430669, -30.549734192816871 ], [ -70.659425158903957, -30.540714161198782 ] ] ] } },
{ "type": "Feature", "properties": { "cve": "2833455", "nombre": "FARELLONES 1 AL 20", "solicitante": "Escobar Bou Fernando Antonio y otro", "region": "REGIÓN DE COQUIMBO", "provincia": "Provincia de Limarí", "comuna": "Ovalle", "superficie_ha": 100.0, "datum_original": "PSAD56", "huso": 19, "epsg_origen": 24879, "tipo_publicacion": "manifestacion", "fuente_pdf": "http://www.diariooficial.interior.gob.cl/publicaciones/2026/07/07/44493/07/2833455.pdf", "archivo": "gm_manifestacion_2833455.pdf", "fecha": "07-07-2026", "edicion": "44493" }, "geometry": { "type": "Polygon", "coordinates": [ [ [ -71.04802864946025, -30.60802759133486 ], [ -71.037602829865193, -30.608191352254249 ], [ -71.037791716432864, -30.617209361153115 ], [ -71.048218500862433, -30.617045541711921 ], [ -71.04802864946025, -30.60802759133486 ] ] ] } },
{ "type": "Feature", "properties": { "cve": "2833688", "nombre": "ADRIANITA 1 AL 10", "solicitante": "Cáceres Chávez Patricia Andrea", "region": "REGIÓN DE ATACAMA", "provincia": "Provincia de Copiapó", "comuna": null, "superficie_ha": 100.0, "datum_original": "WGS84", "huso": 19, "epsg_origen": 32719, "tipo_publicacion": "mensura", "fuente_pdf": "http://www.diariooficial.interior.gob.cl/publicaciones/2026/07/07/44493/07/2833688.pdf", "archivo": "gm_mensura_2833688.pdf", "fecha": "07-07-2026", "edicion": "44493" }, "geometry": { "type": "Polygon", "coordinates": [ [ [ -70.143948637237912, -27.968330563737162 ], [ -70.133783011489541, -27.968414710916793 ], [ -70.133877386939517, -27.977440269282919 ], [ -70.144043858420929, -27.977356090246463 ], [ -70.143948637237912, -27.968330563737162 ] ] ] } },
{ "type": "Feature", "properties": { "cve": "2833690", "nombre": "ESPERANZA TRES 1 AL 7", "solicitante": "Zepeda Araya José Mauricio", "region": "REGIÓN DE ATACAMA", "provincia": "Provincia de Copiapó", "comuna": null, "superficie_ha": 35.0, "datum_original": "WGS84", "huso": 19, "epsg_origen": 32719, "tipo_publicacion": "mensura", "fuente_pdf": "http://www.diariooficial.interior.gob.cl/publicaciones/2026/07/07/44493/07/2833690.pdf", "archivo": "gm_mensura_2833690.pdf", "fecha": "07-07-2026", "edicion": "44493" }, "geometry": { "type": "Polygon", "coordinates": [ [ [ -70.613227099961961, -27.634909717747082 ], [ -70.613227099961961, -27.634909717747082 ], [ -70.613293290446549, -27.639421807210212 ], [ -70.62038639787437, -27.639339090162579 ], [ -70.613227099961961, -27.634909717747082 ] ] ] } },
{ "type": "Feature", "properties": { "cve": "2833691", "nombre": "MANTOS ROSARIO 1 AL 10", "solicitante": "Araya Rojas Juan Alberto", "region": "REGIÓN DE ATACAMA", "provincia": "Provincia de Copiapó", "comuna": null, "superficie_ha": 100.0, "datum_original": "WGS84", "huso": 19, "epsg_origen": 32719, "tipo_publicacion": "mensura", "fuente_pdf": "http://www.diariooficial.interior.gob.cl/publicaciones/2026/07/07/44493/07/2833691.pdf", "archivo": "gm_mensura_2833691.pdf", "fecha": "07-07-2026", "edicion": "44493" }, "geometry": { "type": "Polygon", "coordinates": [ [ [ -69.734399151721064, -27.295943570775002 ], [ -69.724294280460853, -27.295996272336374 ], [ -69.724352876845799, -27.305023756664102 ], [ -69.734458565425868, -27.304971034816052 ], [ -69.734399151721064, -27.295943570775002 ] ] ] } },
{ "type": "Feature", "properties": { "cve": "2833612", "nombre": "SALOMON II 1 AL 20", "solicitante": "Compañía Minera Minerales Copiapó Limitada", "region": "REGIÓN DE ATACAMA", "provincia": "Provincia de Chañaral", "comuna": null, "superficie_ha": 100.0, "datum_original": "WGS84", "huso": 19, "epsg_origen": 32719, "tipo_publicacion": "mensura", "fuente_pdf": "http://www.diariooficial.interior.gob.cl/publicaciones/2026/07/07/44493/07/2833612.pdf", "archivo": "gm_mensura_2833612.pdf", "fecha": "07-07-2026", "edicion": "44493" }, "geometry": { "type": "Polygon", "coordinates": [ [ [ -70.043006168751447, -26.599042265846212 ], [ -70.032964094972769, -26.599115501120014 ], [ -70.033045185089591, -26.60814312835754 ], [ -70.043088046848041, -26.608069864383395 ], [ -70.043006168751447, -26.599042265846212 ] ] ] } },
{ "type": "Feature", "properties": { "cve": "2833537", "nombre": "BENJAMIN 1 AL 34", "solicitante": "García Troncoso Guillermo y otro", "region": "REGIÓN DE COQUIMBO", "provincia": "Provincia de Elqui", "comuna": null, "superficie_ha": 122.0, "datum_original": "PSAD56", "huso": 19, "epsg_origen": 24879, "tipo_publicacion": "mensura", "fuente_pdf": "http://www.diariooficial.interior.gob.cl/publicaciones/2026/07/07/44493/07/2833537.pdf", "archivo": "gm_mensura_2833537.pdf", "fecha": "07-07-2026", "edicion": "44493" }, "geometry": { "type": "Polygon", "coordinates": [ [ [ -70.987912978608492, -30.292538217155045 ], [ -70.952577531855155, -30.293070254147011 ], [ -70.952631147225276, -30.295775930334532 ], [ -70.953670466988427, -30.295760416537224 ], [ -70.953688349894421, -30.296662307772085 ], [ -70.954727678347112, -30.29664678517171 ], [ -70.954745571561304, -30.297548675713553 ], [ -70.98800395621474, -30.297047581133498 ], [ -70.987912978608492, -30.292538217155045 ] ] ] } },
{ "type": "Feature", "properties": { "cve": "2833538", "nombre": "CAMILA 1 AL 20", "solicitante": "García Troncoso Guillermo y otro", "region": "REGIÓN DE COQUIMBO", "provincia": "Provincia de Elqui", "comuna": null, "superficie_ha": null, "datum_original": "PSAD56", "huso": 19, "epsg_origen": 24879, "tipo_publicacion": "mensura", "fuente_pdf": "http://www.diariooficial.interior.gob.cl/publicaciones/2026/07/07/44493/07/2833538.pdf", "archivo": "gm_mensura_2833538.pdf", "fecha": "07-07-2026", "edicion": "44493" }, "geometry": { "type": "Polygon", "coordinates": [ [ [ -70.977158491900212, -30.274658084913948 ], [ -70.973002156150869, -30.274720797253572 ], [ -70.973363203050511, -30.292758445323933 ], [ -70.977520298175989, -30.292695687859606 ], [ -70.977158491900212, -30.274658084913948 ] ] ] } },
{ "type": "Feature", "properties": { "cve": "2833536", "nombre": "MATIAS 1 AL 20", "solicitante": "García Troncoso Guillermo y otro", "region": "REGIÓN DE COQUIMBO", "provincia": "Provincia de Elqui", "comuna": null, "superficie_ha": 100.0, "datum_original": "PSAD56", "huso": 19, "epsg_origen": 24879, "tipo_publicacion": "mensura", "fuente_pdf": "http://www.diariooficial.interior.gob.cl/publicaciones/2026/07/07/44493/07/2833536.pdf", "archivo": "gm_mensura_2833536.pdf", "fecha": "07-07-2026", "edicion": "44493" }, "geometry": { "type": "Polygon", "coordinates": [ [ [ -70.973002156150869, -30.274720797253572 ], [ -70.962611259680372, -30.274877001460602 ], [ -70.962790793260424, -30.283895888442647 ], [ -70.973182638758374, -30.283739628042078 ], [ -70.973002156150869, -30.274720797253572 ] ] ] } },
{ "type": "Feature", "properties": { "cve": "2833493", "nombre": "PIEDRA DURA 1", "solicitante": "Farías Poblete Christian Enrique", "region": "REGIÓN METROPOLITANA DE SANTIAGO", "provincia": "Provincia Cordillera", "comuna": null, "superficie_ha": 1.0, "datum_original": "PSAD56", "huso": 19, "epsg_origen": 24879, "tipo_publicacion": "mensura", "fuente_pdf": "http://www.diariooficial.interior.gob.cl/publicaciones/2026/07/07/44493/07/2833493.pdf", "archivo": "gm_mensura_2833493.pdf", "fecha": "07-07-2026", "edicion": "44493" }, "geometry": { "type": "Polygon", "coordinates": [ [ [ -70.582702004336824, -33.679308619335451 ], [ -70.581628552156019, -33.679592904063838 ], [ -70.581645063465615, -33.680494492088641 ], [ -70.582723483516446, -33.680480683186346 ], [ -70.582702004336824, -33.679308619335451 ] ] ] } },
{ "type": "Feature", "properties": { "cve": "2833366", "nombre": "AGUILA 1 1/28", "solicitante": "Arévalo Romero Alberto", "region": "REGIÓN DE MAGALLANES Y DE LA ANTÁRTICA CHILENA", "provincia": "Provincia de Magallanes", "comuna": null, "superficie_ha": 260.0, "datum_original": "WGS84", "huso": 19, "epsg_origen": 32719, "tipo_publicacion": "mensura", "fuente_pdf": "http://www.diariooficial.interior.gob.cl/publicaciones/2026/07/07/44493/07/2833366.pdf", "archivo": "gm_mensura_2833366.pdf", "fecha": "07-07-2026", "edicion": "44493" }, "geometry": { "type": "Polygon", "coordinates": [ [ [ -68.433324516948673, -52.36641219543607 ], [ -68.418638527390854, -52.366340867040392 ], [ -68.418378749179993, -52.386118687599442 ], [ -68.421317254456639, -52.386133109487979 ], [ -68.42129374268923, -52.387931090759224 ], [ -68.424232369819507, -52.387945440530714 ], [ -68.424208974960479, -52.389743422169971 ], [ -68.427147723945055, -52.389757699814929 ], [ -68.42712444601959, -52.391555681817643 ], [ -68.430063316859176, -52.391569887326582 ], [ -68.430040155892428, -52.393367869688198 ], [ -68.432979148587705, -52.393382003051634 ], [ -68.433324516948673, -52.36641219543607 ] ] ] } },
{ "type": "Feature", "properties": { "cve": "2833367", "nombre": "AGUILA 4 1/20", "solicitante": "Arévalo Romero Alberto", "region": "REGIÓN DE MAGALLANES Y DE LA ANTÁRTICA CHILENA", "provincia": "Provincia de Magallanes", "comuna": null, "superficie_ha": 200.0, "datum_original": "WGS84", "huso": 19, "epsg_origen": 32719, "tipo_publicacion": "mensura", "fuente_pdf": "http://www.diariooficial.interior.gob.cl/publicaciones/2026/07/07/44493/07/2833367.pdf", "archivo": "gm_mensura_2833367.pdf", "fecha": "07-07-2026", "edicion": "44493" }, "geometry": { "type": "Polygon", "coordinates": [ [ [ -68.447898598712897, -52.375462681303475 ], [ -68.433209569927328, -52.375393155298369 ], [ -68.432979263801514, -52.393373013136646 ], [ -68.447674260487148, -52.393442583999082 ], [ -68.447898598712897, -52.375462681303475 ] ] ] } },
{ "type": "Feature", "properties": { "cve": "2833789", "nombre": "PASTILLAS 10", "solicitante": "Asesorías e Inversiones Marpel Limitada", "region": "REGIÓN DE ATACAMA", "provincia": "Provincia de Copiapó", "comuna": null, "superficie_ha": 300.0, "datum_original": "WGS84", "huso": 19, "epsg_origen": 32719, "tipo_publicacion": "pedimento", "fuente_pdf": "http://www.diariooficial.interior.gob.cl/publicaciones/2026/07/07/44493/07/2833789.pdf", "archivo": "gm_pedimento_2833789.pdf", "fecha": "07-07-2026", "edicion": "44493" }, "geometry": { "type": "Polygon", "coordinates": [ [ [ -69.201873591328834, -27.162952274578132 ], [ -69.191779958676236, -27.162966433602779 ], [ -69.191826262684827, -27.190051387258226 ], [ -69.201922332339251, -27.190037211823746 ], [ -69.201873591328834, -27.162952274578132 ] ] ] } },
{ "type": "Feature", "properties": { "cve": "2833790", "nombre": "PASTILLAS 11", "solicitante": "Asesorías e Inversiones Marpel Limitada", "region": "REGIÓN DE ATACAMA", "provincia": "Provincia de Copiapó", "comuna": null, "superficie_ha": 300.0, "datum_original": "WGS84", "huso": 19, "epsg_origen": 32719, "tipo_publicacion": "pedimento", "fuente_pdf": "http://www.diariooficial.interior.gob.cl/publicaciones/2026/07/07/44493/07/2833790.pdf", "archivo": "gm_pedimento_2833790.pdf", "fecha": "07-07-2026", "edicion": "44493" }, "geometry": { "type": "Polygon", "coordinates": [ [ [ -69.191779958676236, -27.162966433602779 ], [ -69.181686318806157, -27.162979866535675 ], [ -69.181730185805421, -27.190064835759454 ], [ -69.191826262684827, -27.190051387258226 ], [ -69.191779958676236, -27.162966433602779 ] ] ] } },
{ "type": "Feature", "properties": { "cve": "2833554", "nombre": "ROSITA 1 A", "solicitante": "Sociedad Química y Minera de Chile S.A.", "region": "REGIÓN DE ATACAMA", "provincia": "Provincia de Copiapó", "comuna": null, "superficie_ha": 300.0, "datum_original": "WGS84", "huso": 19, "epsg_origen": 32719, "tipo_publicacion": "pedimento", "fuente_pdf": "http://www.diariooficial.interior.gob.cl/publicaciones/2026/07/07/44493/07/2833554.pdf", "archivo": "gm_pedimento_2833554.pdf", "fecha": "07-07-2026", "edicion": "44493" }, "geometry": { "type": "Polygon", "coordinates": [ [ [ -69.81626928142768, -28.347786173171453 ], [ -69.785661588165539, -28.347965922205685 ], [ -69.785728036729964, -28.356991902741356 ], [ -69.816338317998358, -28.356812086257566 ], [ -69.81626928142768, -28.347786173171453 ] ] ] } },
{ "type": "Feature", "properties": { "cve": "2833561", "nombre": "ROSITA 13 A", "solicitante": "Sociedad Química y Minera de Chile S.A.", "region": "REGIÓN DE ATACAMA", "provincia": "Provincia de Copiapó", "comuna": null, "superficie_ha": 300.0, "datum_original": "WGS84", "huso": 19, "epsg_origen": 32719, "tipo_publicacion": "pedimento", "fuente_pdf": "http://www.diariooficial.interior.gob.cl/publicaciones/2026/07/07/44493/07/2833561.pdf", "archivo": "gm_pedimento_2833561.pdf", "fecha": "07-07-2026", "edicion": "44493" }, "geometry": { "type": "Polygon", "coordinates": [ [ [ -69.765515377315083, -28.384185963382183 ], [ -69.734896870703864, -28.384354519186473 ], [ -69.734959120382641, -28.393380558080707 ], [ -69.76558021993938, -28.393211939079798 ], [ -69.765515377315083, -28.384185963382183 ] ] ] } },
{ "type": "Feature", "properties": { "cve": "2833562", "nombre": "ROSITA 17 A", "solicitante": "Sociedad Química y Minera de Chile S.A.", "region": "REGIÓN DE ATACAMA", "provincia": "Provincia de Copiapó", "comuna": null, "superficie_ha": 300.0, "datum_original": "WGS84", "huso": 19, "epsg_origen": 32719, "tipo_publicacion": "pedimento", "fuente_pdf": "http://www.diariooficial.interior.gob.cl/publicaciones/2026/07/07/44493/07/2833562.pdf", "archivo": "gm_pedimento_2833562.pdf", "fecha": "07-07-2026", "edicion": "44493" }, "geometry": { "type": "Polygon", "coordinates": [ [ [ -69.847450609542477, -28.419805961894387 ], [ -69.816822466040449, -28.419993138701383 ], [ -69.81689175761953, -28.429018954854556 ], [ -69.847522498582507, -28.428831707928737 ], [ -69.847450609542477, -28.419805961894387 ] ] ] } },
{ "type": "Feature", "properties": { "cve": "2833563", "nombre": "ROSITA 18 A", "solicitante": "Sociedad Química y Minera de Chile S.A.", "region": "REGIÓN DE ATACAMA", "provincia": "Provincia de Copiapó", "comuna": null, "superficie_ha": 300.0, "datum_original": "WGS84", "huso": 19, "epsg_origen": 32719, "tipo_publicacion": "pedimento", "fuente_pdf": "http://www.diariooficial.interior.gob.cl/publicaciones/2026/07/07/44493/07/2833563.pdf", "archivo": "gm_pedimento_2833563.pdf", "fecha": "07-07-2026", "edicion": "44493" }, "geometry": { "type": "Polygon", "coordinates": [ [ [ -69.847522498582507, -28.428831707928737 ], [ -69.81689175761953, -28.429018954854556 ], [ -69.816961081126365, -28.438044758879727 ], [ -69.847594420746944, -28.437857441823478 ], [ -69.847522498582507, -28.428831707928737 ] ] ] } },
{ "type": "Feature", "properties": { "cve": "2833564", "nombre": "ROSITA 19 A", "solicitante": "Sociedad Química y Minera de Chile S.A.", "region": "REGIÓN DE ATACAMA", "provincia": "Provincia de Copiapó", "comuna": null, "superficie_ha": 300.0, "datum_original": "WGS84", "huso": 19, "epsg_origen": 32719, "tipo_publicacion": "pedimento", "fuente_pdf": "http://www.diariooficial.interior.gob.cl/publicaciones/2026/07/07/44493/07/2833564.pdf", "archivo": "gm_pedimento_2833564.pdf", "fecha": "07-07-2026", "edicion": "44493" }, "geometry": { "type": "Polygon", "coordinates": [ [ [ -69.847594420746944, -28.437857441823478 ], [ -69.816961081126365, -28.438044758879727 ], [ -69.817030436572452, -28.447070550774384 ], [ -69.847666376047741, -28.446883163576096 ], [ -69.847594420746944, -28.437857441823478 ] ] ] } },
{ "type": "Feature", "properties": { "cve": "2833555", "nombre": "ROSITA 2 A", "solicitante": "Sociedad Química y Minera de Chile S.A.", "region": "REGIÓN DE ATACAMA", "provincia": "Provincia de Copiapó", "comuna": null, "superficie_ha": 300.0, "datum_original": "WGS84", "huso": 19, "epsg_origen": 32719, "tipo_publicacion": "pedimento", "fuente_pdf": "http://www.diariooficial.interior.gob.cl/publicaciones/2026/07/07/44493/07/2833555.pdf", "archivo": "gm_pedimento_2833555.pdf", "fecha": "07-07-2026", "edicion": "44493" }, "geometry": { "type": "Polygon", "coordinates": [ [ [ -69.816338317998358, -28.356812086257566 ], [ -69.785728036729964, -28.356991902741356 ], [ -69.785794515936999, -28.366017871180407 ], [ -69.816407386404961, -28.365837987235924 ], [ -69.816338317998358, -28.356812086257566 ] ] ] } },
{ "type": "Feature", "properties": { "cve": "2833565", "nombre": "ROSITA 20 A", "solicitante": "Sociedad Química y Minera de Chile S.A.", "region": "REGIÓN DE ATACAMA", "provincia": "Provincia de Copiapó", "comuna": null, "superficie_ha": 300.0, "datum_original": "WGS84", "huso": 19, "epsg_origen": 32719, "tipo_publicacion": "pedimento", "fuente_pdf": "http://www.diariooficial.interior.gob.cl/publicaciones/2026/07/07/44493/07/2833565.pdf", "archivo": "gm_pedimento_2833565.pdf", "fecha": "07-07-2026", "edicion": "44493" }, "geometry": { "type": "Polygon", "coordinates": [ [ [ -69.847666376047741, -28.446883163576096 ], [ -69.817030436572452, -28.447070550774384 ], [ -69.817099823969329, -28.456096330535988 ], [ -69.847738364496848, -28.455908873184043 ], [ -69.847666376047741, -28.446883163576096 ] ] ] } },
{ "type": "Feature", "properties": { "cve": "2833566", "nombre": "ROSITA 21 A", "solicitante": "Sociedad Química y Minera de Chile S.A.", "region": "REGIÓN DE ATACAMA", "provincia": "Provincia de Copiapó", "comuna": null, "superficie_ha": 300.0, "datum_original": "WGS84", "huso": 19, "epsg_origen": 32719, "tipo_publicacion": "pedimento", "fuente_pdf": "http://www.diariooficial.interior.gob.cl/publicaciones/2026/07/07/44493/07/2833566.pdf", "archivo": "gm_pedimento_2833566.pdf", "fecha": "07-07-2026", "edicion": "44493" }, "geometry": { "type": "Polygon", "coordinates": [ [ [ -69.816822466040449, -28.419993138701383 ], [ -69.786194035292283, -28.420173427644073 ], [ -69.786260729306818, -28.429199311336021 ], [ -69.81689175761953, -28.429018954854556 ], [ -69.816822466040449, -28.419993138701383 ] ] ] } },
{ "type": "Feature", "properties": { "cve": "2833567", "nombre": "ROSITA 22 A", "solicitante": "Sociedad Química y Minera de Chile S.A.", "region": "REGIÓN DE ATACAMA", "provincia": "Provincia de Copiapó", "comuna": null, "superficie_ha": 300.0, "datum_original": "WGS84", "huso": 19, "epsg_origen": 32719, "tipo_publicacion": "pedimento", "fuente_pdf": "http://www.diariooficial.interior.gob.cl/publicaciones/2026/07/07/44493/07/2833567.pdf", "archivo": "gm_pedimento_2833567.pdf", "fecha": "07-07-2026", "edicion": "44493" }, "geometry": { "type": "Polygon", "coordinates": [ [ [ -69.81689175761953, -28.429018954854556 ], [ -69.786260729306818, -28.429199311336021 ], [ -69.786327454052383, -28.43822518291114 ], [ -69.816961081126365, -28.438044758879727 ], [ -69.81689175761953, -28.429018954854556 ] ] ] } },
{ "type": "Feature", "properties": { "cve": "2833568", "nombre": "ROSITA 23 A", "solicitante": "Sociedad Química y Minera de Chile S.A.", "region": "REGIÓN DE ATACAMA", "provincia": "Provincia de Copiapó", "comuna": null, "superficie_ha": 300.0, "datum_original": "WGS84", "huso": 19, "epsg_origen": 32719, "tipo_publicacion": "pedimento", "fuente_pdf": "http://www.diariooficial.interior.gob.cl/publicaciones/2026/07/07/44493/07/2833568.pdf", "archivo": "gm_pedimento_2833568.pdf", "fecha": "07-07-2026", "edicion": "44493" }, "geometry": { "type": "Polygon", "coordinates": [ [ [ -69.816961081126365, -28.438044758879727 ], [ -69.786327454052383, -28.43822518291114 ], [ -69.786394209540063, -28.447251042366926 ], [ -69.817030436572452, -28.447070550774384 ], [ -69.816961081126365, -28.438044758879727 ] ] ] } },
{ "type": "Feature", "properties": { "cve": "2833569", "nombre": "ROSITA 24 A", "solicitante": "Sociedad Química y Minera de Chile S.A.", "region": "REGIÓN DE ATACAMA", "provincia": "Provincia de Copiapó", "comuna": null, "superficie_ha": 300.0, "datum_original": "WGS84", "huso": 19, "epsg_origen": 32719, "tipo_publicacion": "pedimento", "fuente_pdf": "http://www.diariooficial.interior.gob.cl/publicaciones/2026/07/07/44493/07/2833569.pdf", "archivo": "gm_pedimento_2833569.pdf", "fecha": "07-07-2026", "edicion": "44493" }, "geometry": { "type": "Polygon", "coordinates": [ [ [ -69.817030436572452, -28.447070550774384 ], [ -69.786394209540063, -28.447251042366926 ], [ -69.786460995780971, -28.456276889700852 ], [ -69.817099823969329, -28.456096330535988 ], [ -69.817030436572452, -28.447070550774384 ] ] ] } },
{ "type": "Feature", "properties": { "cve": "2833570", "nombre": "ROSITA 25 A", "solicitante": "Sociedad Química y Minera de Chile S.A.", "region": "REGIÓN DE ATACAMA", "provincia": "Provincia de Copiapó", "comuna": null, "superficie_ha": 300.0, "datum_original": "WGS84", "huso": 19, "epsg_origen": 32719, "tipo_publicacion": "pedimento", "fuente_pdf": "http://www.diariooficial.interior.gob.cl/publicaciones/2026/07/07/44493/07/2833570.pdf", "archivo": "gm_pedimento_2833570.pdf", "fecha": "07-07-2026", "edicion": "44493" }, "geometry": { "type": "Polygon", "coordinates": [ [ [ -69.796741654275024, -28.465243282761026 ], [ -69.786527812786161, -28.465302724910405 ], [ -69.786728448498707, -28.492380157767666 ], [ -69.796944894772977, -28.49232064887325 ], [ -69.796741654275024, -28.465243282761026 ] ] ] } },
{ "type": "Feature", "properties": { "cve": "2833571", "nombre": "ROSITA 26 A", "solicitante": "Sociedad Química y Minera de Chile S.A.", "region": "REGIÓN DE ATACAMA", "provincia": "Provincia de Copiapó", "comuna": null, "superficie_ha": 300.0, "datum_original": "WGS84", "huso": 19, "epsg_origen": 32719, "tipo_publicacion": "pedimento", "fuente_pdf": "http://www.diariooficial.interior.gob.cl/publicaciones/2026/07/07/44493/07/2833571.pdf", "archivo": "gm_pedimento_2833571.pdf", "fecha": "07-07-2026", "edicion": "44493" }, "geometry": { "type": "Polygon", "coordinates": [ [ [ -69.786527812786161, -28.465302724910405 ], [ -69.776313940521888, -28.465361400281566 ], [ -69.776511971415658, -28.492438899022957 ], [ -69.786728448498707, -28.492380157767666 ], [ -69.786527812786161, -28.465302724910405 ] ] ] } },
{ "type": "Feature", "properties": { "cve": "2833556", "nombre": "ROSITA 3 A", "solicitante": "Sociedad Química y Minera de Chile S.A.", "region": "REGIÓN DE ATACAMA", "provincia": "Provincia de Copiapó", "comuna": null, "superficie_ha": 300.0, "datum_original": "WGS84", "huso": 19, "epsg_origen": 32719, "tipo_publicacion": "pedimento", "fuente_pdf": "http://www.diariooficial.interior.gob.cl/publicaciones/2026/07/07/44493/07/2833556.pdf", "archivo": "gm_pedimento_2833556.pdf", "fecha": "07-07-2026", "edicion": "44493" }, "geometry": { "type": "Polygon", "coordinates": [ [ [ -69.816407386404961, -28.365837987235924 ], [ -69.785794515936999, -28.366017871180407 ], [ -69.785861025797701, -28.375043827520301 ], [ -69.8164764866589, -28.374863876103991 ], [ -69.816407386404961, -28.365837987235924 ] ] ] } },
{ "type": "Feature", "properties": { "cve": "2833557", "nombre": "ROSITA 5 A", "solicitante": "Sociedad Química y Minera de Chile S.A.", "region": "REGIÓN DE ATACAMA", "provincia": "Provincia de Copiapó", "comuna": null, "superficie_ha": 300.0, "datum_original": "WGS84", "huso": 19, "epsg_origen": 32719, "tipo_publicacion": "pedimento", "fuente_pdf": "http://www.diariooficial.interior.gob.cl/publicaciones/2026/07/07/44493/07/2833557.pdf", "archivo": "gm_pedimento_2833557.pdf", "fecha": "07-07-2026", "edicion": "44493" }, "geometry": { "type": "Polygon", "coordinates": [ [ [ -69.785661588165539, -28.347965922205685 ], [ -69.755053619219026, -28.348138803767689 ], [ -69.75511747967802, -28.357164849176165 ], [ -69.785728036729964, -28.356991902741356 ], [ -69.785661588165539, -28.347965922205685 ] ] ] } },
{ "type": "Feature", "properties": { "cve": "2833558", "nombre": "ROSITA 6 A", "solicitante": "Sociedad Química y Minera de Chile S.A.", "region": "REGIÓN DE ATACAMA", "provincia": "Provincia de Copiapó", "comuna": null, "superficie_ha": 300.0, "datum_original": "WGS84", "huso": 19, "epsg_origen": 32719, "tipo_publicacion": "pedimento", "fuente_pdf": "http://www.diariooficial.interior.gob.cl/publicaciones/2026/07/07/44493/07/2833558.pdf", "archivo": "gm_pedimento_2833558.pdf", "fecha": "07-07-2026", "edicion": "44493" }, "geometry": { "type": "Polygon", "coordinates": [ [ [ -69.785728036729964, -28.356991902741356 ], [ -69.75511747967802, -28.357164849176165 ], [ -69.755181369586268, -28.366190882498724 ], [ -69.785794515936999, -28.366017871180407 ], [ -69.785728036729964, -28.356991902741356 ] ] ] } },
{ "type": "Feature", "properties": { "cve": "2833559", "nombre": "ROSITA 7 A", "solicitante": "Sociedad Química y Minera de Chile S.A.", "region": "REGIÓN DE ATACAMA", "provincia": "Provincia de Copiapó", "comuna": null, "superficie_ha": 300.0, "datum_original": "WGS84", "huso": 19, "epsg_origen": 32719, "tipo_publicacion": "pedimento", "fuente_pdf": "http://www.diariooficial.interior.gob.cl/publicaciones/2026/07/07/44493/07/2833559.pdf", "archivo": "gm_pedimento_2833559.pdf", "fecha": "07-07-2026", "edicion": "44493" }, "geometry": { "type": "Polygon", "coordinates": [ [ [ -69.785794515936999, -28.366017871180407 ], [ -69.755181369586268, -28.366190882498724 ], [ -69.755245288954413, -28.375216903732831 ], [ -69.785861025797701, -28.375043827520301 ], [ -69.785794515936999, -28.366017871180407 ] ] ] } },
{ "type": "Feature", "properties": { "cve": "2833560", "nombre": "ROSITA 8 A", "solicitante": "Sociedad Química y Minera de Chile S.A.", "region": "REGIÓN DE ATACAMA", "provincia": "Provincia de Copiapó", "comuna": null, "superficie_ha": 300.0, "datum_original": "WGS84", "huso": 19, "epsg_origen": 32719, "tipo_publicacion": "pedimento", "fuente_pdf": "http://www.diariooficial.interior.gob.cl/publicaciones/2026/07/07/44493/07/2833560.pdf", "archivo": "gm_pedimento_2833560.pdf", "fecha": "07-07-2026", "edicion": "44493" }, "geometry": { "type": "Polygon", "coordinates": [ [ [ -69.785861025797701, -28.375043827520301 ], [ -69.755245288954413, -28.375216903732831 ], [ -69.755309237793014, -28.384242912875976 ], [ -69.785927566323068, -28.384069771758519 ], [ -69.785861025797701, -28.375043827520301 ] ] ] } },
{ "type": "Feature", "properties": { "cve": "2833760", "nombre": "HERA 1", "solicitante": "Corporación Nacional del Cobre de Chile", "region": "REGIÓN DE COQUIMBO", "provincia": "Provincia de Limarí", "comuna": null, "superficie_ha": 300.0, "datum_original": "WGS84", "huso": 19, "epsg_origen": 32719, "tipo_publicacion": "pedimento", "fuente_pdf": "http://www.diariooficial.interior.gob.cl/publicaciones/2026/07/07/44493/07/2833760.pdf", "archivo": "gm_pedimento_2833760.pdf", "fecha": "07-07-2026", "edicion": "44493" }, "geometry": { "type": "Polygon", "coordinates": [ [ [ -70.337423278411961, -30.762088172908477 ], [ -70.326977032142224, -30.762195475573652 ], [ -70.327348585390737, -30.789258802174935 ], [ -70.337797754489117, -30.789151384756963 ], [ -70.337423278411961, -30.762088172908477 ] ] ] } },
{ "type": "Feature", "properties": { "cve": "2833761", "nombre": "HERA 4", "solicitante": "Corporación Nacional del Cobre de Chile", "region": "REGIÓN DE COQUIMBO", "provincia": "Provincia de Limarí", "comuna": null, "superficie_ha": 600.0, "datum_original": "WGS84", "huso": 19, "epsg_origen": 32719, "tipo_publicacion": "pedimento", "fuente_pdf": "http://www.diariooficial.interior.gob.cl/publicaciones/2026/07/07/44493/07/2833761.pdf", "archivo": "gm_pedimento_2833761.pdf", "fecha": "07-07-2026", "edicion": "44493" }, "geometry": { "type": "Polygon", "coordinates": [ [ [ -70.338423008110013, -30.834256477346901 ], [ -70.307060692751065, -30.834576773813044 ], [ -70.307305323520026, -30.85261894764178 ], [ -70.33867350445847, -30.852298423155929 ], [ -70.338423008110013, -30.834256477346901 ] ] ] } },
{ "type": "Feature", "properties": { "cve": "2833762", "nombre": "HERA 7", "solicitante": "Corporación Nacional del Cobre de Chile", "region": "REGIÓN DE COQUIMBO", "provincia": "Provincia de Limarí", "comuna": null, "superficie_ha": 200.0, "datum_original": "WGS84", "huso": 19, "epsg_origen": 32719, "tipo_publicacion": "pedimento", "fuente_pdf": "http://www.diariooficial.interior.gob.cl/publicaciones/2026/07/07/44493/07/2833762.pdf", "archivo": "gm_pedimento_2833762.pdf", "fecha": "07-07-2026", "edicion": "44493" }, "geometry": { "type": "Polygon", "coordinates": [ [ [ -70.307060692751065, -30.834576773813044 ], [ -70.296606476813722, -30.834681852622797 ], [ -70.296849152303281, -30.852724101257667 ], [ -70.307305323520026, -30.85261894764178 ], [ -70.307060692751065, -30.834576773813044 ] ] ] } },
{ "type": "Feature", "properties": { "cve": "2833653", "nombre": "SHALOM DOS", "solicitante": "Medina Granifo Miguel Humberto y otro", "region": "REGIÓN METROPOLITANA DE SANTIAGO", "provincia": "Provincia de Melipilla", "comuna": null, "superficie_ha": 100.0, "datum_original": "WGS84", "huso": 19, "epsg_origen": 32719, "tipo_publicacion": "pedimento", "fuente_pdf": "http://www.diariooficial.interior.gob.cl/publicaciones/2026/07/07/44493/07/2833653.pdf", "archivo": "gm_pedimento_2833653.pdf", "fecha": "07-07-2026", "edicion": "44493" }, "geometry": { "type": "Polygon", "coordinates": [ [ [ -71.142507592234168, -34.048821181832643 ], [ -71.131680313275055, -34.049009487404469 ], [ -71.13190601326589, -34.058022067391015 ], [ -71.142734436472509, -34.057833698332374 ], [ -71.142507592234168, -34.048821181832643 ] ] ] } }
]
}
