{
"type": "FeatureCollection",
"name": "boletin_mineria_20260702",
"crs": { "type": "name", "properties": { "name": "urn:ogc:def:crs:OGC:1.3:CRS84" } },
"features": [
{ "type": "Feature", "properties": { "cve": "2831907", "nombre": "AGATA 1 AL 39", "solicitante": "Sociedad Punta del Cobre S.A.", "region": "REGIÓN DE ATACAMA", "provincia": "Provincia de Copiapó", "comuna": null, "superficie_ha": 39.0, "datum_original": "PSAD56", "huso": 19, "epsg_origen": 24879, "tipo_publicacion": "manifestacion", "fuente_pdf": "http://www.diariooficial.interior.gob.cl/publicaciones/2026/07/02/44489/07/2831907.pdf", "archivo": "gm_manifestacion_2831907.pdf", "fecha": "02-07-2026", "edicion": "44489" }, "geometry": { "type": "Polygon", "coordinates": [ [ [ -69.983262548181557, -27.084499554491654 ], [ -69.970151797182979, -27.08459063515642 ], [ -69.970175123339473, -27.087298793083814 ], [ -69.983286189447625, -27.087207701845045 ], [ -69.983262548181557, -27.084499554491654 ] ] ] } },
{ "type": "Feature", "properties": { "cve": "2831942", "nombre": "COYOTE 1-25", "solicitante": "Muñoz Aguilera Jorge Antonio", "region": "REGIÓN DE ATACAMA", "provincia": "Provincia de Copiapó", "comuna": null, "superficie_ha": 100.0, "datum_original": "WGS84", "huso": 19, "epsg_origen": 32719, "tipo_publicacion": "manifestacion", "fuente_pdf": "http://www.diariooficial.interior.gob.cl/publicaciones/2026/07/02/44489/07/2831942.pdf", "archivo": "gm_manifestacion_2831942.pdf", "fecha": "02-07-2026", "edicion": "44489" }, "geometry": { "type": "Polygon", "coordinates": [ [ [ -70.036417312294589, -27.729154781288479 ], [ -70.026273602931454, -27.729230387904114 ], [ -70.026358172322645, -27.738256579879437 ], [ -70.036502717208421, -27.738180944473278 ], [ -70.036417312294589, -27.729154781288479 ] ] ] } },
{ "type": "Feature", "properties": { "cve": "2831896", "nombre": "MARTILLO 1 AL 20", "solicitante": "Prato Araya Giuseppe y otro", "region": "REGIÓN DE ATACAMA", "provincia": "Provincia de Copiapó", "comuna": null, "superficie_ha": 100.0, "datum_original": "PSAD56", "huso": 19, "epsg_origen": 24879, "tipo_publicacion": "manifestacion", "fuente_pdf": "http://www.diariooficial.interior.gob.cl/publicaciones/2026/07/02/44489/07/2831896.pdf", "archivo": "gm_manifestacion_2831896.pdf", "fecha": "02-07-2026", "edicion": "44489" }, "geometry": { "type": "Polygon", "coordinates": [ [ [ -70.765569917742397, -27.95412632075185 ], [ -70.755408423750396, -27.954256309422874 ], [ -70.755554424553353, -27.963279405641007 ], [ -70.765716762629694, -27.963149367752408 ], [ -70.765569917742397, -27.95412632075185 ] ] ] } },
{ "type": "Feature", "properties": { "cve": "2831812", "nombre": "VALERIA 1 AL 6", "solicitante": "Rojas Montoya Valeria Bernarda", "region": "REGIÓN DE ATACAMA", "provincia": "Provincia de Copiapó", "comuna": null, "superficie_ha": 30.0, "datum_original": "PSAD56", "huso": 19, "epsg_origen": 24879, "tipo_publicacion": "manifestacion", "fuente_pdf": "http://www.diariooficial.interior.gob.cl/publicaciones/2026/07/02/44489/07/2831812.pdf", "archivo": "gm_manifestacion_2831812.pdf", "fecha": "02-07-2026", "edicion": "44489" }, "geometry": { "type": "Polygon", "coordinates": [ [ [ -70.21154390544767, -27.947933373585311 ], [ -70.206462177481313, -27.94797800252185 ], [ -70.206522367214518, -27.953393213425581 ], [ -70.21160434855463, -27.953348574346617 ], [ -70.21154390544767, -27.947933373585311 ] ] ] } },
{ "type": "Feature", "properties": { "cve": "2832387", "nombre": "ISABELLA DEL 1 AL 7", "solicitante": "Sociedad Volcania Minerals SpA", "region": "REGIÓN METROPOLITANA DE SANTIAGO", "provincia": "Provincia de Talagante", "comuna": null, "superficie_ha": 49.0, "datum_original": "PSAD56", "huso": 19, "epsg_origen": 24879, "tipo_publicacion": "manifestacion", "fuente_pdf": "http://www.diariooficial.interior.gob.cl/publicaciones/2026/07/02/44489/07/2832387.pdf", "archivo": "gm_manifestacion_2832387.pdf", "fecha": "02-07-2026", "edicion": "44489" }, "geometry": { "type": "Polygon", "coordinates": [ [ [ -70.952408944679803, -33.777447603390392 ], [ -70.944852999962933, -33.777566946184827 ], [ -70.944995658491095, -33.783876722921384 ], [ -70.952552156593626, -33.783757351847136 ], [ -70.952408944679803, -33.777447603390392 ] ] ] } },
{ "type": "Feature", "properties": { "cve": "2831515", "nombre": "DONALD, 1 AL 10", "solicitante": "Abusleme Donoso Pablo Andrés", "region": "REGIÓN DEL BIOBÍO", "provincia": "Provincia de Arauco", "comuna": null, "superficie_ha": 100.0, "datum_original": "WGS84", "huso": 19, "epsg_origen": 32719, "tipo_publicacion": "manifestacion", "fuente_pdf": "http://www.diariooficial.interior.gob.cl/publicaciones/2026/07/02/44489/07/2831515.pdf", "archivo": "gm_manifestacion_2831515.pdf", "fecha": "02-07-2026", "edicion": "44489" }, "geometry": { "type": "Polygon", "coordinates": [ [ [ -67.360031361497363, -37.506268478701841 ], [ -67.348721618879921, -37.506110878080463 ], [ -67.348523066956503, -37.51512077498834 ], [ -67.359834167981347, -37.515278426606272 ], [ -67.360031361497363, -37.506268478701841 ] ] ] } },
{ "type": "Feature", "properties": { "cve": "2831847", "nombre": "JANITA  1/5", "solicitante": "Schachtebeck Rivera Alejandra", "region": "REGIÓN DE ATACAMA", "provincia": "Provincia de Chañaral", "comuna": null, "superficie_ha": 20.0, "datum_original": "PSAD56", "huso": 19, "epsg_origen": 24879, "tipo_publicacion": "mensura", "fuente_pdf": "http://www.diariooficial.interior.gob.cl/publicaciones/2026/07/02/44489/07/2831847.pdf", "archivo": "gm_mensura_2831847.pdf", "fecha": "02-07-2026", "edicion": "44489" }, "geometry": { "type": "Polygon", "coordinates": [ [ [ -70.462156562842694, -26.284583052606205 ], [ -70.457149936925134, -26.284633973417421 ], [ -70.457195053237314, -26.288244607441442 ], [ -70.462201834035781, -26.288193678581671 ], [ -70.462156562842694, -26.284583052606205 ] ] ] } },
{ "type": "Feature", "properties": { "cve": "2831856", "nombre": "LA CUMBRE 1 AL 20", "solicitante": "Muñoz Pizarro Cristian Rodolfo", "region": "REGIÓN DE ATACAMA", "provincia": "Provincia de Huasco", "comuna": null, "superficie_ha": 100.0, "datum_original": "WGS84", "huso": 19, "epsg_origen": 32719, "tipo_publicacion": "mensura", "fuente_pdf": "http://www.diariooficial.interior.gob.cl/publicaciones/2026/07/02/44489/07/2831856.pdf", "archivo": "gm_mensura_2831856.pdf", "fecha": "02-07-2026", "edicion": "44489" }, "geometry": { "type": "Polygon", "coordinates": [ [ [ -70.684090071167759, -28.613274442955024 ], [ -70.673865368185417, -28.613401097574751 ], [ -70.674008493731705, -28.622423710213713 ], [ -70.684234069983205, -28.622297008373529 ], [ -70.684090071167759, -28.613274442955024 ] ] ] } },
{ "type": "Feature", "properties": { "cve": "2831962", "nombre": "MINA EL CONDOR 1 AL 12", "solicitante": "Soto Fuenzalida Rodrigo Alberto", "region": "REGIÓN DE VALPARAÍSO", "provincia": "Provincia de Petorca", "comuna": null, "superficie_ha": 51.0, "datum_original": "WGS84", "huso": 19, "epsg_origen": 32719, "tipo_publicacion": "mensura", "fuente_pdf": "http://www.diariooficial.interior.gob.cl/publicaciones/2026/07/02/44489/07/2831962.pdf", "archivo": "gm_mensura_2831962.pdf", "fecha": "02-07-2026", "edicion": "44489" }, "geometry": { "type": "Polygon", "coordinates": [ [ [ -70.904187747775481, -32.495881110456267 ], [ -70.899932219627871, -32.495945454780831 ], [ -70.900159800832569, -32.506764799111309 ], [ -70.905479845137521, -32.506684312890997 ], [ -70.905422779310854, -32.503979487025589 ], [ -70.904358803965096, -32.503995600581966 ], [ -70.904187747775481, -32.495881110456267 ] ] ] } },
{ "type": "Feature", "properties": { "cve": "2831885", "nombre": "DOÑA VERONICA 4", "solicitante": "Arecco Cabezón Gonzalo Esteban", "region": "REGIÓN DE ATACAMA", "provincia": "Provincia de Chañaral", "comuna": "Chañaral", "superficie_ha": 200.0, "datum_original": "PSAD56", "huso": 19, "epsg_origen": 24879, "tipo_publicacion": "pedimento", "fuente_pdf": "http://www.diariooficial.interior.gob.cl/publicaciones/2026/07/02/44489/07/2831885.pdf", "archivo": "gm_pedimento_2831885.pdf", "fecha": "02-07-2026", "edicion": "44489" }, "geometry": { "type": "Polygon", "coordinates": [ [ [ -70.098906091170917, -26.841701741749368 ], [ -70.088842871589051, -26.841779559273856 ], [ -70.089015652643795, -26.859833877108017 ], [ -70.099080468309538, -26.859755998971252 ], [ -70.098906091170917, -26.841701741749368 ] ] ] } },
{ "type": "Feature", "properties": { "cve": "2831886", "nombre": "FRANCISCO I", "solicitante": "Arecco Cabezón Gonzalo Esteban", "region": "REGIÓN DE ATACAMA", "provincia": "Provincia de Chañaral", "comuna": "Chañaral", "superficie_ha": 200.0, "datum_original": "PSAD56", "huso": 19, "epsg_origen": 24879, "tipo_publicacion": "pedimento", "fuente_pdf": "http://www.diariooficial.interior.gob.cl/publicaciones/2026/07/02/44489/07/2831886.pdf", "archivo": "gm_pedimento_2831886.pdf", "fecha": "02-07-2026", "edicion": "44489" }, "geometry": { "type": "Polygon", "coordinates": [ [ [ -70.118766366019685, -26.814462669293754 ], [ -70.108705619956908, -26.814541825435356 ], [ -70.108881345203486, -26.832596092780602 ], [ -70.118943685045608, -26.832516874940733 ], [ -70.118766366019685, -26.814462669293754 ] ] ] } },
{ "type": "Feature", "properties": { "cve": "2831887", "nombre": "FRANCISCO II", "solicitante": "Arecco Cabezón Angelo André", "region": "REGIÓN DE ATACAMA", "provincia": "Provincia de Chañaral", "comuna": "Chañaral", "superficie_ha": 200.0, "datum_original": "PSAD56", "huso": 19, "epsg_origen": 24879, "tipo_publicacion": "pedimento", "fuente_pdf": "http://www.diariooficial.interior.gob.cl/publicaciones/2026/07/02/44489/07/2831887.pdf", "archivo": "gm_pedimento_2831887.pdf", "fecha": "02-07-2026", "edicion": "44489" }, "geometry": { "type": "Polygon", "coordinates": [ [ [ -70.119032407089804, -26.841543959937344 ], [ -70.108969269796106, -26.841623208633496 ], [ -70.109145242990579, -26.859677404685826 ], [ -70.119209976311893, -26.859598094262822 ], [ -70.119032407089804, -26.841543959937344 ] ] ] } },
{ "type": "Feature", "properties": { "cve": "2831888", "nombre": "FRANCISCO III", "solicitante": "Arecco Cabezón Gonzalo Esteban", "region": "REGIÓN DE ATACAMA", "provincia": "Provincia de Chañaral", "comuna": "Chañaral", "superficie_ha": 100.0, "datum_original": "PSAD56", "huso": 19, "epsg_origen": 24879, "tipo_publicacion": "pedimento", "fuente_pdf": "http://www.diariooficial.interior.gob.cl/publicaciones/2026/07/02/44489/07/2831888.pdf", "archivo": "gm_pedimento_2831888.pdf", "fecha": "02-07-2026", "edicion": "44489" }, "geometry": { "type": "Polygon", "coordinates": [ [ [ -70.108705619956908, -26.814541825435356 ], [ -70.098644832605018, -26.814620266832282 ], [ -70.098731877860033, -26.823647437012134 ], [ -70.108793461928457, -26.82356896504696 ], [ -70.108705619956908, -26.814541825435356 ] ] ] } },
{ "type": "Feature", "properties": { "cve": "2831759", "nombre": "NEGRITA PRIMERA", "solicitante": "Pellegrini Vecchiola Arnoldo Juan", "region": "REGIÓN DE ATACAMA", "provincia": "Provincia de Chañaral", "comuna": null, "superficie_ha": 100.0, "datum_original": "PSAD56", "huso": 19, "epsg_origen": 24879, "tipo_publicacion": "pedimento", "fuente_pdf": "http://www.diariooficial.interior.gob.cl/publicaciones/2026/07/02/44489/07/2831759.pdf", "archivo": "gm_pedimento_2831759.pdf", "fecha": "02-07-2026", "edicion": "44489" }, "geometry": { "type": "Polygon", "coordinates": [ [ [ -70.009871575488788, -26.673549391012152 ], [ -69.99982286779202, -26.673620462619201 ], [ -69.999901601142156, -26.682648100180518 ], [ -70.009951099821308, -26.682577000773747 ], [ -70.009871575488788, -26.673549391012152 ] ] ] } },
{ "type": "Feature", "properties": { "cve": "2831712", "nombre": "MUNDOMAR", "solicitante": "Sociedad Urbanizadora Reñaca Concón S.A.", "region": "REGIÓN DE VALPARAÍSO", "provincia": "Provincia de Valparaíso", "comuna": "Concon", "superficie_ha": 100.0, "datum_original": "PSAD56", "huso": 19, "epsg_origen": 24879, "tipo_publicacion": "pedimento", "fuente_pdf": "http://www.diariooficial.interior.gob.cl/publicaciones/2026/07/02/44489/07/2831712.pdf", "archivo": "gm_pedimento_2831712.pdf", "fecha": "02-07-2026", "edicion": "44489" }, "geometry": { "type": "Polygon", "coordinates": [ [ [ -71.550106808452952, -32.929200966550425 ], [ -71.53942115295898, -32.929418661273225 ], [ -71.53967880776267, -32.93843019297659 ], [ -71.550365544585475, -32.938212423621835 ], [ -71.550106808452952, -32.929200966550425 ] ] ] } },
{ "type": "Feature", "properties": { "cve": "2831520", "nombre": "NUEVA ESPERANZA CINCO", "solicitante": "Rojas Casanova Alejandro Miguel", "region": "REGIÓN METROPOLITANA DE SANTIAGO", "provincia": "Provincia de Maipo", "comuna": null, "superficie_ha": 200.0, "datum_original": "PSAD56", "huso": 19, "epsg_origen": 24879, "tipo_publicacion": "pedimento", "fuente_pdf": "http://www.diariooficial.interior.gob.cl/publicaciones/2026/07/02/44489/07/2831520.pdf", "archivo": "gm_pedimento_2831520.pdf", "fecha": "02-07-2026", "edicion": "44489" }, "geometry": { "type": "Polygon", "coordinates": [ [ [ -70.876590334879836, -33.816316438095029 ], [ -70.854991093253958, -33.816643256873121 ], [ -70.855185777606494, -33.825657634414227 ], [ -70.876787282883228, -33.825330705056729 ], [ -70.876590334879836, -33.816316438095029 ] ] ] } }
]
}
