{
"type": "FeatureCollection",
"name": "boletin_mineria_20260616",
"crs": { "type": "name", "properties": { "name": "urn:ogc:def:crs:OGC:1.3:CRS84" } },
"features": [
{ "type": "Feature", "properties": { "cve": "2823866", "nombre": "MINA NUEVA VICTORIA 1 AL 40", "solicitante": "García Cortés Orlando Álex", "region": "REGIÓN DE COQUIMBO", "provincia": "Provincia de Elqui", "comuna": null, "superficie_ha": 40.0, "datum_original": "PSAD56", "huso": 19, "epsg_origen": 24879, "tipo_publicacion": "manifestacion", "fuente_pdf": "http://www.diariooficial.interior.gob.cl/publicaciones/2026/06/16/44476/07/2823866.pdf", "archivo": "gm_manifestacion_2823866.pdf", "fecha": "16-06-2026", "edicion": "44476" }, "geometry": { "type": "Polygon", "coordinates": [ [ [ -71.087072157898547, -29.866984781734942 ], [ -71.082933105032325, -29.867050178238102 ], [ -71.083120542326881, -29.876068957713496 ], [ -71.087259966996285, -29.876003537489563 ], [ -71.087072157898547, -29.866984781734942 ] ] ] } },
{ "type": "Feature", "properties": { "cve": "2823865", "nombre": "PROYECTO 1, 1 AL 100", "solicitante": "Onell Onell Iván del Rosario", "region": "REGIÓN DE COQUIMBO", "provincia": "Provincia de Elqui", "comuna": null, "superficie_ha": 100.0, "datum_original": "PSAD56", "huso": 19, "epsg_origen": 24879, "tipo_publicacion": "manifestacion", "fuente_pdf": "http://www.diariooficial.interior.gob.cl/publicaciones/2026/06/16/44476/07/2823865.pdf", "archivo": "gm_manifestacion_2823865.pdf", "fecha": "16-06-2026", "edicion": "44476" }, "geometry": { "type": "Polygon", "coordinates": [ [ [ -71.230553146331559, -29.52182041303497 ], [ -71.220241767652965, -29.521993083197383 ], [ -71.220438781813854, -29.531011521007056 ], [ -71.230751073631751, -29.530838787763333 ], [ -71.230553146331559, -29.52182041303497 ] ] ] } },
{ "type": "Feature", "properties": { "cve": "2824132", "nombre": "LA FORTUNA 1 AL 20", "solicitante": "Rojas Rojas Héctor Gracielo", "region": "REGIÓN DE COQUIMBO", "provincia": "Provincia de Limarí", "comuna": "Rio Hurtado", "superficie_ha": 100.0, "datum_original": "WGS84", "huso": 19, "epsg_origen": 32719, "tipo_publicacion": "manifestacion", "fuente_pdf": "http://www.diariooficial.interior.gob.cl/publicaciones/2026/06/16/44476/07/2824132.pdf", "archivo": "gm_manifestacion_2824132.pdf", "fecha": "16-06-2026", "edicion": "44476" }, "geometry": { "type": "Polygon", "coordinates": [ [ [ -70.593503764105961, -30.45081980018886 ], [ -70.58309205881622, -30.450946562203104 ], [ -70.583237924704576, -30.459967087868744 ], [ -70.59365058834095, -30.459840280404734 ], [ -70.593503764105961, -30.45081980018886 ] ] ] } },
{ "type": "Feature", "properties": { "cve": "2824125", "nombre": "LA REBELDE 1 AL 20", "solicitante": "David Alfonso Maya Vega y otros", "region": "REGIÓN DE COQUIMBO", "provincia": "Provincia de Limarí", "comuna": "Monte Patria", "superficie_ha": 100.0, "datum_original": "WGS84", "huso": 19, "epsg_origen": 32719, "tipo_publicacion": "manifestacion", "fuente_pdf": "http://www.diariooficial.interior.gob.cl/publicaciones/2026/06/16/44476/07/2824125.pdf", "archivo": "gm_manifestacion_2824125.pdf", "fecha": "16-06-2026", "edicion": "44476" }, "geometry": { "type": "Polygon", "coordinates": [ [ [ -70.687967580450817, -31.091793857649765 ], [ -70.677487127064609, -31.09193068756732 ], [ -70.677645666837691, -31.100949896577472 ], [ -70.688127109591377, -31.100813018204843 ], [ -70.687967580450817, -31.091793857649765 ] ] ] } },
{ "type": "Feature", "properties": { "cve": "2824123", "nombre": "LA ROSITA 1", "solicitante": "Bugueño Araya Jorge Ernesto", "region": "REGIÓN DE COQUIMBO", "provincia": "Provincia de Limarí", "comuna": null, "superficie_ha": 4.0, "datum_original": "PSAD56", "huso": 19, "epsg_origen": 24879, "tipo_publicacion": "manifestacion", "fuente_pdf": "http://www.diariooficial.interior.gob.cl/publicaciones/2026/06/16/44476/07/2824123.pdf", "archivo": "gm_manifestacion_2824123.pdf", "fecha": "16-06-2026", "edicion": "44476" }, "geometry": { "type": "Polygon", "coordinates": [ [ [ -71.356434177709133, -30.811796927813614 ], [ -71.354345067192767, -30.811834914370067 ], [ -71.35438906024855, -30.813638076548788 ], [ -71.356478209713771, -30.813600087288805 ], [ -71.356434177709133, -30.811796927813614 ] ] ] } },
{ "type": "Feature", "properties": { "cve": "2824091", "nombre": "ENERGY CHILE del 1 al 4", "solicitante": "Servicios Mineros Tierra Alta SpA", "region": "REGIÓN METROPOLITANA DE SANTIAGO", "provincia": "Provincia de Santiago", "comuna": null, "superficie_ha": 4.0, "datum_original": "PSAD56", "huso": 19, "epsg_origen": 24879, "tipo_publicacion": "manifestacion", "fuente_pdf": "http://www.diariooficial.interior.gob.cl/publicaciones/2026/06/16/44476/07/2824091.pdf", "archivo": "gm_manifestacion_2824091.pdf", "fecha": "16-06-2026", "edicion": "44476" }, "geometry": { "type": "Polygon", "coordinates": [ [ [ -70.66955993934998, -33.407426361937162 ], [ -70.66740996296781, -33.407455278418944 ], [ -70.667444420181525, -33.40925845744561 ], [ -70.669594440942916, -33.409229538994943 ], [ -70.66955993934998, -33.407426361937162 ] ] ] } },
{ "type": "Feature", "properties": { "cve": "2823990", "nombre": "LA FORTUNA DEL 1 AL 24", "solicitante": "Molina Tapia Elizabeth Alejandra", "region": "REGIÓN METROPOLITANA DE SANTIAGO", "provincia": "Provincia de Chacabuco", "comuna": null, "superficie_ha": 120.0, "datum_original": "PSAD56", "huso": 19, "epsg_origen": 24879, "tipo_publicacion": "manifestacion", "fuente_pdf": "http://www.diariooficial.interior.gob.cl/publicaciones/2026/06/16/44476/07/2823990.pdf", "archivo": "gm_manifestacion_2823990.pdf", "fecha": "16-06-2026", "edicion": "44476" }, "geometry": { "type": "Polygon", "coordinates": [ [ [ -70.852751078972219, -32.961276885723763 ], [ -70.842056561393122, -32.961435083991951 ], [ -70.842281158853638, -32.97225391779525 ], [ -70.852976978575711, -32.972095654446676 ], [ -70.852751078972219, -32.961276885723763 ] ] ] } },
{ "type": "Feature", "properties": { "cve": "2824028", "nombre": "LOS GONZALEZ 1 DEL 1 AL 10", "solicitante": "González Tapia Juan Pablo", "region": "REGIÓN METROPOLITANA DE SANTIAGO", "provincia": "Provincia de Chacabuco", "comuna": null, "superficie_ha": 70.0, "datum_original": "PSAD56", "huso": 19, "epsg_origen": 24879, "tipo_publicacion": "manifestacion", "fuente_pdf": "http://www.diariooficial.interior.gob.cl/publicaciones/2026/06/16/44476/07/2824028.pdf", "archivo": "gm_manifestacion_2824028.pdf", "fecha": "16-06-2026", "edicion": "44476" }, "geometry": { "type": "Polygon", "coordinates": [ [ [ -70.927594796279777, -33.315329148071022 ], [ -70.916857718017511, -33.315495307375606 ], [ -70.916995886489985, -33.321805663278155 ], [ -70.927733737523383, -33.321639464323958 ], [ -70.927594796279777, -33.315329148071022 ] ] ] } },
{ "type": "Feature", "properties": { "cve": "2824012", "nombre": "ELENA 19, 1 AL 300", "solicitante": "Neore SpA", "region": "REGIÓN DE ÑUBLE", "provincia": "Provincia de Itata", "comuna": "Cobquecura", "superficie_ha": 300.0, "datum_original": "PSAD56", "huso": 18, "epsg_origen": 24878, "tipo_publicacion": "manifestacion", "fuente_pdf": "http://www.diariooficial.interior.gob.cl/publicaciones/2026/06/16/44476/07/2824012.pdf", "archivo": "gm_manifestacion_2824012.pdf", "fecha": "16-06-2026", "edicion": "44476" }, "geometry": { "type": "Polygon", "coordinates": [ [ [ -72.712060896134844, -36.061062962421119 ], [ -72.700965887034698, -36.060850599282709 ], [ -72.700178829479569, -36.087876254896429 ], [ -72.711277628772848, -36.088088827332221 ], [ -72.712060896134844, -36.061062962421119 ] ] ] } }
]
}
