{
"type": "FeatureCollection",
"name": "boletin_mineria_20260617",
"crs": { "type": "name", "properties": { "name": "urn:ogc:def:crs:OGC:1.3:CRS84" } },
"features": [
{ "type": "Feature", "properties": { "cve": "2824597", "nombre": "MICHAEL 1 AL 60", "solicitante": "Pastén Rodríguez Juvenal Enrique", "region": "REGIÓN DE ANTOFAGASTA", "provincia": "Provincia de Antofagasta", "comuna": "Antofagasta", "superficie_ha": 60.0, "datum_original": "PSAD56", "huso": 19, "epsg_origen": 24879, "tipo_publicacion": "manifestacion", "fuente_pdf": "http://www.diariooficial.interior.gob.cl/publicaciones/2026/06/17/44477/07/2824597.pdf", "archivo": "gm_manifestacion_2824597.pdf", "fecha": "17-06-2026", "edicion": "44477" }, "geometry": { "type": "Polygon", "coordinates": [ [ [ -70.563025477282707, -24.529268178808067 ], [ -70.557104192341427, -24.5293294187565 ], [ -70.557215577683792, -24.538357643818088 ], [ -70.563137285776605, -24.538296378414142 ], [ -70.563025477282707, -24.529268178808067 ] ] ] } },
{ "type": "Feature", "properties": { "cve": "2824599", "nombre": "MICHAEL DOS 1 AL 240", "solicitante": "Pastén Rodríguez Juvenal Enrique", "region": "REGIÓN DE ANTOFAGASTA", "provincia": "Provincia de Antofagasta", "comuna": "Antofagasta", "superficie_ha": 240.0, "datum_original": "PSAD56", "huso": 19, "epsg_origen": 24879, "tipo_publicacion": "manifestacion", "fuente_pdf": "http://www.diariooficial.interior.gob.cl/publicaciones/2026/06/17/44477/07/2824599.pdf", "archivo": "gm_manifestacion_2824599.pdf", "fecha": "17-06-2026", "edicion": "44477" }, "geometry": { "type": "Polygon", "coordinates": [ [ [ -70.536450221993235, -24.494777798404357 ], [ -70.52855722633555, -24.494857904031051 ], [ -70.528884895780024, -24.521943035041733 ], [ -70.536779581802278, -24.521862829401957 ], [ -70.536450221993235, -24.494777798404357 ] ] ] } },
{ "type": "Feature", "properties": { "cve": "2824598", "nombre": "MICHAEL UNO 1 AL 70", "solicitante": "Pastén Rodríguez Juvenal Enrique", "region": "REGIÓN DE ANTOFAGASTA", "provincia": "Provincia de Antofagasta", "comuna": null, "superficie_ha": 70.0, "datum_original": "PSAD56", "huso": 19, "epsg_origen": 24879, "tipo_publicacion": "manifestacion", "fuente_pdf": "http://www.diariooficial.interior.gob.cl/publicaciones/2026/06/17/44477/07/2824598.pdf", "archivo": "gm_manifestacion_2824598.pdf", "fecha": "17-06-2026", "edicion": "44477" }, "geometry": { "type": "Polygon", "coordinates": [ [ [ -70.559936568162428, -24.518916369556823 ], [ -70.550068543361803, -24.519018064953062 ], [ -70.55014611825672, -24.525337853541586 ], [ -70.560014636426914, -24.525236128546421 ], [ -70.559936568162428, -24.518916369556823 ] ] ] } },
{ "type": "Feature", "properties": { "cve": "2824815", "nombre": "WATON I, 1 AL 4", "solicitante": "Explotadora Arriba SpA", "region": "REGIÓN DE ANTOFAGASTA", "provincia": "Provincia de Antofagasta", "comuna": null, "superficie_ha": 4.0, "datum_original": "PSAD56", "huso": 19, "epsg_origen": 24879, "tipo_publicacion": "manifestacion", "fuente_pdf": "http://www.diariooficial.interior.gob.cl/publicaciones/2026/06/17/44477/07/2824815.pdf", "archivo": "gm_manifestacion_2824815.pdf", "fecha": "17-06-2026", "edicion": "44477" }, "geometry": { "type": "Polygon", "coordinates": [ [ [ -70.212098533325857, -25.435919547419683 ], [ -70.21010995369538, -25.435935940977746 ], [ -70.210127993736407, -25.437741630526638 ], [ -70.212116602994499, -25.437725235641807 ], [ -70.212098533325857, -25.435919547419683 ] ] ] } },
{ "type": "Feature", "properties": { "cve": "2824816", "nombre": "WATON II, 1 AL 2", "solicitante": "Explotadora Arriba SpA", "region": "REGIÓN DE ANTOFAGASTA", "provincia": "Provincia de Antofagasta", "comuna": null, "superficie_ha": 2.0, "datum_original": "PSAD56", "huso": 19, "epsg_origen": 24879, "tipo_publicacion": "manifestacion", "fuente_pdf": "http://www.diariooficial.interior.gob.cl/publicaciones/2026/06/17/44477/07/2824816.pdf", "archivo": "gm_manifestacion_2824816.pdf", "fecha": "17-06-2026", "edicion": "44477" }, "geometry": { "type": "Polygon", "coordinates": [ [ [ -70.210607098765621, -25.435931845110453 ], [ -70.209612808516852, -25.435940035163551 ], [ -70.209630841150954, -25.43774572504379 ], [ -70.210625146213545, -25.437737534327866 ], [ -70.210607098765621, -25.435931845110453 ] ] ] } },
{ "type": "Feature", "properties": { "cve": "2824767", "nombre": "ALGARROBO DEL 1 AL 10", "solicitante": "Molina Donoso Osvaldo y otro", "region": "REGIÓN DE ATACAMA", "provincia": "Provincia de Copiapó", "comuna": null, "superficie_ha": 100.0, "datum_original": "WGS84", "huso": 19, "epsg_origen": 32719, "tipo_publicacion": "manifestacion", "fuente_pdf": "http://www.diariooficial.interior.gob.cl/publicaciones/2026/06/17/44477/07/2824767.pdf", "archivo": "gm_manifestacion_2824767.pdf", "fecha": "17-06-2026", "edicion": "44477" }, "geometry": { "type": "Polygon", "coordinates": [ [ [ -70.115441303681493, -27.880186864689694 ], [ -70.105283820541374, -27.880268669377568 ], [ -70.105375483007535, -27.889294431390422 ], [ -70.115533808095634, -27.88921259566655 ], [ -70.115441303681493, -27.880186864689694 ] ] ] } },
{ "type": "Feature", "properties": { "cve": "2824540", "nombre": "ELIZA 1 AL 5", "solicitante": "Jaime Jaime Eduardo Enrique", "region": "REGIÓN DE ATACAMA", "provincia": "Provincia de Copiapó", "comuna": null, "superficie_ha": 5.0, "datum_original": "WGS84", "huso": 19, "epsg_origen": 32719, "tipo_publicacion": "manifestacion", "fuente_pdf": "http://www.diariooficial.interior.gob.cl/publicaciones/2026/06/17/44477/07/2824540.pdf", "archivo": "gm_manifestacion_2824540.pdf", "fecha": "17-06-2026", "edicion": "44477" }, "geometry": { "type": "Polygon", "coordinates": [ [ [ -69.929573707687368, -27.007629220085352 ], [ -69.924534478302192, -27.007662387678046 ], [ -69.924541864213168, -27.008565128144905 ], [ -69.929581133841623, -27.008531959266229 ], [ -69.929573707687368, -27.007629220085352 ] ] ] } },
{ "type": "Feature", "properties": { "cve": "2824474", "nombre": "NANTOCO 2 1 AL 3", "solicitante": "Lillo Meneses Cecilia", "region": "REGIÓN DE ATACAMA", "provincia": "Provincia de Copiapó", "comuna": null, "superficie_ha": 3.0, "datum_original": "PSAD56", "huso": 19, "epsg_origen": 24879, "tipo_publicacion": "manifestacion", "fuente_pdf": "http://www.diariooficial.interior.gob.cl/publicaciones/2026/06/17/44477/07/2824474.pdf", "archivo": "gm_manifestacion_2824474.pdf", "fecha": "17-06-2026", "edicion": "44477" }, "geometry": { "type": "Polygon", "coordinates": [ [ [ -70.19843433378071, -27.67996349929383 ], [ -70.195392757205695, -27.679989775938726 ], [ -70.195402583765485, -27.68089235037656 ], [ -70.198444185328782, -27.680866072729959 ], [ -70.19843433378071, -27.67996349929383 ] ] ] } },
{ "type": "Feature", "properties": { "cve": "2824475", "nombre": "RIVERA 2 1 AL 5", "solicitante": "Acevedo Ardiles Gustavo", "region": "REGIÓN DE ATACAMA", "provincia": "Provincia de Copiapó", "comuna": null, "superficie_ha": 5.0, "datum_original": "PSAD56", "huso": 19, "epsg_origen": 24879, "tipo_publicacion": "manifestacion", "fuente_pdf": "http://www.diariooficial.interior.gob.cl/publicaciones/2026/06/17/44477/07/2824475.pdf", "archivo": "gm_manifestacion_2824475.pdf", "fecha": "17-06-2026", "edicion": "44477" }, "geometry": { "type": "Polygon", "coordinates": [ [ [ -70.17738893423072, -27.655772013945189 ], [ -70.176375291286561, -27.655780619353571 ], [ -70.176423597434251, -27.660293537355503 ], [ -70.177437281978754, -27.660284930305778 ], [ -70.17738893423072, -27.655772013945189 ] ] ] } },
{ "type": "Feature", "properties": { "cve": "2824476", "nombre": "RIVERA 3 1 AL 5", "solicitante": "Acevedo Ardiles Gustavo", "region": "REGIÓN DE ATACAMA", "provincia": "Provincia de Copiapó", "comuna": null, "superficie_ha": 5.0, "datum_original": "PSAD56", "huso": 19, "epsg_origen": 24879, "tipo_publicacion": "manifestacion", "fuente_pdf": "http://www.diariooficial.interior.gob.cl/publicaciones/2026/06/17/44477/07/2824476.pdf", "archivo": "gm_manifestacion_2824476.pdf", "fecha": "17-06-2026", "edicion": "44477" }, "geometry": { "type": "Polygon", "coordinates": [ [ [ -70.177437281978754, -27.660284930305778 ], [ -70.176423597434251, -27.660293537355503 ], [ -70.176471914810634, -27.664806452316675 ], [ -70.177485640965159, -27.664797843625493 ], [ -70.177437281978754, -27.660284930305778 ] ] ] } },
{ "type": "Feature", "properties": { "cve": "2824558", "nombre": "TERRANOVA I, 1 AL 30", "solicitante": "Lemus Espinoza Carlos Aquiles y otros", "region": "REGIÓN DE ATACAMA", "provincia": "Provincia de Copiapó", "comuna": null, "superficie_ha": 300.0, "datum_original": "WGS84", "huso": 19, "epsg_origen": 32719, "tipo_publicacion": "manifestacion", "fuente_pdf": "http://www.diariooficial.interior.gob.cl/publicaciones/2026/06/17/44477/07/2824558.pdf", "archivo": "gm_manifestacion_2824558.pdf", "fecha": "17-06-2026", "edicion": "44477" }, "geometry": { "type": "Polygon", "coordinates": [ [ [ -70.192201778012929, -27.275385780389271 ], [ -70.182100121189279, -27.275471499118112 ], [ -70.182386891208026, -27.302550380122774 ], [ -70.192490997220432, -27.302464562351961 ], [ -70.192201778012929, -27.275385780389271 ] ] ] } },
{ "type": "Feature", "properties": { "cve": "2824430", "nombre": "TIA RICA 1 AL 20", "solicitante": "Pérez López Juan Rodrigo", "region": "REGIÓN DE ATACAMA", "provincia": "Provincia de Copiapó", "comuna": null, "superficie_ha": 200.0, "datum_original": "PSAD56", "huso": 19, "epsg_origen": 24879, "tipo_publicacion": "manifestacion", "fuente_pdf": "http://www.diariooficial.interior.gob.cl/publicaciones/2026/06/17/44477/07/2824430.pdf", "archivo": "gm_manifestacion_2824430.pdf", "fecha": "17-06-2026", "edicion": "44477" }, "geometry": { "type": "Polygon", "coordinates": [ [ [ -69.773660873378219, -28.121245514191799 ], [ -69.753298626913136, -28.121358890606288 ], [ -69.753361729690297, -28.130385236015009 ], [ -69.773725681463176, -28.130271816827118 ], [ -69.773660873378219, -28.121245514191799 ] ] ] } },
{ "type": "Feature", "properties": { "cve": "2824371", "nombre": "INFINITY 1 AL 10", "solicitante": "Aguilera Aguilera Matías Juan Carlos", "region": "REGIÓN DE COQUIMBO", "provincia": "Provincia de Elqui", "comuna": null, "superficie_ha": 100.0, "datum_original": "PSAD56", "huso": 19, "epsg_origen": 24879, "tipo_publicacion": "manifestacion", "fuente_pdf": "http://www.diariooficial.interior.gob.cl/publicaciones/2026/06/17/44477/07/2824371.pdf", "archivo": "gm_manifestacion_2824371.pdf", "fecha": "17-06-2026", "edicion": "44477" }, "geometry": { "type": "Polygon", "coordinates": [ [ [ -71.153526026058202, -30.243098127526469 ], [ -71.143139637372258, -30.243268495100661 ], [ -71.143335429819885, -30.252286403542076 ], [ -71.153722765599284, -30.252115974647236 ], [ -71.153526026058202, -30.243098127526469 ] ] ] } },
{ "type": "Feature", "properties": { "cve": "2824513", "nombre": "LA CASUAL 1 al 4", "solicitante": "Bugueño Bugueño Patricio Antonio", "region": "REGIÓN DE COQUIMBO", "provincia": "Provincia de Choapa", "comuna": "Canela", "superficie_ha": 4.0, "datum_original": "PSAD56", "huso": 19, "epsg_origen": 24879, "tipo_publicacion": "manifestacion", "fuente_pdf": "http://www.diariooficial.interior.gob.cl/publicaciones/2026/06/17/44477/07/2824513.pdf", "archivo": "gm_manifestacion_2824513.pdf", "fecha": "17-06-2026", "edicion": "44477" }, "geometry": { "type": "Polygon", "coordinates": [ [ [ -71.248982619413709, -31.25951364226971 ], [ -71.2468835538523, -31.25955036811299 ], [ -71.246926288273883, -31.261353540575115 ], [ -71.249025393676305, -31.261316812139818 ], [ -71.248982619413709, -31.25951364226971 ] ] ] } },
{ "type": "Feature", "properties": { "cve": "2824580", "nombre": "MARTINA", "solicitante": "Imerys Minerales Chile SpA", "region": "REGIÓN METROPOLITANA DE SANTIAGO", "provincia": "Provincia de Santiago", "comuna": null, "superficie_ha": 1.0, "datum_original": "PSAD56", "huso": 19, "epsg_origen": 24879, "tipo_publicacion": "manifestacion", "fuente_pdf": "http://www.diariooficial.interior.gob.cl/publicaciones/2026/06/17/44477/07/2824580.pdf", "archivo": "gm_manifestacion_2824580.pdf", "fecha": "17-06-2026", "edicion": "44477" }, "geometry": { "type": "Polygon", "coordinates": [ [ [ -70.822566197276814, -33.405299822790347 ], [ -70.821491323410498, -33.405315610252337 ], [ -70.821510141617097, -33.40621712607031 ], [ -70.822585026573165, -33.406201338070893 ], [ -70.822566197276814, -33.405299822790347 ] ] ] } },
{ "type": "Feature", "properties": { "cve": "2824352", "nombre": "TENITO 6, 1 AL 20", "solicitante": "GR Algarrobo SpA", "region": "REGIÓN DEL MAULE", "provincia": "Provincia de Curicó", "comuna": null, "superficie_ha": 100.0, "datum_original": "PSAD56", "huso": 18, "epsg_origen": 24878, "tipo_publicacion": "manifestacion", "fuente_pdf": "http://www.diariooficial.interior.gob.cl/publicaciones/2026/06/17/44477/07/2824352.pdf", "archivo": "gm_manifestacion_2824352.pdf", "fecha": "17-06-2026", "edicion": "44477" }, "geometry": { "type": "Polygon", "coordinates": [ [ [ -77.162225949696634, -34.809030754809854 ], [ -77.151300744648367, -34.8092244600195 ], [ -77.151535057321297, -34.818235468200285 ], [ -77.162461450052376, -34.818041698366613 ], [ -77.162225949696634, -34.809030754809854 ] ] ] } },
{ "type": "Feature", "properties": { "cve": "2824324", "nombre": "CASAN-N3 1/10", "solicitante": "Vargas Peralta Bernardita Elisabeth", "region": "REGIÓN DE MAGALLANES Y DE LA ANTÁRTICA CHILENA", "provincia": "Provincia de Tierra del Fuego", "comuna": "Porvenir", "superficie_ha": 60.0, "datum_original": "WGS84", "huso": 19, "epsg_origen": 32719, "tipo_publicacion": "manifestacion", "fuente_pdf": "http://www.diariooficial.interior.gob.cl/publicaciones/2026/06/17/44477/07/2824324.pdf", "archivo": "gm_manifestacion_2824324.pdf", "fecha": "17-06-2026", "edicion": "44477" }, "geometry": { "type": "Polygon", "coordinates": [ [ [ -70.205836923953797, -53.380087801669127 ], [ -70.190807008533284, -53.380238680637639 ], [ -70.190957484374849, -53.38563082409366 ], [ -70.205989297929506, -53.385479915645789 ], [ -70.205836923953797, -53.380087801669127 ] ] ] } },
{ "type": "Feature", "properties": { "cve": "2824537", "nombre": "SANTA MARTA, 1 AL 40", "solicitante": "Agrícola Santa Teresa SpA", "region": "REGIÓN METROPOLITANA DE SANTIAGO", "provincia": "Provincia de Chacabuco", "comuna": null, "superficie_ha": 200.0, "datum_original": "PSAD56", "huso": 19, "epsg_origen": 24879, "tipo_publicacion": "mensura", "fuente_pdf": "http://www.diariooficial.interior.gob.cl/publicaciones/2026/06/17/44477/07/2824537.pdf", "archivo": "gm_mensura_2824537.pdf", "fecha": "17-06-2026", "edicion": "44477" }, "geometry": { "type": "Polygon", "coordinates": [ [ [ -70.817008766649479, -33.294180339344251 ], [ -70.795538355625155, -33.294492444847499 ], [ -70.795723115705115, -33.303507888292614 ], [ -70.817195733078904, -33.303195676350434 ], [ -70.817008766649479, -33.294180339344251 ] ] ] } },
{ "type": "Feature", "properties": { "cve": "2824518", "nombre": "SANTA TERESA 1, 1 AL 40", "solicitante": "Agrícola Santa Teresa SpA", "region": "REGIÓN METROPOLITANA DE SANTIAGO", "provincia": "Provincia de Chacabuco", "comuna": null, "superficie_ha": 200.0, "datum_original": "PSAD56", "huso": 19, "epsg_origen": 24879, "tipo_publicacion": "mensura", "fuente_pdf": "http://www.diariooficial.interior.gob.cl/publicaciones/2026/06/17/44477/07/2824518.pdf", "archivo": "gm_mensura_2824518.pdf", "fecha": "17-06-2026", "edicion": "44477" }, "geometry": { "type": "Polygon", "coordinates": [ [ [ -70.749177937859812, -33.285233670361457 ], [ -70.738443473748333, -33.285384292392031 ], [ -70.738801203347322, -33.303415748046149 ], [ -70.749537873613846, -33.303265023252564 ], [ -70.749177937859812, -33.285233670361457 ] ] ] } },
{ "type": "Feature", "properties": { "cve": "2824247", "nombre": "SYRAH 1 1 AL 5", "solicitante": "Gatica", "region": "REGIÓN DEL MAULE", "provincia": "Provincia de Talca", "comuna": null, "superficie_ha": 25.0, "datum_original": "WGS84", "huso": 19, "epsg_origen": 32719, "tipo_publicacion": "mensura", "fuente_pdf": "http://www.diariooficial.interior.gob.cl/publicaciones/2026/06/17/44477/07/2824247.pdf", "archivo": "gm_mensura_2824247.pdf", "fecha": "17-06-2026", "edicion": "44477" }, "geometry": { "type": "Polygon", "coordinates": [ [ [ -71.767279507531299, -35.501667287136286 ], [ -71.761772726020851, -35.501793563113885 ], [ -71.761927011585129, -35.506296655477605 ], [ -71.767434099773652, -35.506170358632531 ], [ -71.767279507531299, -35.501667287136286 ] ] ] } },
{ "type": "Feature", "properties": { "cve": "2824248", "nombre": "SYRAH 2 1 AL 5", "solicitante": "Gatica", "region": "REGIÓN DEL MAULE", "provincia": "Provincia de Talca", "comuna": null, "superficie_ha": 25.0, "datum_original": "WGS84", "huso": 19, "epsg_origen": 32719, "tipo_publicacion": "mensura", "fuente_pdf": "http://www.diariooficial.interior.gob.cl/publicaciones/2026/06/17/44477/07/2824248.pdf", "archivo": "gm_mensura_2824248.pdf", "fecha": "17-06-2026", "edicion": "44477" }, "geometry": { "type": "Polygon", "coordinates": [ [ [ -71.767279507531299, -35.501667287136286 ], [ -71.761772726020851, -35.501793563113885 ], [ -71.761927011585129, -35.506296655477605 ], [ -71.767434099773652, -35.506170358632531 ], [ -71.767279507531299, -35.501667287136286 ] ] ] } },
{ "type": "Feature", "properties": { "cve": "2824780", "nombre": "VILLA N 1", "solicitante": "Gold Fields Pedernales Limitada", "region": "REGIÓN DE ARICA Y PARINACOTA", "provincia": "Provincia de Parinacota", "comuna": "General Lagos", "superficie_ha": 200.0, "datum_original": "PSAD56", "huso": 19, "epsg_origen": 24879, "tipo_publicacion": "pedimento", "fuente_pdf": "http://www.diariooficial.interior.gob.cl/publicaciones/2026/06/17/44477/07/2824780.pdf", "archivo": "gm_pedimento_2824780.pdf", "fecha": "17-06-2026", "edicion": "44477" }, "geometry": { "type": "Polygon", "coordinates": [ [ [ -69.747746049488782, -17.918827179409249 ], [ -69.728864154344521, -17.918898832289344 ], [ -69.728901111276684, -17.927936653326864 ], [ -69.747783963609521, -17.92786496191901 ], [ -69.747746049488782, -17.918827179409249 ] ] ] } },
{ "type": "Feature", "properties": { "cve": "2824779", "nombre": "VILLA N 2", "solicitante": "Gold Fields Pedernales Limitada", "region": "REGIÓN DE ARICA Y PARINACOTA", "provincia": "Provincia de Parinacota", "comuna": "General Lagos", "superficie_ha": 300.0, "datum_original": "PSAD56", "huso": 19, "epsg_origen": 24879, "tipo_publicacion": "pedimento", "fuente_pdf": "http://www.diariooficial.interior.gob.cl/publicaciones/2026/06/17/44477/07/2824779.pdf", "archivo": "gm_pedimento_2824779.pdf", "fecha": "17-06-2026", "edicion": "44477" }, "geometry": { "type": "Polygon", "coordinates": [ [ [ -69.757225356405286, -17.927828428805324 ], [ -69.728901111276684, -17.927936653326864 ], [ -69.728938089986244, -17.936974465812877 ], [ -69.75726377173585, -17.936866183124579 ], [ -69.757225356405286, -17.927828428805324 ] ] ] } },
{ "type": "Feature", "properties": { "cve": "2824781", "nombre": "VILLA N 3", "solicitante": "Gold Fields Pedernales Limitada", "region": "REGIÓN DE ARICA Y PARINACOTA", "provincia": "Provincia de Parinacota", "comuna": "General Lagos", "superficie_ha": 200.0, "datum_original": "PSAD56", "huso": 19, "epsg_origen": 24879, "tipo_publicacion": "pedimento", "fuente_pdf": "http://www.diariooficial.interior.gob.cl/publicaciones/2026/06/17/44477/07/2824781.pdf", "archivo": "gm_pedimento_2824781.pdf", "fecha": "17-06-2026", "edicion": "44477" }, "geometry": { "type": "Polygon", "coordinates": [ [ [ -69.75726377173585, -17.936866183124579 ], [ -69.738380006061107, -17.936938830104474 ], [ -69.738417485714137, -17.945976614890796 ], [ -69.757302209695141, -17.945903928882935 ], [ -69.75726377173585, -17.936866183124579 ] ] ] } },
{ "type": "Feature", "properties": { "cve": "2824782", "nombre": "VILLA N 4", "solicitante": "Gold Fields Pedernales Limitada", "region": "REGIÓN DE ARICA Y PARINACOTA", "provincia": "Provincia de Parinacota", "comuna": "General Lagos", "superficie_ha": 100.0, "datum_original": "PSAD56", "huso": 19, "epsg_origen": 24879, "tipo_publicacion": "pedimento", "fuente_pdf": "http://www.diariooficial.interior.gob.cl/publicaciones/2026/06/17/44477/07/2824782.pdf", "archivo": "gm_pedimento_2824782.pdf", "fecha": "17-06-2026", "edicion": "44477" }, "geometry": { "type": "Polygon", "coordinates": [ [ [ -69.74785985888046, -17.945940501268971 ], [ -69.738417485714137, -17.945976614890796 ], [ -69.738454987436938, -17.955014391116322 ], [ -69.747897840041148, -17.954978258101782 ], [ -69.74785985888046, -17.945940501268971 ] ] ] } },
{ "type": "Feature", "properties": { "cve": "2824783", "nombre": "VILLA N 5", "solicitante": "Gold Fields Pedernales Limitada", "region": "REGIÓN DE ARICA Y PARINACOTA", "provincia": "Provincia de Parinacota", "comuna": "General Lagos", "superficie_ha": 300.0, "datum_original": "PSAD56", "huso": 19, "epsg_origen": 24879, "tipo_publicacion": "pedimento", "fuente_pdf": "http://www.diariooficial.interior.gob.cl/publicaciones/2026/06/17/44477/07/2824783.pdf", "archivo": "gm_pedimento_2824783.pdf", "fecha": "17-06-2026", "edicion": "44477" }, "geometry": { "type": "Polygon", "coordinates": [ [ [ -69.747897840041148, -17.954978258101782 ], [ -69.738454987436938, -17.955014391116322 ], [ -69.73856762507593, -17.982127668391261 ], [ -69.748011917687293, -17.982091477187165 ], [ -69.747897840041148, -17.954978258101782 ] ] ] } },
{ "type": "Feature", "properties": { "cve": "2824784", "nombre": "VILLA N 6", "solicitante": "Gold Fields Pedernales Limitada", "region": "REGIÓN DE ARICA Y PARINACOTA", "provincia": "Provincia de Parinacota", "comuna": "General Lagos", "superficie_ha": 200.0, "datum_original": "PSAD56", "huso": 19, "epsg_origen": 24879, "tipo_publicacion": "pedimento", "fuente_pdf": "http://www.diariooficial.interior.gob.cl/publicaciones/2026/06/17/44477/07/2824784.pdf", "archivo": "gm_pedimento_2824784.pdf", "fecha": "17-06-2026", "edicion": "44477" }, "geometry": { "type": "Polygon", "coordinates": [ [ [ -69.757456187925953, -17.98205482623332 ], [ -69.748011917687293, -17.982091477187165 ], [ -69.748088081307486, -18.000166913696219 ], [ -69.757533312952233, -18.000130223446913 ], [ -69.757456187925953, -17.98205482623332 ] ] ] } },
{ "type": "Feature", "properties": { "cve": "2824785", "nombre": "VILLA N 7", "solicitante": "Gold Fields Pedernales Limitada", "region": "REGIÓN DE ARICA Y PARINACOTA", "provincia": "Provincia de Parinacota", "comuna": "General Lagos", "superficie_ha": 200.0, "datum_original": "PSAD56", "huso": 19, "epsg_origen": 24879, "tipo_publicacion": "pedimento", "fuente_pdf": "http://www.diariooficial.interior.gob.cl/publicaciones/2026/06/17/44477/07/2824785.pdf", "archivo": "gm_pedimento_2824785.pdf", "fecha": "17-06-2026", "edicion": "44477" }, "geometry": { "type": "Polygon", "coordinates": [ [ [ -69.748011917687293, -17.982091477187165 ], [ -69.73856762507593, -17.982127668391261 ], [ -69.738642827279477, -18.00020314370288 ], [ -69.748088081307486, -18.000166913696219 ], [ -69.748011917687293, -17.982091477187165 ] ] ] } },
{ "type": "Feature", "properties": { "cve": "2824786", "nombre": "VILLA N 8", "solicitante": "Gold Fields Pedernales Limitada", "region": "REGIÓN DE ARICA Y PARINACOTA", "provincia": "Provincia de Parinacota", "comuna": "General Lagos", "superficie_ha": 200.0, "datum_original": "PSAD56", "huso": 19, "epsg_origen": 24879, "tipo_publicacion": "pedimento", "fuente_pdf": "http://www.diariooficial.interior.gob.cl/publicaciones/2026/06/17/44477/07/2824786.pdf", "archivo": "gm_pedimento_2824786.pdf", "fecha": "17-06-2026", "edicion": "44477" }, "geometry": { "type": "Polygon", "coordinates": [ [ [ -69.73856762507593, -17.982127668391261 ], [ -69.729123310374277, -17.982163399840889 ], [ -69.729197551150747, -18.000238913462169 ], [ -69.738642827279477, -18.00020314370288 ], [ -69.73856762507593, -17.982127668391261 ] ] ] } },
{ "type": "Feature", "properties": { "cve": "2824520", "nombre": "MONSE III", "solicitante": "Aguirre Fuentes Eduardo Omar", "region": "REGIÓN DE ATACAMA", "provincia": "Provincia de Copiapó", "comuna": null, "superficie_ha": 100.0, "datum_original": "PSAD56", "huso": 19, "epsg_origen": 24879, "tipo_publicacion": "pedimento", "fuente_pdf": "http://www.diariooficial.interior.gob.cl/publicaciones/2026/06/17/44477/07/2824520.pdf", "archivo": "gm_pedimento_2824520.pdf", "fecha": "17-06-2026", "edicion": "44477" }, "geometry": { "type": "Polygon", "coordinates": [ [ [ -69.944037609050312, -27.420593621705859 ], [ -69.933921952350488, -27.420661745946568 ], [ -69.933997900347961, -27.429688593176333 ], [ -69.944114379372621, -27.429620442793897 ], [ -69.944037609050312, -27.420593621705859 ] ] ] } },
{ "type": "Feature", "properties": { "cve": "2824719", "nombre": "CHAGUARINA 4", "solicitante": "Compañía Minera San Gerónimo", "region": "REGIÓN DE COQUIMBO", "provincia": "Provincia de Elqui", "comuna": null, "superficie_ha": 200.0, "datum_original": "PSAD56", "huso": 19, "epsg_origen": 24879, "tipo_publicacion": "pedimento", "fuente_pdf": "http://www.diariooficial.interior.gob.cl/publicaciones/2026/06/17/44477/07/2824719.pdf", "archivo": "gm_pedimento_2824719.pdf", "fecha": "17-06-2026", "edicion": "44477" }, "geometry": { "type": "Polygon", "coordinates": [ [ [ -71.064145159060118, -30.119906377740421 ], [ -71.043396931412801, -30.120230926161895 ], [ -71.043582696469599, -30.129249581121694 ], [ -71.064332807087652, -30.128924915586744 ], [ -71.064145159060118, -30.119906377740421 ] ] ] } },
{ "type": "Feature", "properties": { "cve": "2824327", "nombre": "CHAGUARINA 5", "solicitante": "Compañía Minera San Gerónimo", "region": "REGIÓN DE COQUIMBO", "provincia": "Provincia de Elqui", "comuna": "Vicuña", "superficie_ha": 300.0, "datum_original": "PSAD56", "huso": 19, "epsg_origen": 24879, "tipo_publicacion": "pedimento", "fuente_pdf": "http://www.diariooficial.interior.gob.cl/publicaciones/2026/06/17/44477/07/2824327.pdf", "archivo": "gm_pedimento_2824327.pdf", "fecha": "17-06-2026", "edicion": "44477" }, "geometry": { "type": "Polygon", "coordinates": [ [ [ -71.067652793313172, -30.12887266514883 ], [ -71.05727780746669, -30.129035669366285 ], [ -71.057839339515084, -30.156091321471756 ], [ -71.068217152295972, -30.155928140795293 ], [ -71.067652793313172, -30.12887266514883 ] ] ] } },
{ "type": "Feature", "properties": { "cve": "2824738", "nombre": "PUERTO 5", "solicitante": "Pinilla Calderón Daniela", "region": "REGIÓN DE LA ARAUCANÍA", "provincia": "Provincia de Cautín", "comuna": "Carahue", "superficie_ha": 100.0, "datum_original": "PSAD56", "huso": 18, "epsg_origen": 24878, "tipo_publicacion": "pedimento", "fuente_pdf": "http://www.diariooficial.interior.gob.cl/publicaciones/2026/06/17/44477/07/2824738.pdf", "archivo": "gm_pedimento_2824738.pdf", "fecha": "17-06-2026", "edicion": "44477" }, "geometry": { "type": "Polygon", "coordinates": [ [ [ -73.180070867952125, -38.698246356909877 ], [ -73.168577011156856, -38.698066869694365 ], [ -73.168347200996735, -38.707074043657585 ], [ -73.179842498114155, -38.707253588337004 ], [ -73.180070867952125, -38.698246356909877 ] ] ] } },
{ "type": "Feature", "properties": { "cve": "2824739", "nombre": "PUERTO 6", "solicitante": "Pinilla Calderón Daniela", "region": "REGIÓN DE LA ARAUCANÍA", "provincia": "Provincia de Cautín", "comuna": "Carahue", "superficie_ha": 100.0, "datum_original": "PSAD56", "huso": 18, "epsg_origen": 24878, "tipo_publicacion": "pedimento", "fuente_pdf": "http://www.diariooficial.interior.gob.cl/publicaciones/2026/06/17/44477/07/2824739.pdf", "archivo": "gm_pedimento_2824739.pdf", "fecha": "17-06-2026", "edicion": "44477" }, "geometry": { "type": "Polygon", "coordinates": [ [ [ -73.177866634471201, -38.717134656241285 ], [ -73.166369767639196, -38.716954878884202 ], [ -73.16613952535603, -38.725962012348482 ], [ -73.177637833854149, -38.72614184725353 ], [ -73.177866634471201, -38.717134656241285 ] ] ] } }
]
}
