{
"type": "FeatureCollection",
"name": "boletin_mineria_20260708",
"crs": { "type": "name", "properties": { "name": "urn:ogc:def:crs:OGC:1.3:CRS84" } },
"features": [
{ "type": "Feature", "properties": { "cve": "2833938", "nombre": "ANDREWS 1 DEL 1 AL 4", "solicitante": "Alday Contreras Ulises René", "region": "REGIÓN DE ANTOFAGASTA", "provincia": "Provincia de Antofagasta", "comuna": null, "superficie_ha": 40.0, "datum_original": "PSAD56", "huso": 19, "epsg_origen": 24879, "tipo_publicacion": "manifestacion", "fuente_pdf": "http://www.diariooficial.interior.gob.cl/publicaciones/2026/07/08/44494/07/2833938.pdf", "archivo": "gm_manifestacion_2833938.pdf", "fecha": "08-07-2026", "edicion": "44494" }, "geometry": { "type": "Polygon", "coordinates": [ [ [ -70.371436748221782, -23.504523097328274 ], [ -70.366540870430171, -23.504566124586685 ], [ -70.366615401321894, -23.511790295215995 ], [ -70.371511545930147, -23.511747253174995 ], [ -70.371436748221782, -23.504523097328274 ] ] ] } },
{ "type": "Feature", "properties": { "cve": "2834068", "nombre": "ATENEA III 6, 1 AL 60", "solicitante": "Inversiones América SpA", "region": "REGIÓN DE ATACAMA", "provincia": "Provincia de Copiapó", "comuna": "TIERRA AMARILLA", "superficie_ha": 300.0, "datum_original": "PSAD56", "huso": 19, "epsg_origen": 24879, "tipo_publicacion": "manifestacion", "fuente_pdf": "http://www.diariooficial.interior.gob.cl/publicaciones/2026/07/08/44494/07/2834068.pdf", "archivo": "gm_manifestacion_2834068.pdf", "fecha": "08-07-2026", "edicion": "44494" }, "geometry": { "type": "Polygon", "coordinates": [ [ [ -70.029783012023202, -28.074429457764168 ], [ -70.019607034325077, -28.07450542347371 ], [ -70.01986287650351, -28.101582654162158 ], [ -70.030041406486944, -28.101506602370556 ], [ -70.029783012023202, -28.074429457764168 ] ] ] } },
{ "type": "Feature", "properties": { "cve": "2834327", "nombre": "ESPERANZA I 1 AL 100", "solicitante": "González Guerra José Raúl", "region": "REGIÓN DE ATACAMA", "provincia": "Provincia de Copiapó", "comuna": "Copiapó", "superficie_ha": 100.0, "datum_original": "PSAD56", "huso": 19, "epsg_origen": 24879, "tipo_publicacion": "manifestacion", "fuente_pdf": "http://www.diariooficial.interior.gob.cl/publicaciones/2026/07/08/44494/07/2834327.pdf", "archivo": "gm_manifestacion_2834327.pdf", "fecha": "08-07-2026", "edicion": "44494" }, "geometry": { "type": "Polygon", "coordinates": [ [ [ -70.927663715520012, -27.924877844223545 ], [ -70.917505884759933, -27.92501966129484 ], [ -70.91766516651164, -27.934041974276031 ], [ -70.92782383978323, -27.933900103475779 ], [ -70.927663715520012, -27.924877844223545 ] ] ] } },
{ "type": "Feature", "properties": { "cve": "2834043", "nombre": "LOMA GRIS 1 AL 16", "solicitante": "Ingeniería y Construcción Banner y Compañía Limitada", "region": "REGIÓN DE ATACAMA", "provincia": "Provincia de Copiapó", "comuna": null, "superficie_ha": 80.0, "datum_original": "PSAD56", "huso": 19, "epsg_origen": 24879, "tipo_publicacion": "manifestacion", "fuente_pdf": "http://www.diariooficial.interior.gob.cl/publicaciones/2026/07/08/44494/07/2834043.pdf", "archivo": "gm_manifestacion_2834043.pdf", "fecha": "08-07-2026", "edicion": "44494" }, "geometry": { "type": "Polygon", "coordinates": [ [ [ -70.74077087584557, -27.430071291372794 ], [ -70.730657650116754, -27.43019724640099 ], [ -70.730770270500031, -27.437416370248165 ], [ -70.740884153526508, -27.437290376575579 ], [ -70.74077087584557, -27.430071291372794 ] ] ] } },
{ "type": "Feature", "properties": { "cve": "2834350", "nombre": "CARBONATO 1 AL 5", "solicitante": "Herrera Arancibia Manuel Antonio", "region": "REGIÓN DE ATACAMA", "provincia": "Provincia de Chañaral", "comuna": "Diego", "superficie_ha": 25.0, "datum_original": "WGS84", "huso": 19, "epsg_origen": 32719, "tipo_publicacion": "manifestacion", "fuente_pdf": "http://www.diariooficial.interior.gob.cl/publicaciones/2026/07/08/44494/07/2834350.pdf", "archivo": "gm_manifestacion_2834350.pdf", "fecha": "08-07-2026", "edicion": "44494" }, "geometry": { "type": "Polygon", "coordinates": [ [ [ -69.910829379449495, -26.837393005798848 ], [ -69.905797680811048, -26.837425314157283 ], [ -69.905833600368197, -26.841939147873102 ], [ -69.910865498472447, -26.841906833223451 ], [ -69.910829379449495, -26.837393005798848 ] ] ] } },
{ "type": "Feature", "properties": { "cve": "2834277", "nombre": "LORENA 1 AL 4", "solicitante": "Cerda Contreras Wilfredo", "region": "REGIÓN DE ATACAMA", "provincia": "Provincia de Chañaral", "comuna": "DIEGO DE ALMAGRO", "superficie_ha": 16.0, "datum_original": "WGS84", "huso": 19, "epsg_origen": 32719, "tipo_publicacion": "manifestacion", "fuente_pdf": "http://www.diariooficial.interior.gob.cl/publicaciones/2026/07/08/44494/07/2834277.pdf", "archivo": "gm_manifestacion_2834277.pdf", "fecha": "08-07-2026", "edicion": "44494" }, "geometry": { "type": "Polygon", "coordinates": [ [ [ -69.611744067956153, -26.859948640103052 ], [ -69.607717632185427, -26.859966004247116 ], [ -69.60773693029401, -26.863577309163077 ], [ -69.611763493905045, -26.863559942315462 ], [ -69.611744067956153, -26.859948640103052 ] ] ] } },
{ "type": "Feature", "properties": { "cve": "2834090", "nombre": "PETRA K 5, 1 AL 10", "solicitante": "Corporación Nacional del Cobre de Chile", "region": "REGIÓN DE ATACAMA", "provincia": "Provincia de Chañaral", "comuna": null, "superficie_ha": 100.0, "datum_original": "WGS84", "huso": 19, "epsg_origen": 32719, "tipo_publicacion": "manifestacion", "fuente_pdf": "http://www.diariooficial.interior.gob.cl/publicaciones/2026/07/08/44494/07/2834090.pdf", "archivo": "gm_manifestacion_2834090.pdf", "fecha": "08-07-2026", "edicion": "44494" }, "geometry": { "type": "Polygon", "coordinates": [ [ [ -69.914740822615045, -25.93224303976849 ], [ -69.904755567007072, -25.932305737747527 ], [ -69.904824542835385, -25.941334546599624 ], [ -69.9148105594317, -25.941271823600403 ], [ -69.914740822615045, -25.93224303976849 ] ] ] } },
{ "type": "Feature", "properties": { "cve": "2834351", "nombre": "POCHITA DOS 1/4", "solicitante": "SLM Pochita Una de Sierra El Inca", "region": "REGIÓN DE ATACAMA", "provincia": "Provincia de Chañaral", "comuna": null, "superficie_ha": 8.0, "datum_original": "WGS84", "huso": 19, "epsg_origen": 32719, "tipo_publicacion": "manifestacion", "fuente_pdf": "http://www.diariooficial.interior.gob.cl/publicaciones/2026/07/08/44494/07/2834351.pdf", "archivo": "gm_manifestacion_2834351.pdf", "fecha": "08-07-2026", "edicion": "44494" }, "geometry": { "type": "Polygon", "coordinates": [ [ [ -69.947731414483485, -26.799629846791014 ], [ -69.943707432223903, -26.799656722873738 ], [ -69.943722375807724, -26.801462246981551 ], [ -69.947746421763767, -26.801435368803471 ], [ -69.947731414483485, -26.799629846791014 ] ] ] } },
{ "type": "Feature", "properties": { "cve": "2834188", "nombre": "LA CIELO 1 AL 2", "solicitante": "Flores Carvajal Ana Alejandra y otro", "region": "REGIÓN DE ATACAMA", "provincia": "Provincia de Huasco", "comuna": null, "superficie_ha": 4.0, "datum_original": "WGS84", "huso": 19, "epsg_origen": 32719, "tipo_publicacion": "manifestacion", "fuente_pdf": "http://www.diariooficial.interior.gob.cl/publicaciones/2026/07/08/44494/07/2834188.pdf", "archivo": "gm_manifestacion_2834188.pdf", "fecha": "08-07-2026", "edicion": "44494" }, "geometry": { "type": "Polygon", "coordinates": [ [ [ -70.424311896071103, -28.536562324643903 ], [ -70.422268191522889, -28.536583746316357 ], [ -70.422292433091712, -28.53838850531945 ], [ -70.424336172444782, -28.538367082046776 ], [ -70.424311896071103, -28.536562324643903 ] ] ] } },
{ "type": "Feature", "properties": { "cve": "2834127", "nombre": "YERBA BUENA 1/18", "solicitante": "Barrera Álvarez Eladio Alberto", "region": "REGIÓN DE ATACAMA", "provincia": "Provincia de Huasco", "comuna": "Vallenar", "superficie_ha": 18.0, "datum_original": "PSAD56", "huso": 19, "epsg_origen": 24879, "tipo_publicacion": "manifestacion", "fuente_pdf": "http://www.diariooficial.interior.gob.cl/publicaciones/2026/07/08/44494/07/2834127.pdf", "archivo": "gm_manifestacion_2834127.pdf", "fecha": "08-07-2026", "edicion": "44494" }, "geometry": { "type": "Polygon", "coordinates": [ [ [ -70.988970703067523, -29.19362305680961 ], [ -70.985886718013973, -29.193668854320077 ], [ -70.985991038003206, -29.199081003076966 ], [ -70.989075184800427, -29.199035195455266 ], [ -70.988970703067523, -29.19362305680961 ] ] ] } },
{ "type": "Feature", "properties": { "cve": "2834341", "nombre": "LA FORTUNA 1 AL 16", "solicitante": "Delgado Hurtado Carmen", "region": "REGIÓN DE COQUIMBO", "provincia": "Provincia de Elqui", "comuna": null, "superficie_ha": 6.0, "datum_original": "PSAD56", "huso": 19, "epsg_origen": 24879, "tipo_publicacion": "manifestacion", "fuente_pdf": "http://www.diariooficial.interior.gob.cl/publicaciones/2026/07/08/44494/07/2834341.pdf", "archivo": "gm_manifestacion_2834341.pdf", "fecha": "08-07-2026", "edicion": "44494" }, "geometry": { "type": "Polygon", "coordinates": [ [ [ -71.102696717571192, -30.20450113019421 ], [ -71.100620189168851, -30.204534425366869 ], [ -71.100677663668804, -30.207239890114966 ], [ -71.102754248784478, -30.207206591344413 ], [ -71.102696717571192, -30.20450113019421 ] ] ] } },
{ "type": "Feature", "properties": { "cve": "2834340", "nombre": "LOS AÑOS LOCOS 1 AL 3", "solicitante": "Delgado Hurtado Carmen", "region": "REGIÓN DE COQUIMBO", "provincia": "Provincia de Elqui", "comuna": null, "superficie_ha": 3.0, "datum_original": "PSAD56", "huso": 19, "epsg_origen": 24879, "tipo_publicacion": "manifestacion", "fuente_pdf": "http://www.diariooficial.interior.gob.cl/publicaciones/2026/07/08/44494/07/2834340.pdf", "archivo": "gm_manifestacion_2834340.pdf", "fecha": "08-07-2026", "edicion": "44494" }, "geometry": { "type": "Polygon", "coordinates": [ [ [ -71.105658108863366, -30.203100398994877 ], [ -71.102543364989572, -30.203150397688361 ], [ -71.102562538756132, -30.204052218484083 ], [ -71.10567731098314, -30.204002217989647 ], [ -71.105658108863366, -30.203100398994877 ] ] ] } },
{ "type": "Feature", "properties": { "cve": "2834303", "nombre": "CONDE 1 1 AL 40", "solicitante": "Molina Bauer Gonzalo Andrés", "region": "REGIÓN DE COQUIMBO", "provincia": "Provincia de Elqui", "comuna": null, "superficie_ha": 200.0, "datum_original": "PSAD56", "huso": 19, "epsg_origen": 24879, "tipo_publicacion": "mensura", "fuente_pdf": "http://www.diariooficial.interior.gob.cl/publicaciones/2026/07/08/44494/07/2834303.pdf", "archivo": "gm_mensura_2834303.pdf", "fecha": "08-07-2026", "edicion": "44494" }, "geometry": { "type": "Polygon", "coordinates": [ [ [ -71.006221617948327, -29.705841631101773 ], [ -70.985558296925745, -29.706153118534441 ], [ -70.985735816677703, -29.715172665795659 ], [ -71.006400982108332, -29.714861064993116 ], [ -71.006221617948327, -29.705841631101773 ] ] ] } },
{ "type": "Feature", "properties": { "cve": "2833866", "nombre": "SHEFA 6, 1 AL 20", "solicitante": "Medina", "region": "REGIÓN METROPOLITANA DE SANTIAGO", "provincia": "Provincia de Melipilla", "comuna": null, "superficie_ha": 80.0, "datum_original": "PSAD56", "huso": 19, "epsg_origen": 24879, "tipo_publicacion": "mensura", "fuente_pdf": "http://www.diariooficial.interior.gob.cl/publicaciones/2026/07/08/44494/07/2833866.pdf", "archivo": "gm_mensura_2833866.pdf", "fecha": "08-07-2026", "edicion": "44494" }, "geometry": { "type": "Polygon", "coordinates": [ [ [ -71.177835031773967, -34.018563029220346 ], [ -71.171341180190538, -34.018677892084149 ], [ -71.171616725218911, -34.029492679523067 ], [ -71.173781620664712, -34.029454414476213 ], [ -71.173827604832354, -34.031256874411746 ], [ -71.17815747487505, -34.031180224933848 ], [ -71.177835031773967, -34.018563029220346 ] ] ] } },
{ "type": "Feature", "properties": { "cve": "2834308", "nombre": "ASTRO REY", "solicitante": "Ahumada Varela Hernán Antonio", "region": "REGIÓN DE COQUIMBO", "provincia": "Provincia de Elqui", "comuna": null, "superficie_ha": 100.0, "datum_original": "PSAD56", "huso": 19, "epsg_origen": 24879, "tipo_publicacion": "pedimento", "fuente_pdf": "http://www.diariooficial.interior.gob.cl/publicaciones/2026/07/08/44494/07/2834308.pdf", "archivo": "gm_pedimento_2834308.pdf", "fecha": "08-07-2026", "edicion": "44494" }, "geometry": { "type": "Polygon", "coordinates": [ [ [ -70.390003437088069, -30.107885293920269 ], [ -70.379626940903506, -30.10799468495793 ], [ -70.379752315363476, -30.117016491305993 ], [ -70.390129753781196, -30.116907060770885 ], [ -70.390003437088069, -30.107885293920269 ] ] ] } },
{ "type": "Feature", "properties": { "cve": "2834309", "nombre": "JOSEFA II 4", "solicitante": "Prospecciones Greenfield SpA", "region": "REGIÓN DEL BIOBÍO", "provincia": "Provincia de Concepción", "comuna": null, "superficie_ha": 300.0, "datum_original": "PSAD56", "huso": 18, "epsg_origen": 24878, "tipo_publicacion": "pedimento", "fuente_pdf": "http://www.diariooficial.interior.gob.cl/publicaciones/2026/07/08/44494/07/2834309.pdf", "archivo": "gm_pedimento_2834309.pdf", "fecha": "08-07-2026", "edicion": "44494" }, "geometry": { "type": "Polygon", "coordinates": [ [ [ -72.916919726764419, -36.914045684470395 ], [ -72.883263510048067, -36.913450568498057 ], [ -72.883014435381284, -36.922458945505582 ], [ -72.916674605357898, -36.923054255144102 ], [ -72.916919726764419, -36.914045684470395 ] ] ] } }
]
}
