{
"type": "FeatureCollection",
"name": "boletin_mineria_20260916",
"crs": { "type": "name", "properties": { "name": "urn:ogc:def:crs:OGC:1.3:CRS84" } },
"features": [
{ "type": "Feature", "properties": { "cve": "2871324", "nombre": "MINERA AMISTAD 1", "solicitante": "Minera Buena Tierra SpA", "region": "REGIÓN DE ANTOFAGASTA", "provincia": "Provincia de Antofagasta", "comuna": "Antofagasta", "superficie_ha": 10.0, "datum_original": "WGS84", "huso": 19, "epsg_origen": 32719, "tipo_publicacion": "manifestacion", "fuente_pdf": "http://www.diariooficial.interior.gob.cl/publicaciones/2026/09/16/44552/07/2871324.pdf", "archivo": "gm_manifestacion_2871324.pdf", "fecha": "16-09-2026", "edicion": "44552" }, "geometry": { "type": "Polygon", "coordinates": [ [ [ -69.582291557907553, -24.100715331258559 ], [ -69.581307664474721, -24.100719076324285 ], [ -69.58134843793475, -24.109750773357419 ], [ -69.582332400369296, -24.109747026713709 ], [ -69.582291557907553, -24.100715331258559 ] ] ] } },
{ "type": "Feature", "properties": { "cve": "2871342", "nombre": "SOMBRERO 7 1 AL 20", "solicitante": "Anmakal Minería SpA", "region": "REGIÓN DE ANTOFAGASTA", "provincia": "Provincia de Antofagasta", "comuna": null, "superficie_ha": 200.0, "datum_original": "PSAD56", "huso": 19, "epsg_origen": 24879, "tipo_publicacion": "manifestacion", "fuente_pdf": "http://www.diariooficial.interior.gob.cl/publicaciones/2026/09/16/44552/07/2871342.pdf", "archivo": "gm_manifestacion_2871342.pdf", "fecha": "16-09-2026", "edicion": "44552" }, "geometry": { "type": "Polygon", "coordinates": [ [ [ -69.316950327581466, -24.21324763332661 ], [ -69.297254638574131, -24.213287337383619 ], [ -69.297275595255343, -24.222319170615151 ], [ -69.316972672769012, -24.222279449886024 ], [ -69.316950327581466, -24.21324763332661 ] ] ] } },
{ "type": "Feature", "properties": { "cve": "2871358", "nombre": "LILA  3 C, 1 AL 400", "solicitante": "Albemarle Limitada", "region": "REGIÓN DE ANTOFAGASTA", "provincia": "Provincia de El Loa", "comuna": null, "superficie_ha": 400.0, "datum_original": "PSAD56", "huso": 19, "epsg_origen": 24879, "tipo_publicacion": "manifestacion", "fuente_pdf": "http://www.diariooficial.interior.gob.cl/publicaciones/2026/09/16/44552/07/2871358.pdf", "archivo": "gm_manifestacion_2871358.pdf", "fecha": "16-09-2026", "edicion": "44552" }, "geometry": { "type": "Polygon", "coordinates": [ [ [ -68.35907019851409, -23.751604488128827 ], [ -68.319821039209884, -23.751436747067714 ], [ -68.319774115688347, -23.760468611288552 ], [ -68.359025982209573, -23.760636423825286 ], [ -68.35907019851409, -23.751604488128827 ] ] ] } },
{ "type": "Feature", "properties": { "cve": "2871356", "nombre": "LILA 1 C, 1 AL 400", "solicitante": "Albemarle Limitada", "region": "REGIÓN DE ANTOFAGASTA", "provincia": "Provincia de El Loa", "comuna": null, "superficie_ha": 400.0, "datum_original": "PSAD56", "huso": 19, "epsg_origen": 24879, "tipo_publicacion": "manifestacion", "fuente_pdf": "http://www.diariooficial.interior.gob.cl/publicaciones/2026/09/16/44552/07/2871356.pdf", "archivo": "gm_manifestacion_2871356.pdf", "fecha": "16-09-2026", "edicion": "44552" }, "geometry": { "type": "Polygon", "coordinates": [ [ [ -68.437569548563317, -23.751910073223613 ], [ -68.398319708794673, -23.751762263629427 ], [ -68.398278199814413, -23.760794266555251 ], [ -68.437530747007912, -23.760942139132425 ], [ -68.437569548563317, -23.751910073223613 ] ] ] } },
{ "type": "Feature", "properties": { "cve": "2871365", "nombre": "LILA 10 C, 1 AL 600", "solicitante": "Albemarle Limitada", "region": "REGIÓN DE ANTOFAGASTA", "provincia": "Provincia de El Loa", "comuna": null, "superficie_ha": 600.0, "datum_original": "PSAD56", "huso": 19, "epsg_origen": 24879, "tipo_publicacion": "manifestacion", "fuente_pdf": "http://www.diariooficial.interior.gob.cl/publicaciones/2026/09/16/44552/07/2871365.pdf", "archivo": "gm_manifestacion_2871365.pdf", "fecha": "16-09-2026", "edicion": "44552" }, "geometry": { "type": "Polygon", "coordinates": [ [ [ -68.34934759437499, -23.733499618500193 ], [ -68.329725719590158, -23.733415819425161 ], [ -68.329587048229101, -23.760511499072365 ], [ -68.349212981825545, -23.760595405346482 ], [ -68.34934759437499, -23.733499618500193 ] ] ] } },
{ "type": "Feature", "properties": { "cve": "2871366", "nombre": "LILA 12 C, 1 AL 400", "solicitante": "Albemarle Limitada", "region": "REGIÓN DE ANTOFAGASTA", "provincia": "Provincia de El Loa", "comuna": null, "superficie_ha": 400.0, "datum_original": "PSAD56", "huso": 19, "epsg_origen": 24879, "tipo_publicacion": "manifestacion", "fuente_pdf": "http://www.diariooficial.interior.gob.cl/publicaciones/2026/09/16/44552/07/2871366.pdf", "archivo": "gm_manifestacion_2871366.pdf", "fecha": "16-09-2026", "edicion": "44552" }, "geometry": { "type": "Polygon", "coordinates": [ [ [ -68.423029752871685, -23.711211487520252 ], [ -68.403410936028578, -23.7111371026933 ], [ -68.403328758236214, -23.729201210411546 ], [ -68.422950277122368, -23.729275658718326 ], [ -68.423029752871685, -23.711211487520252 ] ] ] } },
{ "type": "Feature", "properties": { "cve": "2871367", "nombre": "LILA 13 C, 1 AL 400", "solicitante": "Albemarle Limitada", "region": "REGIÓN DE ANTOFAGASTA", "provincia": "Provincia de El Loa", "comuna": null, "superficie_ha": 400.0, "datum_original": "PSAD56", "huso": 19, "epsg_origen": 24879, "tipo_publicacion": "manifestacion", "fuente_pdf": "http://www.diariooficial.interior.gob.cl/publicaciones/2026/09/16/44552/07/2871367.pdf", "archivo": "gm_manifestacion_2871367.pdf", "fecha": "16-09-2026", "edicion": "44552" }, "geometry": { "type": "Polygon", "coordinates": [ [ [ -68.403410936028578, -23.7111371026933 ], [ -68.383792200773897, -23.711060231154441 ], [ -68.38370732098825, -23.729124273270791 ], [ -68.403328758236214, -23.729201210411546 ], [ -68.403410936028578, -23.7111371026933 ] ] ] } },
{ "type": "Feature", "properties": { "cve": "2871368", "nombre": "LILA 14 C, 1 AL 400", "solicitante": "Albemarle Limitada", "region": "REGIÓN DE ANTOFAGASTA", "provincia": "Provincia de El Loa", "comuna": null, "superficie_ha": 400.0, "datum_original": "PSAD56", "huso": 19, "epsg_origen": 24879, "tipo_publicacion": "manifestacion", "fuente_pdf": "http://www.diariooficial.interior.gob.cl/publicaciones/2026/09/16/44552/07/2871368.pdf", "archivo": "gm_manifestacion_2871368.pdf", "fecha": "16-09-2026", "edicion": "44552" }, "geometry": { "type": "Polygon", "coordinates": [ [ [ -68.383792200773897, -23.711060231154441 ], [ -68.364173549789982, -23.710980872945814 ], [ -68.364085968062511, -23.729044847338226 ], [ -68.38370732098825, -23.729124273270791 ], [ -68.383792200773897, -23.711060231154441 ] ] ] } },
{ "type": "Feature", "properties": { "cve": "2871369", "nombre": "LILA 15 C, 1 AL 600", "solicitante": "Albemarle Limitada", "region": "REGIÓN DE ANTOFAGASTA", "provincia": "Provincia de El Loa", "comuna": null, "superficie_ha": 600.0, "datum_original": "PSAD56", "huso": 19, "epsg_origen": 24879, "tipo_publicacion": "manifestacion", "fuente_pdf": "http://www.diariooficial.interior.gob.cl/publicaciones/2026/09/16/44552/07/2871369.pdf", "archivo": "gm_manifestacion_2871369.pdf", "fecha": "16-09-2026", "edicion": "44552" }, "geometry": { "type": "Polygon", "coordinates": [ [ [ -68.364173549789982, -23.710980872945814 ], [ -68.334745737189493, -23.710857173222522 ], [ -68.334654102649253, -23.728921042050299 ], [ -68.364085968062511, -23.729044847338226 ], [ -68.364173549789982, -23.710980872945814 ] ] ] } },
{ "type": "Feature", "properties": { "cve": "2871370", "nombre": "LILA 16 C, 1 AL 100", "solicitante": "Alberarle Limitada", "region": "REGIÓN DE ANTOFAGASTA", "provincia": "Provincia de El Loa", "comuna": null, "superficie_ha": 100.0, "datum_original": "PSAD56", "huso": 19, "epsg_origen": 24879, "tipo_publicacion": "manifestacion", "fuente_pdf": "http://www.diariooficial.interior.gob.cl/publicaciones/2026/09/16/44552/07/2871370.pdf", "archivo": "gm_manifestacion_2871370.pdf", "fecha": "16-09-2026", "edicion": "44552" }, "geometry": { "type": "Polygon", "coordinates": [ [ [ -68.364239179020302, -23.69743286404475 ], [ -68.354430898301317, -23.697392278440013 ], [ -68.354386476109539, -23.706424269726018 ], [ -68.364195431633505, -23.706464872654998 ], [ -68.364239179020302, -23.69743286404475 ] ] ] } },
{ "type": "Feature", "properties": { "cve": "2871357", "nombre": "LILA 2 C, 1 AL 400", "solicitante": "Albemarle Limitada", "region": "REGIÓN DE ANTOFAGASTA", "provincia": "Provincia de El Loa", "comuna": null, "superficie_ha": 400.0, "datum_original": "PSAD56", "huso": 19, "epsg_origen": 24879, "tipo_publicacion": "manifestacion", "fuente_pdf": "http://www.diariooficial.interior.gob.cl/publicaciones/2026/09/16/44552/07/2871357.pdf", "archivo": "gm_manifestacion_2871357.pdf", "fecha": "16-09-2026", "edicion": "44552" }, "geometry": { "type": "Polygon", "coordinates": [ [ [ -68.398319708794673, -23.751762263629427 ], [ -68.35907019851409, -23.751604488128827 ], [ -68.359025982209573, -23.760636423825286 ], [ -68.398278199814413, -23.760794266555251 ], [ -68.398319708794673, -23.751762263629427 ] ] ] } },
{ "type": "Feature", "properties": { "cve": "2871371", "nombre": "LILA 20 C, 1 AL 300", "solicitante": "Albemarle Limitada", "region": "REGIÓN DE ANTOFAGASTA", "provincia": "Provincia de El Loa", "comuna": null, "superficie_ha": 300.0, "datum_original": "PSAD56", "huso": 19, "epsg_origen": 24879, "tipo_publicacion": "manifestacion", "fuente_pdf": "http://www.diariooficial.interior.gob.cl/publicaciones/2026/09/16/44552/07/2871371.pdf", "archivo": "gm_manifestacion_2871371.pdf", "fecha": "16-09-2026", "edicion": "44552" }, "geometry": { "type": "Polygon", "coordinates": [ [ [ -68.393830834773283, -23.661422550392892 ], [ -68.364413951352603, -23.661304722612606 ], [ -68.364370290838551, -23.670336774013148 ], [ -68.393789194693596, -23.670454652148166 ], [ -68.393830834773283, -23.661422550392892 ] ] ] } },
{ "type": "Feature", "properties": { "cve": "2871359", "nombre": "LILA 4 C, 1 AL 200", "solicitante": "Albemarle Limitada", "region": "REGIÓN DE ANTOFAGASTA", "provincia": "Provincia de El Loa", "comuna": null, "superficie_ha": 200.0, "datum_original": "PSAD56", "huso": 19, "epsg_origen": 24879, "tipo_publicacion": "manifestacion", "fuente_pdf": "http://www.diariooficial.interior.gob.cl/publicaciones/2026/09/16/44552/07/2871359.pdf", "archivo": "gm_manifestacion_2871359.pdf", "fecha": "16-09-2026", "edicion": "44552" }, "geometry": { "type": "Polygon", "coordinates": [ [ [ -68.319821039209884, -23.751436747067714 ], [ -68.300196597888728, -23.751349139566035 ], [ -68.300148320800943, -23.760380966456776 ], [ -68.319774115688347, -23.760468611288552 ], [ -68.319821039209884, -23.751436747067714 ] ] ] } },
{ "type": "Feature", "properties": { "cve": "2871360", "nombre": "LILA 5 C, 1 AL 600", "solicitante": "Albemarle Limitada", "region": "REGIÓN DE ANTOFAGASTA", "provincia": "Provincia de El Loa", "comuna": null, "superficie_ha": 600.0, "datum_original": "PSAD56", "huso": 19, "epsg_origen": 24879, "tipo_publicacion": "manifestacion", "fuente_pdf": "http://www.diariooficial.interior.gob.cl/publicaciones/2026/09/16/44552/07/2871360.pdf", "archivo": "gm_manifestacion_2871360.pdf", "fecha": "16-09-2026", "edicion": "44552" }, "geometry": { "type": "Polygon", "coordinates": [ [ [ -68.447458250102272, -23.733881274324677 ], [ -68.427835956997868, -23.733809921908229 ], [ -68.427717580486132, -23.760906105708059 ], [ -68.447343932785472, -23.760977549401861 ], [ -68.447458250102272, -23.733881274324677 ] ] ] } },
{ "type": "Feature", "properties": { "cve": "2871361", "nombre": "LILA 6 C, 1 AL 600", "solicitante": "Albemarle Limitada", "region": "REGIÓN DE ANTOFAGASTA", "provincia": "Provincia de El Loa", "comuna": null, "superficie_ha": 600.0, "datum_original": "PSAD56", "huso": 19, "epsg_origen": 24879, "tipo_publicacion": "manifestacion", "fuente_pdf": "http://www.diariooficial.interior.gob.cl/publicaciones/2026/09/16/44552/07/2871361.pdf", "archivo": "gm_manifestacion_2871361.pdf", "fecha": "16-09-2026", "edicion": "44552" }, "geometry": { "type": "Polygon", "coordinates": [ [ [ -68.427835956997868, -23.733809921908229 ], [ -68.408213742188437, -23.733736080076412 ], [ -68.408091306553501, -23.760832169414414 ], [ -68.427717580486132, -23.760906105708059 ], [ -68.427835956997868, -23.733809921908229 ] ] ] } },
{ "type": "Feature", "properties": { "cve": "2871362", "nombre": "LILA 7 C, 1 AL 600", "solicitante": "Albemarle Limitada", "region": "REGIÓN DE ANTOFAGASTA", "provincia": "Provincia de El Loa", "comuna": null, "superficie_ha": 600.0, "datum_original": "PSAD56", "huso": 19, "epsg_origen": 24879, "tipo_publicacion": "manifestacion", "fuente_pdf": "http://www.diariooficial.interior.gob.cl/publicaciones/2026/09/16/44552/07/2871362.pdf", "archivo": "gm_manifestacion_2871362.pdf", "fecha": "16-09-2026", "edicion": "44552" }, "geometry": { "type": "Polygon", "coordinates": [ [ [ -68.408213742188437, -23.733736080076412 ], [ -68.388591608358496, -23.733659748869695 ], [ -68.388465113674599, -23.760755740561443 ], [ -68.408091306553501, -23.760832169414414 ], [ -68.408213742188437, -23.733736080076412 ] ] ] } },
{ "type": "Feature", "properties": { "cve": "2871363", "nombre": "LILA 8 C, 1 AL 600", "solicitante": "Albemarle Limitada", "region": "REGIÓN DE ANTOFAGASTA", "provincia": "Provincia de El Loa", "comuna": null, "superficie_ha": 600.0, "datum_original": "PSAD56", "huso": 19, "epsg_origen": 24879, "tipo_publicacion": "manifestacion", "fuente_pdf": "http://www.diariooficial.interior.gob.cl/publicaciones/2026/09/16/44552/07/2871363.pdf", "archivo": "gm_manifestacion_2871363.pdf", "fecha": "16-09-2026", "edicion": "44552" }, "geometry": { "type": "Polygon", "coordinates": [ [ [ -68.388591608358496, -23.733659748869695 ], [ -68.36896955819256, -23.733580928329886 ], [ -68.368839004536326, -23.760676819191037 ], [ -68.388465113674599, -23.760755740561443 ], [ -68.388591608358496, -23.733659748869695 ] ] ] } },
{ "type": "Feature", "properties": { "cve": "2871364", "nombre": "LILA 9 C, 1 al 600", "solicitante": "Albemarle Limitada", "region": "REGIÓN DE ANTOFAGASTA", "provincia": "Provincia de El Loa", "comuna": null, "superficie_ha": 600.0, "datum_original": "PSAD56", "huso": 19, "epsg_origen": 24879, "tipo_publicacion": "manifestacion", "fuente_pdf": "http://www.diariooficial.interior.gob.cl/publicaciones/2026/09/16/44552/07/2871364.pdf", "archivo": "gm_manifestacion_2871364.pdf", "fecha": "16-09-2026", "edicion": "44552" }, "geometry": { "type": "Polygon", "coordinates": [ [ [ -68.36896955819256, -23.733580928329886 ], [ -68.34934759437499, -23.733499618500193 ], [ -68.349212981825545, -23.760595405346482 ], [ -68.368839004536326, -23.760676819191037 ], [ -68.36896955819256, -23.733580928329886 ] ] ] } },
{ "type": "Feature", "properties": { "cve": "2870862", "nombre": "ELENA 3 1 AL 10", "solicitante": "Pesenti Rojas Juan Pablo", "region": "REGIÓN DE ATACAMA", "provincia": "Provincia de Copiapó", "comuna": null, "superficie_ha": 100.0, "datum_original": "PSAD56", "huso": 19, "epsg_origen": 24879, "tipo_publicacion": "manifestacion", "fuente_pdf": "http://www.diariooficial.interior.gob.cl/publicaciones/2026/09/16/44552/07/2870862.pdf", "archivo": "gm_manifestacion_2870862.pdf", "fecha": "16-09-2026", "edicion": "44552" }, "geometry": { "type": "Polygon", "coordinates": [ [ [ -70.290036073775212, -27.187636264243498 ], [ -70.279942699118195, -27.187728760023855 ], [ -70.280045750233654, -27.196754852699357 ], [ -70.290139936984133, -27.196662321220536 ], [ -70.290036073775212, -27.187636264243498 ] ] ] } },
{ "type": "Feature", "properties": { "cve": "2870863", "nombre": "ELENA 4 1 AL 10", "solicitante": "Pesenti Rojas Juan Pablo", "region": "REGIÓN DE ATACAMA", "provincia": "Provincia de Copiapó", "comuna": null, "superficie_ha": 100.0, "datum_original": "PSAD56", "huso": 19, "epsg_origen": 24879, "tipo_publicacion": "manifestacion", "fuente_pdf": "http://www.diariooficial.interior.gob.cl/publicaciones/2026/09/16/44552/07/2870863.pdf", "archivo": "gm_manifestacion_2870863.pdf", "fecha": "16-09-2026", "edicion": "44552" }, "geometry": { "type": "Polygon", "coordinates": [ [ [ -70.283912886335614, -27.181824891390235 ], [ -70.273820010385748, -27.181916928399186 ], [ -70.273922543062866, -27.190943050207473 ], [ -70.284016230869454, -27.190850977671776 ], [ -70.283912886335614, -27.181824891390235 ] ] ] } },
{ "type": "Feature", "properties": { "cve": "2870868", "nombre": "ANTARES 3C, 1 AL 60", "solicitante": "Minera Gold Fields Salares Norte SpA", "region": "REGIÓN DE ATACAMA", "provincia": "Provincia de Chañaral", "comuna": "Diego de Almagro", "superficie_ha": 300.0, "datum_original": "PSAD56", "huso": 19, "epsg_origen": 24879, "tipo_publicacion": "manifestacion", "fuente_pdf": "http://www.diariooficial.interior.gob.cl/publicaciones/2026/09/16/44552/07/2870868.pdf", "archivo": "gm_manifestacion_2870868.pdf", "fecha": "16-09-2026", "edicion": "44552" }, "geometry": { "type": "Polygon", "coordinates": [ [ [ -68.782427104346979, -25.77577973096216 ], [ -68.752507511119589, -25.775731928248426 ], [ -68.752488775812651, -25.784761886725523 ], [ -68.782410633921899, -25.784809708602477 ], [ -68.782427104346979, -25.77577973096216 ] ] ] } },
{ "type": "Feature", "properties": { "cve": "2870885", "nombre": "EPSILON 6C, 1 AL 60", "solicitante": "Gold Fields Pedernales Limitada", "region": "REGIÓN DE ATACAMA", "provincia": "Provincia de Chañaral", "comuna": "Diego de Almagro", "superficie_ha": 300.0, "datum_original": "PSAD56", "huso": 19, "epsg_origen": 24879, "tipo_publicacion": "manifestacion", "fuente_pdf": "http://www.diariooficial.interior.gob.cl/publicaciones/2026/09/16/44552/07/2870885.pdf", "archivo": "gm_manifestacion_2870885.pdf", "fecha": "16-09-2026", "edicion": "44552" }, "geometry": { "type": "Polygon", "coordinates": [ [ [ -68.713004665379714, -25.613117967992881 ], [ -68.683125857261444, -25.61305626195972 ], [ -68.683102043287121, -25.622086369441238 ], [ -68.712983096801992, -25.622148100324981 ], [ -68.713004665379714, -25.613117967992881 ] ] ] } },
{ "type": "Feature", "properties": { "cve": "2870912", "nombre": "FRAN 12, 1 AL 36", "solicitante": "Compañía Minera Nevada SpA", "region": "REGIÓN DE ATACAMA", "provincia": "Provincia de Huasco", "comuna": "ALTO DEL CARMEN", "superficie_ha": 36.0, "datum_original": "PSAD56", "huso": 19, "epsg_origen": 24879, "tipo_publicacion": "manifestacion", "fuente_pdf": "http://www.diariooficial.interior.gob.cl/publicaciones/2026/09/16/44552/07/2870912.pdf", "archivo": "gm_manifestacion_2870912.pdf", "fecha": "16-09-2026", "edicion": "44552" }, "geometry": { "type": "Polygon", "coordinates": [ [ [ -69.982097680651734, -29.404248026725188 ], [ -69.975914212078692, -29.404293448334887 ], [ -69.975965928261076, -29.409707901586959 ], [ -69.982149724383916, -29.409662469990117 ], [ -69.982097680651734, -29.404248026725188 ] ] ] } },
{ "type": "Feature", "properties": { "cve": "2870913", "nombre": "FRAN 13, 1 AL 72", "solicitante": "Compañía Minera Nevada SpA", "region": "REGIÓN DE ATACAMA", "provincia": "Provincia de Huasco", "comuna": "ALTO DEL CARMEN", "superficie_ha": 72.0, "datum_original": "PSAD56", "huso": 19, "epsg_origen": 24879, "tipo_publicacion": "manifestacion", "fuente_pdf": "http://www.diariooficial.interior.gob.cl/publicaciones/2026/09/16/44552/07/2870913.pdf", "archivo": "gm_manifestacion_2870913.pdf", "fecha": "16-09-2026", "edicion": "44552" }, "geometry": { "type": "Polygon", "coordinates": [ [ [ -69.975965928261076, -29.409707901586959 ], [ -69.96669020756606, -29.409775511120859 ], [ -69.966758529177369, -29.416994794911808 ], [ -69.976034905188996, -29.416927165558889 ], [ -69.975965928261076, -29.409707901586959 ] ] ] } },
{ "type": "Feature", "properties": { "cve": "2870914", "nombre": "FRAN 15, 1 AL 10", "solicitante": "Compañía Minera Nevada SpA", "region": "REGIÓN DE ATACAMA", "provincia": "Provincia de Huasco", "comuna": "ALTO DEL CARMEN", "superficie_ha": 10.0, "datum_original": "PSAD56", "huso": 19, "epsg_origen": 24879, "tipo_publicacion": "manifestacion", "fuente_pdf": "http://www.diariooficial.interior.gob.cl/publicaciones/2026/09/16/44552/07/2870914.pdf", "archivo": "gm_manifestacion_2870914.pdf", "fecha": "16-09-2026", "edicion": "44552" }, "geometry": { "type": "Polygon", "coordinates": [ [ [ -69.973866551807617, -29.438151066401826 ], [ -69.971804707770858, -29.438166127234037 ], [ -69.971847681415909, -29.442678154313292 ], [ -69.973909616593275, -29.442663090723514 ], [ -69.973866551807617, -29.438151066401826 ] ] ] } },
{ "type": "Feature", "properties": { "cve": "2870915", "nombre": "KANTUTA 12, 1 AL 20", "solicitante": "Compañía Minera Nevada SpA", "region": "REGIÓN DE ATACAMA", "provincia": "Provincia de Huasco", "comuna": "ALTO DEL CARMEN", "superficie_ha": 200.0, "datum_original": "PSAD56", "huso": 19, "epsg_origen": 24879, "tipo_publicacion": "manifestacion", "fuente_pdf": "http://www.diariooficial.interior.gob.cl/publicaciones/2026/09/16/44552/07/2870915.pdf", "archivo": "gm_manifestacion_2870915.pdf", "fecha": "16-09-2026", "edicion": "44552" }, "geometry": { "type": "Polygon", "coordinates": [ [ [ -70.061335383410523, -29.19336418177523 ], [ -70.040766575021152, -29.19352567048286 ], [ -70.040857716202069, -29.202549863399287 ], [ -70.061428325010525, -29.202388315240754 ], [ -70.061335383410523, -29.19336418177523 ] ] ] } },
{ "type": "Feature", "properties": { "cve": "2870916", "nombre": "KANTUTA 13, 1 AL 30", "solicitante": "Compañía Minera Nevada SpA", "region": "REGIÓN DE ATACAMA", "provincia": "Provincia de Huasco", "comuna": "ALTO DEL CARMEN", "superficie_ha": 300.0, "datum_original": "PSAD56", "huso": 19, "epsg_origen": 24879, "tipo_publicacion": "manifestacion", "fuente_pdf": "http://www.diariooficial.interior.gob.cl/publicaciones/2026/09/16/44552/07/2870916.pdf", "archivo": "gm_manifestacion_2870916.pdf", "fecha": "16-09-2026", "edicion": "44552" }, "geometry": { "type": "Polygon", "coordinates": [ [ [ -70.092188276476477, -29.193116025459236 ], [ -70.061335383410523, -29.19336418177523 ], [ -70.061428325010525, -29.202388315240754 ], [ -70.092283918586986, -29.202140067568141 ], [ -70.092188276476477, -29.193116025459236 ] ] ] } },
{ "type": "Feature", "properties": { "cve": "2870917", "nombre": "KANTUTA 14, 1 AL 30", "solicitante": "Compañía Minera Nevada SpA", "region": "REGIÓN DE ATACAMA", "provincia": "Provincia de Huasco", "comuna": "ALTO DEL CARMEN", "superficie_ha": 300.0, "datum_original": "PSAD56", "huso": 19, "epsg_origen": 24879, "tipo_publicacion": "manifestacion", "fuente_pdf": "http://www.diariooficial.interior.gob.cl/publicaciones/2026/09/16/44552/07/2870917.pdf", "archivo": "gm_manifestacion_2870917.pdf", "fecha": "16-09-2026", "edicion": "44552" }, "geometry": { "type": "Polygon", "coordinates": [ [ [ -70.123040776252452, -29.192860761527378 ], [ -70.092188276476477, -29.193116025459236 ], [ -70.092283918586986, -29.202140067568141 ], [ -70.123139118728091, -29.201884709663517 ], [ -70.123040776252452, -29.192860761527378 ] ] ] } },
{ "type": "Feature", "properties": { "cve": "2870918", "nombre": "KANTUTA 15, 1 AL 30", "solicitante": "Compañía Minera Nevada SpA", "region": "REGIÓN DE ATACAMA", "provincia": "Provincia de Huasco", "comuna": "ALTO DEL CARMEN", "superficie_ha": 300.0, "datum_original": "PSAD56", "huso": 19, "epsg_origen": 24879, "tipo_publicacion": "manifestacion", "fuente_pdf": "http://www.diariooficial.interior.gob.cl/publicaciones/2026/09/16/44552/07/2870918.pdf", "archivo": "gm_manifestacion_2870918.pdf", "fecha": "16-09-2026", "edicion": "44552" }, "geometry": { "type": "Polygon", "coordinates": [ [ [ -70.133424096092284, -29.201798010367948 ], [ -70.123139118728091, -29.201884709663517 ], [ -70.123434415916662, -29.228956478628458 ], [ -70.133722096015262, -29.228869683583355 ], [ -70.133424096092284, -29.201798010367948 ] ] ] } },
{ "type": "Feature", "properties": { "cve": "2870919", "nombre": "KANTUTA 16, 1 AL 30", "solicitante": "Compañía Minera Nevada SpA", "region": "REGIÓN DE ATACAMA", "provincia": "Provincia de Huasco", "comuna": "ALTO DEL CARMEN", "superficie_ha": 300.0, "datum_original": "PSAD56", "huso": 19, "epsg_origen": 24879, "tipo_publicacion": "manifestacion", "fuente_pdf": "http://www.diariooficial.interior.gob.cl/publicaciones/2026/09/16/44552/07/2870919.pdf", "archivo": "gm_manifestacion_2870919.pdf", "fecha": "16-09-2026", "edicion": "44552" }, "geometry": { "type": "Polygon", "coordinates": [ [ [ -70.133722096015262, -29.228869683583355 ], [ -70.123434415916662, -29.228956478628458 ], [ -70.123730118097015, -29.2560281343757 ], [ -70.134020504635615, -29.25594124353189 ], [ -70.133722096015262, -29.228869683583355 ] ] ] } },
{ "type": "Feature", "properties": { "cve": "2870921", "nombre": "KANTUTA 18, 1 AL 30", "solicitante": "Compañía Minera Nevada SpA", "region": "REGIÓN DE ATACAMA", "provincia": "Provincia de Huasco", "comuna": "ALTO DEL CARMEN", "superficie_ha": 300.0, "datum_original": "PSAD56", "huso": 19, "epsg_origen": 24879, "tipo_publicacion": "manifestacion", "fuente_pdf": "http://www.diariooficial.interior.gob.cl/publicaciones/2026/09/16/44552/07/2870921.pdf", "archivo": "gm_manifestacion_2870921.pdf", "fecha": "16-09-2026", "edicion": "44552" }, "geometry": { "type": "Polygon", "coordinates": [ [ [ -70.134319322407336, -29.283012690145984 ], [ -70.124026225719007, -29.283099676837743 ], [ -70.124322739233364, -29.310171105947202 ], [ -70.134618549785273, -29.310084023358151 ], [ -70.134319322407336, -29.283012690145984 ] ] ] } },
{ "type": "Feature", "properties": { "cve": "2870922", "nombre": "KANTUTA 19, 1 AL 20", "solicitante": "Compañía Minera Nevada SpA", "region": "REGIÓN DE ATACAMA", "provincia": "Provincia de Huasco", "comuna": "ALTO DEL CARMEN", "superficie_ha": 200.0, "datum_original": "PSAD56", "huso": 19, "epsg_origen": 24879, "tipo_publicacion": "manifestacion", "fuente_pdf": "http://www.diariooficial.interior.gob.cl/publicaciones/2026/09/16/44552/07/2870922.pdf", "archivo": "gm_manifestacion_2870922.pdf", "fecha": "16-09-2026", "edicion": "44552" }, "geometry": { "type": "Polygon", "coordinates": [ [ [ -70.13456865009141, -29.305572142367449 ], [ -70.124273292108185, -29.305659208970191 ], [ -70.124471148341286, -29.323706777973669 ], [ -70.13476831721897, -29.323619647417452 ], [ -70.13456865009141, -29.305572142367449 ] ] ] } },
{ "type": "Feature", "properties": { "cve": "2870923", "nombre": "KANTUTA 20, 1 AL 30", "solicitante": "Compañía Minera Nevada SpA", "region": "REGIÓN DE ATACAMA", "provincia": "Provincia de Huasco", "comuna": "ALTO DEL CARMEN", "superficie_ha": 300.0, "datum_original": "PSAD56", "huso": 19, "epsg_origen": 24879, "tipo_publicacion": "manifestacion", "fuente_pdf": "http://www.diariooficial.interior.gob.cl/publicaciones/2026/09/16/44552/07/2870923.pdf", "archivo": "gm_manifestacion_2870923.pdf", "fecha": "16-09-2026", "edicion": "44552" }, "geometry": { "type": "Polygon", "coordinates": [ [ [ -70.15531167819465, -29.31893116548714 ], [ -70.124421667347832, -29.319194890449246 ], [ -70.124520640628361, -29.328218662346597 ], [ -70.155413369005686, -29.327954840563706 ], [ -70.15531167819465, -29.31893116548714 ] ] ] } },
{ "type": "Feature", "properties": { "cve": "2870924", "nombre": "KANTUTA 21, 1 AL 30", "solicitante": "Compañía Minera Nevada SpA", "region": "REGIÓN DE ATACAMA", "provincia": "Provincia de Huasco", "comuna": "ALTO DEL CARMEN", "superficie_ha": 300.0, "datum_original": "PSAD56", "huso": 19, "epsg_origen": 24879, "tipo_publicacion": "manifestacion", "fuente_pdf": "http://www.diariooficial.interior.gob.cl/publicaciones/2026/09/16/44552/07/2870924.pdf", "archivo": "gm_manifestacion_2870924.pdf", "fecha": "16-09-2026", "edicion": "44552" }, "geometry": { "type": "Polygon", "coordinates": [ [ [ -70.186201271391283, -29.31866029692473 ], [ -70.15531167819465, -29.31893116548714 ], [ -70.155413369005686, -29.327954840563706 ], [ -70.186305679577856, -29.327683872558421 ], [ -70.186201271391283, -29.31866029692473 ] ] ] } },
{ "type": "Feature", "properties": { "cve": "2870925", "nombre": "KANTUTA 22, 1 AL 30", "solicitante": "Compañía Minera Nevada SpA", "region": "REGIÓN DE ATACAMA", "provincia": "Provincia de Huasco", "comuna": "ALTO DEL CARMEN", "superficie_ha": 300.0, "datum_original": "PSAD56", "huso": 19, "epsg_origen": 24879, "tipo_publicacion": "manifestacion", "fuente_pdf": "http://www.diariooficial.interior.gob.cl/publicaciones/2026/09/16/44552/07/2870925.pdf", "archivo": "gm_manifestacion_2870925.pdf", "fecha": "16-09-2026", "edicion": "44552" }, "geometry": { "type": "Polygon", "coordinates": [ [ [ -70.217090435780932, -29.318382285117305 ], [ -70.186201271391283, -29.31866029692473 ], [ -70.186305679577856, -29.327683872558421 ], [ -70.217197561183909, -29.327405758686194 ], [ -70.217090435780932, -29.318382285117305 ] ] ] } },
{ "type": "Feature", "properties": { "cve": "2870920", "nombre": "KANTUTA 7, 1 AL 30", "solicitante": "Compañía Minera Nevada SpA", "region": "REGIÓN DE ATACAMA", "provincia": "Provincia de Huasco", "comuna": "ALTO DEL CARMEN", "superficie_ha": 300.0, "datum_original": "PSAD56", "huso": 19, "epsg_origen": 24879, "tipo_publicacion": "manifestacion", "fuente_pdf": "http://www.diariooficial.interior.gob.cl/publicaciones/2026/09/16/44552/07/2870920.pdf", "archivo": "gm_manifestacion_2870920.pdf", "fecha": "16-09-2026", "edicion": "44552" }, "geometry": { "type": "Polygon", "coordinates": [ [ [ -70.134020504635615, -29.25594124353189 ], [ -70.123730118097015, -29.2560281343757 ], [ -70.124026225719007, -29.283099676837743 ], [ -70.134319322407336, -29.283012690145984 ], [ -70.134020504635615, -29.25594124353189 ] ] ] } },
{ "type": "Feature", "properties": { "cve": "2870926", "nombre": "KEKA 7, 1 AL 60", "solicitante": "Compañía Minera Nevada SpA", "region": "REGIÓN DE ATACAMA", "provincia": "Provincia de Huasco", "comuna": "ALTO DEL CARMEN", "superficie_ha": 60.0, "datum_original": "PSAD56", "huso": 19, "epsg_origen": 24879, "tipo_publicacion": "manifestacion", "fuente_pdf": "http://www.diariooficial.interior.gob.cl/publicaciones/2026/09/16/44552/07/2870926.pdf", "archivo": "gm_manifestacion_2870926.pdf", "fecha": "16-09-2026", "edicion": "44552" }, "geometry": { "type": "Polygon", "coordinates": [ [ [ -69.959165664044662, -29.266696008437638 ], [ -69.948873628371246, -29.266769466256754 ], [ -69.948923630271906, -29.272184075110729 ], [ -69.959216208093466, -29.272110601091786 ], [ -69.959165664044662, -29.266696008437638 ] ] ] } },
{ "type": "Feature", "properties": { "cve": "2870930", "nombre": "KILLA 13, 1 AL 24", "solicitante": "Compañía Minera Nevada SpA", "region": "REGIÓN DE ATACAMA", "provincia": "Provincia de Huasco", "comuna": "ALTO DEL CARMEN", "superficie_ha": 24.0, "datum_original": "PSAD56", "huso": 19, "epsg_origen": 24879, "tipo_publicacion": "manifestacion", "fuente_pdf": "http://www.diariooficial.interior.gob.cl/publicaciones/2026/09/16/44552/07/2870930.pdf", "archivo": "gm_manifestacion_2870930.pdf", "fecha": "16-09-2026", "edicion": "44552" }, "geometry": { "type": "Polygon", "coordinates": [ [ [ -69.943608297848257, -29.2538107991851 ], [ -69.939491985556288, -29.253839786692183 ], [ -69.939541466962865, -29.259254420775953 ], [ -69.943657995975599, -29.259225426874369 ], [ -69.943608297848257, -29.2538107991851 ] ] ] } },
{ "type": "Feature", "properties": { "cve": "2870931", "nombre": "KILLA 14, 1 AL 24", "solicitante": "Compañía Minera Nevada SpA", "region": "REGIÓN DE ATACAMA", "provincia": "Provincia de Huasco", "comuna": "ALTO DEL CARMEN", "superficie_ha": 24.0, "datum_original": "PSAD56", "huso": 19, "epsg_origen": 24879, "tipo_publicacion": "manifestacion", "fuente_pdf": "http://www.diariooficial.interior.gob.cl/publicaciones/2026/09/16/44552/07/2870931.pdf", "archivo": "gm_manifestacion_2870931.pdf", "fecha": "16-09-2026", "edicion": "44552" }, "geometry": { "type": "Polygon", "coordinates": [ [ [ -69.947229079991274, -29.259200172018655 ], [ -69.943112556228755, -29.259229275849137 ], [ -69.94316223925405, -29.264643899887368 ], [ -69.94727897979557, -29.264614789637498 ], [ -69.947229079991274, -29.259200172018655 ] ] ] } },
{ "type": "Feature", "properties": { "cve": "2870932", "nombre": "KILLA 16, 1 AL 12", "solicitante": "Compañía Minera Nevada SpA", "region": "REGIÓN DE ATACAMA", "provincia": "Provincia de Huasco", "comuna": "ALTO DEL CARMEN", "superficie_ha": 12.0, "datum_original": "PSAD56", "huso": 19, "epsg_origen": 24879, "tipo_publicacion": "manifestacion", "fuente_pdf": "http://www.diariooficial.interior.gob.cl/publicaciones/2026/09/16/44552/07/2870932.pdf", "archivo": "gm_manifestacion_2870932.pdf", "fecha": "16-09-2026", "edicion": "44552" }, "geometry": { "type": "Polygon", "coordinates": [ [ [ -69.984710498397888, -29.275120004652276 ], [ -69.98059338239301, -29.275150277431955 ], [ -69.980619226098469, -29.277857553661441 ], [ -69.984736450567965, -29.277827277544432 ], [ -69.984710498397888, -29.275120004652276 ] ] ] } },
{ "type": "Feature", "properties": { "cve": "2870927", "nombre": "KILLA 3, 1 AL 63", "solicitante": "Compañía Minera Nevada SpA", "region": "REGIÓN DE ATACAMA", "provincia": "Provincia de Huasco", "comuna": "ALTO DEL CARMEN", "superficie_ha": 63.0, "datum_original": "PSAD56", "huso": 19, "epsg_origen": 24879, "tipo_publicacion": "manifestacion", "fuente_pdf": "http://www.diariooficial.interior.gob.cl/publicaciones/2026/09/16/44552/07/2870927.pdf", "archivo": "gm_manifestacion_2870927.pdf", "fecha": "16-09-2026", "edicion": "44552" }, "geometry": { "type": "Polygon", "coordinates": [ [ [ -69.954622466386297, -29.220791456070575 ], [ -69.947421250011686, -29.220842642010009 ], [ -69.947496002667222, -29.228964613275267 ], [ -69.954697787016755, -29.22891341038623 ], [ -69.954622466386297, -29.220791456070575 ] ] ] } },
{ "type": "Feature", "properties": { "cve": "2870928", "nombre": "KILLA 4, 1 AL 24", "solicitante": "Compañía Minera Nevada SpA", "region": "REGIÓN DE ATACAMA", "provincia": "Provincia de Huasco", "comuna": "ALTO DEL CARMEN", "superficie_ha": 24.0, "datum_original": "PSAD56", "huso": 19, "epsg_origen": 24879, "tipo_publicacion": "manifestacion", "fuente_pdf": "http://www.diariooficial.interior.gob.cl/publicaciones/2026/09/16/44552/07/2870928.pdf", "archivo": "gm_manifestacion_2870928.pdf", "fecha": "16-09-2026", "edicion": "44552" }, "geometry": { "type": "Polygon", "coordinates": [ [ [ -69.949541169280664, -29.227596363059195 ], [ -69.945425912714498, -29.227625509502825 ], [ -69.94547565326485, -29.233040155728574 ], [ -69.949591126262888, -29.233011002851715 ], [ -69.949541169280664, -29.227596363059195 ] ] ] } },
{ "type": "Feature", "properties": { "cve": "2870929", "nombre": "KILLA 6, 1 AL 16", "solicitante": "Compañía Minera Nevada SpA", "region": "REGIÓN DE ATACAMA", "provincia": "Provincia de Huasco", "comuna": "ALTO DEL CARMEN", "superficie_ha": 16.0, "datum_original": "PSAD56", "huso": 19, "epsg_origen": 24879, "tipo_publicacion": "manifestacion", "fuente_pdf": "http://www.diariooficial.interior.gob.cl/publicaciones/2026/09/16/44552/07/2870929.pdf", "archivo": "gm_manifestacion_2870929.pdf", "fecha": "16-09-2026", "edicion": "44552" }, "geometry": { "type": "Polygon", "coordinates": [ [ [ -69.94987447461348, -29.263693876689846 ], [ -69.945757774047095, -29.263723066034096 ], [ -69.945790993540697, -29.26733281068789 ], [ -69.949907838652223, -29.267303617051969 ], [ -69.94987447461348, -29.263693876689846 ] ] ] } },
{ "type": "Feature", "properties": { "cve": "2870933", "nombre": "TRINI 1, 1 AL 30", "solicitante": "Compañía Minera Nevada SpA", "region": "REGIÓN DE ATACAMA", "provincia": "Provincia de Huasco", "comuna": "ALTO DEL CARMEN", "superficie_ha": 30.0, "datum_original": "PSAD56", "huso": 19, "epsg_origen": 24879, "tipo_publicacion": "manifestacion", "fuente_pdf": "http://www.diariooficial.interior.gob.cl/publicaciones/2026/09/16/44552/07/2870933.pdf", "archivo": "gm_manifestacion_2870933.pdf", "fecha": "16-09-2026", "edicion": "44552" }, "geometry": { "type": "Polygon", "coordinates": [ [ [ -70.001351155666995, -29.286331567880875 ], [ -69.995174836271687, -29.286377714415057 ], [ -69.995218571603033, -29.290889813314728 ], [ -70.001395162321202, -29.290843658303675 ], [ -70.001351155666995, -29.286331567880875 ] ] ] } },
{ "type": "Feature", "properties": { "cve": "2870934", "nombre": "TRINI 2, 1 AL 50", "solicitante": "Compañía Minera Nevada SpA", "region": "REGIÓN DE ATACAMA", "provincia": "Provincia de Huasco", "comuna": "ALTO DEL CARMEN", "superficie_ha": 50.0, "datum_original": "PSAD56", "huso": 19, "epsg_origen": 24879, "tipo_publicacion": "manifestacion", "fuente_pdf": "http://www.diariooficial.interior.gob.cl/publicaciones/2026/09/16/44552/07/2870934.pdf", "archivo": "gm_manifestacion_2870934.pdf", "fecha": "16-09-2026", "edicion": "44552" }, "geometry": { "type": "Polygon", "coordinates": [ [ [ -70.003681965476318, -29.293082705749331 ], [ -69.998534698890026, -29.293121278851508 ], [ -69.998622499043719, -29.302145455087491 ], [ -70.003770218039264, -29.302106867815436 ], [ -70.003681965476318, -29.293082705749331 ] ] ] } },
{ "type": "Feature", "properties": { "cve": "2870942", "nombre": "ZAMPOÑA 10, 1 AL 18", "solicitante": "Compañía Minera Nevada SpA", "region": "REGIÓN DE ATACAMA", "provincia": "Provincia de Huasco", "comuna": "ALTO DEL CARMEN", "superficie_ha": 18.0, "datum_original": "PSAD56", "huso": 19, "epsg_origen": 24879, "tipo_publicacion": "manifestacion", "fuente_pdf": "http://www.diariooficial.interior.gob.cl/publicaciones/2026/09/16/44552/07/2870942.pdf", "archivo": "gm_manifestacion_2870942.pdf", "fecha": "16-09-2026", "edicion": "44552" }, "geometry": { "type": "Polygon", "coordinates": [ [ [ -70.011899363894557, -29.395451646074996 ], [ -70.00571648339313, -29.395498437537885 ], [ -70.005743119680687, -29.398205643883358 ], [ -70.011926163867116, -29.398158847275514 ], [ -70.011899363894557, -29.395451646074996 ] ] ] } },
{ "type": "Feature", "properties": { "cve": "2870943", "nombre": "ZAMPOÑA 11, 1 AL 4", "solicitante": "Compañía Minera Nevada SpA", "region": "REGIÓN DE ATACAMA", "provincia": "Provincia de Huasco", "comuna": "ALTO DEL CARMEN", "superficie_ha": 4.0, "datum_original": "PSAD56", "huso": 19, "epsg_origen": 24879, "tipo_publicacion": "manifestacion", "fuente_pdf": "http://www.diariooficial.interior.gob.cl/publicaciones/2026/09/16/44552/07/2870943.pdf", "archivo": "gm_manifestacion_2870943.pdf", "fecha": "16-09-2026", "edicion": "44552" }, "geometry": { "type": "Polygon", "coordinates": [ [ [ -70.005725361750649, -29.396400839778696 ], [ -70.001603396938421, -29.39643187595577 ], [ -70.001612239326192, -29.397334279208405 ], [ -70.005734240513178, -29.397303241893848 ], [ -70.005725361750649, -29.396400839778696 ] ] ] } },
{ "type": "Feature", "properties": { "cve": "2870944", "nombre": "ZAMPOÑA 16, 1 AL 108", "solicitante": "Compañía Minera Nevada SpA", "region": "REGIÓN DE ATACAMA", "provincia": "Provincia de Huasco", "comuna": "ALTO DEL CARMEN", "superficie_ha": 108.0, "datum_original": "PSAD56", "huso": 19, "epsg_origen": 24879, "tipo_publicacion": "manifestacion", "fuente_pdf": "http://www.diariooficial.interior.gob.cl/publicaciones/2026/09/16/44552/07/2870944.pdf", "archivo": "gm_manifestacion_2870944.pdf", "fecha": "16-09-2026", "edicion": "44552" }, "geometry": { "type": "Polygon", "coordinates": [ [ [ -69.981981548795474, -29.445762445355907 ], [ -69.972702568580701, -29.44583054902256 ], [ -69.972805849316075, -29.456659393276428 ], [ -69.982085814381009, -29.456591259686149 ], [ -69.981981548795474, -29.445762445355907 ] ] ] } },
{ "type": "Feature", "properties": { "cve": "2870945", "nombre": "ZAMPOÑA 17, 1", "solicitante": "Compañía Minera Nevada SpA", "region": "REGIÓN DE ATACAMA", "provincia": "Provincia de Huasco", "comuna": "ALTO DEL CARMEN", "superficie_ha": 1.0, "datum_original": "PSAD56", "huso": 19, "epsg_origen": 24879, "tipo_publicacion": "manifestacion", "fuente_pdf": "http://www.diariooficial.interior.gob.cl/publicaciones/2026/09/16/44552/07/2870945.pdf", "archivo": "gm_manifestacion_2870945.pdf", "fecha": "16-09-2026", "edicion": "44552" }, "geometry": { "type": "Polygon", "coordinates": [ [ [ -70.019020065157818, -29.386101981713857 ], [ -70.017989682585636, -29.386109852970741 ], [ -70.017998665839286, -29.387012253065834 ], [ -70.019029057500234, -29.387004381520406 ], [ -70.019020065157818, -29.386101981713857 ] ] ] } },
{ "type": "Feature", "properties": { "cve": "2870935", "nombre": "ZAMPOÑA 3, 1 AL 20", "solicitante": "Compañía Minera Nevada SpA", "region": "REGIÓN DE ATACAMA", "provincia": "Provincia de Huasco", "comuna": "ALTO DEL CARMEN", "superficie_ha": 20.0, "datum_original": "PSAD56", "huso": 19, "epsg_origen": 24879, "tipo_publicacion": "manifestacion", "fuente_pdf": "http://www.diariooficial.interior.gob.cl/publicaciones/2026/09/16/44552/07/2870935.pdf", "archivo": "gm_manifestacion_2870935.pdf", "fecha": "16-09-2026", "edicion": "44552" }, "geometry": { "type": "Polygon", "coordinates": [ [ [ -70.015362854936669, -29.349850528368144 ], [ -70.010212756591685, -29.349889620011211 ], [ -70.010248364918525, -29.353499248110676 ], [ -70.015398644720122, -29.353460150730829 ], [ -70.015362854936669, -29.349850528368144 ] ] ] } },
{ "type": "Feature", "properties": { "cve": "2870936", "nombre": "ZAMPOÑA 4, 1 AL 8", "solicitante": "Compañía Minera Nevada SpA", "region": "REGIÓN DE ATACAMA", "provincia": "Provincia de Huasco", "comuna": "ALTO DEL CARMEN", "superficie_ha": 8.0, "datum_original": "PSAD56", "huso": 19, "epsg_origen": 24879, "tipo_publicacion": "manifestacion", "fuente_pdf": "http://www.diariooficial.interior.gob.cl/publicaciones/2026/09/16/44552/07/2870936.pdf", "archivo": "gm_manifestacion_2870936.pdf", "fecha": "16-09-2026", "edicion": "44552" }, "geometry": { "type": "Polygon", "coordinates": [ [ [ -70.012205472442346, -29.353484414518523 ], [ -70.010145359218726, -29.353500028031064 ], [ -70.010180970415846, -29.357109654236002 ], [ -70.012241156235547, -29.357094038432336 ], [ -70.012205472442346, -29.353484414518523 ] ] ] } },
{ "type": "Feature", "properties": { "cve": "2870937", "nombre": "ZAMPOÑA 5, 1 AL 2", "solicitante": "Compañía Minera Nevada SpA", "region": "REGIÓN DE ATACAMA", "provincia": "Provincia de Huasco", "comuna": "ALTO DEL CARMEN", "superficie_ha": 2.0, "datum_original": "PSAD56", "huso": 19, "epsg_origen": 24879, "tipo_publicacion": "manifestacion", "fuente_pdf": "http://www.diariooficial.interior.gob.cl/publicaciones/2026/09/16/44552/07/2870937.pdf", "archivo": "gm_manifestacion_2870937.pdf", "fecha": "16-09-2026", "edicion": "44552" }, "geometry": { "type": "Polygon", "coordinates": [ [ [ -70.020786411456399, -29.35657769129881 ], [ -70.018726241491336, -29.356593438799383 ], [ -70.018735220428027, -29.357495842714723 ], [ -70.020795408543535, -29.357480094636518 ], [ -70.020786411456399, -29.35657769129881 ] ] ] } },
{ "type": "Feature", "properties": { "cve": "2870938", "nombre": "ZAMPOÑA 6, 1 AL 8", "solicitante": "Compañía Minera Nevada SpA", "region": "REGIÓN DE ATACAMA", "provincia": "Provincia de Huasco", "comuna": "ALTO DEL CARMEN", "superficie_ha": 8.0, "datum_original": "PSAD56", "huso": 19, "epsg_origen": 24879, "tipo_publicacion": "manifestacion", "fuente_pdf": "http://www.diariooficial.interior.gob.cl/publicaciones/2026/09/16/44552/07/2870938.pdf", "archivo": "gm_manifestacion_2870938.pdf", "fecha": "16-09-2026", "edicion": "44552" }, "geometry": { "type": "Polygon", "coordinates": [ [ [ -70.021857026790215, -29.360630618351067 ], [ -70.017736523494023, -29.36066211855114 ], [ -70.017754467310326, -29.36246692570246 ], [ -70.021875043224782, -29.362435423191613 ], [ -70.021857026790215, -29.360630618351067 ] ] ] } },
{ "type": "Feature", "properties": { "cve": "2870939", "nombre": "ZAMPOÑA 7, 1 AL 4", "solicitante": "Compañía Minera Nevada SpA", "region": "REGIÓN DE ATACAMA", "provincia": "Provincia de Huasco", "comuna": "ALTO DEL CARMEN", "superficie_ha": 4.0, "datum_original": "PSAD56", "huso": 19, "epsg_origen": 24879, "tipo_publicacion": "manifestacion", "fuente_pdf": "http://www.diariooficial.interior.gob.cl/publicaciones/2026/09/16/44552/07/2870939.pdf", "archivo": "gm_manifestacion_2870939.pdf", "fecha": "16-09-2026", "edicion": "44552" }, "geometry": { "type": "Polygon", "coordinates": [ [ [ -70.017763439832549, -29.363369329089686 ], [ -70.016733285751499, -29.363377185123866 ], [ -70.016769143618674, -29.366986798569116 ], [ -70.017799334015635, -29.366978941382378 ], [ -70.017763439832549, -29.363369329089686 ] ] ] } },
{ "type": "Feature", "properties": { "cve": "2870940", "nombre": "ZAMPOÑA 8, 1 AL 35", "solicitante": "Compañía Minera Nevada SpA", "region": "REGIÓN DE ATACAMA", "provincia": "Provincia de Huasco", "comuna": "ALTO DEL CARMEN", "superficie_ha": 35.0, "datum_original": "PSAD56", "huso": 19, "epsg_origen": 24879, "tipo_publicacion": "manifestacion", "fuente_pdf": "http://www.diariooficial.interior.gob.cl/publicaciones/2026/09/16/44552/07/2870940.pdf", "archivo": "gm_manifestacion_2870940.pdf", "fecha": "16-09-2026", "edicion": "44552" }, "geometry": { "type": "Polygon", "coordinates": [ [ [ -70.018019328877884, -29.389087772807571 ], [ -70.012867259905065, -29.389127014433782 ], [ -70.01292984255447, -29.395443819625914 ], [ -70.018082229727639, -29.395404567930107 ], [ -70.018019328877884, -29.389087772807571 ] ] ] } },
{ "type": "Feature", "properties": { "cve": "2870941", "nombre": "ZAMPOÑA 9, 1 AL 6", "solicitante": "Compañía Minera Nevada SpA", "region": "REGIÓN DE ATACAMA", "provincia": "Provincia de Huasco", "comuna": "ALTO DEL CARMEN", "superficie_ha": 6.0, "datum_original": "PSAD56", "huso": 19, "epsg_origen": 24879, "tipo_publicacion": "manifestacion", "fuente_pdf": "http://www.diariooficial.interior.gob.cl/publicaciones/2026/09/16/44552/07/2870941.pdf", "archivo": "gm_manifestacion_2870941.pdf", "fecha": "16-09-2026", "edicion": "44552" }, "geometry": { "type": "Polygon", "coordinates": [ [ [ -70.013937944835277, -29.393179984783899 ], [ -70.010846577049108, -29.393203461979809 ], [ -70.010864423068071, -29.39500826410735 ], [ -70.01395584540812, -29.394984785190395 ], [ -70.013937944835277, -29.393179984783899 ] ] ] } },
{ "type": "Feature", "properties": { "cve": "2870877", "nombre": "MAITE 1 AL 25", "solicitante": "Minera El Águila SpA", "region": "REGIÓN METROPOLITANA DE SANTIAGO", "provincia": "Provincia de Santiago", "comuna": null, "superficie_ha": 25.0, "datum_original": "PSAD56", "huso": 19, "epsg_origen": 24879, "tipo_publicacion": "manifestacion", "fuente_pdf": "http://www.diariooficial.interior.gob.cl/publicaciones/2026/09/16/44552/07/2870877.pdf", "archivo": "gm_manifestacion_2870877.pdf", "fecha": "16-09-2026", "edicion": "44552" }, "geometry": { "type": "Polygon", "coordinates": [ [ [ -70.896898250237925, -33.511667425141134 ], [ -70.891517533407168, -33.51174971795821 ], [ -70.891615644028178, -33.516257038446355 ], [ -70.896996639542479, -33.51617473164486 ], [ -70.896898250237925, -33.511667425141134 ] ] ] } },
{ "type": "Feature", "properties": { "cve": "2870796", "nombre": "PANAMA DEL 1 AL 20", "solicitante": "Sociedad Volcania Minerals SpA", "region": "REGIÓN METROPOLITANA DE SANTIAGO", "provincia": "Provincia de Melipilla", "comuna": null, "superficie_ha": 200.0, "datum_original": "PSAD56", "huso": 19, "epsg_origen": 24879, "tipo_publicacion": "manifestacion", "fuente_pdf": "http://www.diariooficial.interior.gob.cl/publicaciones/2026/09/16/44552/07/2870796.pdf", "archivo": "gm_manifestacion_2870796.pdf", "fecha": "16-09-2026", "edicion": "44552" }, "geometry": { "type": "Polygon", "coordinates": [ [ [ -71.088889158812393, -33.876281743516749 ], [ -71.067277584951356, -33.876646298104333 ], [ -71.067495031069924, -33.885659439865499 ], [ -71.089108874129749, -33.885294762054706 ], [ -71.088889158812393, -33.876281743516749 ] ] ] } },
{ "type": "Feature", "properties": { "cve": "2870993", "nombre": "TALTAPE 12, 1 AL 20", "solicitante": "Río Tinto Mining and Exploration Limited Agencia en Chile", "region": "REGIÓN DE ARICA Y PARINACOTA", "provincia": "Provincia de Arica", "comuna": null, "superficie_ha": 200.0, "datum_original": "PSAD56", "huso": 19, "epsg_origen": 24879, "tipo_publicacion": "mensura", "fuente_pdf": "http://www.diariooficial.interior.gob.cl/publicaciones/2026/09/16/44552/07/2870993.pdf", "archivo": "gm_mensura_2870993.pdf", "fecha": "16-09-2026", "edicion": "44552" }, "geometry": { "type": "Polygon", "coordinates": [ [ [ -69.543325858607517, -19.004159706583575 ], [ -69.533824870349349, -19.004187365016659 ], [ -69.533911407409832, -19.031299117955115 ], [ -69.543413935667203, -19.031271417109771 ], [ -69.543325858607517, -19.004159706583575 ] ] ] } },
{ "type": "Feature", "properties": { "cve": "2870994", "nombre": "TALTAPE 14, 1 AL 20", "solicitante": "Río Tinto Mining and Exploration Limited Agencia en Chile", "region": "REGIÓN DE ARICA Y PARINACOTA", "provincia": "Provincia de Arica", "comuna": null, "superficie_ha": 200.0, "datum_original": "PSAD56", "huso": 19, "epsg_origen": 24879, "tipo_publicacion": "mensura", "fuente_pdf": "http://www.diariooficial.interior.gob.cl/publicaciones/2026/09/16/44552/07/2870994.pdf", "archivo": "gm_mensura_2870994.pdf", "fecha": "16-09-2026", "edicion": "44552" }, "geometry": { "type": "Polygon", "coordinates": [ [ [ -69.495687098512093, -18.959106415939253 ], [ -69.486188592546398, -18.959131570560807 ], [ -69.486240987034449, -18.977206304769485 ], [ -69.495740516512768, -18.977181124381573 ], [ -69.495687098512093, -18.959106415939253 ] ] ] } },
{ "type": "Feature", "properties": { "cve": "2870859", "nombre": "ISIDORA 1 AL 5", "solicitante": "Aguayo Amoyao Susana Romane", "region": "REGIÓN DEL BIOBÍO", "provincia": "Provincia de Arauco", "comuna": null, "superficie_ha": 30.0, "datum_original": "PSAD56", "huso": 18, "epsg_origen": 24878, "tipo_publicacion": "mensura", "fuente_pdf": "http://www.diariooficial.interior.gob.cl/publicaciones/2026/09/16/44552/07/2870859.pdf", "archivo": "gm_mensura_2870859.pdf", "fecha": "16-09-2026", "edicion": "44552" }, "geometry": { "type": "Polygon", "coordinates": [ [ [ -73.296942817314957, -37.337861780617168 ], [ -73.29355758952893, -37.337812992917236 ], [ -73.293353668083824, -37.346822878466732 ], [ -73.296739299930522, -37.346871681978989 ], [ -73.296942817314957, -37.337861780617168 ] ] ] } },
{ "type": "Feature", "properties": { "cve": "2871333", "nombre": "CAMPANA 10", "solicitante": "Rincon Mining Chile SpA", "region": "REGIÓN DE ARICA Y PARINACOTA", "provincia": "Provincia de Arica", "comuna": "Arica", "superficie_ha": 300.0, "datum_original": "PSAD56", "huso": 19, "epsg_origen": 24879, "tipo_publicacion": "pedimento", "fuente_pdf": "http://www.diariooficial.interior.gob.cl/publicaciones/2026/09/16/44552/07/2871333.pdf", "archivo": "gm_pedimento_2871333.pdf", "fecha": "16-09-2026", "edicion": "44552" }, "geometry": { "type": "Polygon", "coordinates": [ [ [ -69.739781492299201, -18.271331137044452 ], [ -69.730321658847245, -18.271367482357501 ], [ -69.730435155027394, -18.298479910656965 ], [ -69.739896458267012, -18.298443507694092 ], [ -69.739781492299201, -18.271331137044452 ] ] ] } },
{ "type": "Feature", "properties": { "cve": "2871334", "nombre": "CAMPANA 11", "solicitante": "Rincon Mining Chile SpA", "region": "REGIÓN DE ARICA Y PARINACOTA", "provincia": "Provincia de Arica", "comuna": "Arica", "superficie_ha": 300.0, "datum_original": "PSAD56", "huso": 19, "epsg_origen": 24879, "tipo_publicacion": "pedimento", "fuente_pdf": "http://www.diariooficial.interior.gob.cl/publicaciones/2026/09/16/44552/07/2871334.pdf", "archivo": "gm_pedimento_2871334.pdf", "fecha": "16-09-2026", "edicion": "44552" }, "geometry": { "type": "Polygon", "coordinates": [ [ [ -69.730321658847245, -18.271367482357501 ], [ -69.72086180342103, -18.271403360013021 ], [ -69.720973829797671, -18.298515845220539 ], [ -69.730435155027394, -18.298479910656965 ], [ -69.730321658847245, -18.271367482357501 ] ] ] } },
{ "type": "Feature", "properties": { "cve": "2871335", "nombre": "CAMPANA 12", "solicitante": "Rincon Mining Chile SpA", "region": "REGIÓN DE ARICA Y PARINACOTA", "provincia": "Provincia de Arica", "comuna": "Arica", "superficie_ha": 300.0, "datum_original": "PSAD56", "huso": 19, "epsg_origen": 24879, "tipo_publicacion": "pedimento", "fuente_pdf": "http://www.diariooficial.interior.gob.cl/publicaciones/2026/09/16/44552/07/2871335.pdf", "archivo": "gm_pedimento_2871335.pdf", "fecha": "16-09-2026", "edicion": "44552" }, "geometry": { "type": "Polygon", "coordinates": [ [ [ -69.72086180342103, -18.271403360013021 ], [ -69.692482108142315, -18.271508186987766 ], [ -69.692517959590532, -18.280545746170343 ], [ -69.720899123849662, -18.280440863776622 ], [ -69.72086180342103, -18.271403360013021 ] ] ] } },
{ "type": "Feature", "properties": { "cve": "2871336", "nombre": "CAMPANA 13", "solicitante": "Rincon Mining Chile SpA", "region": "REGIÓN DE ARICA Y PARINACOTA", "provincia": "Provincia de Arica", "comuna": "Arica", "superficie_ha": 300.0, "datum_original": "PSAD56", "huso": 19, "epsg_origen": 24879, "tipo_publicacion": "pedimento", "fuente_pdf": "http://www.diariooficial.interior.gob.cl/publicaciones/2026/09/16/44552/07/2871336.pdf", "archivo": "gm_pedimento_2871336.pdf", "fecha": "16-09-2026", "edicion": "44552" }, "geometry": { "type": "Polygon", "coordinates": [ [ [ -69.723737229663385, -18.280430143920018 ], [ -69.714276869371005, -18.280465713006858 ], [ -69.714387931379235, -18.307578211521996 ], [ -69.723849762340137, -18.307542586040682 ], [ -69.723737229663385, -18.280430143920018 ] ] ] } },
{ "type": "Feature", "properties": { "cve": "2871337", "nombre": "CAMPANA 14", "solicitante": "Rincon Mining Chile SpA", "region": "REGIÓN DE ARICA Y PARINACOTA", "provincia": "Provincia de Arica", "comuna": "Arica", "superficie_ha": 200.0, "datum_original": "PSAD56", "huso": 19, "epsg_origen": 24879, "tipo_publicacion": "pedimento", "fuente_pdf": "http://www.diariooficial.interior.gob.cl/publicaciones/2026/09/16/44552/07/2871337.pdf", "archivo": "gm_pedimento_2871337.pdf", "fecha": "16-09-2026", "edicion": "44552" }, "geometry": { "type": "Polygon", "coordinates": [ [ [ -69.758818997637036, -18.298369296589648 ], [ -69.749357739231826, -18.298406636336711 ], [ -69.7494354758485, -18.316481467650011 ], [ -69.758897715514379, -18.316444088470867 ], [ -69.758818997637036, -18.298369296589648 ] ] ] } },
{ "type": "Feature", "properties": { "cve": "2871338", "nombre": "CAMPANA 15", "solicitante": "Rincon Mining Chile SpA", "region": "REGIÓN DE ARICA Y PARINACOTA", "provincia": "Provincia de Arica", "comuna": "Arica", "superficie_ha": 300.0, "datum_original": "PSAD56", "huso": 19, "epsg_origen": 24879, "tipo_publicacion": "pedimento", "fuente_pdf": "http://www.diariooficial.interior.gob.cl/publicaciones/2026/09/16/44552/07/2871338.pdf", "archivo": "gm_pedimento_2871338.pdf", "fecha": "16-09-2026", "edicion": "44552" }, "geometry": { "type": "Polygon", "coordinates": [ [ [ -69.749357739231826, -18.298406636336711 ], [ -69.739896458267012, -18.298443507694092 ], [ -69.740011624710874, -18.325555800004516 ], [ -69.749474378010177, -18.325518870238039 ], [ -69.749357739231826, -18.298406636336711 ] ] ] } },
{ "type": "Feature", "properties": { "cve": "2871339", "nombre": "CAMPANA 16", "solicitante": "Rincon Mining Chile SpA", "region": "REGIÓN DE ARICA Y PARINACOTA", "provincia": "Provincia de Arica", "comuna": "Arica", "superficie_ha": 300.0, "datum_original": "PSAD56", "huso": 19, "epsg_origen": 24879, "tipo_publicacion": "pedimento", "fuente_pdf": "http://www.diariooficial.interior.gob.cl/publicaciones/2026/09/16/44552/07/2871339.pdf", "archivo": "gm_pedimento_2871339.pdf", "fecha": "16-09-2026", "edicion": "44552" }, "geometry": { "type": "Polygon", "coordinates": [ [ [ -69.739896458267012, -18.298443507694092 ], [ -69.730435155027394, -18.298479910656965 ], [ -69.730548849120709, -18.325592260634519 ], [ -69.740011624710874, -18.325555800004516 ], [ -69.739896458267012, -18.298443507694092 ] ] ] } },
{ "type": "Feature", "properties": { "cve": "2871340", "nombre": "CAMPANA 17", "solicitante": "Rincon Mining Chile SpA", "region": "REGIÓN DE ARICA Y PARINACOTA", "provincia": "Provincia de Arica", "comuna": "Arica", "superficie_ha": 200.0, "datum_original": "PSAD56", "huso": 19, "epsg_origen": 24879, "tipo_publicacion": "pedimento", "fuente_pdf": "http://www.diariooficial.interior.gob.cl/publicaciones/2026/09/16/44552/07/2871340.pdf", "archivo": "gm_pedimento_2871340.pdf", "fecha": "16-09-2026", "edicion": "44552" }, "geometry": { "type": "Polygon", "coordinates": [ [ [ -69.730435155027394, -18.298479910656965 ], [ -69.720973829797671, -18.298515845220539 ], [ -69.721048622568063, -18.316590791862318 ], [ -69.730510929090443, -18.316554819350536 ], [ -69.730435155027394, -18.298479910656965 ] ] ] } },
{ "type": "Feature", "properties": { "cve": "2871341", "nombre": "CAMPANA 18", "solicitante": "Rincon Mining Chile SpA", "region": "REGIÓN DE ARICA Y PARINACOTA", "provincia": "Provincia de Arica", "comuna": "Arica", "superficie_ha": 100.0, "datum_original": "PSAD56", "huso": 19, "epsg_origen": 24879, "tipo_publicacion": "pedimento", "fuente_pdf": "http://www.diariooficial.interior.gob.cl/publicaciones/2026/09/16/44552/07/2871341.pdf", "archivo": "gm_pedimento_2871341.pdf", "fecha": "16-09-2026", "edicion": "44552" }, "geometry": { "type": "Polygon", "coordinates": [ [ [ -69.721011215327479, -18.307553322893533 ], [ -69.711549377883344, -18.307588807778963 ], [ -69.711586294329948, -18.316626295475469 ], [ -69.721048622568063, -18.316590791862318 ], [ -69.721011215327479, -18.307553322893533 ] ] ] } },
{ "type": "Feature", "properties": { "cve": "2871331", "nombre": "CAMPANA 8", "solicitante": "Rincon Mining Chile SpA", "region": "REGIÓN DE ARICA Y PARINACOTA", "provincia": "Provincia de Arica", "comuna": "Arica", "superficie_ha": 300.0, "datum_original": "PSAD56", "huso": 19, "epsg_origen": 24879, "tipo_publicacion": "pedimento", "fuente_pdf": "http://www.diariooficial.interior.gob.cl/publicaciones/2026/09/16/44552/07/2871331.pdf", "archivo": "gm_pedimento_2871331.pdf", "fecha": "16-09-2026", "edicion": "44552" }, "geometry": { "type": "Polygon", "coordinates": [ [ [ -69.758701092142033, -18.271257043464903 ], [ -69.749241303492326, -18.271294324078649 ], [ -69.749357739231826, -18.298406636336711 ], [ -69.758818997637036, -18.298369296589648 ], [ -69.758701092142033, -18.271257043464903 ] ] ] } },
{ "type": "Feature", "properties": { "cve": "2871332", "nombre": "CAMPANA 9", "solicitante": "Rincon Mining Chile SpA", "region": "REGIÓN DE ARICA Y PARINACOTA", "provincia": "Provincia de Arica", "comuna": "Arica", "superficie_ha": 300.0, "datum_original": "PSAD56", "huso": 19, "epsg_origen": 24879, "tipo_publicacion": "pedimento", "fuente_pdf": "http://www.diariooficial.interior.gob.cl/publicaciones/2026/09/16/44552/07/2871332.pdf", "archivo": "gm_pedimento_2871332.pdf", "fecha": "16-09-2026", "edicion": "44552" }, "geometry": { "type": "Polygon", "coordinates": [ [ [ -69.749241303492326, -18.271294324078649 ], [ -69.739781492299201, -18.271331137044452 ], [ -69.739896458267012, -18.298443507694092 ], [ -69.749357739231826, -18.298406636336711 ], [ -69.749241303492326, -18.271294324078649 ] ] ] } },
{ "type": "Feature", "properties": { "cve": "2870794", "nombre": "PANAMA 10", "solicitante": "Sociedad Volcania Minerals SpA", "region": "REGIÓN METROPOLITANA DE SANTIAGO", "provincia": "Provincia de Melipilla", "comuna": null, "superficie_ha": 200.0, "datum_original": "PSAD56", "huso": 19, "epsg_origen": 24879, "tipo_publicacion": "pedimento", "fuente_pdf": "http://www.diariooficial.interior.gob.cl/publicaciones/2026/09/16/44552/07/2870794.pdf", "archivo": "gm_pedimento_2870794.pdf", "fecha": "16-09-2026", "edicion": "44552" }, "geometry": { "type": "Polygon", "coordinates": [ [ [ -71.045988425509933, -33.890526956496075 ], [ -71.024372677829064, -33.89088411923985 ], [ -71.024585727083789, -33.89989748188426 ], [ -71.0462037458026, -33.899540198437606 ], [ -71.045988425509933, -33.890526956496075 ] ] ] } },
{ "type": "Feature", "properties": { "cve": "2870790", "nombre": "PANAMA 4", "solicitante": "Sociedad Volcania Minerals SpA", "region": "REGIÓN METROPOLITANA DE SANTIAGO", "provincia": "Provincia de Melipilla", "comuna": null, "superficie_ha": 200.0, "datum_original": "PSAD56", "huso": 19, "epsg_origen": 24879, "tipo_publicacion": "pedimento", "fuente_pdf": "http://www.diariooficial.interior.gob.cl/publicaciones/2026/09/16/44552/07/2870790.pdf", "archivo": "gm_pedimento_2870790.pdf", "fecha": "16-09-2026", "edicion": "44552" }, "geometry": { "type": "Polygon", "coordinates": [ [ [ -71.06716889813768, -33.872139721774239 ], [ -71.045558071988978, -33.872500429085413 ], [ -71.045773200918958, -33.88151370004455 ], [ -71.067386295927051, -33.881152870801515 ], [ -71.06716889813768, -33.872139721774239 ] ] ] } },
{ "type": "Feature", "properties": { "cve": "2870791", "nombre": "PANAMA 5", "solicitante": "Sociedad Volcania Minerals SpA", "region": "REGIÓN METROPOLITANA DE SANTIAGO", "provincia": "Provincia de Melipilla", "comuna": null, "superficie_ha": 200.0, "datum_original": "PSAD56", "huso": 19, "epsg_origen": 24879, "tipo_publicacion": "pedimento", "fuente_pdf": "http://www.diariooficial.interior.gob.cl/publicaciones/2026/09/16/44552/07/2870791.pdf", "archivo": "gm_pedimento_2870791.pdf", "fecha": "16-09-2026", "edicion": "44552" }, "geometry": { "type": "Polygon", "coordinates": [ [ [ -71.067386295927051, -33.881152870801515 ], [ -71.045773200918958, -33.88151370004455 ], [ -71.045988425509933, -33.890526956496075 ], [ -71.067603790385078, -33.890166005296003 ], [ -71.067386295927051, -33.881152870801515 ] ] ] } },
{ "type": "Feature", "properties": { "cve": "2870792", "nombre": "PANAMA 8", "solicitante": "Sociedad Volcania Minerals SpA", "region": "REGIÓN METROPOLITANA DE SANTIAGO", "provincia": "Provincia de Melipilla", "comuna": null, "superficie_ha": 200.0, "datum_original": "PSAD56", "huso": 19, "epsg_origen": 24879, "tipo_publicacion": "pedimento", "fuente_pdf": "http://www.diariooficial.interior.gob.cl/publicaciones/2026/09/16/44552/07/2870792.pdf", "archivo": "gm_pedimento_2870792.pdf", "fecha": "16-09-2026", "edicion": "44552" }, "geometry": { "type": "Polygon", "coordinates": [ [ [ -71.045558071988978, -33.872500429085413 ], [ -71.023946863359839, -33.872857350498109 ], [ -71.024159723267829, -33.881870742110372 ], [ -71.045773200918958, -33.88151370004455 ], [ -71.045558071988978, -33.872500429085413 ] ] ] } },
{ "type": "Feature", "properties": { "cve": "2870793", "nombre": "PANAMA 9", "solicitante": "Sociedad Volcania Minerals SpA", "region": "REGIÓN METROPOLITANA DE SANTIAGO", "provincia": "Provincia de Melipilla", "comuna": null, "superficie_ha": 200.0, "datum_original": "PSAD56", "huso": 19, "epsg_origen": 24879, "tipo_publicacion": "pedimento", "fuente_pdf": "http://www.diariooficial.interior.gob.cl/publicaciones/2026/09/16/44552/07/2870793.pdf", "archivo": "gm_pedimento_2870793.pdf", "fecha": "16-09-2026", "edicion": "44552" }, "geometry": { "type": "Polygon", "coordinates": [ [ [ -71.045773200918958, -33.88151370004455 ], [ -71.024159723267829, -33.881870742110372 ], [ -71.024372677829064, -33.89088411923985 ], [ -71.045988425509933, -33.890526956496075 ], [ -71.045773200918958, -33.88151370004455 ] ] ] } },
{ "type": "Feature", "properties": { "cve": "2870825", "nombre": "AVENTURA 3", "solicitante": "Moya Ponce Miguel Ángel", "region": "REGIÓN DEL LIBERTADOR GENERAL BERNARDO O’HIGGINS", "provincia": "Provincia de Cachapoal", "comuna": null, "superficie_ha": 200.0, "datum_original": "PSAD56", "huso": 19, "epsg_origen": 24879, "tipo_publicacion": "pedimento", "fuente_pdf": "http://www.diariooficial.interior.gob.cl/publicaciones/2026/09/16/44552/07/2870825.pdf", "archivo": "gm_pedimento_2870825.pdf", "fecha": "16-09-2026", "edicion": "44552" }, "geometry": { "type": "Polygon", "coordinates": [ [ [ -70.756269793669247, -34.007453641595973 ], [ -70.745445363044411, -34.007607745893267 ], [ -70.74581447022581, -34.025637009906241 ], [ -70.756641187019383, -34.025482801598521 ], [ -70.756269793669247, -34.007453641595973 ] ] ] } },
{ "type": "Feature", "properties": { "cve": "2870823", "nombre": "DON RAFA 2", "solicitante": "Moya Ponce Miguel Ángel", "region": "REGIÓN DEL LIBERTADOR GENERAL BERNARDO O’HIGGINS", "provincia": "Provincia de Cachapoal", "comuna": null, "superficie_ha": 300.0, "datum_original": "PSAD56", "huso": 19, "epsg_origen": 24879, "tipo_publicacion": "pedimento", "fuente_pdf": "http://www.diariooficial.interior.gob.cl/publicaciones/2026/09/16/44552/07/2870823.pdf", "archivo": "gm_pedimento_2870823.pdf", "fecha": "16-09-2026", "edicion": "44552" }, "geometry": { "type": "Polygon", "coordinates": [ [ [ -70.798047915460216, -33.93471218588035 ], [ -70.765602741891982, -33.935181794914264 ], [ -70.765788876933101, -33.944196443515786 ], [ -70.798237466514649, -33.94372667585656 ], [ -70.798047915460216, -33.93471218588035 ] ] ] } },
{ "type": "Feature", "properties": { "cve": "2870824", "nombre": "DON RAFA 6", "solicitante": "Moya Ponce Miguel Ángel", "region": "REGIÓN DEL LIBERTADOR GENERAL BERNARDO O’HIGGINS", "provincia": "Provincia de Cachapoal", "comuna": null, "superficie_ha": 200.0, "datum_original": "PSAD56", "huso": 19, "epsg_origen": 24879, "tipo_publicacion": "pedimento", "fuente_pdf": "http://www.diariooficial.interior.gob.cl/publicaciones/2026/09/16/44552/07/2870824.pdf", "archivo": "gm_pedimento_2870824.pdf", "fecha": "16-09-2026", "edicion": "44552" }, "geometry": { "type": "Polygon", "coordinates": [ [ [ -70.765788876933101, -33.944196443515786 ], [ -70.744156069182154, -33.944504874282529 ], [ -70.744340008463524, -33.953519612835052 ], [ -70.76597509474513, -33.953211077898764 ], [ -70.765788876933101, -33.944196443515786 ] ] ] } },
{ "type": "Feature", "properties": { "cve": "2870818", "nombre": "PEUMO 1", "solicitante": "Moya Ponce Miguel Ángel", "region": "REGIÓN DEL LIBERTADOR GENERAL BERNARDO O’HIGGINS", "provincia": "Provincia de Cachapoal", "comuna": null, "superficie_ha": 200.0, "datum_original": "PSAD56", "huso": 19, "epsg_origen": 24879, "tipo_publicacion": "pedimento", "fuente_pdf": "http://www.diariooficial.interior.gob.cl/publicaciones/2026/09/16/44552/07/2870818.pdf", "archivo": "gm_pedimento_2870818.pdf", "fecha": "16-09-2026", "edicion": "44552" }, "geometry": { "type": "Polygon", "coordinates": [ [ [ -70.809435128867079, -33.961597017796308 ], [ -70.798616821525115, -33.961755613052873 ], [ -70.798996513977229, -33.979784493226475 ], [ -70.809817102061174, -33.979625790860538 ], [ -70.809435128867079, -33.961597017796308 ] ] ] } },
{ "type": "Feature", "properties": { "cve": "2870821", "nombre": "PEUMO 10", "solicitante": "Moya Ponce Miguel Ángel", "region": "REGIÓN DEL LIBERTADOR GENERAL BERNARDO O’HIGGINS", "provincia": "Provincia de Cachapoal", "comuna": null, "superficie_ha": 200.0, "datum_original": "PSAD56", "huso": 19, "epsg_origen": 24879, "tipo_publicacion": "pedimento", "fuente_pdf": "http://www.diariooficial.interior.gob.cl/publicaciones/2026/09/16/44552/07/2870821.pdf", "archivo": "gm_pedimento_2870821.pdf", "fecha": "16-09-2026", "edicion": "44552" }, "geometry": { "type": "Polygon", "coordinates": [ [ [ -70.788175841461168, -33.979942244840551 ], [ -70.766534245159605, -33.980254895715014 ], [ -70.766720794408258, -33.98926947320232 ], [ -70.788364673150838, -33.988956716788977 ], [ -70.788175841461168, -33.979942244840551 ] ] ] } },
{ "type": "Feature", "properties": { "cve": "2870822", "nombre": "PEUMO 14", "solicitante": "Moya Ponce Miguel Ángel", "region": "REGIÓN DEL LIBERTADOR GENERAL BERNARDO O’HIGGINS", "provincia": "Provincia de Cachapoal", "comuna": null, "superficie_ha": 100.0, "datum_original": "PSAD56", "huso": 19, "epsg_origen": 24879, "tipo_publicacion": "pedimento", "fuente_pdf": "http://www.diariooficial.interior.gob.cl/publicaciones/2026/09/16/44552/07/2870822.pdf", "archivo": "gm_pedimento_2870822.pdf", "fecha": "16-09-2026", "edicion": "44552" }, "geometry": { "type": "Polygon", "coordinates": [ [ [ -70.766534245159605, -33.980254895715014 ], [ -70.755713322387592, -33.980409794926736 ], [ -70.755898730362588, -33.989424424702335 ], [ -70.766720794408258, -33.98926947320232 ], [ -70.766534245159605, -33.980254895715014 ] ] ] } },
{ "type": "Feature", "properties": { "cve": "2870820", "nombre": "PEUMO 5", "solicitante": "Moya Ponce Miguel Ángel", "region": "REGIÓN DEL LIBERTADOR GENERAL BERNARDO O’HIGGINS", "provincia": "Provincia de Cachapoal", "comuna": null, "superficie_ha": 300.0, "datum_original": "PSAD56", "huso": 19, "epsg_origen": 24879, "tipo_publicacion": "pedimento", "fuente_pdf": "http://www.diariooficial.interior.gob.cl/publicaciones/2026/09/16/44552/07/2870820.pdf", "archivo": "gm_pedimento_2870820.pdf", "fecha": "16-09-2026", "edicion": "44552" }, "geometry": { "type": "Polygon", "coordinates": [ [ [ -70.755713322387592, -33.980409794926736 ], [ -70.744892317210471, -33.980563743289231 ], [ -70.745445363044411, -34.007607745893267 ], [ -70.756269793669247, -34.007453641595973 ], [ -70.755713322387592, -33.980409794926736 ] ] ] } },
{ "type": "Feature", "properties": { "cve": "2870831", "nombre": "LUNA 60", "solicitante": "Varela Echaurren Juan Francisco", "region": "REGIÓN DE ÑUBLE", "provincia": "Provincia de Diguillín", "comuna": "Quillón", "superficie_ha": 200.0, "datum_original": "PSAD56", "huso": 18, "epsg_origen": 24878, "tipo_publicacion": "pedimento", "fuente_pdf": "http://www.diariooficial.interior.gob.cl/publicaciones/2026/09/16/44552/07/2870831.pdf", "archivo": "gm_pedimento_2870831.pdf", "fecha": "16-09-2026", "edicion": "44552" }, "geometry": { "type": "Polygon", "coordinates": [ [ [ -72.562536836116109, -36.834300841735605 ], [ -72.540128081663937, -36.83383909293515 ], [ -72.539839488762155, -36.842845429982219 ], [ -72.562250865838976, -36.843307329136692 ], [ -72.562536836116109, -36.834300841735605 ] ] ] } },
{ "type": "Feature", "properties": { "cve": "2870832", "nombre": "LUNA 61", "solicitante": "Varela Echaurren Juan Francisco", "region": "REGIÓN DE ÑUBLE", "provincia": "Provincia de Diguillín", "comuna": "Quillón", "superficie_ha": 200.0, "datum_original": "PSAD56", "huso": 18, "epsg_origen": 24878, "tipo_publicacion": "pedimento", "fuente_pdf": "http://www.diariooficial.interior.gob.cl/publicaciones/2026/09/16/44552/07/2870832.pdf", "archivo": "gm_pedimento_2870832.pdf", "fecha": "16-09-2026", "edicion": "44552" }, "geometry": { "type": "Polygon", "coordinates": [ [ [ -72.562250865838976, -36.843307329136692 ], [ -72.551045113460731, -36.843076907001922 ], [ -72.550470167125738, -36.861089684694434 ], [ -72.561678543932871, -36.861320256892199 ], [ -72.562250865838976, -36.843307329136692 ] ] ] } },
{ "type": "Feature", "properties": { "cve": "2870833", "nombre": "LUNA 62", "solicitante": "Varela Echaurren Juan Francisco", "region": "REGIÓN DE ÑUBLE", "provincia": "Provincia de Diguillín", "comuna": "Quillón", "superficie_ha": 200.0, "datum_original": "PSAD56", "huso": 18, "epsg_origen": 24878, "tipo_publicacion": "pedimento", "fuente_pdf": "http://www.diariooficial.interior.gob.cl/publicaciones/2026/09/16/44552/07/2870833.pdf", "archivo": "gm_pedimento_2870833.pdf", "fecha": "16-09-2026", "edicion": "44552" }, "geometry": { "type": "Polygon", "coordinates": [ [ [ -72.572887047955348, -36.861549773481286 ], [ -72.550470167125738, -36.861089684694434 ], [ -72.550182502291761, -36.870096049986792 ], [ -72.572602009355393, -36.87055628854538 ], [ -72.572887047955348, -36.861549773481286 ] ] ] } },
{ "type": "Feature", "properties": { "cve": "2870834", "nombre": "LUNA 63", "solicitante": "Varela Echaurren Juan Francisco", "region": "REGIÓN DE ÑUBLE", "provincia": "Provincia de Diguillín", "comuna": "Quillón", "superficie_ha": 300.0, "datum_original": "PSAD56", "huso": 18, "epsg_origen": 24878, "tipo_publicacion": "pedimento", "fuente_pdf": "http://www.diariooficial.interior.gob.cl/publicaciones/2026/09/16/44552/07/2870834.pdf", "archivo": "gm_pedimento_2870834.pdf", "fecha": "16-09-2026", "edicion": "44552" }, "geometry": { "type": "Polygon", "coordinates": [ [ [ -72.551045113460731, -36.843076907001922 ], [ -72.539839488762155, -36.842845429982219 ], [ -72.538972940253529, -36.869864346817366 ], [ -72.550182502291761, -36.870096049986792 ], [ -72.551045113460731, -36.843076907001922 ] ] ] } },
{ "type": "Feature", "properties": { "cve": "2870835", "nombre": "LUNA 64", "solicitante": "Varela Echaurren Juan Francisco", "region": "REGIÓN DE ÑUBLE", "provincia": "Provincia de Diguillín", "comuna": "Quillón", "superficie_ha": 300.0, "datum_original": "PSAD56", "huso": 18, "epsg_origen": 24878, "tipo_publicacion": "pedimento", "fuente_pdf": "http://www.diariooficial.interior.gob.cl/publicaciones/2026/09/16/44552/07/2870835.pdf", "archivo": "gm_pedimento_2870835.pdf", "fecha": "16-09-2026", "edicion": "44552" }, "geometry": { "type": "Polygon", "coordinates": [ [ [ -72.572602009355393, -36.87055628854538 ], [ -72.538972940253529, -36.869864346817366 ], [ -72.538683833952106, -36.878870620986014 ], [ -72.572316844064176, -36.879562787938411 ], [ -72.572602009355393, -36.87055628854538 ] ] ] } },
{ "type": "Feature", "properties": { "cve": "2870836", "nombre": "LUNA 65", "solicitante": "Varela Echaurren Juan Francisco", "region": "REGIÓN DE ÑUBLE", "provincia": "Provincia de Diguillín", "comuna": "Quillón", "superficie_ha": 300.0, "datum_original": "PSAD56", "huso": 18, "epsg_origen": 24878, "tipo_publicacion": "pedimento", "fuente_pdf": "http://www.diariooficial.interior.gob.cl/publicaciones/2026/09/16/44552/07/2870836.pdf", "archivo": "gm_pedimento_2870836.pdf", "fecha": "16-09-2026", "edicion": "44552" }, "geometry": { "type": "Polygon", "coordinates": [ [ [ -72.561105713166384, -36.879333121903507 ], [ -72.527473086801109, -36.878637786178977 ], [ -72.527182537867148, -36.887643968843456 ], [ -72.560819106813597, -36.888339530874333 ], [ -72.561105713166384, -36.879333121903507 ] ] ] } },
{ "type": "Feature", "properties": { "cve": "2870837", "nombre": "LUNA 66", "solicitante": "Varela Echaurren Juan Francisco", "region": "REGIÓN DE ÑUBLE", "provincia": "Provincia de Diguillín", "comuna": "Quillón", "superficie_ha": 300.0, "datum_original": "PSAD56", "huso": 18, "epsg_origen": 24878, "tipo_publicacion": "pedimento", "fuente_pdf": "http://www.diariooficial.interior.gob.cl/publicaciones/2026/09/16/44552/07/2870837.pdf", "archivo": "gm_pedimento_2870837.pdf", "fecha": "16-09-2026", "edicion": "44552" }, "geometry": { "type": "Polygon", "coordinates": [ [ [ -72.560819106813597, -36.888339530874333 ], [ -72.527182537867148, -36.887643968843456 ], [ -72.526891859792755, -36.896650135762677 ], [ -72.560532373069378, -36.897345924152205 ], [ -72.560819106813597, -36.888339530874333 ] ] ] } },
{ "type": "Feature", "properties": { "cve": "2870838", "nombre": "LUNA 67", "solicitante": "Varela Echaurren Juan Francisco", "region": "REGIÓN DE ÑUBLE", "provincia": "Provincia de Diguillín", "comuna": "Quillón", "superficie_ha": 300.0, "datum_original": "PSAD56", "huso": 18, "epsg_origen": 24878, "tipo_publicacion": "pedimento", "fuente_pdf": "http://www.diariooficial.interior.gob.cl/publicaciones/2026/09/16/44552/07/2870838.pdf", "archivo": "gm_pedimento_2870838.pdf", "fecha": "16-09-2026", "edicion": "44552" }, "geometry": { "type": "Polygon", "coordinates": [ [ [ -72.560532373069378, -36.897345924152205 ], [ -72.526891859792755, -36.896650135762677 ], [ -72.526601052518302, -36.905656286934338 ], [ -72.560245511874854, -36.906352301734827 ], [ -72.560532373069378, -36.897345924152205 ] ] ] } },
{ "type": "Feature", "properties": { "cve": "2870839", "nombre": "LUNA 68", "solicitante": "Varela Echaurren Juan Francisco", "region": "REGIÓN DE ÑUBLE", "provincia": "Provincia de Diguillín", "comuna": "Quillón", "superficie_ha": 300.0, "datum_original": "PSAD56", "huso": 18, "epsg_origen": 24878, "tipo_publicacion": "pedimento", "fuente_pdf": "http://www.diariooficial.interior.gob.cl/publicaciones/2026/09/16/44552/07/2870839.pdf", "archivo": "gm_pedimento_2870839.pdf", "fecha": "16-09-2026", "edicion": "44552" }, "geometry": { "type": "Polygon", "coordinates": [ [ [ -72.560245511874854, -36.906352301734827 ], [ -72.526601052518302, -36.905656286934338 ], [ -72.526310115984032, -36.914662422356109 ], [ -72.55995852317109, -36.915358663619898 ], [ -72.560245511874854, -36.906352301734827 ] ] ] } },
{ "type": "Feature", "properties": { "cve": "2870840", "nombre": "LUNA 69", "solicitante": "Varela Echaurren Juan Francisco", "region": "REGIÓN DE ÑUBLE", "provincia": "Provincia de Diguillín", "comuna": "Quillón", "superficie_ha": 300.0, "datum_original": "PSAD56", "huso": 18, "epsg_origen": 24878, "tipo_publicacion": "pedimento", "fuente_pdf": "http://www.diariooficial.interior.gob.cl/publicaciones/2026/09/16/44552/07/2870840.pdf", "archivo": "gm_pedimento_2870840.pdf", "fecha": "16-09-2026", "edicion": "44552" }, "geometry": { "type": "Polygon", "coordinates": [ [ [ -72.527473086801109, -36.878637786178977 ], [ -72.493841622164751, -36.877932944821879 ], [ -72.493547131186247, -36.886938898090392 ], [ -72.527182537867148, -36.887643968843456 ], [ -72.527473086801109, -36.878637786178977 ] ] ] } },
{ "type": "Feature", "properties": { "cve": "2870841", "nombre": "LUNA 70", "solicitante": "Varela Echaurren Juan Francisco", "region": "REGIÓN DE ÑUBLE", "provincia": "Provincia de Diguillín", "comuna": "Quillón", "superficie_ha": 200.0, "datum_original": "PSAD56", "huso": 18, "epsg_origen": 24878, "tipo_publicacion": "pedimento", "fuente_pdf": "http://www.diariooficial.interior.gob.cl/publicaciones/2026/09/16/44552/07/2870841.pdf", "archivo": "gm_pedimento_2870841.pdf", "fecha": "16-09-2026", "edicion": "44552" }, "geometry": { "type": "Polygon", "coordinates": [ [ [ -72.527182537867148, -36.887643968843456 ], [ -72.504758803301087, -36.887174978135697 ], [ -72.504465495971189, -36.896180992432306 ], [ -72.526891859792755, -36.896650135762677 ], [ -72.527182537867148, -36.887643968843456 ] ] ] } },
{ "type": "Feature", "properties": { "cve": "2870842", "nombre": "LUNA 71", "solicitante": "Varela Echaurren Juan Francisco", "region": "REGIÓN DE ÑUBLE", "provincia": "Provincia de Diguillín", "comuna": "Quillón", "superficie_ha": 200.0, "datum_original": "PSAD56", "huso": 18, "epsg_origen": 24878, "tipo_publicacion": "pedimento", "fuente_pdf": "http://www.diariooficial.interior.gob.cl/publicaciones/2026/09/16/44552/07/2870842.pdf", "archivo": "gm_pedimento_2870842.pdf", "fecha": "16-09-2026", "edicion": "44552" }, "geometry": { "type": "Polygon", "coordinates": [ [ [ -72.526891859792755, -36.896650135762677 ], [ -72.504465495971189, -36.896180992432306 ], [ -72.504172058274875, -36.905186990946071 ], [ -72.526601052518302, -36.905656286934338 ], [ -72.526891859792755, -36.896650135762677 ] ] ] } },
{ "type": "Feature", "properties": { "cve": "2870843", "nombre": "LUNA 72", "solicitante": "Varela Echaurren Juan Francisco", "region": "REGIÓN DE ÑUBLE", "provincia": "Provincia de Diguillín", "comuna": "Quillón", "superficie_ha": 200.0, "datum_original": "PSAD56", "huso": 18, "epsg_origen": 24878, "tipo_publicacion": "pedimento", "fuente_pdf": "http://www.diariooficial.interior.gob.cl/publicaciones/2026/09/16/44552/07/2870843.pdf", "archivo": "gm_pedimento_2870843.pdf", "fecha": "16-09-2026", "edicion": "44552" }, "geometry": { "type": "Polygon", "coordinates": [ [ [ -72.526601052518302, -36.905656286934338 ], [ -72.504172058274875, -36.905186990946071 ], [ -72.503878490151934, -36.91419297367468 ], [ -72.526310115984032, -36.914662422356109 ], [ -72.526601052518302, -36.905656286934338 ] ] ] } },
{ "type": "Feature", "properties": { "cve": "2871375", "nombre": "LUNA 1", "solicitante": "Varela Echaurren Juan Francisco", "region": "REGIÓN DE ÑUBLE", "provincia": "Provincia de Itata", "comuna": "Coelemu", "superficie_ha": 300.0, "datum_original": "PSAD56", "huso": 18, "epsg_origen": 24878, "tipo_publicacion": "pedimento", "fuente_pdf": "http://www.diariooficial.interior.gob.cl/publicaciones/2026/09/16/44552/07/2871375.pdf", "archivo": "gm_pedimento_2871375.pdf", "fecha": "16-09-2026", "edicion": "44552" }, "geometry": { "type": "Polygon", "coordinates": [ [ [ -72.740362315156872, -36.505239325914388 ], [ -72.706887855238705, -36.504600324637657 ], [ -72.706622019353759, -36.513608255025915 ], [ -72.740100351787049, -36.514247465136528 ], [ -72.740362315156872, -36.505239325914388 ] ] ] } },
{ "type": "Feature", "properties": { "cve": "2871384", "nombre": "LUNA 10", "solicitante": "Varela Echaurren Juan Francisco", "region": "REGIÓN DE ÑUBLE", "provincia": "Provincia de Itata", "comuna": "Coelemu", "superficie_ha": 300.0, "datum_original": "PSAD56", "huso": 18, "epsg_origen": 24878, "tipo_publicacion": "pedimento", "fuente_pdf": "http://www.diariooficial.interior.gob.cl/publicaciones/2026/09/16/44552/07/2871384.pdf", "archivo": "gm_pedimento_2871384.pdf", "fecha": "16-09-2026", "edicion": "44552" }, "geometry": { "type": "Polygon", "coordinates": [ [ [ -72.705557494320601, -36.549639822569084 ], [ -72.672064719450532, -36.548990379642298 ], [ -72.671794411925589, -36.557998020876376 ], [ -72.705291067418543, -36.558647675941344 ], [ -72.705557494320601, -36.549639822569084 ] ] ] } },
{ "type": "Feature", "properties": { "cve": "2871385", "nombre": "LUNA 11", "solicitante": "Varela Echaurren Juan Francisco", "region": "REGIÓN DE ÑUBLE", "provincia": "Provincia de Itata", "comuna": "Coelemu", "superficie_ha": 300.0, "datum_original": "PSAD56", "huso": 18, "epsg_origen": 24878, "tipo_publicacion": "pedimento", "fuente_pdf": "http://www.diariooficial.interior.gob.cl/publicaciones/2026/09/16/44552/07/2871385.pdf", "archivo": "gm_pedimento_2871385.pdf", "fecha": "16-09-2026", "edicion": "44552" }, "geometry": { "type": "Polygon", "coordinates": [ [ [ -72.67260497445956, -36.530975050808316 ], [ -72.639121034976171, -36.530316642086973 ], [ -72.638847090771051, -36.53932409912526 ], [ -72.672334906943547, -36.539982722952196 ], [ -72.67260497445956, -36.530975050808316 ] ] ] } },
{ "type": "Feature", "properties": { "cve": "2871386", "nombre": "LUNA 12", "solicitante": "Varela Echaurren Juan Francisco", "region": "REGIÓN DE ÑUBLE", "provincia": "Provincia de Itata", "comuna": "Coelemu", "superficie_ha": 300.0, "datum_original": "PSAD56", "huso": 18, "epsg_origen": 24878, "tipo_publicacion": "pedimento", "fuente_pdf": "http://www.diariooficial.interior.gob.cl/publicaciones/2026/09/16/44552/07/2871386.pdf", "archivo": "gm_pedimento_2871386.pdf", "fecha": "16-09-2026", "edicion": "44552" }, "geometry": { "type": "Polygon", "coordinates": [ [ [ -72.672334906943547, -36.539982722952196 ], [ -72.638847090771051, -36.53932409912526 ], [ -72.638573024869757, -36.548331540660698 ], [ -72.672064719450532, -36.548990379642298 ], [ -72.672334906943547, -36.539982722952196 ] ] ] } },
{ "type": "Feature", "properties": { "cve": "2871376", "nombre": "LUNA 2", "solicitante": "Varela Echaurren Juan Francisco", "region": "REGIÓN DE ÑUBLE", "provincia": "Provincia de Itata", "comuna": "Coelemu", "superficie_ha": 300.0, "datum_original": "PSAD56", "huso": 18, "epsg_origen": 24878, "tipo_publicacion": "pedimento", "fuente_pdf": "http://www.diariooficial.interior.gob.cl/publicaciones/2026/09/16/44552/07/2871376.pdf", "archivo": "gm_pedimento_2871376.pdf", "fecha": "16-09-2026", "edicion": "44552" }, "geometry": { "type": "Polygon", "coordinates": [ [ [ -72.740100351787049, -36.514247465136528 ], [ -72.706622019353759, -36.513608255025915 ], [ -72.706356065373527, -36.522616170015418 ], [ -72.739838272039435, -36.523255589007512 ], [ -72.740100351787049, -36.514247465136528 ] ] ] } },
{ "type": "Feature", "properties": { "cve": "2871377", "nombre": "LUNA 3", "solicitante": "Varela Echaurren Juan Francisco", "region": "REGIÓN DE ÑUBLE", "provincia": "Provincia de Itata", "comuna": "Coelemu", "superficie_ha": 300.0, "datum_original": "PSAD56", "huso": 18, "epsg_origen": 24878, "tipo_publicacion": "pedimento", "fuente_pdf": "http://www.diariooficial.interior.gob.cl/publicaciones/2026/09/16/44552/07/2871377.pdf", "archivo": "gm_pedimento_2871377.pdf", "fecha": "16-09-2026", "edicion": "44552" }, "geometry": { "type": "Polygon", "coordinates": [ [ [ -72.717516683542911, -36.52283035281593 ], [ -72.706356065373527, -36.522616170015418 ], [ -72.705557494320601, -36.549639822569084 ], [ -72.716721989998973, -36.549854215367972 ], [ -72.717516683542911, -36.52283035281593 ] ] ] } },
{ "type": "Feature", "properties": { "cve": "2871388", "nombre": "LUNA 39", "solicitante": "Varela Echaurren Juan Francisco", "region": "REGIÓN DE ÑUBLE", "provincia": "Provincia de Itata", "comuna": "Ránquil", "superficie_ha": 300.0, "datum_original": "PSAD56", "huso": 18, "epsg_origen": 24878, "tipo_publicacion": "pedimento", "fuente_pdf": "http://www.diariooficial.interior.gob.cl/publicaciones/2026/09/16/44552/07/2871388.pdf", "archivo": "gm_pedimento_2871388.pdf", "fecha": "16-09-2026", "edicion": "44552" }, "geometry": { "type": "Polygon", "coordinates": [ [ [ -72.613027686071007, -36.652370597194277 ], [ -72.579492720718505, -36.651693541552717 ], [ -72.57921061755836, -36.660700421103819 ], [ -72.612749482201039, -36.661377697642379 ], [ -72.613027686071007, -36.652370597194277 ] ] ] } },
{ "type": "Feature", "properties": { "cve": "2871399", "nombre": "LUNA 40", "solicitante": "Varela Echaurren Juan Francisco", "region": "REGIÓN DE ÑUBLE", "provincia": "Provincia de Itata", "comuna": "Ránquil", "superficie_ha": 300.0, "datum_original": "PSAD56", "huso": 18, "epsg_origen": 24878, "tipo_publicacion": "pedimento", "fuente_pdf": "http://www.diariooficial.interior.gob.cl/publicaciones/2026/09/16/44552/07/2871399.pdf", "archivo": "gm_pedimento_2871399.pdf", "fecha": "16-09-2026", "edicion": "44552" }, "geometry": { "type": "Polygon", "coordinates": [ [ [ -72.612749482201039, -36.661377697642379 ], [ -72.57921061755836, -36.660700421103819 ], [ -72.578928389058717, -36.66970728503739 ], [ -72.612471154720836, -36.670384782523492 ], [ -72.612749482201039, -36.661377697642379 ] ] ] } },
{ "type": "Feature", "properties": { "cve": "2871389", "nombre": "LUNA 41", "solicitante": "Varela Echaurren Juan Francisco", "region": "REGIÓN DE ÑUBLE", "provincia": "Provincia de Itata", "comuna": "Ránquil", "superficie_ha": 300.0, "datum_original": "PSAD56", "huso": 18, "epsg_origen": 24878, "tipo_publicacion": "pedimento", "fuente_pdf": "http://www.diariooficial.interior.gob.cl/publicaciones/2026/09/16/44552/07/2871389.pdf", "archivo": "gm_pedimento_2871389.pdf", "fecha": "16-09-2026", "edicion": "44552" }, "geometry": { "type": "Polygon", "coordinates": [ [ [ -72.612471154720836, -36.670384782523492 ], [ -72.578928389058717, -36.66970728503739 ], [ -72.578646035162024, -36.678714133351036 ], [ -72.612192703573669, -36.679391851835376 ], [ -72.612471154720836, -36.670384782523492 ] ] ] } },
{ "type": "Feature", "properties": { "cve": "2871390", "nombre": "LUNA 42", "solicitante": "Varela Echaurren Juan Francisco", "region": "REGIÓN DE ÑUBLE", "provincia": "Provincia de Itata", "comuna": "Ránquil", "superficie_ha": 300.0, "datum_original": "PSAD56", "huso": 18, "epsg_origen": 24878, "tipo_publicacion": "pedimento", "fuente_pdf": "http://www.diariooficial.interior.gob.cl/publicaciones/2026/09/16/44552/07/2871390.pdf", "archivo": "gm_pedimento_2871390.pdf", "fecha": "16-09-2026", "edicion": "44552" }, "geometry": { "type": "Polygon", "coordinates": [ [ [ -72.612192703573669, -36.679391851835376 ], [ -72.578646035162024, -36.678714133351036 ], [ -72.578363555810668, -36.687720966042534 ], [ -72.611914128702693, -36.688398905575738 ], [ -72.612192703573669, -36.679391851835376 ] ] ] } },
{ "type": "Feature", "properties": { "cve": "2871391", "nombre": "LUNA 43", "solicitante": "Varela Echaurren Juan Francisco", "region": "REGIÓN DE ÑUBLE", "provincia": "Provincia de Itata", "comuna": "Ránquil", "superficie_ha": 300.0, "datum_original": "PSAD56", "huso": 18, "epsg_origen": 24878, "tipo_publicacion": "pedimento", "fuente_pdf": "http://www.diariooficial.interior.gob.cl/publicaciones/2026/09/16/44552/07/2871391.pdf", "archivo": "gm_pedimento_2871391.pdf", "fecha": "16-09-2026", "edicion": "44552" }, "geometry": { "type": "Polygon", "coordinates": [ [ [ -72.579492720718505, -36.651693541552717 ], [ -72.545958882905708, -36.651007056866504 ], [ -72.5456728809731, -36.660013712448233 ], [ -72.57921061755836, -36.660700421103819 ], [ -72.579492720718505, -36.651693541552717 ] ] ] } },
{ "type": "Feature", "properties": { "cve": "2871392", "nombre": "LUNA 44", "solicitante": "Varela Echaurren Juan Francisco", "region": "REGIÓN DE ÑUBLE", "provincia": "Provincia de Itata", "comuna": "Ránquil", "superficie_ha": 300.0, "datum_original": "PSAD56", "huso": 18, "epsg_origen": 24878, "tipo_publicacion": "pedimento", "fuente_pdf": "http://www.diariooficial.interior.gob.cl/publicaciones/2026/09/16/44552/07/2871392.pdf", "archivo": "gm_pedimento_2871392.pdf", "fecha": "16-09-2026", "edicion": "44552" }, "geometry": { "type": "Polygon", "coordinates": [ [ [ -72.57921061755836, -36.660700421103819 ], [ -72.5456728809731, -36.660013712448233 ], [ -72.545386751972075, -36.669020352361095 ], [ -72.578928389058717, -36.66970728503739 ], [ -72.57921061755836, -36.660700421103819 ] ] ] } },
{ "type": "Feature", "properties": { "cve": "2871393", "nombre": "LUNA 45", "solicitante": "Varela Echaurren Juan Francisco", "region": "REGIÓN DE ÑUBLE", "provincia": "Provincia de Itata", "comuna": "Ránquil", "superficie_ha": 300.0, "datum_original": "PSAD56", "huso": 18, "epsg_origen": 24878, "tipo_publicacion": "pedimento", "fuente_pdf": "http://www.diariooficial.interior.gob.cl/publicaciones/2026/09/16/44552/07/2871393.pdf", "archivo": "gm_pedimento_2871393.pdf", "fecha": "16-09-2026", "edicion": "44552" }, "geometry": { "type": "Polygon", "coordinates": [ [ [ -72.578928389058717, -36.66970728503739 ], [ -72.545386751972075, -36.669020352361095 ], [ -72.545100495844267, -36.67802697660273 ], [ -72.578646035162024, -36.678714133351036 ], [ -72.578928389058717, -36.66970728503739 ] ] ] } },
{ "type": "Feature", "properties": { "cve": "2871394", "nombre": "LUNA 46", "solicitante": "Varela Echaurren Juan Francisco", "region": "REGIÓN DE ÑUBLE", "provincia": "Provincia de Itata", "comuna": "Ránquil", "superficie_ha": 300.0, "datum_original": "PSAD56", "huso": 18, "epsg_origen": 24878, "tipo_publicacion": "pedimento", "fuente_pdf": "http://www.diariooficial.interior.gob.cl/publicaciones/2026/09/16/44552/07/2871394.pdf", "archivo": "gm_pedimento_2871394.pdf", "fecha": "16-09-2026", "edicion": "44552" }, "geometry": { "type": "Polygon", "coordinates": [ [ [ -72.578646035162024, -36.678714133351036 ], [ -72.545100495844267, -36.67802697660273 ], [ -72.544814112531313, -36.687033585170823 ], [ -72.578363555810668, -36.687720966042534 ], [ -72.578646035162024, -36.678714133351036 ] ] ] } },
{ "type": "Feature", "properties": { "cve": "2871395", "nombre": "LUNA 47", "solicitante": "Varela Echaurren Juan Francisco", "region": "REGIÓN DE ÑUBLE", "provincia": "Provincia de Itata", "comuna": "Ránquil", "superficie_ha": 300.0, "datum_original": "PSAD56", "huso": 18, "epsg_origen": 24878, "tipo_publicacion": "pedimento", "fuente_pdf": "http://www.diariooficial.interior.gob.cl/publicaciones/2026/09/16/44552/07/2871395.pdf", "archivo": "gm_pedimento_2871395.pdf", "fecha": "16-09-2026", "edicion": "44552" }, "geometry": { "type": "Polygon", "coordinates": [ [ [ -72.545958882905708, -36.651007056866504 ], [ -72.512426188185771, -36.650311144141106 ], [ -72.512136288005479, -36.659317572681523 ], [ -72.5456728809731, -36.660013712448233 ], [ -72.545958882905708, -36.651007056866504 ] ] ] } },
{ "type": "Feature", "properties": { "cve": "2871396", "nombre": "LUNA 48", "solicitante": "Varela Echaurren Juan Francisco", "region": "REGIÓN DE ÑUBLE", "provincia": "Provincia de Itata", "comuna": "Ránquil", "superficie_ha": 300.0, "datum_original": "PSAD56", "huso": 18, "epsg_origen": 24878, "tipo_publicacion": "pedimento", "fuente_pdf": "http://www.diariooficial.interior.gob.cl/publicaciones/2026/09/16/44552/07/2871396.pdf", "archivo": "gm_pedimento_2871396.pdf", "fecha": "16-09-2026", "edicion": "44552" }, "geometry": { "type": "Polygon", "coordinates": [ [ [ -72.5456728809731, -36.660013712448233 ], [ -72.512136288005479, -36.659317572681523 ], [ -72.511846259028246, -36.668323985501054 ], [ -72.545386751972075, -36.669020352361095 ], [ -72.5456728809731, -36.660013712448233 ] ] ] } },
{ "type": "Feature", "properties": { "cve": "2871397", "nombre": "LUNA 49", "solicitante": "Varela Echaurren Juan Francisco", "region": "REGIÓN DE ÑUBLE", "provincia": "Provincia de Itata", "comuna": "Ránquil", "superficie_ha": 300.0, "datum_original": "PSAD56", "huso": 18, "epsg_origen": 24878, "tipo_publicacion": "pedimento", "fuente_pdf": "http://www.diariooficial.interior.gob.cl/publicaciones/2026/09/16/44552/07/2871397.pdf", "archivo": "gm_pedimento_2871397.pdf", "fecha": "16-09-2026", "edicion": "44552" }, "geometry": { "type": "Polygon", "coordinates": [ [ [ -72.545386751972075, -36.669020352361095 ], [ -72.511846259028246, -36.668323985501054 ], [ -72.511556101194898, -36.67733038259734 ], [ -72.545100495844267, -36.67802697660273 ], [ -72.545386751972075, -36.669020352361095 ] ] ] } },
{ "type": "Feature", "properties": { "cve": "2871379", "nombre": "LUNA 5", "solicitante": "Varela Echaurren Juan Francisco", "region": "REGIÓN DE ÑUBLE", "provincia": "Provincia de Itata", "comuna": "Coelemu", "superficie_ha": 300.0, "datum_original": "PSAD56", "huso": 18, "epsg_origen": 24878, "tipo_publicacion": "pedimento", "fuente_pdf": "http://www.diariooficial.interior.gob.cl/publicaciones/2026/09/16/44552/07/2871379.pdf", "archivo": "gm_pedimento_2871379.pdf", "fecha": "16-09-2026", "edicion": "44552" }, "geometry": { "type": "Polygon", "coordinates": [ [ [ -72.706887855238705, -36.504600324637657 ], [ -72.67341445769425, -36.503951941676348 ], [ -72.673144749780093, -36.512959660168136 ], [ -72.706622019353759, -36.513608255025915 ], [ -72.706887855238705, -36.504600324637657 ] ] ] } },
{ "type": "Feature", "properties": { "cve": "2871398", "nombre": "LUNA 50", "solicitante": "Varela Echaurren Juan Francisco", "region": "REGIÓN DE ÑUBLE", "provincia": "Provincia de Itata", "comuna": "Ránquil", "superficie_ha": 300.0, "datum_original": "PSAD56", "huso": 18, "epsg_origen": 24878, "tipo_publicacion": "pedimento", "fuente_pdf": "http://www.diariooficial.interior.gob.cl/publicaciones/2026/09/16/44552/07/2871398.pdf", "archivo": "gm_pedimento_2871398.pdf", "fecha": "16-09-2026", "edicion": "44552" }, "geometry": { "type": "Polygon", "coordinates": [ [ [ -72.545100495844267, -36.67802697660273 ], [ -72.511556101194898, -36.67733038259734 ], [ -72.511265814446247, -36.686336763968015 ], [ -72.544814112531313, -36.687033585170823 ], [ -72.545100495844267, -36.67802697660273 ] ] ] } },
{ "type": "Feature", "properties": { "cve": "2871380", "nombre": "LUNA 6", "solicitante": "Varela Echaurren Juan Francisco", "region": "REGIÓN DE ÑUBLE", "provincia": "Provincia de Itata", "comuna": "Coelemu", "superficie_ha": 300.0, "datum_original": "PSAD56", "huso": 18, "epsg_origen": 24878, "tipo_publicacion": "pedimento", "fuente_pdf": "http://www.diariooficial.interior.gob.cl/publicaciones/2026/09/16/44552/07/2871380.pdf", "archivo": "gm_pedimento_2871380.pdf", "fecha": "16-09-2026", "edicion": "44552" }, "geometry": { "type": "Polygon", "coordinates": [ [ [ -72.706622019353759, -36.513608255025915 ], [ -72.673144749780093, -36.512959660168136 ], [ -72.672874922053481, -36.52196736321288 ], [ -72.706356065373527, -36.522616170015418 ], [ -72.706622019353759, -36.513608255025915 ] ] ] } },
{ "type": "Feature", "properties": { "cve": "2871381", "nombre": "LUNA 7", "solicitante": "Varela Echaurren Juan Francisco", "region": "REGIÓN DE ÑUBLE", "provincia": "Provincia de Itata", "comuna": "Coelemu", "superficie_ha": 300.0, "datum_original": "PSAD56", "huso": 18, "epsg_origen": 24878, "tipo_publicacion": "pedimento", "fuente_pdf": "http://www.diariooficial.interior.gob.cl/publicaciones/2026/09/16/44552/07/2871381.pdf", "archivo": "gm_pedimento_2871381.pdf", "fecha": "16-09-2026", "edicion": "44552" }, "geometry": { "type": "Polygon", "coordinates": [ [ [ -72.706356065373527, -36.522616170015418 ], [ -72.672874922053481, -36.52196736321288 ], [ -72.67260497445956, -36.530975050808316 ], [ -72.706089993243978, -36.531624069603915 ], [ -72.706356065373527, -36.522616170015418 ] ] ] } },
{ "type": "Feature", "properties": { "cve": "2871382", "nombre": "LUNA 8", "solicitante": "Varela Echaurren Juan Francisco", "region": "REGIÓN DE ÑUBLE", "provincia": "Provincia de Itata", "comuna": "Coelemu", "superficie_ha": 300.0, "datum_original": "PSAD56", "huso": 18, "epsg_origen": 24878, "tipo_publicacion": "pedimento", "fuente_pdf": "http://www.diariooficial.interior.gob.cl/publicaciones/2026/09/16/44552/07/2871382.pdf", "archivo": "gm_pedimento_2871382.pdf", "fecha": "16-09-2026", "edicion": "44552" }, "geometry": { "type": "Polygon", "coordinates": [ [ [ -72.706089993243978, -36.531624069603915 ], [ -72.67260497445956, -36.530975050808316 ], [ -72.672334906943547, -36.539982722952196 ], [ -72.705823802911027, -36.540631953789202 ], [ -72.706089993243978, -36.531624069603915 ] ] ] } },
{ "type": "Feature", "properties": { "cve": "2871383", "nombre": "LUNA 9", "solicitante": "Varela Echaurren Juan Francisco", "region": "REGIÓN DE ÑUBLE", "provincia": "Provincia de Itata", "comuna": "Coelemu", "superficie_ha": 300.0, "datum_original": "PSAD56", "huso": 18, "epsg_origen": 24878, "tipo_publicacion": "pedimento", "fuente_pdf": "http://www.diariooficial.interior.gob.cl/publicaciones/2026/09/16/44552/07/2871383.pdf", "archivo": "gm_pedimento_2871383.pdf", "fecha": "16-09-2026", "edicion": "44552" }, "geometry": { "type": "Polygon", "coordinates": [ [ [ -72.705823802911027, -36.540631953789202 ], [ -72.672334906943547, -36.539982722952196 ], [ -72.672064719450532, -36.548990379642298 ], [ -72.705557494320601, -36.549639822569084 ], [ -72.705823802911027, -36.540631953789202 ] ] ] } }
]
}
