{
"type": "FeatureCollection",
"name": "boletin_mineria_20260820",
"crs": { "type": "name", "properties": { "name": "urn:ogc:def:crs:OGC:1.3:CRS84" } },
"features": [
{ "type": "Feature", "properties": { "cve": "2856692", "nombre": "ADELAIDA 1 AL 8", "solicitante": "Olivares Estay Erwin Juan Carlos", "region": "REGIÓN DE ATACAMA", "provincia": "Provincia de Copiapó", "comuna": null, "superficie_ha": 64.0, "datum_original": "PSAD56", "huso": 19, "epsg_origen": 24879, "tipo_publicacion": "mensura", "fuente_pdf": "http://www.diariooficial.interior.gob.cl/publicaciones/2026/08/20/44529/07/2856692.pdf", "archivo": "gm_mensura_2856692.pdf", "fecha": "20-08-2026", "edicion": "44529" }, "geometry": { "type": "Polygon", "coordinates": [ [ [ -69.873256304461179, -27.347480812230092 ], [ -69.865168942142631, -27.347531138952611 ], [ -69.865225049952628, -27.354752830644131 ], [ -69.873312936589912, -27.354702488443518 ], [ -69.873256304461179, -27.347480812230092 ] ] ] } },
{ "type": "Feature", "properties": { "cve": "2856579", "nombre": "LA ERIKA VI 1 AL 6", "solicitante": "Jorquera Castro Jorge", "region": "REGIÓN DE ATACAMA", "provincia": "Provincia de Copiapó", "comuna": null, "superficie_ha": 15.0, "datum_original": "PSAD56", "huso": 19, "epsg_origen": 24879, "tipo_publicacion": "mensura", "fuente_pdf": "http://www.diariooficial.interior.gob.cl/publicaciones/2026/08/20/44529/07/2856579.pdf", "archivo": "gm_mensura_2856579.pdf", "fecha": "20-08-2026", "edicion": "44529" }, "geometry": { "type": "Polygon", "coordinates": [ [ [ -70.282756282124211, -27.384489726322254 ], [ -70.282756282124211, -27.384489726322254 ], [ -70.281755567951734, -27.385401601180998 ], [ -70.278216619386427, -27.385434064248624 ], [ -70.278237372812299, -27.38723923353167 ], [ -70.279754090390568, -27.387225330705 ], [ -70.279774870363966, -27.389030498434877 ], [ -70.280786031217943, -27.389021220017 ], [ -70.280775632784994, -27.388118636569001 ], [ -70.282797936629635, -27.388100058474716 ], [ -70.282787522274631, -27.387197475618688 ], [ -70.283293093830537, -27.387192826696332 ], [ -70.283272258374907, -27.385387660977116 ], [ -70.282766695021948, -27.385392309542446 ], [ -70.282756282124211, -27.384489726322254 ] ] ] } },
{ "type": "Feature", "properties": { "cve": "2856527", "nombre": "MARLENE 1/6", "solicitante": "Miranda Rivera Ercio Enrique", "region": "REGIÓN DE COQUIMBO", "provincia": "Provincia de Elqui", "comuna": "La Serena", "superficie_ha": 6.0, "datum_original": "PSAD56", "huso": 19, "epsg_origen": 24879, "tipo_publicacion": "mensura", "fuente_pdf": "http://www.diariooficial.interior.gob.cl/publicaciones/2026/08/20/44529/07/2856527.pdf", "archivo": "gm_mensura_2856527.pdf", "fecha": "20-08-2026", "edicion": "44529" }, "geometry": { "type": "Polygon", "coordinates": [ [ [ -70.913098034960441, -29.481205024328894 ], [ -70.914103533632954, -29.479837156952776 ], [ -70.912041702123531, -29.479866807903729 ], [ -70.912092509899679, -29.482572885054189 ], [ -70.914154396115649, -29.482543230850165 ], [ -70.913098034960441, -29.481205024328894 ] ] ] } },
{ "type": "Feature", "properties": { "cve": "2856693", "nombre": "CACHIYUYO I 1 AL 8", "solicitante": "Godoy Vega Jorge Cristián", "region": "REGIÓN DE ATACAMA", "provincia": "Provincia de Copiapó", "comuna": null, "superficie_ha": 64.0, "datum_original": "PSAD56", "huso": 19, "epsg_origen": 24879, "tipo_publicacion": "manifestacion", "fuente_pdf": "http://www.diariooficial.interior.gob.cl/publicaciones/2026/08/20/44529/07/2856693.pdf", "archivo": "gm_manifestacion_2856693.pdf", "fecha": "20-08-2026", "edicion": "44529" }, "geometry": { "type": "Polygon", "coordinates": [ [ [ -70.392274979959211, -28.091087800578105 ], [ -70.384134033511558, -28.091170173210777 ], [ -70.384226663143778, -28.098389793447414 ], [ -70.392368153975681, -28.098307395941134 ], [ -70.392274979959211, -28.091087800578105 ] ] ] } },
{ "type": "Feature", "properties": { "cve": "2856702", "nombre": "ELCIRA ELENA 1 AL 10", "solicitante": "Maldonado Rojas César Alberto y otro", "region": "REGIÓN DE ATACAMA", "provincia": "Provincia de Copiapó", "comuna": null, "superficie_ha": 100.0, "datum_original": "WGS84", "huso": 19, "epsg_origen": 32719, "tipo_publicacion": "manifestacion", "fuente_pdf": "http://www.diariooficial.interior.gob.cl/publicaciones/2026/08/20/44529/07/2856702.pdf", "archivo": "gm_manifestacion_2856702.pdf", "fecha": "20-08-2026", "edicion": "44529" }, "geometry": { "type": "Polygon", "coordinates": [ [ [ -69.860361543258577, -27.359068391898212 ], [ -69.850251256171902, -27.359130325867046 ], [ -69.850320227835482, -27.368157454735314 ], [ -69.860431334814947, -27.368095496964433 ], [ -69.860361543258577, -27.359068391898212 ] ] ] } },
{ "type": "Feature", "properties": { "cve": "2856703", "nombre": "ETER 1 AL 10", "solicitante": "Maldonado Rojas César Alberto y otro", "region": "REGIÓN DE ATACAMA", "provincia": "Provincia de Copiapó", "comuna": null, "superficie_ha": 100.0, "datum_original": "WGS84", "huso": 19, "epsg_origen": 32719, "tipo_publicacion": "manifestacion", "fuente_pdf": "http://www.diariooficial.interior.gob.cl/publicaciones/2026/08/20/44529/07/2856703.pdf", "archivo": "gm_manifestacion_2856703.pdf", "fecha": "20-08-2026", "edicion": "44529" }, "geometry": { "type": "Polygon", "coordinates": [ [ [ -69.898486516512719, -27.33619631167841 ], [ -69.888378408505218, -27.336260956493941 ], [ -69.888450402397226, -27.34528802339296 ], [ -69.898559329295338, -27.345223353719554 ], [ -69.898486516512719, -27.33619631167841 ] ] ] } },
{ "type": "Feature", "properties": { "cve": "2856557", "nombre": "FERNANDA 1 AL 15", "solicitante": "Carvajal Figueroa Fernando Antonio", "region": "REGIÓN DE ATACAMA", "provincia": "Provincia de Copiapó", "comuna": "Tierra Amarilla", "superficie_ha": 105.0, "datum_original": "PSAD56", "huso": 19, "epsg_origen": 24879, "tipo_publicacion": "manifestacion", "fuente_pdf": "http://www.diariooficial.interior.gob.cl/publicaciones/2026/08/20/44529/07/2856557.pdf", "archivo": "gm_manifestacion_2856557.pdf", "fecha": "20-08-2026", "edicion": "44529" }, "geometry": { "type": "Polygon", "coordinates": [ [ [ -69.942920818480658, -27.681035397463461 ], [ -69.935823139244363, -27.68108352006519 ], [ -69.935938577401672, -27.694623267412215 ], [ -69.943037131854823, -27.694575117287574 ], [ -69.942920818480658, -27.681035397463461 ] ] ] } },
{ "type": "Feature", "properties": { "cve": "2856704", "nombre": "MOSIAH 1 AL 10", "solicitante": "Maldonado Rojas César Alberto y otro", "region": "REGIÓN DE ATACAMA", "provincia": "Provincia de Copiapó", "comuna": null, "superficie_ha": 100.0, "datum_original": "WGS84", "huso": 19, "epsg_origen": 32719, "tipo_publicacion": "manifestacion", "fuente_pdf": "http://www.diariooficial.interior.gob.cl/publicaciones/2026/08/20/44529/07/2856704.pdf", "archivo": "gm_manifestacion_2856704.pdf", "fecha": "20-08-2026", "edicion": "44529" }, "geometry": { "type": "Polygon", "coordinates": [ [ [ -69.8805131935964, -27.331056720124852 ], [ -69.870405502676348, -27.331120053639403 ], [ -69.870476024666033, -27.340147170833649 ], [ -69.880584534274931, -27.340083812962206 ], [ -69.8805131935964, -27.331056720124852 ] ] ] } },
{ "type": "Feature", "properties": { "cve": "2856712", "nombre": "SAN ELEODORO DEL 1 AL 10", "solicitante": "León Barahona Eugenio Alcides", "region": "REGIÓN DE ATACAMA", "provincia": "Provincia de Copiapó", "comuna": null, "superficie_ha": 40.0, "datum_original": "PSAD56", "huso": 19, "epsg_origen": 24879, "tipo_publicacion": "manifestacion", "fuente_pdf": "http://www.diariooficial.interior.gob.cl/publicaciones/2026/08/20/44529/07/2856712.pdf", "archivo": "gm_manifestacion_2856712.pdf", "fecha": "20-08-2026", "edicion": "44529" }, "geometry": { "type": "Polygon", "coordinates": [ [ [ -70.048825475105076, -26.976596464371006 ], [ -70.043787804695341, -26.976633853674532 ], [ -70.043854425957932, -26.983855553604425 ], [ -70.048892417760896, -26.983818152693377 ], [ -70.048825475105076, -26.976596464371006 ] ] ] } },
{ "type": "Feature", "properties": { "cve": "2856317", "nombre": "CATALINA DOS DEL 1 AL 11", "solicitante": "Guerrero Contreras Luis Alexis", "region": "REGIÓN DE COQUIMBO", "provincia": "Provincia de Elqui", "comuna": null, "superficie_ha": 44.0, "datum_original": "WGS84", "huso": 19, "epsg_origen": 32719, "tipo_publicacion": "manifestacion", "fuente_pdf": "http://www.diariooficial.interior.gob.cl/publicaciones/2026/08/20/44529/07/2856317.pdf", "archivo": "gm_manifestacion_2856317.pdf", "fecha": "20-08-2026", "edicion": "44529" }, "geometry": { "type": "Polygon", "coordinates": [ [ [ -70.707550470445668, -29.414638322995152 ], [ -70.69621629197232, -29.414783132749932 ], [ -70.696276240797999, -29.418391707286808 ], [ -70.707610819378644, -29.418246876317582 ], [ -70.707550470445668, -29.414638322995152 ] ] ] } },
{ "type": "Feature", "properties": { "cve": "2856380", "nombre": "ROSARIO 1 AL 30", "solicitante": "Comunidad Agrícola Quebrada de Talca", "region": "REGIÓN DE COQUIMBO", "provincia": "Provincia de Elqui", "comuna": "La Serena", "superficie_ha": 150.0, "datum_original": "PSAD56", "huso": 19, "epsg_origen": 24879, "tipo_publicacion": "manifestacion", "fuente_pdf": "http://www.diariooficial.interior.gob.cl/publicaciones/2026/08/20/44529/07/2856380.pdf", "archivo": "gm_manifestacion_2856380.pdf", "fecha": "20-08-2026", "edicion": "44529" }, "geometry": { "type": "Polygon", "coordinates": [ [ [ -71.07686883745464, -30.048480978901804 ], [ -71.066502300071747, -30.048644317471076 ], [ -71.06678331936547, -30.0621722468725 ], [ -71.077151264007171, -30.062008819760184 ], [ -71.07686883745464, -30.048480978901804 ] ] ] } },
{ "type": "Feature", "properties": { "cve": "2856334", "nombre": "SRA DEL PILAR 1/20", "solicitante": "Contreras Díaz José Luis", "region": "REGIÓN DE COQUIMBO", "provincia": "Provincia de Elqui", "comuna": "Vicuña", "superficie_ha": 100.0, "datum_original": "PSAD56", "huso": 19, "epsg_origen": 24879, "tipo_publicacion": "manifestacion", "fuente_pdf": "http://www.diariooficial.interior.gob.cl/publicaciones/2026/08/20/44529/07/2856334.pdf", "archivo": "gm_manifestacion_2856334.pdf", "fecha": "20-08-2026", "edicion": "44529" }, "geometry": { "type": "Polygon", "coordinates": [ [ [ -70.854431216495229, -29.825347045903737 ], [ -70.84408640448558, -29.825491876061086 ], [ -70.844252078179323, -29.834512006747687 ], [ -70.854597818277384, -29.834367124004356 ], [ -70.854431216495229, -29.825347045903737 ] ] ] } },
{ "type": "Feature", "properties": { "cve": "2856523", "nombre": "CORRALQUE 1 AL 60", "solicitante": "Anglo American Sur S.A.", "region": "REGIÓN METROPOLITANA DE SANTIAGO", "provincia": "Provincia de Santiago", "comuna": null, "superficie_ha": 600.0, "datum_original": "PSAD56", "huso": 19, "epsg_origen": 24879, "tipo_publicacion": "manifestacion", "fuente_pdf": "http://www.diariooficial.interior.gob.cl/publicaciones/2026/08/20/44529/07/2856523.pdf", "archivo": "gm_manifestacion_2856523.pdf", "fecha": "20-08-2026", "edicion": "44529" }, "geometry": { "type": "Polygon", "coordinates": [ [ [ -70.388400354197231, -33.353821219119155 ], [ -70.356165990694251, -33.354177478859832 ], [ -70.35644580340599, -33.372211994302539 ], [ -70.388686812557211, -33.371855491715152 ], [ -70.388400354197231, -33.353821219119155 ] ] ] } },
{ "type": "Feature", "properties": { "cve": "2856508", "nombre": "VERONICA 25, 1 AL 60", "solicitante": "Prospecciones Greenfield SpA", "region": "REGIÓN DEL BIOBÍO", "provincia": "Provincia de Concepción", "comuna": null, "superficie_ha": 300.0, "datum_original": "PSAD56", "huso": 18, "epsg_origen": 24878, "tipo_publicacion": "manifestacion", "fuente_pdf": "http://www.diariooficial.interior.gob.cl/publicaciones/2026/08/20/44529/07/2856508.pdf", "archivo": "gm_manifestacion_2856508.pdf", "fecha": "20-08-2026", "edicion": "44529" }, "geometry": { "type": "Polygon", "coordinates": [ [ [ -72.981262323201051, -37.027818109887136 ], [ -72.947554608019487, -37.027239700728394 ], [ -72.947312096364513, -37.036248272521846 ], [ -72.981023787712218, -37.036826869696235 ], [ -72.981262323201051, -37.027818109887136 ] ] ] } }
]
}
