{
"type": "FeatureCollection",
"name": "boletin_mineria_20260827",
"crs": { "type": "name", "properties": { "name": "urn:ogc:def:crs:OGC:1.3:CRS84" } },
"features": [
{ "type": "Feature", "properties": { "cve": "2860004", "nombre": "CAPA 1/65", "solicitante": "Ghiglino Saltori Sergio", "region": "REGIÓN DE ATACAMA", "provincia": "Provincia de Copiapó", "comuna": null, "superficie_ha": 650.0, "datum_original": "WGS84", "huso": 19, "epsg_origen": 32719, "tipo_publicacion": "manifestacion", "fuente_pdf": "http://www.diariooficial.interior.gob.cl/publicaciones/2026/08/27/44535/07/2860004.pdf", "archivo": "gm_manifestacion_2860004.pdf", "fecha": "27-08-2026", "edicion": "44535" }, "geometry": { "type": "Polygon", "coordinates": [ [ [ -70.720004312486196, -27.82631708889436 ], [ -70.693614659854603, -27.826643426872717 ], [ -70.693965092621795, -27.849202300461592 ], [ -70.720360199130695, -27.848875652598569 ], [ -70.720004312486196, -27.82631708889436 ] ] ] } },
{ "type": "Feature", "properties": { "cve": "2860270", "nombre": "CESAR 1/8", "solicitante": "Bustos Abarzúa César", "region": "REGIÓN DE ATACAMA", "provincia": "Provincia de Copiapó", "comuna": null, "superficie_ha": 16.0, "datum_original": "WGS84", "huso": 19, "epsg_origen": 32719, "tipo_publicacion": "manifestacion", "fuente_pdf": "http://www.diariooficial.interior.gob.cl/publicaciones/2026/08/27/44535/07/2860270.pdf", "archivo": "gm_manifestacion_2860270.pdf", "fecha": "27-08-2026", "edicion": "44535" }, "geometry": { "type": "Polygon", "coordinates": [ [ [ -70.347348668395966, -26.944781543376852 ], [ -70.343320108828834, -26.944819965063637 ], [ -70.343362919632227, -26.948430433803168 ], [ -70.347391607492597, -26.948392006148666 ], [ -70.347348668395966, -26.944781543376852 ] ] ] } },
{ "type": "Feature", "properties": { "cve": "2860459", "nombre": "Fe Lipe 1 AL 50", "solicitante": "Sociedad Minera Rajo SpA", "region": "REGIÓN DE ATACAMA", "provincia": "Provincia de Copiapó", "comuna": null, "superficie_ha": 50.0, "datum_original": "PSAD56", "huso": 19, "epsg_origen": 24879, "tipo_publicacion": "manifestacion", "fuente_pdf": "http://www.diariooficial.interior.gob.cl/publicaciones/2026/08/27/44535/07/2860459.pdf", "archivo": "gm_manifestacion_2860459.pdf", "fecha": "27-08-2026", "edicion": "44535" }, "geometry": { "type": "Polygon", "coordinates": [ [ [ -70.191276248440957, -27.721096147525021 ], [ -70.186205037851991, -27.721139702208472 ], [ -70.186302738837341, -27.730165417237078 ], [ -70.191374366872893, -27.730121845964959 ], [ -70.191276248440957, -27.721096147525021 ] ] ] } },
{ "type": "Feature", "properties": { "cve": "2860487", "nombre": "INMIN 2 1 AL 20", "solicitante": "Inmin SpA", "region": "REGIÓN DE ATACAMA", "provincia": "Provincia de Copiapó", "comuna": null, "superficie_ha": 200.0, "datum_original": "PSAD56", "huso": 19, "epsg_origen": 24879, "tipo_publicacion": "manifestacion", "fuente_pdf": "http://www.diariooficial.interior.gob.cl/publicaciones/2026/08/27/44535/07/2860487.pdf", "archivo": "gm_manifestacion_2860487.pdf", "fecha": "27-08-2026", "edicion": "44535" }, "geometry": { "type": "Polygon", "coordinates": [ [ [ -70.137186319958303, -27.640310840043583 ], [ -70.116915940979965, -27.64047557774483 ], [ -70.117007621808341, -27.649501619062448 ], [ -70.13727966379237, -27.649336818492124 ], [ -70.137186319958303, -27.640310840043583 ] ] ] } },
{ "type": "Feature", "properties": { "cve": "2860431", "nombre": "LA EMILIA II 1 AL 20", "solicitante": "Godoy Soto Damary Yesenia", "region": "REGIÓN DE ATACAMA", "provincia": "Provincia de Copiapó", "comuna": null, "superficie_ha": 20.0, "datum_original": "PSAD56", "huso": 19, "epsg_origen": 24879, "tipo_publicacion": "manifestacion", "fuente_pdf": "http://www.diariooficial.interior.gob.cl/publicaciones/2026/08/27/44535/07/2860431.pdf", "archivo": "gm_manifestacion_2860431.pdf", "fecha": "27-08-2026", "edicion": "44535" }, "geometry": { "type": "Polygon", "coordinates": [ [ [ -69.959617076746056, -27.031850415392903 ], [ -69.955584860625265, -27.031877842832635 ], [ -69.95562306887912, -27.036391492252882 ], [ -69.959655446164476, -27.036364059498904 ], [ -69.959617076746056, -27.031850415392903 ] ] ] } },
{ "type": "Feature", "properties": { "cve": "2860123", "nombre": "LA SOCIEDAD 1 1 AL 5", "solicitante": "Guerra Ocaranza Lorenzo y otros", "region": "REGIÓN DE ATACAMA", "provincia": "Provincia de Copiapó", "comuna": null, "superficie_ha": 30.0, "datum_original": "PSAD56", "huso": 19, "epsg_origen": 24879, "tipo_publicacion": "manifestacion", "fuente_pdf": "http://www.diariooficial.interior.gob.cl/publicaciones/2026/08/27/44535/07/2860123.pdf", "archivo": "gm_manifestacion_2860123.pdf", "fecha": "27-08-2026", "edicion": "44535" }, "geometry": { "type": "Polygon", "coordinates": [ [ [ -70.653671574583271, -27.172626834901411 ], [ -70.64862639296156, -27.172686227773561 ], [ -70.648705970634282, -27.178101002041853 ], [ -70.653751395512103, -27.178041595413646 ], [ -70.653671574583271, -27.172626834901411 ] ] ] } },
{ "type": "Feature", "properties": { "cve": "2860546", "nombre": "MINA ESPERANZA 1 AL 20", "solicitante": "Rojas Contreras Gustavo Gilberto", "region": "REGIÓN DE ATACAMA", "provincia": "Provincia de Chañaral", "comuna": "Diego de Almagro", "superficie_ha": 100.0, "datum_original": "WGS84", "huso": 19, "epsg_origen": 32719, "tipo_publicacion": "manifestacion", "fuente_pdf": "http://www.diariooficial.interior.gob.cl/publicaciones/2026/08/27/44535/07/2860546.pdf", "archivo": "gm_manifestacion_2860546.pdf", "fecha": "27-08-2026", "edicion": "44535" }, "geometry": { "type": "Polygon", "coordinates": [ [ [ -69.904835773413495, -26.718692510840491 ], [ -69.894782810797807, -26.718756261481797 ], [ -69.894853420621473, -26.727784104622245 ], [ -69.904907176282279, -26.727720329075208 ], [ -69.904835773413495, -26.718692510840491 ] ] ] } },
{ "type": "Feature", "properties": { "cve": "2860118", "nombre": "LA CATALINA 1 AL 16", "solicitante": "Meriño Vega Javiera Belén", "region": "REGIÓN DE COQUIMBO", "provincia": "Provincia de Elqui", "comuna": null, "superficie_ha": 16.0, "datum_original": "PSAD56", "huso": 19, "epsg_origen": 24879, "tipo_publicacion": "manifestacion", "fuente_pdf": "http://www.diariooficial.interior.gob.cl/publicaciones/2026/08/27/44535/07/2860118.pdf", "archivo": "gm_manifestacion_2860118.pdf", "fecha": "27-08-2026", "edicion": "44535" }, "geometry": { "type": "Polygon", "coordinates": [ [ [ -70.735017834132719, -29.803077350975812 ], [ -70.730880564351878, -29.803131603816105 ], [ -70.730942702255831, -29.806739893319577 ], [ -70.735080120381539, -29.806685632596132 ], [ -70.735017834132719, -29.803077350975812 ] ] ] } },
{ "type": "Feature", "properties": { "cve": "2860279", "nombre": "ABEJO 5  1 AL 20", "solicitante": "Antofagasta Minerals S.A.", "region": "REGIÓN DE VALPARAÍSO", "provincia": "Provincia de San Felipe de Aconcagua", "comuna": null, "superficie_ha": 200.0, "datum_original": "PSAD56", "huso": 19, "epsg_origen": 24879, "tipo_publicacion": "manifestacion", "fuente_pdf": "http://www.diariooficial.interior.gob.cl/publicaciones/2026/08/27/44535/07/2860279.pdf", "archivo": "gm_manifestacion_2860279.pdf", "fecha": "27-08-2026", "edicion": "44535" }, "geometry": { "type": "Polygon", "coordinates": [ [ [ -70.331454273095147, -32.425438893759072 ], [ -70.320820761982205, -32.425550830482187 ], [ -70.321083779271959, -32.443588308406085 ], [ -70.331719406334997, -32.443476294234308 ], [ -70.331454273095147, -32.425438893759072 ] ] ] } },
{ "type": "Feature", "properties": { "cve": "2859933", "nombre": "CÓNDOR SUR 1 AL 7", "solicitante": "Henríquez Solís Eduardo Antonio", "region": "REGIÓN DE ATACAMA", "provincia": "Provincia de Copiapó", "comuna": null, "superficie_ha": 21.0, "datum_original": "PSAD56", "huso": 19, "epsg_origen": 24879, "tipo_publicacion": "mensura", "fuente_pdf": "http://www.diariooficial.interior.gob.cl/publicaciones/2026/08/27/44535/07/2859933.pdf", "archivo": "gm_mensura_2859933.pdf", "fecha": "27-08-2026", "edicion": "44535" }, "geometry": { "type": "Polygon", "coordinates": [ [ [ -69.637916022496498, -27.191180425087168 ], [ -69.63488733820013, -27.191194170369492 ], [ -69.634923124588113, -27.197513627268251 ], [ -69.637951979572705, -27.197499878272179 ], [ -69.637916022496498, -27.191180425087168 ] ] ] } },
{ "type": "Feature", "properties": { "cve": "2860084", "nombre": "ELVIRA III 1 AL 5", "solicitante": "Salinas Cortez Héctor Sergio", "region": "REGIÓN DE ATACAMA", "provincia": "Provincia de Copiapó", "comuna": null, "superficie_ha": 25.0, "datum_original": "PSAD56", "huso": 19, "epsg_origen": 24879, "tipo_publicacion": "mensura", "fuente_pdf": "http://www.diariooficial.interior.gob.cl/publicaciones/2026/08/27/44535/07/2860084.pdf", "archivo": "gm_mensura_2860084.pdf", "fecha": "27-08-2026", "edicion": "44535" }, "geometry": { "type": "Polygon", "coordinates": [ [ [ -69.890154370268888, -27.925563059202965 ], [ -69.885073165357667, -27.925595801520622 ], [ -69.885109927581809, -27.930108956358659 ], [ -69.890191343477227, -27.930076207836198 ], [ -69.890154370268888, -27.925563059202965 ] ] ] } },
{ "type": "Feature", "properties": { "cve": "2859916", "nombre": "PERLA SOFIA 1 AL 4", "solicitante": "Madrid Olivares Rubén Alberto", "region": "REGIÓN DE ATACAMA", "provincia": "Provincia de Copiapó", "comuna": null, "superficie_ha": 36.0, "datum_original": "WGS84", "huso": 19, "epsg_origen": 32719, "tipo_publicacion": "mensura", "fuente_pdf": "http://www.diariooficial.interior.gob.cl/publicaciones/2026/08/27/44535/07/2859916.pdf", "archivo": "gm_mensura_2859916.pdf", "fecha": "27-08-2026", "edicion": "44535" }, "geometry": { "type": "Polygon", "coordinates": [ [ [ -69.867379291633256, -27.351396703839328 ], [ -69.863335466818711, -27.351421762053413 ], [ -69.863398474266816, -27.35954615967465 ], [ -69.86744259411546, -27.359521092791802 ], [ -69.867379291633256, -27.351396703839328 ] ] ] } },
{ "type": "Feature", "properties": { "cve": "2860015", "nombre": "COBRE 1 AL 2", "solicitante": "Rivera Contreras Leonel Christian", "region": "REGIÓN DE ATACAMA", "provincia": "Provincia de Huasco", "comuna": null, "superficie_ha": 4.0, "datum_original": "PSAD56", "huso": 19, "epsg_origen": 24879, "tipo_publicacion": "mensura", "fuente_pdf": "http://www.diariooficial.interior.gob.cl/publicaciones/2026/08/27/44535/07/2860015.pdf", "archivo": "gm_mensura_2860015.pdf", "fecha": "27-08-2026", "edicion": "44535" }, "geometry": { "type": "Polygon", "coordinates": [ [ [ -71.012165283036779, -28.576094778120662 ], [ -71.010121447814413, -28.576125078916203 ], [ -71.010155757551345, -28.577929268920602 ], [ -71.012199627601547, -28.577898965864211 ], [ -71.012165283036779, -28.576094778120662 ] ] ] } },
{ "type": "Feature", "properties": { "cve": "2860289", "nombre": "CARMONA IV 12, 1 AL 20", "solicitante": "Compañía Minera Kairos Chile SpA", "region": "REGIÓN DE COQUIMBO", "provincia": "Provincia de Limarí", "comuna": null, "superficie_ha": 200.0, "datum_original": "PSAD56", "huso": 19, "epsg_origen": 24879, "tipo_publicacion": "mensura", "fuente_pdf": "http://www.diariooficial.interior.gob.cl/publicaciones/2026/08/27/44535/07/2860289.pdf", "archivo": "gm_mensura_2860289.pdf", "fecha": "27-08-2026", "edicion": "44535" }, "geometry": { "type": "Polygon", "coordinates": [ [ [ -70.680966408504233, -30.581036556388597 ], [ -70.670541303564036, -30.581170794748971 ], [ -70.670850781438091, -30.599210629536252 ], [ -70.681277815481394, -30.599076295153271 ], [ -70.680966408504233, -30.581036556388597 ] ] ] } },
{ "type": "Feature", "properties": { "cve": "2860339", "nombre": "CAROLINA 3 C, 1 AL 100", "solicitante": "Haciendas Talinay S.A.", "region": "REGIÓN DE COQUIMBO", "provincia": "Provincia de Limarí", "comuna": null, "superficie_ha": 100.0, "datum_original": "PSAD56", "huso": 19, "epsg_origen": 24879, "tipo_publicacion": "mensura", "fuente_pdf": "http://www.diariooficial.interior.gob.cl/publicaciones/2026/08/27/44535/07/2860339.pdf", "archivo": "gm_mensura_2860339.pdf", "fecha": "27-08-2026", "edicion": "44535" }, "geometry": { "type": "Polygon", "coordinates": [ [ [ -71.612427527880214, -30.829028608057275 ], [ -71.601982097797347, -30.829238939378325 ], [ -71.602225396202783, -30.838253027668941 ], [ -71.612671800282229, -30.838042621534541 ], [ -71.612427527880214, -30.829028608057275 ] ] ] } },
{ "type": "Feature", "properties": { "cve": "2860340", "nombre": "CAROLINA 4 C, 1 AL 100", "solicitante": "Haciendas Talinay S.A.", "region": "REGIÓN DE COQUIMBO", "provincia": "Provincia de Limarí", "comuna": null, "superficie_ha": 100.0, "datum_original": "PSAD56", "huso": 19, "epsg_origen": 24879, "tipo_publicacion": "mensura", "fuente_pdf": "http://www.diariooficial.interior.gob.cl/publicaciones/2026/08/27/44535/07/2860340.pdf", "archivo": "gm_mensura_2860340.pdf", "fecha": "27-08-2026", "edicion": "44535" }, "geometry": { "type": "Polygon", "coordinates": [ [ [ -71.601982097797347, -30.829238939378325 ], [ -71.591536558137491, -30.829448429880792 ], [ -71.591778882503775, -30.838462592686007 ], [ -71.602225396202783, -30.838253027668941 ], [ -71.601982097797347, -30.829238939378325 ] ] ] } },
{ "type": "Feature", "properties": { "cve": "2860353", "nombre": "SOFIA 17 D, 1 AL 300", "solicitante": "Haciendas Talinay S.A.", "region": "REGIÓN DE COQUIMBO", "provincia": "Provincia de Limarí", "comuna": null, "superficie_ha": 300.0, "datum_original": "PSAD56", "huso": 19, "epsg_origen": 24879, "tipo_publicacion": "mensura", "fuente_pdf": "http://www.diariooficial.interior.gob.cl/publicaciones/2026/08/27/44535/07/2860353.pdf", "archivo": "gm_mensura_2860353.pdf", "fecha": "27-08-2026", "edicion": "44535" }, "geometry": { "type": "Polygon", "coordinates": [ [ [ -71.683283369554047, -30.755664129667785 ], [ -71.672846464545572, -30.755879712150147 ], [ -71.673594384256035, -30.78292069561946 ], [ -71.684034201202351, -30.782704882739967 ], [ -71.683283369554047, -30.755664129667785 ] ] ] } },
{ "type": "Feature", "properties": { "cve": "2860352", "nombre": "SOFIA 18 D, 1 AL 300", "solicitante": "Haciendas Talinay S.A.", "region": "REGIÓN DE COQUIMBO", "provincia": "Provincia de Limarí", "comuna": null, "superficie_ha": 300.0, "datum_original": "PSAD56", "huso": 19, "epsg_origen": 24879, "tipo_publicacion": "mensura", "fuente_pdf": "http://www.diariooficial.interior.gob.cl/publicaciones/2026/08/27/44535/07/2860352.pdf", "archivo": "gm_mensura_2860352.pdf", "fecha": "27-08-2026", "edicion": "44535" }, "geometry": { "type": "Polygon", "coordinates": [ [ [ -71.693720161843075, -30.755447708998588 ], [ -71.683283369554047, -30.755664129667785 ], [ -71.684034201202351, -30.782704882739967 ], [ -71.694473905298125, -30.782488230778888 ], [ -71.693720161843075, -30.755447708998588 ] ] ] } },
{ "type": "Feature", "properties": { "cve": "2860351", "nombre": "SOFÍA 29 D, 1 AL 300", "solicitante": "Haciendas Talinay S.A.", "region": "REGIÓN DE COQUIMBO", "provincia": "Provincia de Limarí", "comuna": null, "superficie_ha": 300.0, "datum_original": "PSAD56", "huso": 19, "epsg_origen": 24879, "tipo_publicacion": "mensura", "fuente_pdf": "http://www.diariooficial.interior.gob.cl/publicaciones/2026/08/27/44535/07/2860351.pdf", "archivo": "gm_mensura_2860351.pdf", "fecha": "27-08-2026", "edicion": "44535" }, "geometry": { "type": "Polygon", "coordinates": [ [ [ -71.704913496106471, -30.782270739768361 ], [ -71.694473905298125, -30.782488230778888 ], [ -71.695228668342295, -30.809528622131364 ], [ -71.705671174757057, -30.809310898807311 ], [ -71.704913496106471, -30.782270739768361 ] ] ] } },
{ "type": "Feature", "properties": { "cve": "2860350", "nombre": "SOFIA 30 D, 1 AL 300", "solicitante": "Haciendas Talinay S.A.", "region": "REGIÓN DE COQUIMBO", "provincia": "Provincia de Limarí", "comuna": null, "superficie_ha": 300.0, "datum_original": "PSAD56", "huso": 19, "epsg_origen": 24879, "tipo_publicacion": "mensura", "fuente_pdf": "http://www.diariooficial.interior.gob.cl/publicaciones/2026/08/27/44535/07/2860350.pdf", "archivo": "gm_mensura_2860350.pdf", "fecha": "27-08-2026", "edicion": "44535" }, "geometry": { "type": "Polygon", "coordinates": [ [ [ -71.694473905298125, -30.782488230778888 ], [ -71.684034201202351, -30.782704882739967 ], [ -71.684786048508215, -30.809745505510772 ], [ -71.695228668342295, -30.809528622131364 ], [ -71.694473905298125, -30.782488230778888 ] ] ] } },
{ "type": "Feature", "properties": { "cve": "2860348", "nombre": "SOFIA 43 D, 1 AL 300", "solicitante": "Haciendas Talinay S.A.", "region": "REGIÓN DE COQUIMBO", "provincia": "Provincia de Limarí", "comuna": null, "superficie_ha": 300.0, "datum_original": "PSAD56", "huso": 19, "epsg_origen": 24879, "tipo_publicacion": "mensura", "fuente_pdf": "http://www.diariooficial.interior.gob.cl/publicaciones/2026/08/27/44535/07/2860348.pdf", "archivo": "gm_mensura_2860348.pdf", "fecha": "27-08-2026", "edicion": "44535" }, "geometry": { "type": "Polygon", "coordinates": [ [ [ -71.680065947241744, -30.809843261160111 ], [ -71.669623163501399, -30.810058924882622 ], [ -71.670371788045813, -30.837099751876728 ], [ -71.680817491651652, -30.836883857909886 ], [ -71.680065947241744, -30.809843261160111 ] ] ] } },
{ "type": "Feature", "properties": { "cve": "2860349", "nombre": "SOFIA 44 D, 1 AL 300", "solicitante": "Haciendas Talinay S.A.", "region": "REGIÓN DE COQUIMBO", "provincia": "Provincia de Limarí", "comuna": null, "superficie_ha": 300.0, "datum_original": "PSAD56", "huso": 19, "epsg_origen": 24879, "tipo_publicacion": "mensura", "fuente_pdf": "http://www.diariooficial.interior.gob.cl/publicaciones/2026/08/27/44535/07/2860349.pdf", "archivo": "gm_mensura_2860349.pdf", "fecha": "27-08-2026", "edicion": "44535" }, "geometry": { "type": "Polygon", "coordinates": [ [ [ -71.690508618197825, -30.809626757446257 ], [ -71.680065947241744, -30.809843261160111 ], [ -71.680817491651652, -30.836883857909886 ], [ -71.691263082341791, -30.83666712305595 ], [ -71.690508618197825, -30.809626757446257 ] ] ] } },
{ "type": "Feature", "properties": { "cve": "2860355", "nombre": "SOFIA 5 D, 1 AL 300", "solicitante": "Haciendas Talinay S.A.", "region": "REGIÓN DE COQUIMBO", "provincia": "Provincia de Limarí", "comuna": null, "superficie_ha": 300.0, "datum_original": "PSAD56", "huso": 19, "epsg_origen": 24879, "tipo_publicacion": "mensura", "fuente_pdf": "http://www.diariooficial.interior.gob.cl/publicaciones/2026/08/27/44535/07/2860355.pdf", "archivo": "gm_mensura_2860355.pdf", "fecha": "27-08-2026", "edicion": "44535" }, "geometry": { "type": "Polygon", "coordinates": [ [ [ -71.692967436792401, -30.728407056874758 ], [ -71.682533552382992, -30.72862324637827 ], [ -71.683283369554047, -30.755664129667785 ], [ -71.693720161843075, -30.755447708998588 ], [ -71.692967436792401, -30.728407056874758 ] ] ] } },
{ "type": "Feature", "properties": { "cve": "2860347", "nombre": "SOFIA 52 D, 1 AL 300", "solicitante": "Haciendas Talinay S.A.", "region": "REGIÓN DE COQUIMBO", "provincia": "Provincia de Limarí", "comuna": null, "superficie_ha": 300.0, "datum_original": "PSAD56", "huso": 19, "epsg_origen": 24879, "tipo_publicacion": "mensura", "fuente_pdf": "http://www.diariooficial.interior.gob.cl/publicaciones/2026/08/27/44535/07/2860347.pdf", "archivo": "gm_mensura_2860347.pdf", "fecha": "27-08-2026", "edicion": "44535" }, "geometry": { "type": "Polygon", "coordinates": [ [ [ -71.696861872317797, -30.836550607035935 ], [ -71.68641634233073, -30.83676779259212 ], [ -71.687170470090578, -30.86380813508223 ], [ -71.697618923681731, -30.863590717778973 ], [ -71.696861872317797, -30.836550607035935 ] ] ] } },
{ "type": "Feature", "properties": { "cve": "2860346", "nombre": "SOFIA 53 D, 1 AL 300", "solicitante": "Haciendas Talinay S.A.", "region": "REGIÓN DE COQUIMBO", "provincia": "Provincia de Limarí", "comuna": null, "superficie_ha": 300.0, "datum_original": "PSAD56", "huso": 19, "epsg_origen": 24879, "tipo_publicacion": "mensura", "fuente_pdf": "http://www.diariooficial.interior.gob.cl/publicaciones/2026/08/27/44535/07/2860346.pdf", "archivo": "gm_mensura_2860346.pdf", "fecha": "27-08-2026", "edicion": "44535" }, "geometry": { "type": "Polygon", "coordinates": [ [ [ -71.68641634233073, -30.83676779259212 ], [ -71.675970699193272, -30.836984137278439 ], [ -71.676721903217057, -30.864024710619422 ], [ -71.687170470090578, -30.86380813508223 ], [ -71.68641634233073, -30.83676779259212 ] ] ] } },
{ "type": "Feature", "properties": { "cve": "2860344", "nombre": "SOFIA 54 D, 1 AL 300", "solicitante": "Haciendas Talinay S.A.", "region": "REGIÓN DE COQUIMBO", "provincia": "Provincia de Limarí", "comuna": null, "superficie_ha": 300.0, "datum_original": "PSAD56", "huso": 19, "epsg_origen": 24879, "tipo_publicacion": "mensura", "fuente_pdf": "http://www.diariooficial.interior.gob.cl/publicaciones/2026/08/27/44535/07/2860344.pdf", "archivo": "gm_mensura_2860344.pdf", "fecha": "27-08-2026", "edicion": "44535" }, "geometry": { "type": "Polygon", "coordinates": [ [ [ -71.675970699193272, -30.836984137278439 ], [ -71.665524943343272, -30.837199641062789 ], [ -71.666273223499559, -30.864240444358352 ], [ -71.676721903217057, -30.864024710619422 ], [ -71.675970699193272, -30.836984137278439 ] ] ] } },
{ "type": "Feature", "properties": { "cve": "2860343", "nombre": "SOFIA 56 D, 1 AL 300", "solicitante": "Haciendas Talinay S.A.", "region": "REGIÓN DE COQUIMBO", "provincia": "Provincia de Limarí", "comuna": null, "superficie_ha": 300.0, "datum_original": "PSAD56", "huso": 19, "epsg_origen": 24879, "tipo_publicacion": "mensura", "fuente_pdf": "http://www.diariooficial.interior.gob.cl/publicaciones/2026/08/27/44535/07/2860343.pdf", "archivo": "gm_mensura_2860343.pdf", "fecha": "27-08-2026", "edicion": "44535" }, "geometry": { "type": "Polygon", "coordinates": [ [ [ -71.667642006950018, -30.864212231154436 ], [ -71.657193229527152, -30.864427233344671 ], [ -71.657939976959554, -30.891468105540948 ], [ -71.668391682309803, -30.891252874049297 ], [ -71.667642006950018, -30.864212231154436 ] ] ] } },
{ "type": "Feature", "properties": { "cve": "2860354", "nombre": "SOFIA 6 CD, 1 AL 300", "solicitante": "Haciendas Talinay S.A.", "region": "REGIÓN DE COQUIMBO", "provincia": "Provincia de Limarí", "comuna": null, "superficie_ha": 300.0, "datum_original": "PSAD56", "huso": 19, "epsg_origen": 24879, "tipo_publicacion": "mensura", "fuente_pdf": "http://www.diariooficial.interior.gob.cl/publicaciones/2026/08/27/44535/07/2860354.pdf", "archivo": "gm_mensura_2860354.pdf", "fecha": "27-08-2026", "edicion": "44535" }, "geometry": { "type": "Polygon", "coordinates": [ [ [ -71.682533552382992, -30.72862324637827 ], [ -71.672099555385074, -30.72883859858926 ], [ -71.672846464545572, -30.755879712150147 ], [ -71.683283369554047, -30.755664129667785 ], [ -71.682533552382992, -30.72862324637827 ] ] ] } },
{ "type": "Feature", "properties": { "cve": "2860342", "nombre": "SOFIA 62 D, 1 AL 300", "solicitante": "Haciendas Talinay S.A.", "region": "REGIÓN DE COQUIMBO", "provincia": "Provincia de Limarí", "comuna": null, "superficie_ha": 300.0, "datum_original": "PSAD56", "huso": 19, "epsg_origen": 24879, "tipo_publicacion": "mensura", "fuente_pdf": "http://www.diariooficial.interior.gob.cl/publicaciones/2026/08/27/44535/07/2860342.pdf", "archivo": "gm_mensura_2860342.pdf", "fecha": "27-08-2026", "edicion": "44535" }, "geometry": { "type": "Polygon", "coordinates": [ [ [ -71.678090671909914, -30.863996387138098 ], [ -71.667642006950018, -30.864212231154436 ], [ -71.668391682309803, -30.891252874049297 ], [ -71.678843275065773, -30.891036799834783 ], [ -71.678090671909914, -30.863996387138098 ] ] ] } },
{ "type": "Feature", "properties": { "cve": "2860341", "nombre": "SOFIA 63 D, 1 AL 300", "solicitante": "Haciendas Talinay S.A.", "region": "REGIÓN DE COQUIMBO", "provincia": "Provincia de Limarí", "comuna": null, "superficie_ha": 300.0, "datum_original": "PSAD56", "huso": 19, "epsg_origen": 24879, "tipo_publicacion": "mensura", "fuente_pdf": "http://www.diariooficial.interior.gob.cl/publicaciones/2026/08/27/44535/07/2860341.pdf", "archivo": "gm_mensura_2860341.pdf", "fecha": "27-08-2026", "edicion": "44535" }, "geometry": { "type": "Polygon", "coordinates": [ [ [ -71.688539223968391, -30.863779701327722 ], [ -71.678090671909914, -30.863996387138098 ], [ -71.678843275065773, -30.891036799834783 ], [ -71.689294754788548, -30.89081988292946 ], [ -71.688539223968391, -30.863779701327722 ] ] ] } },
{ "type": "Feature", "properties": { "cve": "2860474", "nombre": "Coya 1", "solicitante": "Serketats SpA", "region": "REGIÓN DE ATACAMA", "provincia": "Provincia de Copiapó", "comuna": "Copiapó", "superficie_ha": 300.0, "datum_original": "PSAD56", "huso": 19, "epsg_origen": 24879, "tipo_publicacion": "pedimento", "fuente_pdf": "http://www.diariooficial.interior.gob.cl/publicaciones/2026/08/27/44535/07/2860474.pdf", "archivo": "gm_pedimento_2860474.pdf", "fecha": "27-08-2026", "edicion": "44535" }, "geometry": { "type": "Polygon", "coordinates": [ [ [ -70.539470222365978, -27.415290588420515 ], [ -70.529357325200976, -27.415401884269603 ], [ -70.529730497213677, -27.442476334131452 ], [ -70.539845859615326, -27.44236491014934 ], [ -70.539470222365978, -27.415290588420515 ] ] ] } },
{ "type": "Feature", "properties": { "cve": "2860475", "nombre": "Coya 2", "solicitante": "Serketats SpA", "region": "REGIÓN DE ATACAMA", "provincia": "Provincia de Copiapó", "comuna": "Copiapó", "superficie_ha": 300.0, "datum_original": "PSAD56", "huso": 19, "epsg_origen": 24879, "tipo_publicacion": "pedimento", "fuente_pdf": "http://www.diariooficial.interior.gob.cl/publicaciones/2026/08/27/44535/07/2860475.pdf", "archivo": "gm_pedimento_2860475.pdf", "fecha": "27-08-2026", "edicion": "44535" }, "geometry": { "type": "Polygon", "coordinates": [ [ [ -70.549457144519494, -27.406153804100516 ], [ -70.519120916347148, -27.406487563539503 ], [ -70.519244370081566, -27.41551244717893 ], [ -70.549583061193914, -27.415178559647497 ], [ -70.549457144519494, -27.406153804100516 ] ] ] } },
{ "type": "Feature", "properties": { "cve": "2860476", "nombre": "Coya 3", "solicitante": "Serketats SpA", "region": "REGIÓN DE ATACAMA", "provincia": "Provincia de Copiapó", "comuna": "Copiapó", "superficie_ha": 300.0, "datum_original": "PSAD56", "huso": 19, "epsg_origen": 24879, "tipo_publicacion": "pedimento", "fuente_pdf": "http://www.diariooficial.interior.gob.cl/publicaciones/2026/08/27/44535/07/2860476.pdf", "archivo": "gm_pedimento_2860476.pdf", "fecha": "27-08-2026", "edicion": "44535" }, "geometry": { "type": "Polygon", "coordinates": [ [ [ -70.53922008925359, -27.397240979066183 ], [ -70.508886149131527, -27.397572413300292 ], [ -70.50900872467632, -27.406597351358062 ], [ -70.539345126651284, -27.406265789894949 ], [ -70.53922008925359, -27.397240979066183 ] ] ] } },
{ "type": "Feature", "properties": { "cve": "2860477", "nombre": "Coya 4", "solicitante": "Serketats SpA", "region": "REGIÓN DE ATACAMA", "provincia": "Provincia de Copiapó", "comuna": "Copiapó", "superficie_ha": 300.0, "datum_original": "PSAD56", "huso": 19, "epsg_origen": 24879, "tipo_publicacion": "pedimento", "fuente_pdf": "http://www.diariooficial.interior.gob.cl/publicaciones/2026/08/27/44535/07/2860477.pdf", "archivo": "gm_pedimento_2860477.pdf", "fecha": "27-08-2026", "edicion": "44535" }, "geometry": { "type": "Polygon", "coordinates": [ [ [ -70.528984674780233, -27.388327323714002 ], [ -70.49865302282906, -27.388656434402396 ], [ -70.498774720949214, -27.397681426581283 ], [ -70.529108833666143, -27.39735218952708 ], [ -70.528984674780233, -27.388327323714002 ] ] ] } },
{ "type": "Feature", "properties": { "cve": "2860290", "nombre": "BIGOTES 10", "solicitante": "Sociedad Minera El Águila SpA", "region": "REGIÓN DE ATACAMA", "provincia": "Provincia de Huasco", "comuna": "Vallenar", "superficie_ha": 200.0, "datum_original": "PSAD56", "huso": 19, "epsg_origen": 24879, "tipo_publicacion": "pedimento", "fuente_pdf": "http://www.diariooficial.interior.gob.cl/publicaciones/2026/08/27/44535/07/2860290.pdf", "archivo": "gm_pedimento_2860290.pdf", "fecha": "27-08-2026", "edicion": "44535" }, "geometry": { "type": "Polygon", "coordinates": [ [ [ -70.917611182233998, -28.782301016753042 ], [ -70.907371362308439, -28.782446038828954 ], [ -70.907699857244438, -28.800488472215221 ], [ -70.91794143808356, -28.800343342415907 ], [ -70.917611182233998, -28.782301016753042 ] ] ] } },
{ "type": "Feature", "properties": { "cve": "2860373", "nombre": "Candy", "solicitante": "Pérez Aguirre Jorge Gilberto", "region": "REGIÓN DE COQUIMBO", "provincia": "Provincia de Elqui", "comuna": "Higuera", "superficie_ha": 300.0, "datum_original": "PSAD56", "huso": 19, "epsg_origen": 24879, "tipo_publicacion": "pedimento", "fuente_pdf": "http://www.diariooficial.interior.gob.cl/publicaciones/2026/08/27/44535/07/2860373.pdf", "archivo": "gm_pedimento_2860373.pdf", "fecha": "27-08-2026", "edicion": "44535" }, "geometry": { "type": "Polygon", "coordinates": [ [ [ -70.573738622171916, -29.208173718727355 ], [ -70.563454874340096, -29.208294269430752 ], [ -70.563866023306034, -29.235361114009624 ], [ -70.57415247278972, -29.235240430214404 ], [ -70.573738622171916, -29.208173718727355 ] ] ] } },
{ "type": "Feature", "properties": { "cve": "2860371", "nombre": "Ivone 2", "solicitante": "Pérez Aguirre Jorge Gilberto", "region": "REGIÓN DE COQUIMBO", "provincia": "Provincia de Elqui", "comuna": "Higuera", "superficie_ha": 300.0, "datum_original": "PSAD56", "huso": 19, "epsg_origen": 24879, "tipo_publicacion": "pedimento", "fuente_pdf": "http://www.diariooficial.interior.gob.cl/publicaciones/2026/08/27/44535/07/2860371.pdf", "archivo": "gm_pedimento_2860371.pdf", "fecha": "27-08-2026", "edicion": "44535" }, "geometry": { "type": "Polygon", "coordinates": [ [ [ -70.581366817810093, -29.236057699778758 ], [ -70.550507142908288, -29.236419052929538 ], [ -70.550643152200664, -29.245441364710079 ], [ -70.581505531366048, -29.245079878681214 ], [ -70.581366817810093, -29.236057699778758 ] ] ] } },
{ "type": "Feature", "properties": { "cve": "2860370", "nombre": "Lucy", "solicitante": "Pérez Aguirre Jorge Gilberto", "region": "REGIÓN DE COQUIMBO", "provincia": "Provincia de Elqui", "comuna": "Higuera", "superficie_ha": 300.0, "datum_original": "PSAD56", "huso": 19, "epsg_origen": 24879, "tipo_publicacion": "pedimento", "fuente_pdf": "http://www.diariooficial.interior.gob.cl/publicaciones/2026/08/27/44535/07/2860370.pdf", "archivo": "gm_pedimento_2860370.pdf", "fecha": "27-08-2026", "edicion": "44535" }, "geometry": { "type": "Polygon", "coordinates": [ [ [ -70.584022307024497, -29.208052378347006 ], [ -70.573738622171916, -29.208173718727355 ], [ -70.57415247278972, -29.235240430214404 ], [ -70.584438859224306, -29.235118955870728 ], [ -70.584022307024497, -29.208052378347006 ] ] ] } },
{ "type": "Feature", "properties": { "cve": "2860372", "nombre": "Ojos de Agua", "solicitante": "Pérez Aguirre Jorge Gilberto", "region": "REGIÓN DE COQUIMBO", "provincia": "Provincia de Elqui", "comuna": "Higuera", "superficie_ha": 300.0, "datum_original": "PSAD56", "huso": 19, "epsg_origen": 24879, "tipo_publicacion": "pedimento", "fuente_pdf": "http://www.diariooficial.interior.gob.cl/publicaciones/2026/08/27/44535/07/2860372.pdf", "archivo": "gm_pedimento_2860372.pdf", "fecha": "27-08-2026", "edicion": "44535" }, "geometry": { "type": "Polygon", "coordinates": [ [ [ -70.57415247278972, -29.235240430214404 ], [ -70.563866023306034, -29.235361114009624 ], [ -70.564277736014262, -29.262427842837752 ], [ -70.574566890852026, -29.262307025882375 ], [ -70.57415247278972, -29.235240430214404 ] ] ] } },
{ "type": "Feature", "properties": { "cve": "2860425", "nombre": "MOCTEZUMA 295", "solicitante": "Fresnillo Chile SpA", "region": "REGIÓN DEL MAULE", "provincia": "Provincia de Talca", "comuna": null, "superficie_ha": 300.0, "datum_original": "PSAD56", "huso": 19, "epsg_origen": 24879, "tipo_publicacion": "pedimento", "fuente_pdf": "http://www.diariooficial.interior.gob.cl/publicaciones/2026/08/27/44535/07/2860425.pdf", "archivo": "gm_pedimento_2860425.pdf", "fecha": "27-08-2026", "edicion": "44535" }, "geometry": { "type": "Polygon", "coordinates": [ [ [ -71.823949433344367, -35.172919291130235 ], [ -71.791043647338455, -35.173682480124469 ], [ -71.791351731702875, -35.182688849286727 ], [ -71.824261138250364, -35.181925407004158 ], [ -71.823949433344367, -35.172919291130235 ] ] ] } }
]
}
