{
"type": "FeatureCollection",
"name": "boletin_mineria_20260806",
"crs": { "type": "name", "properties": { "name": "urn:ogc:def:crs:OGC:1.3:CRS84" } },
"features": [
{ "type": "Feature", "properties": { "cve": "2849311", "nombre": "AL FIN HALLADA 1 AL 24", "solicitante": "SLM Peineta III Una de Diego de Almagro", "region": "REGIÓN DE ATACAMA", "provincia": "Provincia de Copiapó", "comuna": null, "superficie_ha": 24.0, "datum_original": "PSAD56", "huso": 19, "epsg_origen": 24879, "tipo_publicacion": "manifestacion", "fuente_pdf": "http://www.diariooficial.interior.gob.cl/publicaciones/2026/08/06/44518/07/2849311.pdf", "archivo": "gm_manifestacion_2849311.pdf", "fecha": "06-08-2026", "edicion": "44518" }, "geometry": { "type": "Polygon", "coordinates": [ [ [ -69.97206758768705, -27.072841345918917 ], [ -69.968033920939618, -27.07286916870288 ], [ -69.96808045122259, -27.078285495992201 ], [ -69.972114311781155, -27.078257666745969 ], [ -69.97206758768705, -27.072841345918917 ] ] ] } },
{ "type": "Feature", "properties": { "cve": "2849134", "nombre": "ARENAL, 1 AL 40", "solicitante": "Viteri Aldunate Walter Enrique", "region": "REGIÓN DE ATACAMA", "provincia": "Provincia de Copiapó", "comuna": "Tierra Amarilla", "superficie_ha": 200.0, "datum_original": "PSAD56", "huso": 19, "epsg_origen": 24879, "tipo_publicacion": "manifestacion", "fuente_pdf": "http://www.diariooficial.interior.gob.cl/publicaciones/2026/08/06/44518/07/2849134.pdf", "archivo": "gm_manifestacion_2849134.pdf", "fecha": "06-08-2026", "edicion": "44518" }, "geometry": { "type": "Polygon", "coordinates": [ [ [ -69.444089717276341, -27.950291444795333 ], [ -69.433924068484401, -27.950323860220028 ], [ -69.433996264384973, -27.968378039262269 ], [ -69.444163604394575, -27.968345599275509 ], [ -69.444089717276341, -27.950291444795333 ] ] ] } },
{ "type": "Feature", "properties": { "cve": "2849320", "nombre": "ESTHER 1 AL 20", "solicitante": "Maturana Valdivia José Claudio", "region": "REGIÓN DE ATACAMA", "provincia": "Provincia de Copiapó", "comuna": null, "superficie_ha": 20.0, "datum_original": "PSAD56", "huso": 19, "epsg_origen": 24879, "tipo_publicacion": "manifestacion", "fuente_pdf": "http://www.diariooficial.interior.gob.cl/publicaciones/2026/08/06/44518/07/2849320.pdf", "archivo": "gm_manifestacion_2849320.pdf", "fecha": "06-08-2026", "edicion": "44518" }, "geometry": { "type": "Polygon", "coordinates": [ [ [ -70.392168293037173, -28.145874559660331 ], [ -70.388095754619172, -28.145915876670706 ], [ -70.388153943240312, -28.15042809634809 ], [ -70.392226652243863, -28.150386771550352 ], [ -70.392168293037173, -28.145874559660331 ] ] ] } },
{ "type": "Feature", "properties": { "cve": "2849312", "nombre": "MATRIX 1 AL 6", "solicitante": "Peralta Reyes Carlos Segundo", "region": "REGIÓN DE ATACAMA", "provincia": "Provincia de Copiapó", "comuna": null, "superficie_ha": 12.0, "datum_original": "PSAD56", "huso": 19, "epsg_origen": 24879, "tipo_publicacion": "manifestacion", "fuente_pdf": "http://www.diariooficial.interior.gob.cl/publicaciones/2026/08/06/44518/07/2849312.pdf", "archivo": "gm_manifestacion_2849312.pdf", "fecha": "06-08-2026", "edicion": "44518" }, "geometry": { "type": "Polygon", "coordinates": [ [ [ -70.584833071070889, -27.283903294011612 ], [ -70.582812924641615, -27.28392616851421 ], [ -70.582889691456714, -27.289341032287361 ], [ -70.58490993576369, -27.28931815250148 ], [ -70.584833071070889, -27.283903294011612 ] ] ] } },
{ "type": "Feature", "properties": { "cve": "2849313", "nombre": "RESGUARDO 1 AL 36", "solicitante": "SLM Peineta III Una de Diego de Almagro", "region": "REGIÓN DE ATACAMA", "provincia": "Provincia de Copiapó", "comuna": null, "superficie_ha": 36.0, "datum_original": "PSAD56", "huso": 19, "epsg_origen": 24879, "tipo_publicacion": "manifestacion", "fuente_pdf": "http://www.diariooficial.interior.gob.cl/publicaciones/2026/08/06/44518/07/2849313.pdf", "archivo": "gm_manifestacion_2849313.pdf", "fecha": "06-08-2026", "edicion": "44518" }, "geometry": { "type": "Polygon", "coordinates": [ [ [ -69.972020876724557, -27.067425020810614 ], [ -69.965970665057881, -27.067466701933267 ], [ -69.966017085384877, -27.072883036723979 ], [ -69.97206758768705, -27.072841345918917 ], [ -69.972020876724557, -27.067425020810614 ] ] ] } },
{ "type": "Feature", "properties": { "cve": "2849263", "nombre": "SARASOTA 1 AL 20", "solicitante": "Kincade Pefaur Daniel Etienne", "region": "REGIÓN DE ATACAMA", "provincia": "Provincia de Copiapó", "comuna": "Copiapó", "superficie_ha": 100.0, "datum_original": "PSAD56", "huso": 19, "epsg_origen": 24879, "tipo_publicacion": "manifestacion", "fuente_pdf": "http://www.diariooficial.interior.gob.cl/publicaciones/2026/08/06/44518/07/2849263.pdf", "archivo": "gm_manifestacion_2849263.pdf", "fecha": "06-08-2026", "edicion": "44518" }, "geometry": { "type": "Polygon", "coordinates": [ [ [ -69.804319069983691, -27.122778108792854 ], [ -69.79422996185626, -27.122835518543855 ], [ -69.794293732449702, -27.131863086558244 ], [ -69.804383650443839, -27.131805654610098 ], [ -69.804319069983691, -27.122778108792854 ] ] ] } },
{ "type": "Feature", "properties": { "cve": "2849135", "nombre": "SERRANÍA, 1 AL 40", "solicitante": "Viteri Aldunate Walter Enrique", "region": "REGIÓN DE ATACAMA", "provincia": "Provincia de Copiapó", "comuna": "Tierra Amarilla", "superficie_ha": 200.0, "datum_original": "PSAD56", "huso": 19, "epsg_origen": 24879, "tipo_publicacion": "manifestacion", "fuente_pdf": "http://www.diariooficial.interior.gob.cl/publicaciones/2026/08/06/44518/07/2849135.pdf", "archivo": "gm_manifestacion_2849135.pdf", "fecha": "06-08-2026", "edicion": "44518" }, "geometry": { "type": "Polygon", "coordinates": [ [ [ -69.444145126197199, -27.963832065149905 ], [ -69.423811275356442, -27.963896181849439 ], [ -69.423846544023903, -27.972923271385476 ], [ -69.444182086871734, -27.972859130404306 ], [ -69.444145126197199, -27.963832065149905 ] ] ] } },
{ "type": "Feature", "properties": { "cve": "2849274", "nombre": "PEINECILLO I A 1 AL 10", "solicitante": "Richard Mercado Francisco Javier", "region": "REGIÓN DE ATACAMA", "provincia": "Provincia de Chañaral", "comuna": null, "superficie_ha": 10.0, "datum_original": "PSAD56", "huso": 19, "epsg_origen": 24879, "tipo_publicacion": "manifestacion", "fuente_pdf": "http://www.diariooficial.interior.gob.cl/publicaciones/2026/08/06/44518/07/2849274.pdf", "archivo": "gm_manifestacion_2849274.pdf", "fecha": "06-08-2026", "edicion": "44518" }, "geometry": { "type": "Polygon", "coordinates": [ [ [ -69.930968060929487, -26.610880881018751 ], [ -69.92594633561356, -26.610913644331163 ], [ -69.925960876404929, -26.612719228136715 ], [ -69.930982680552887, -26.612686462257081 ], [ -69.930968060929487, -26.610880881018751 ] ] ] } },
{ "type": "Feature", "properties": { "cve": "2849275", "nombre": "PEINECILLO I B 1 AL 10", "solicitante": "Richard Mercado Francisco Javier", "region": "REGIÓN DE ATACAMA", "provincia": "Provincia de Chañaral", "comuna": null, "superficie_ha": 40.0, "datum_original": "PSAD56", "huso": 19, "epsg_origen": 24879, "tipo_publicacion": "manifestacion", "fuente_pdf": "http://www.diariooficial.interior.gob.cl/publicaciones/2026/08/06/44518/07/2849275.pdf", "archivo": "gm_manifestacion_2849275.pdf", "fecha": "06-08-2026", "edicion": "44518" }, "geometry": { "type": "Polygon", "coordinates": [ [ [ -69.924941989520391, -26.610920175735181 ], [ -69.920924601726924, -26.610946230489422 ], [ -69.920996925161504, -26.619974157590661 ], [ -69.925014628345096, -26.619948092627965 ], [ -69.924941989520391, -26.610920175735181 ] ] ] } },
{ "type": "Feature", "properties": { "cve": "2849276", "nombre": "PEINECILLO II 1 AL 20", "solicitante": "Richard Mercado Francisco Javier", "region": "REGIÓN DE ATACAMA", "provincia": "Provincia de Chañaral", "comuna": null, "superficie_ha": 100.0, "datum_original": "PSAD56", "huso": 19, "epsg_origen": 24879, "tipo_publicacion": "manifestacion", "fuente_pdf": "http://www.diariooficial.interior.gob.cl/publicaciones/2026/08/06/44518/07/2849276.pdf", "archivo": "gm_manifestacion_2849276.pdf", "fecha": "06-08-2026", "edicion": "44518" }, "geometry": { "type": "Polygon", "coordinates": [ [ [ -69.93502948720041, -26.61627127893367 ], [ -69.924985568704983, -26.616336927279065 ], [ -69.925058228082776, -26.625364837130363 ], [ -69.935102935268446, -26.625299163067144 ], [ -69.93502948720041, -26.61627127893367 ] ] ] } },
{ "type": "Feature", "properties": { "cve": "2849357", "nombre": "VISTA AL VALLE 1 AL 36", "solicitante": "Páez Ortiz Sebastián del Rosario", "region": "REGIÓN DE ATACAMA", "provincia": "Provincia de Huasco", "comuna": null, "superficie_ha": 36.0, "datum_original": "WGS84", "huso": 19, "epsg_origen": 32719, "tipo_publicacion": "manifestacion", "fuente_pdf": "http://www.diariooficial.interior.gob.cl/publicaciones/2026/08/06/44518/07/2849357.pdf", "archivo": "gm_manifestacion_2849357.pdf", "fecha": "06-08-2026", "edicion": "44518" }, "geometry": { "type": "Polygon", "coordinates": [ [ [ -70.381809896747072, -29.073346150589924 ], [ -70.375647161146077, -29.073409468732311 ], [ -70.375719085548013, -29.078823421576303 ], [ -70.381882143112406, -29.078760089413777 ], [ -70.381809896747072, -29.073346150589924 ] ] ] } },
{ "type": "Feature", "properties": { "cve": "2849137", "nombre": "LA FORTUNA 1 AL 18", "solicitante": "Barrera Muñoz Alexis Javier", "region": "REGIÓN DE COQUIMBO", "provincia": "Provincia de Elqui", "comuna": "Vicuña", "superficie_ha": 90.0, "datum_original": "PSAD56", "huso": 19, "epsg_origen": 24879, "tipo_publicacion": "manifestacion", "fuente_pdf": "http://www.diariooficial.interior.gob.cl/publicaciones/2026/08/06/44518/07/2849137.pdf", "archivo": "gm_manifestacion_2849137.pdf", "fecha": "06-08-2026", "edicion": "44518" }, "geometry": { "type": "Polygon", "coordinates": [ [ [ -70.764381070862612, -30.052774879743545 ], [ -70.754012189434121, -30.052913606813249 ], [ -70.754155317777517, -30.061031845056604 ], [ -70.764525044245346, -30.060893072864058 ], [ -70.764381070862612, -30.052774879743545 ] ] ] } },
{ "type": "Feature", "properties": { "cve": "2849110", "nombre": "EL PEÑON 1, 1 AL 100", "solicitante": "Osses Durán Johnny Luis", "region": "REGIÓN DE VALPARAÍSO", "provincia": "Provincia de Petorca", "comuna": null, "superficie_ha": 100.0, "datum_original": "PSAD56", "huso": 19, "epsg_origen": 24879, "tipo_publicacion": "manifestacion", "fuente_pdf": "http://www.diariooficial.interior.gob.cl/publicaciones/2026/08/06/44518/07/2849110.pdf", "archivo": "gm_manifestacion_2849110.pdf", "fecha": "06-08-2026", "edicion": "44518" }, "geometry": { "type": "Polygon", "coordinates": [ [ [ -70.925587078677182, -32.37357405300056 ], [ -70.914962774601349, -32.373735894415624 ], [ -70.915152998364363, -32.382752064514811 ], [ -70.925778356225024, -32.382590167084274 ], [ -70.925587078677182, -32.37357405300056 ] ] ] } },
{ "type": "Feature", "properties": { "cve": "2849250", "nombre": "ESPERANZA 1/13", "solicitante": "Taibo Leyton Gabriel", "region": "REGIÓN DE VALPARAÍSO", "provincia": "Provincia de San Felipe de Aconcagua", "comuna": null, "superficie_ha": 65.0, "datum_original": "WGS84", "huso": 19, "epsg_origen": 32719, "tipo_publicacion": "manifestacion", "fuente_pdf": "http://www.diariooficial.interior.gob.cl/publicaciones/2026/08/06/44518/07/2849250.pdf", "archivo": "gm_manifestacion_2849250.pdf", "fecha": "06-08-2026", "edicion": "44518" }, "geometry": { "type": "Polygon", "coordinates": [ [ [ -70.855095488286565, -32.901560069596428 ], [ -70.841201873247812, -32.901765504148408 ], [ -70.841295194886698, -32.906273426203981 ], [ -70.855189513144836, -32.906067956408151 ], [ -70.855095488286565, -32.901560069596428 ] ] ] } },
{ "type": "Feature", "properties": { "cve": "2849236", "nombre": "JAIERA II 1 AL 10", "solicitante": "Barriga Barriga Francisco Cristian Benjamín", "region": "REGIÓN DE ATACAMA", "provincia": "Provincia de Copiapó", "comuna": null, "superficie_ha": 100.0, "datum_original": "PSAD56", "huso": 19, "epsg_origen": 24879, "tipo_publicacion": "mensura", "fuente_pdf": "http://www.diariooficial.interior.gob.cl/publicaciones/2026/08/06/44518/07/2849236.pdf", "archivo": "gm_mensura_2849236.pdf", "fecha": "06-08-2026", "edicion": "44518" }, "geometry": { "type": "Polygon", "coordinates": [ [ [ -70.68172837524277, -27.458776167029129 ], [ -70.671612220456211, -27.458897955595091 ], [ -70.671748367209403, -27.4679220990452 ], [ -70.681865344976231, -27.467800263802825 ], [ -70.68172837524277, -27.458776167029129 ] ] ] } },
{ "type": "Feature", "properties": { "cve": "2849237", "nombre": "JAVIERA I 1 AL 15", "solicitante": "Barriga Barriga Francisco Cristian Benjamín", "region": "REGIÓN DE ATACAMA", "provincia": "Provincia de Copiapó", "comuna": null, "superficie_ha": 120.0, "datum_original": "PSAD56", "huso": 19, "epsg_origen": 24879, "tipo_publicacion": "mensura", "fuente_pdf": "http://www.diariooficial.interior.gob.cl/publicaciones/2026/08/06/44518/07/2849237.pdf", "archivo": "gm_mensura_2849237.pdf", "fecha": "06-08-2026", "edicion": "44518" }, "geometry": { "type": "Polygon", "coordinates": [ [ [ -70.681865344976231, -27.467800263802825 ], [ -70.666689854510864, -27.467982741269211 ], [ -70.666798488254827, -27.475202065679156 ], [ -70.681974966717064, -27.475019532277472 ], [ -70.681865344976231, -27.467800263802825 ] ] ] } },
{ "type": "Feature", "properties": { "cve": "2849164", "nombre": "ESCONDIDO 1B, 1 AL 20", "solicitante": "Atex Valeriano SpA", "region": "REGIÓN DE ATACAMA", "provincia": "Provincia de Huasco", "comuna": null, "superficie_ha": 100.0, "datum_original": "PSAD56", "huso": 19, "epsg_origen": 24879, "tipo_publicacion": "mensura", "fuente_pdf": "http://www.diariooficial.interior.gob.cl/publicaciones/2026/08/06/44518/07/2849164.pdf", "archivo": "gm_mensura_2849164.pdf", "fecha": "06-08-2026", "edicion": "44518" }, "geometry": { "type": "Polygon", "coordinates": [ [ [ -69.875658924801215, -29.129726162767895 ], [ -69.865380318747583, -29.12979290695813 ], [ -69.865455904800555, -29.138817647835317 ], [ -69.875735408354018, -29.138750879038071 ], [ -69.875658924801215, -29.129726162767895 ] ] ] } },
{ "type": "Feature", "properties": { "cve": "2849165", "nombre": "ESCONDIDO 2B, 1 AL 20", "solicitante": "Atex Valeriano SpA", "region": "REGIÓN DE ATACAMA", "provincia": "Provincia de Huasco", "comuna": null, "superficie_ha": 100.0, "datum_original": "PSAD56", "huso": 19, "epsg_origen": 24879, "tipo_publicacion": "mensura", "fuente_pdf": "http://www.diariooficial.interior.gob.cl/publicaciones/2026/08/06/44518/07/2849165.pdf", "archivo": "gm_mensura_2849165.pdf", "fecha": "06-08-2026", "edicion": "44518" }, "geometry": { "type": "Polygon", "coordinates": [ [ [ -69.844771369738439, -29.123606671831784 ], [ -69.834493289271165, -29.123671035729743 ], [ -69.834566159417662, -29.132695857379304 ], [ -69.844845137135351, -29.132631469748517 ], [ -69.844771369738439, -29.123606671831784 ] ] ] } },
{ "type": "Feature", "properties": { "cve": "2849148", "nombre": "ANTONIO 1 AL14", "solicitante": "DAI Mining SpA", "region": "REGIÓN DE COQUIMBO", "provincia": "Provincia de Elqui", "comuna": "La Serena", "superficie_ha": 70.0, "datum_original": "PSAD56", "huso": 19, "epsg_origen": 24879, "tipo_publicacion": "mensura", "fuente_pdf": "http://www.diariooficial.interior.gob.cl/publicaciones/2026/08/06/44518/07/2849148.pdf", "archivo": "gm_mensura_2849148.pdf", "fecha": "06-08-2026", "edicion": "44518" }, "geometry": { "type": "Polygon", "coordinates": [ [ [ -71.169442553810853, -29.654812202674417 ], [ -71.159117222968405, -29.654980817502235 ], [ -71.159252054806061, -29.661293856447436 ], [ -71.169578029211237, -29.661125198620457 ], [ -71.169442553810853, -29.654812202674417 ] ] ] } },
{ "type": "Feature", "properties": { "cve": "2849162", "nombre": "SELENA 2 1/33", "solicitante": "SLM Selena 2 Uno de La Serena", "region": "REGIÓN DE COQUIMBO", "provincia": "Provincia de Elqui", "comuna": "La Serena", "superficie_ha": 115.0, "datum_original": "PSAD56", "huso": 19, "epsg_origen": 24879, "tipo_publicacion": "mensura", "fuente_pdf": "http://www.diariooficial.interior.gob.cl/publicaciones/2026/08/06/44518/07/2849162.pdf", "archivo": "gm_mensura_2849162.pdf", "fecha": "06-08-2026", "edicion": "44518" }, "geometry": { "type": "Polygon", "coordinates": [ [ [ -71.117777902612062, -30.094739693866071 ], [ -71.106369700490262, -30.09492312189197 ], [ -71.106465336067259, -30.099432288340363 ], [ -71.111651130533531, -30.099349019580437 ], [ -71.111842936887498, -30.108367312227081 ], [ -71.118066425783255, -30.108267083683419 ], [ -71.117777902612062, -30.094739693866071 ] ] ] } },
{ "type": "Feature", "properties": { "cve": "2849283", "nombre": "SAN ANDRES II 1 AL 36", "solicitante": "Valenzuela León Luis David", "region": "REGIÓN DE COQUIMBO", "provincia": "Provincia de Limarí", "comuna": null, "superficie_ha": 36.0, "datum_original": "PSAD56", "huso": 19, "epsg_origen": 24879, "tipo_publicacion": "mensura", "fuente_pdf": "http://www.diariooficial.interior.gob.cl/publicaciones/2026/08/06/44518/07/2849283.pdf", "archivo": "gm_mensura_2849283.pdf", "fecha": "06-08-2026", "edicion": "44518" }, "geometry": { "type": "Polygon", "coordinates": [ [ [ -71.124299413532995, -30.49426963555651 ], [ -71.118051524966958, -30.494371318475917 ], [ -71.118168786177591, -30.499781944117 ], [ -71.124417020010782, -30.499680239348216 ], [ -71.124299413532995, -30.49426963555651 ] ] ] } },
{ "type": "Feature", "properties": { "cve": "2849284", "nombre": "SAN ANDRES III 1 AL 297", "solicitante": "Valenzuela León Luis David", "region": "REGIÓN DE COQUIMBO", "provincia": "Provincia de Limarí", "comuna": null, "superficie_ha": 170.0, "datum_original": "PSAD56", "huso": 19, "epsg_origen": 24879, "tipo_publicacion": "mensura", "fuente_pdf": "http://www.diariooficial.interior.gob.cl/publicaciones/2026/08/06/44518/07/2849284.pdf", "archivo": "gm_mensura_2849284.pdf", "fecha": "06-08-2026", "edicion": "44518" }, "geometry": { "type": "Polygon", "coordinates": [ [ [ -71.117110391589151, -30.475442712628759 ], [ -71.106699181811464, -30.475611350301858 ], [ -71.107223886701973, -30.499959376058197 ], [ -71.108265270475002, -30.49994253336753 ], [ -71.108070764801923, -30.490924763725623 ], [ -71.113277190965164, -30.490840455827325 ], [ -71.113472176149642, -30.499858195272765 ], [ -71.11763768483479, -30.499790575228698 ], [ -71.117325137129626, -30.485362224271483 ], [ -71.112119016173324, -30.485446680146392 ], [ -71.11192426770377, -30.476428912727545 ], [ -71.117129909501472, -30.476344487099848 ], [ -71.117110391589151, -30.475442712628759 ] ] ] } },
{ "type": "Feature", "properties": { "cve": "2849309", "nombre": "GABY I", "solicitante": "Richard Mercado Francisco Javier", "region": "REGIÓN DE ATACAMA", "provincia": "Provincia de Copiapó", "comuna": null, "superficie_ha": 200.0, "datum_original": "PSAD56", "huso": 19, "epsg_origen": 24879, "tipo_publicacion": "pedimento", "fuente_pdf": "http://www.diariooficial.interior.gob.cl/publicaciones/2026/08/06/44518/07/2849309.pdf", "archivo": "gm_pedimento_2849309.pdf", "fecha": "06-08-2026", "edicion": "44518" }, "geometry": { "type": "Polygon", "coordinates": [ [ [ -70.017005045606439, -27.578055311041034 ], [ -70.006875205625818, -27.578129115131592 ], [ -70.007040105510399, -27.596181994584917 ], [ -70.017171603800847, -27.596108134069365 ], [ -70.017005045606439, -27.578055311041034 ] ] ] } },
{ "type": "Feature", "properties": { "cve": "2849310", "nombre": "GABY II", "solicitante": "Richard Mercado Francisco Javier", "region": "REGIÓN DE ATACAMA", "provincia": "Provincia de Copiapó", "comuna": null, "superficie_ha": 200.0, "datum_original": "PSAD56", "huso": 19, "epsg_origen": 24879, "tipo_publicacion": "pedimento", "fuente_pdf": "http://www.diariooficial.interior.gob.cl/publicaciones/2026/08/06/44518/07/2849310.pdf", "archivo": "gm_pedimento_2849310.pdf", "fecha": "06-08-2026", "edicion": "44518" }, "geometry": { "type": "Polygon", "coordinates": [ [ [ -70.013874830129183, -27.568148447242976 ], [ -69.993616911691831, -27.568294812187389 ], [ -69.993698223148115, -27.577321307451562 ], [ -70.013957798682796, -27.577174886548082 ], [ -70.013874830129183, -27.568148447242976 ] ] ] } },
{ "type": "Feature", "properties": { "cve": "2849317", "nombre": "SANTA BLANCA", "solicitante": "Ghiglino Zaro Mario Antonio", "region": "REGIÓN DE ATACAMA", "provincia": "Provincia de Copiapó", "comuna": null, "superficie_ha": 300.0, "datum_original": "PSAD56", "huso": 19, "epsg_origen": 24879, "tipo_publicacion": "pedimento", "fuente_pdf": "http://www.diariooficial.interior.gob.cl/publicaciones/2026/08/06/44518/07/2849317.pdf", "archivo": "gm_pedimento_2849317.pdf", "fecha": "06-08-2026", "edicion": "44518" }, "geometry": { "type": "Polygon", "coordinates": [ [ [ -70.445712114785579, -27.205073619547893 ], [ -70.415429083135777, -27.205382721736584 ], [ -70.415543126795001, -27.214408287240751 ], [ -70.445828596352911, -27.21409906581529 ], [ -70.445712114785579, -27.205073619547893 ] ] ] } },
{ "type": "Feature", "properties": { "cve": "2849217", "nombre": "CASTILLO 1", "solicitante": "Antimony Holdings Chile SpA", "region": "REGIÓN DE ATACAMA", "provincia": "Provincia de Chañaral", "comuna": "DIEGO DE ALMAGRO", "superficie_ha": 300.0, "datum_original": "PSAD56", "huso": 19, "epsg_origen": 24879, "tipo_publicacion": "pedimento", "fuente_pdf": "http://www.diariooficial.interior.gob.cl/publicaciones/2026/08/06/44518/07/2849217.pdf", "archivo": "gm_pedimento_2849217.pdf", "fecha": "06-08-2026", "edicion": "44518" }, "geometry": { "type": "Polygon", "coordinates": [ [ [ -69.401147190189434, -25.888262530594144 ], [ -69.391164716058782, -25.888289786914054 ], [ -69.391254037970199, -25.915378824779673 ], [ -69.401238791437592, -25.915351535778857 ], [ -69.401147190189434, -25.888262530594144 ] ] ] } },
{ "type": "Feature", "properties": { "cve": "2849218", "nombre": "CASTILLO 2", "solicitante": "Antimony Holdings Chile SpA", "region": "REGIÓN DE ATACAMA", "provincia": "Provincia de Chañaral", "comuna": "DIEGO DE ALMAGRO", "superficie_ha": 300.0, "datum_original": "PSAD56", "huso": 19, "epsg_origen": 24879, "tipo_publicacion": "pedimento", "fuente_pdf": "http://www.diariooficial.interior.gob.cl/publicaciones/2026/08/06/44518/07/2849218.pdf", "archivo": "gm_pedimento_2849218.pdf", "fecha": "06-08-2026", "edicion": "44518" }, "geometry": { "type": "Polygon", "coordinates": [ [ [ -69.391164716058782, -25.888289786914054 ], [ -69.381182227739274, -25.888316356455775 ], [ -69.38126927029991, -25.915405426178857 ], [ -69.391254037970199, -25.915378824779673 ], [ -69.391164716058782, -25.888289786914054 ] ] ] } },
{ "type": "Feature", "properties": { "cve": "2849219", "nombre": "CASTILLO 3", "solicitante": "Antimony Holdings Chile SpA", "region": "REGIÓN DE ATACAMA", "provincia": "Provincia de Chañaral", "comuna": "DIEGO DE ALMAGRO", "superficie_ha": 200.0, "datum_original": "PSAD56", "huso": 19, "epsg_origen": 24879, "tipo_publicacion": "pedimento", "fuente_pdf": "http://www.diariooficial.interior.gob.cl/publicaciones/2026/08/06/44518/07/2849219.pdf", "archivo": "gm_pedimento_2849219.pdf", "fecha": "06-08-2026", "edicion": "44518" }, "geometry": { "type": "Polygon", "coordinates": [ [ [ -69.401238791437592, -25.915351535778857 ], [ -69.391254037970199, -25.915378824779673 ], [ -69.391313656919181, -25.933438126498576 ], [ -69.401299931756327, -25.933410815702416 ], [ -69.401238791437592, -25.915351535778857 ] ] ] } },
{ "type": "Feature", "properties": { "cve": "2849220", "nombre": "CASTILLO 4", "solicitante": "Antimony Holdings Chile SpA", "region": "REGIÓN DE ATACAMA", "provincia": "Provincia de Chañaral", "comuna": "DIEGO DE ALMAGRO", "superficie_ha": 100.0, "datum_original": "PSAD56", "huso": 19, "epsg_origen": 24879, "tipo_publicacion": "pedimento", "fuente_pdf": "http://www.diariooficial.interior.gob.cl/publicaciones/2026/08/06/44518/07/2849220.pdf", "archivo": "gm_pedimento_2849220.pdf", "fecha": "06-08-2026", "edicion": "44518" }, "geometry": { "type": "Polygon", "coordinates": [ [ [ -69.391254037970199, -25.915378824779673 ], [ -69.38126927029991, -25.915405426178857 ], [ -69.381298312162158, -25.924435093348286 ], [ -69.391283840340776, -25.924408481326804 ], [ -69.391254037970199, -25.915378824779673 ] ] ] } },
{ "type": "Feature", "properties": { "cve": "2849221", "nombre": "CASTILLO 5", "solicitante": "Antimony Holdings Chile SpA", "region": "REGIÓN DE ATACAMA", "provincia": "Provincia de Chañaral", "comuna": "DIEGO DE ALMAGRO", "superficie_ha": 300.0, "datum_original": "PSAD56", "huso": 19, "epsg_origen": 24879, "tipo_publicacion": "pedimento", "fuente_pdf": "http://www.diariooficial.interior.gob.cl/publicaciones/2026/08/06/44518/07/2849221.pdf", "archivo": "gm_pedimento_2849221.pdf", "fecha": "06-08-2026", "edicion": "44518" }, "geometry": { "type": "Polygon", "coordinates": [ [ [ -69.381182227739274, -25.888316356455775 ], [ -69.371199725593016, -25.888342239215593 ], [ -69.371284488789101, -25.915431339972677 ], [ -69.38126927029991, -25.915405426178857 ], [ -69.381182227739274, -25.888316356455775 ] ] ] } },
{ "type": "Feature", "properties": { "cve": "2849222", "nombre": "CASTILLO 6", "solicitante": "Antimony Holdings Chile SpA", "region": "REGIÓN DE ATACAMA", "provincia": "Provincia de Chañaral", "comuna": "DIEGO DE ALMAGRO", "superficie_ha": 300.0, "datum_original": "PSAD56", "huso": 19, "epsg_origen": 24879, "tipo_publicacion": "pedimento", "fuente_pdf": "http://www.diariooficial.interior.gob.cl/publicaciones/2026/08/06/44518/07/2849222.pdf", "archivo": "gm_pedimento_2849222.pdf", "fecha": "06-08-2026", "edicion": "44518" }, "geometry": { "type": "Polygon", "coordinates": [ [ [ -69.371199725593016, -25.888342239215593 ], [ -69.361217209982073, -25.888367435189885 ], [ -69.361299693800248, -25.915456566157523 ], [ -69.371284488789101, -25.915431339972677 ], [ -69.371199725593016, -25.888342239215593 ] ] ] } },
{ "type": "Feature", "properties": { "cve": "2849187", "nombre": "ROSARIO A", "solicitante": "La Tirana Uno SpA", "region": "REGIÓN DE ATACAMA", "provincia": "Provincia de Chañaral", "comuna": "DIEGO DE ALMAGRO", "superficie_ha": 300.0, "datum_original": "PSAD56", "huso": 19, "epsg_origen": 24879, "tipo_publicacion": "pedimento", "fuente_pdf": "http://www.diariooficial.interior.gob.cl/publicaciones/2026/08/06/44518/07/2849187.pdf", "archivo": "gm_pedimento_2849187.pdf", "fecha": "06-08-2026", "edicion": "44518" }, "geometry": { "type": "Polygon", "coordinates": [ [ [ -69.581908357931994, -26.10575005914723 ], [ -69.571907635231582, -26.105790060659192 ], [ -69.572039492733708, -26.132877892656648 ], [ -69.58204252085963, -26.132837843470643 ], [ -69.581908357931994, -26.10575005914723 ] ] ] } },
{ "type": "Feature", "properties": { "cve": "2849188", "nombre": "ROSARIO I", "solicitante": "La Tirana Uno SpA", "region": "REGIÓN DE ATACAMA", "provincia": "Provincia de Chañaral", "comuna": "DIEGO DE ALMAGRO", "superficie_ha": 300.0, "datum_original": "PSAD56", "huso": 19, "epsg_origen": 24879, "tipo_publicacion": "pedimento", "fuente_pdf": "http://www.diariooficial.interior.gob.cl/publicaciones/2026/08/06/44518/07/2849188.pdf", "archivo": "gm_pedimento_2849188.pdf", "fecha": "06-08-2026", "edicion": "44518" }, "geometry": { "type": "Polygon", "coordinates": [ [ [ -69.562116426233118, -26.149621388148518 ], [ -69.552111933342005, -26.149660077365827 ], [ -69.552239473397293, -26.176747835276661 ], [ -69.562246277072063, -26.176709100004508 ], [ -69.562116426233118, -26.149621388148518 ] ] ] } },
{ "type": "Feature", "properties": { "cve": "2849189", "nombre": "ROSARIO II", "solicitante": "La Tirana Uno SpA", "region": "REGIÓN DE ATACAMA", "provincia": "Provincia de Chañaral", "comuna": "DIEGO DE ALMAGRO", "superficie_ha": 300.0, "datum_original": "PSAD56", "huso": 19, "epsg_origen": 24879, "tipo_publicacion": "pedimento", "fuente_pdf": "http://www.diariooficial.interior.gob.cl/publicaciones/2026/08/06/44518/07/2849189.pdf", "archivo": "gm_pedimento_2849189.pdf", "fecha": "06-08-2026", "edicion": "44518" }, "geometry": { "type": "Polygon", "coordinates": [ [ [ -69.552111933342005, -26.149660077365827 ], [ -69.542107420275414, -26.149698071885751 ], [ -69.542232649526824, -26.17678587502451 ], [ -69.552239473397293, -26.176747835276661 ], [ -69.552111933342005, -26.149660077365827 ] ] ] } },
{ "type": "Feature", "properties": { "cve": "2849190", "nombre": "ROSARIO III", "solicitante": "La Tirana Uno SpA", "region": "REGIÓN DE ATACAMA", "provincia": "Provincia de Chañaral", "comuna": "DIEGO DE ALMAGRO", "superficie_ha": 200.0, "datum_original": "PSAD56", "huso": 19, "epsg_origen": 24879, "tipo_publicacion": "pedimento", "fuente_pdf": "http://www.diariooficial.interior.gob.cl/publicaciones/2026/08/06/44518/07/2849190.pdf", "archivo": "gm_pedimento_2849190.pdf", "fecha": "06-08-2026", "edicion": "44518" }, "geometry": { "type": "Polygon", "coordinates": [ [ [ -69.542065716820829, -26.140668781219262 ], [ -69.532061953487613, -26.140706066240572 ], [ -69.532143840754728, -26.15876466569264 ], [ -69.542149143540172, -26.158727351077317 ], [ -69.542065716820829, -26.140668781219262 ] ] ] } },
{ "type": "Feature", "properties": { "cve": "2849270", "nombre": "CEFIRO 20", "solicitante": "Sonnedix Parque Eólico Carica SpA", "region": "REGIÓN DE COQUIMBO", "provincia": "Provincia de Limarí", "comuna": "Ovalle", "superficie_ha": 100.0, "datum_original": "PSAD56", "huso": 19, "epsg_origen": 24879, "tipo_publicacion": "pedimento", "fuente_pdf": "http://www.diariooficial.interior.gob.cl/publicaciones/2026/08/06/44518/07/2849270.pdf", "archivo": "gm_pedimento_2849270.pdf", "fecha": "06-08-2026", "edicion": "44518" }, "geometry": { "type": "Polygon", "coordinates": [ [ [ -71.697883430766012, -30.595493573039992 ], [ -71.687463856055103, -30.595709316778429 ], [ -71.687712822902625, -30.604723108248393 ], [ -71.698133360033736, -30.604507287428941 ], [ -71.697883430766012, -30.595493573039992 ] ] ] } }
]
}
