{
"type": "FeatureCollection",
"name": "boletin_mineria_20260826",
"crs": { "type": "name", "properties": { "name": "urn:ogc:def:crs:OGC:1.3:CRS84" } },
"features": [
{ "type": "Feature", "properties": { "cve": "2859778", "nombre": "CALA II 2, 1 AL 30", "solicitante": "Minera Centinela", "region": "REGIÓN DE ANTOFAGASTA", "provincia": "Provincia de Antofagasta", "comuna": null, "superficie_ha": 300.0, "datum_original": "PSAD56", "huso": 19, "epsg_origen": 24879, "tipo_publicacion": "manifestacion", "fuente_pdf": "http://www.diariooficial.interior.gob.cl/publicaciones/2026/08/26/44534/07/2859778.pdf", "archivo": "gm_manifestacion_2859778.pdf", "fecha": "26-08-2026", "edicion": "44534" }, "geometry": { "type": "Polygon", "coordinates": [ [ [ -69.060456557175272, -23.247084742187422 ], [ -69.050680892440383, -23.247088199555559 ], [ -69.050691137517077, -23.274187437786761 ], [ -69.060468778387204, -23.274183975924128 ], [ -69.060456557175272, -23.247084742187422 ] ] ] } },
{ "type": "Feature", "properties": { "cve": "2859587", "nombre": "FRANCIS 1 AL 2", "solicitante": "Sociedad Comercial Minera Ruth Muñoz Gaona E.I.R.L.", "region": "REGIÓN DE ATACAMA", "provincia": "Provincia de Copiapó", "comuna": "Caldera", "superficie_ha": 2.0, "datum_original": "PSAD56", "huso": 19, "epsg_origen": 24879, "tipo_publicacion": "manifestacion", "fuente_pdf": "http://www.diariooficial.interior.gob.cl/publicaciones/2026/08/26/44534/07/2859587.pdf", "archivo": "gm_manifestacion_2859587.pdf", "fecha": "26-08-2026", "edicion": "44534" }, "geometry": { "type": "Polygon", "coordinates": [ [ [ -70.343559631506594, -26.954461475840535 ], [ -70.342552403735226, -26.954471066940243 ], [ -70.342573802072309, -26.956276301460214 ], [ -70.343581045885657, -26.956266709615807 ], [ -70.343559631506594, -26.954461475840535 ] ] ] } },
{ "type": "Feature", "properties": { "cve": "2859831", "nombre": "PEQUE 1, 1/300", "solicitante": "Río Tinto Mining And Exploration Limited Agencia en Chile", "region": "REGIÓN DE ATACAMA", "provincia": "Provincia de Copiapó", "comuna": "Tierra Amarilla", "superficie_ha": 300.0, "datum_original": "PSAD56", "huso": 19, "epsg_origen": 24879, "tipo_publicacion": "manifestacion", "fuente_pdf": "http://www.diariooficial.interior.gob.cl/publicaciones/2026/08/26/44534/07/2859831.pdf", "archivo": "gm_manifestacion_2859831.pdf", "fecha": "26-08-2026", "edicion": "44534" }, "geometry": { "type": "Polygon", "coordinates": [ [ [ -69.676710649222485, -28.568569425676685 ], [ -69.666486581204097, -28.568620015719304 ], [ -69.666657307535829, -28.595697735202663 ], [ -69.676883994054506, -28.595647088485052 ], [ -69.676710649222485, -28.568569425676685 ] ] ] } },
{ "type": "Feature", "properties": { "cve": "2859540", "nombre": "LA CANCHA 1 AL 20", "solicitante": "Bugueño Bugueño Rubén Antonio", "region": "REGIÓN DE COQUIMBO", "provincia": "Provincia de Elqui", "comuna": "La Serena", "superficie_ha": 100.0, "datum_original": "PSAD56", "huso": 19, "epsg_origen": 24879, "tipo_publicacion": "manifestacion", "fuente_pdf": "http://www.diariooficial.interior.gob.cl/publicaciones/2026/08/26/44534/07/2859540.pdf", "archivo": "gm_manifestacion_2859540.pdf", "fecha": "26-08-2026", "edicion": "44534" }, "geometry": { "type": "Polygon", "coordinates": [ [ [ -71.119627894714171, -30.040401044009649 ], [ -71.109262482110935, -30.040567711959014 ], [ -71.10945361939919, -30.049586099792052 ], [ -71.119819969585521, -30.049419371605175 ], [ -71.119627894714171, -30.040401044009649 ] ] ] } },
{ "type": "Feature", "properties": { "cve": "2859593", "nombre": "PAMELA 1 al 5", "solicitante": "Compañía Minera San Gerónimo", "region": "REGIÓN DE COQUIMBO", "provincia": "Provincia de Elqui", "comuna": "La Serena", "superficie_ha": 15.0, "datum_original": "PSAD56", "huso": 19, "epsg_origen": 24879, "tipo_publicacion": "manifestacion", "fuente_pdf": "http://www.diariooficial.interior.gob.cl/publicaciones/2026/08/26/44534/07/2859593.pdf", "archivo": "gm_manifestacion_2859593.pdf", "fecha": "26-08-2026", "edicion": "44534" }, "geometry": { "type": "Polygon", "coordinates": [ [ [ -71.038338625993987, -29.799179992212082 ], [ -71.035236337509616, -29.799227807556143 ], [ -71.03532765010857, -29.803737381132976 ], [ -71.038430077544973, -29.803689557104956 ], [ -71.038338625993987, -29.799179992212082 ] ] ] } },
{ "type": "Feature", "properties": { "cve": "2859734", "nombre": "Solicitud de rectificación: SAN ANDRES B 1 AL 50", "solicitante": "Álvarez Durán Andrés Silvino", "region": "REGIÓN DE COQUIMBO", "provincia": "Provincia de Elqui", "comuna": null, "superficie_ha": 50.0, "datum_original": "PSAD56", "huso": 19, "epsg_origen": 24879, "tipo_publicacion": "manifestacion", "fuente_pdf": "http://www.diariooficial.interior.gob.cl/publicaciones/2026/08/26/44534/07/2859734.pdf", "archivo": "gm_manifestacion_2859734.pdf", "fecha": "26-08-2026", "edicion": "44534" }, "geometry": { "type": "Polygon", "coordinates": [ [ [ -71.162993879168681, -30.217592886475153 ], [ -71.157802068389501, -30.217678483240892 ], [ -71.157998997697874, -30.226696340190124 ], [ -71.16319128140195, -30.226610712599786 ], [ -71.162993879168681, -30.217592886475153 ] ] ] } },
{ "type": "Feature", "properties": { "cve": "2859817", "nombre": "Alcones A del 1 al 6", "solicitante": "Díaz Díaz Rodolfo del Rosario", "region": "REGIÓN DE COQUIMBO", "provincia": "Provincia de Limarí", "comuna": null, "superficie_ha": 36.0, "datum_original": "PSAD56", "huso": 19, "epsg_origen": 24879, "tipo_publicacion": "manifestacion", "fuente_pdf": "http://www.diariooficial.interior.gob.cl/publicaciones/2026/08/26/44534/07/2859817.pdf", "archivo": "gm_manifestacion_2859817.pdf", "fecha": "26-08-2026", "edicion": "44534" }, "geometry": { "type": "Polygon", "coordinates": [ [ [ -71.522923561952538, -30.843430479195487 ], [ -71.51874448574317, -30.843511860341096 ], [ -71.518956569103409, -30.851625051428815 ], [ -71.523135996289952, -30.851543644236816 ], [ -71.522923561952538, -30.843430479195487 ] ] ] } },
{ "type": "Feature", "properties": { "cve": "2859534", "nombre": "SANTA MERCEDES 2, 1 AL 40", "solicitante": "Agrícola Santa Teresa SpA", "region": "REGIÓN METROPOLITANA DE SANTIAGO", "provincia": "Provincia de Chacabuco", "comuna": null, "superficie_ha": 200.0, "datum_original": "PSAD56", "huso": 19, "epsg_origen": 24879, "tipo_publicacion": "manifestacion", "fuente_pdf": "http://www.diariooficial.interior.gob.cl/publicaciones/2026/08/26/44534/07/2859534.pdf", "archivo": "gm_manifestacion_2859534.pdf", "fecha": "26-08-2026", "edicion": "44534" }, "geometry": { "type": "Polygon", "coordinates": [ [ [ -70.9509731222292, -33.234074257192546 ], [ -70.929519053910084, -33.234408970910359 ], [ -70.929717142734177, -33.243423814381643 ], [ -70.951173410189227, -33.243088986417135 ], [ -70.9509731222292, -33.234074257192546 ] ] ] } },
{ "type": "Feature", "properties": { "cve": "2859533", "nombre": "SANTA TERESA 2, 1 AL 20", "solicitante": "Agrícola Santa Teresa SpA", "region": "REGIÓN METROPOLITANA DE SANTIAGO", "provincia": "Provincia de Chacabuco", "comuna": null, "superficie_ha": 100.0, "datum_original": "PSAD56", "huso": 19, "epsg_origen": 24879, "tipo_publicacion": "manifestacion", "fuente_pdf": "http://www.diariooficial.interior.gob.cl/publicaciones/2026/08/26/44534/07/2859533.pdf", "archivo": "gm_manifestacion_2859533.pdf", "fecha": "26-08-2026", "edicion": "44534" }, "geometry": { "type": "Polygon", "coordinates": [ [ [ -70.76005713989538, -33.292294628584777 ], [ -70.749321873693759, -33.292446218265184 ], [ -70.749501865611052, -33.301461890493826 ], [ -70.760238235003939, -33.301310249112994 ], [ -70.76005713989538, -33.292294628584777 ] ] ] } },
{ "type": "Feature", "properties": { "cve": "2859445", "nombre": "DON PEDRO 1 AL 16", "solicitante": "Valdenegro Herrada Carolina Johana", "region": "REGIÓN DEL LIBERTADOR GENERAL BERNARDO O’HIGGINS", "provincia": "Provincia de Cachapoal", "comuna": null, "superficie_ha": 64.0, "datum_original": "PSAD56", "huso": 19, "epsg_origen": 24879, "tipo_publicacion": "manifestacion", "fuente_pdf": "http://www.diariooficial.interior.gob.cl/publicaciones/2026/08/26/44534/07/2859445.pdf", "archivo": "gm_manifestacion_2859445.pdf", "fecha": "26-08-2026", "edicion": "44534" }, "geometry": { "type": "Polygon", "coordinates": [ [ [ -71.037089707266176, -34.429599375213961 ], [ -71.028388286493822, -34.42974404830894 ], [ -71.028562543242074, -34.436954083261718 ], [ -71.037264710286777, -34.436809371352062 ], [ -71.037089707266176, -34.429599375213961 ] ] ] } },
{ "type": "Feature", "properties": { "cve": "2859782", "nombre": "JUAN SEBASTIAN 1 DEL 1 AL 25", "solicitante": "Sociedad Química y Minera de Chile S.A.", "region": "REGIÓN DE ANTOFAGASTA", "provincia": "Provincia de Antofagasta", "comuna": null, "superficie_ha": 10.0, "datum_original": "WGS84", "huso": 19, "epsg_origen": 32719, "tipo_publicacion": "mensura", "fuente_pdf": "http://www.diariooficial.interior.gob.cl/publicaciones/2026/08/26/44534/07/2859782.pdf", "archivo": "gm_mensura_2859782.pdf", "fecha": "26-08-2026", "edicion": "44534" }, "geometry": { "type": "Polygon", "coordinates": [ [ [ -69.377338450569525, -23.591031738784004 ], [ -69.352836327123782, -23.591089324631749 ], [ -69.352860488012041, -23.600121913988264 ], [ -69.377364289176029, -23.600064303475332 ], [ -69.377338450569525, -23.591031738784004 ] ] ] } },
{ "type": "Feature", "properties": { "cve": "2859783", "nombre": "JUAN SEBASTIAN 2 DEL 1 AL 30", "solicitante": "Sociedad Química y Minera de Chile S.A.", "region": "REGIÓN DE ANTOFAGASTA", "provincia": "Provincia de Antofagasta", "comuna": null, "superficie_ha": 10.0, "datum_original": "WGS84", "huso": 19, "epsg_origen": 32719, "tipo_publicacion": "mensura", "fuente_pdf": "http://www.diariooficial.interior.gob.cl/publicaciones/2026/08/26/44534/07/2859783.pdf", "archivo": "gm_mensura_2859783.pdf", "fecha": "26-08-2026", "edicion": "44534" }, "geometry": { "type": "Polygon", "coordinates": [ [ [ -69.406740892132376, -23.590957534562335 ], [ -69.377338450569525, -23.591031738784004 ], [ -69.377364289176029, -23.600064303475332 ], [ -69.406768743968399, -23.599990067470511 ], [ -69.406740892132376, -23.590957534562335 ] ] ] } },
{ "type": "Feature", "properties": { "cve": "2859840", "nombre": "AGUSTINA 1 AL 4", "solicitante": "Robles Cortés Waldo Antonio", "region": "REGIÓN DE COQUIMBO", "provincia": "Provincia de Limarí", "comuna": null, "superficie_ha": 4.0, "datum_original": "PSAD56", "huso": 19, "epsg_origen": 24879, "tipo_publicacion": "mensura", "fuente_pdf": "http://www.diariooficial.interior.gob.cl/publicaciones/2026/08/26/44534/07/2859840.pdf", "archivo": "gm_mensura_2859840.pdf", "fecha": "26-08-2026", "edicion": "44534" }, "geometry": { "type": "Polygon", "coordinates": [ [ [ -70.98991813077437, -30.835310730265984 ], [ -70.987828002373917, -30.835342830343556 ], [ -70.987865184307935, -30.837146424863871 ], [ -70.989955351740946, -30.837114322502206 ], [ -70.98991813077437, -30.835310730265984 ] ] ] } },
{ "type": "Feature", "properties": { "cve": "2859841", "nombre": "DOÑA PILAR IV, 1 AL 100", "solicitante": "Miranda Ángel Eduardo Alfredo", "region": "REGIÓN DE COQUIMBO", "provincia": "Provincia de Limarí", "comuna": null, "superficie_ha": 100.0, "datum_original": "PSAD56", "huso": 19, "epsg_origen": 24879, "tipo_publicacion": "mensura", "fuente_pdf": "http://www.diariooficial.interior.gob.cl/publicaciones/2026/08/26/44534/07/2859841.pdf", "archivo": "gm_mensura_2859841.pdf", "fecha": "26-08-2026", "edicion": "44534" }, "geometry": { "type": "Polygon", "coordinates": [ [ [ -70.642684502621677, -30.267102464782365 ], [ -70.632292517424759, -30.267232426641101 ], [ -70.632441797679661, -30.276252962294013 ], [ -70.642834732230213, -30.276122953666622 ], [ -70.642684502621677, -30.267102464782365 ] ] ] } },
{ "type": "Feature", "properties": { "cve": "2859842", "nombre": "DOÑA PILAR V, 1 AL 111", "solicitante": "Miranda Ángel Eduardo Alfredo", "region": "REGIÓN DE COQUIMBO", "provincia": "Provincia de Limarí", "comuna": null, "superficie_ha": 111.0, "datum_original": "PSAD56", "huso": 19, "epsg_origen": 24879, "tipo_publicacion": "mensura", "fuente_pdf": "http://www.diariooficial.interior.gob.cl/publicaciones/2026/08/26/44534/07/2859842.pdf", "archivo": "gm_mensura_2859842.pdf", "fecha": "26-08-2026", "edicion": "44534" }, "geometry": { "type": "Polygon", "coordinates": [ [ [ -70.644086463534052, -30.247686732291175 ], [ -70.633696529240083, -30.247816730312056 ], [ -70.633905557648347, -30.260445505419813 ], [ -70.6349446869188, -30.260432536137792 ], [ -70.634929742436654, -30.259530482097524 ], [ -70.642203561948747, -30.259439469726448 ], [ -70.642053490338739, -30.25041895481586 ], [ -70.644131528667373, -30.250392886524008 ], [ -70.644086463534052, -30.247686732291175 ] ] ] } },
{ "type": "Feature", "properties": { "cve": "2859843", "nombre": "DOÑA PILAR VI, 1 AL 100", "solicitante": "Miranda Ángel Eduardo Alfredo", "region": "REGIÓN DE COQUIMBO", "provincia": "Provincia de Limarí", "comuna": null, "superficie_ha": 62.0, "datum_original": "PSAD56", "huso": 19, "epsg_origen": 24879, "tipo_publicacion": "mensura", "fuente_pdf": "http://www.diariooficial.interior.gob.cl/publicaciones/2026/08/26/44534/07/2859843.pdf", "archivo": "gm_mensura_2859843.pdf", "fecha": "26-08-2026", "edicion": "44534" }, "geometry": { "type": "Polygon", "coordinates": [ [ [ -70.654476329829976, -30.247555910868659 ], [ -70.644086463534052, -30.247686732291175 ], [ -70.644131528667373, -30.250392886524008 ], [ -70.648287597160518, -30.250340651121594 ], [ -70.648362909003595, -30.25485089613392 ], [ -70.653558216381398, -30.254785404812136 ], [ -70.653588440748621, -30.256589497178048 ], [ -70.654627519144952, -30.256576373260323 ], [ -70.654476329829976, -30.247555910868659 ] ] ] } },
{ "type": "Feature", "properties": { "cve": "2859844", "nombre": "DOÑA PILAR VII, 1 AL 100", "solicitante": "Miranda Ángel Eduardo Alfredo", "region": "REGIÓN DE COQUIMBO", "provincia": "Provincia de Limarí", "comuna": null, "superficie_ha": 100.0, "datum_original": "PSAD56", "huso": 19, "epsg_origen": 24879, "tipo_publicacion": "mensura", "fuente_pdf": "http://www.diariooficial.interior.gob.cl/publicaciones/2026/08/26/44534/07/2859844.pdf", "archivo": "gm_mensura_2859844.pdf", "fecha": "26-08-2026", "edicion": "44534" }, "geometry": { "type": "Polygon", "coordinates": [ [ [ -70.675562098098453, -30.265332519285337 ], [ -70.665170471960153, -30.265465082839295 ], [ -70.66532274744084, -30.274485471390282 ], [ -70.675715322785578, -30.274352860130502 ], [ -70.675562098098453, -30.265332519285337 ] ] ] } },
{ "type": "Feature", "properties": { "cve": "2859682", "nombre": "VERDE, 1 AL 300", "solicitante": "Varas Apablaza Víctor Hugo", "region": "REGIÓN DE MAGALLANES Y DE LA ANTÁRTICA CHILENA", "provincia": "Provincia de Tierra del Fuego", "comuna": null, "superficie_ha": 300.0, "datum_original": "WGS84", "huso": 19, "epsg_origen": 32719, "tipo_publicacion": "mensura", "fuente_pdf": "http://www.diariooficial.interior.gob.cl/publicaciones/2026/08/26/44534/07/2859682.pdf", "archivo": "gm_mensura_2859682.pdf", "fecha": "26-08-2026", "edicion": "44534" }, "geometry": { "type": "Polygon", "coordinates": [ [ [ -70.059723947607679, -53.253546346068305 ], [ -70.044737673045475, -53.253678618137087 ], [ -70.045395164233469, -53.280641201953259 ], [ -70.060390865924248, -53.28050880076372 ], [ -70.059723947607679, -53.253546346068305 ] ] ] } },
{ "type": "Feature", "properties": { "cve": "2859800", "nombre": "AZUFRE 1", "solicitante": "Solís Portales Cristián Andrés", "region": "REGIÓN DE ATACAMA", "provincia": "Provincia de Chañaral", "comuna": "Diego de Almagro", "superficie_ha": 300.0, "datum_original": "PSAD56", "huso": 19, "epsg_origen": 24879, "tipo_publicacion": "pedimento", "fuente_pdf": "http://www.diariooficial.interior.gob.cl/publicaciones/2026/08/26/44534/07/2859800.pdf", "archivo": "gm_pedimento_2859800.pdf", "fecha": "26-08-2026", "edicion": "44534" }, "geometry": { "type": "Polygon", "coordinates": [ [ [ -68.807944936194701, -25.410090733169056 ], [ -68.798001985625802, -25.410077410040838 ], [ -68.797956834431659, -25.437168702359166 ], [ -68.807902007444127, -25.43718204168032 ], [ -68.807944936194701, -25.410090733169056 ] ] ] } },
{ "type": "Feature", "properties": { "cve": "2859801", "nombre": "AZUFRE 2", "solicitante": "Solís Portales Cristián Andrés", "region": "REGIÓN DE ATACAMA", "provincia": "Provincia de Chañaral", "comuna": "Diego de Almagro", "superficie_ha": 300.0, "datum_original": "PSAD56", "huso": 19, "epsg_origen": 24879, "tipo_publicacion": "pedimento", "fuente_pdf": "http://www.diariooficial.interior.gob.cl/publicaciones/2026/08/26/44534/07/2859801.pdf", "archivo": "gm_pedimento_2859801.pdf", "fecha": "26-08-2026", "edicion": "44534" }, "geometry": { "type": "Polygon", "coordinates": [ [ [ -68.798001985625802, -25.410077410040838 ], [ -68.788059042287216, -25.410063414569745 ], [ -68.788011668656537, -25.437154689877964 ], [ -68.797956834431659, -25.437168702359166 ], [ -68.798001985625802, -25.410077410040838 ] ] ] } },
{ "type": "Feature", "properties": { "cve": "2859802", "nombre": "CERRO 1", "solicitante": "Solís Portales Cristián Andrés", "region": "REGIÓN DE ATACAMA", "provincia": "Provincia de Chañaral", "comuna": "Diego de Almagro", "superficie_ha": 100.0, "datum_original": "PSAD56", "huso": 19, "epsg_origen": 24879, "tipo_publicacion": "pedimento", "fuente_pdf": "http://www.diariooficial.interior.gob.cl/publicaciones/2026/08/26/44534/07/2859802.pdf", "archivo": "gm_pedimento_2859802.pdf", "fecha": "26-08-2026", "edicion": "44534" }, "geometry": { "type": "Polygon", "coordinates": [ [ [ -68.924266028817954, -25.429160678164639 ], [ -68.914321464680967, -25.429155216919167 ], [ -68.914315078554665, -25.438185681484157 ], [ -68.924260383916803, -25.438191144940642 ], [ -68.924266028817954, -25.429160678164639 ] ] ] } },
{ "type": "Feature", "properties": { "cve": "2859803", "nombre": "CERRO 2", "solicitante": "Solís Portales Cristian Andrés", "region": "REGIÓN DE ATACAMA", "provincia": "Provincia de Chañaral", "comuna": "Diego de Almagro", "superficie_ha": 300.0, "datum_original": "PSAD56", "huso": 19, "epsg_origen": 24879, "tipo_publicacion": "pedimento", "fuente_pdf": "http://www.diariooficial.interior.gob.cl/publicaciones/2026/08/26/44534/07/2859803.pdf", "archivo": "gm_pedimento_2859803.pdf", "fecha": "26-08-2026", "edicion": "44534" }, "geometry": { "type": "Polygon", "coordinates": [ [ [ -68.924260383916803, -25.438191144940642 ], [ -68.894424477395276, -25.438172734962517 ], [ -68.894416605039979, -25.447203183092711 ], [ -68.924254736302601, -25.447221600522276 ], [ -68.924260383916803, -25.438191144940642 ] ] ] } },
{ "type": "Feature", "properties": { "cve": "2859804", "nombre": "CERRO 4", "solicitante": "Solís Portales Cristian Andrés", "region": "REGIÓN DE ATACAMA", "provincia": "Provincia de Chañaral", "comuna": "Diego de Almagro", "superficie_ha": 300.0, "datum_original": "PSAD56", "huso": 19, "epsg_origen": 24879, "tipo_publicacion": "pedimento", "fuente_pdf": "http://www.diariooficial.interior.gob.cl/publicaciones/2026/08/26/44534/07/2859804.pdf", "archivo": "gm_pedimento_2859804.pdf", "fecha": "26-08-2026", "edicion": "44534" }, "geometry": { "type": "Polygon", "coordinates": [ [ [ -68.904362645486046, -25.447209995710981 ], [ -68.87452453585405, -25.447187537435706 ], [ -68.874515175848245, -25.456217968036672 ], [ -68.904355511283356, -25.456240435399557 ], [ -68.904362645486046, -25.447209995710981 ] ] ] } },
{ "type": "Feature", "properties": { "cve": "2859805", "nombre": "CERRO 5", "solicitante": "Solís Portales Cristian Andrés", "region": "REGIÓN DE ATACAMA", "provincia": "Provincia de Chañaral", "comuna": "Diego de Almagro", "superficie_ha": 300.0, "datum_original": "PSAD56", "huso": 19, "epsg_origen": 24879, "tipo_publicacion": "pedimento", "fuente_pdf": "http://www.diariooficial.interior.gob.cl/publicaciones/2026/08/26/44534/07/2859805.pdf", "archivo": "gm_pedimento_2859805.pdf", "fecha": "26-08-2026", "edicion": "44534" }, "geometry": { "type": "Polygon", "coordinates": [ [ [ -68.904355511283356, -25.456240435399557 ], [ -68.874515175848245, -25.456217968036672 ], [ -68.874505811345202, -25.465248387435601 ], [ -68.90434837365288, -25.465270863887426 ], [ -68.904355511283356, -25.456240435399557 ] ] ] } },
{ "type": "Feature", "properties": { "cve": "2859806", "nombre": "CERRO 6", "solicitante": "Solís Portales Cristian Andrés", "region": "REGIÓN DE ATACAMA", "provincia": "Provincia de Chañaral", "comuna": "Diego de Almagro", "superficie_ha": 100.0, "datum_original": "PSAD56", "huso": 19, "epsg_origen": 24879, "tipo_publicacion": "pedimento", "fuente_pdf": "http://www.diariooficial.interior.gob.cl/publicaciones/2026/08/26/44534/07/2859806.pdf", "archivo": "gm_pedimento_2859806.pdf", "fecha": "26-08-2026", "edicion": "44534" }, "geometry": { "type": "Polygon", "coordinates": [ [ [ -68.874515175848245, -25.456217968036672 ], [ -68.864568405889528, -25.456209131425876 ], [ -68.864558299098391, -25.465239547250039 ], [ -68.874505811345202, -25.465248387435601 ], [ -68.874515175848245, -25.456217968036672 ] ] ] } },
{ "type": "Feature", "properties": { "cve": "2859807", "nombre": "Gamma", "solicitante": "Solís Portales Cristián Andrés", "region": "REGIÓN DE ATACAMA", "provincia": "Provincia de Chañaral", "comuna": "Diego de Almagro", "superficie_ha": 300.0, "datum_original": "PSAD56", "huso": 19, "epsg_origen": 24879, "tipo_publicacion": "pedimento", "fuente_pdf": "http://www.diariooficial.interior.gob.cl/publicaciones/2026/08/26/44534/07/2859807.pdf", "archivo": "gm_pedimento_2859807.pdf", "fecha": "26-08-2026", "edicion": "44534" }, "geometry": { "type": "Polygon", "coordinates": [ [ [ -68.703433873010368, -25.455069081023961 ], [ -68.673594218513188, -25.455005788250734 ], [ -68.673569861403962, -25.464036083709015 ], [ -68.703411742517517, -25.464099402087179 ], [ -68.703433873010368, -25.455069081023961 ] ] ] } },
{ "type": "Feature", "properties": { "cve": "2859808", "nombre": "ISLA 1", "solicitante": "Solís Portales Cristián Andrés", "region": "REGIÓN DE ATACAMA", "provincia": "Provincia de Chañaral", "comuna": "Diego de Almagro", "superficie_ha": 300.0, "datum_original": "PSAD56", "huso": 19, "epsg_origen": 24879, "tipo_publicacion": "pedimento", "fuente_pdf": "http://www.diariooficial.interior.gob.cl/publicaciones/2026/08/26/44534/07/2859808.pdf", "archivo": "gm_pedimento_2859808.pdf", "fecha": "26-08-2026", "edicion": "44534" }, "geometry": { "type": "Polygon", "coordinates": [ [ [ -68.723016295867907, -25.590561780309358 ], [ -68.693143064495459, -25.590502169711147 ], [ -68.693120026594997, -25.599532313911332 ], [ -68.722995500686608, -25.599591948531661 ], [ -68.723016295867907, -25.590561780309358 ] ] ] } },
{ "type": "Feature", "properties": { "cve": "2859809", "nombre": "ISLA 2", "solicitante": "Solís Portales Cristián Andrés", "region": "REGIÓN DE ATACAMA", "provincia": "Provincia de Chañaral", "comuna": "Diego de Almagro", "superficie_ha": 100.0, "datum_original": "PSAD56", "huso": 19, "epsg_origen": 24879, "tipo_publicacion": "pedimento", "fuente_pdf": "http://www.diariooficial.interior.gob.cl/publicaciones/2026/08/26/44534/07/2859809.pdf", "archivo": "gm_pedimento_2859809.pdf", "fecha": "26-08-2026", "edicion": "44534" }, "geometry": { "type": "Polygon", "coordinates": [ [ [ -68.729966457904808, -25.599604985199914 ], [ -68.720007949081037, -25.599586259680052 ], [ -68.719986919551815, -25.608616414351282 ], [ -68.729946176312652, -25.608635147415299 ], [ -68.729966457904808, -25.599604985199914 ] ] ] } },
{ "type": "Feature", "properties": { "cve": "2859810", "nombre": "ISLA 3", "solicitante": "Solís Portales Cristián Andrés", "region": "REGIÓN DE ATACAMA", "provincia": "Provincia de Chañaral", "comuna": "Diego de Almagro", "superficie_ha": 200.0, "datum_original": "PSAD56", "huso": 19, "epsg_origen": 24879, "tipo_publicacion": "pedimento", "fuente_pdf": "http://www.diariooficial.interior.gob.cl/publicaciones/2026/08/26/44534/07/2859810.pdf", "archivo": "gm_pedimento_2859810.pdf", "fecha": "26-08-2026", "edicion": "44534" }, "geometry": { "type": "Polygon", "coordinates": [ [ [ -68.73990544279323, -25.608653202150915 ], [ -68.719986919551815, -25.608616414351282 ], [ -68.719965879944667, -25.617646557760224 ], [ -68.739885899780276, -25.617683360377146 ], [ -68.73990544279323, -25.608653202150915 ] ] ] } },
{ "type": "Feature", "properties": { "cve": "2859811", "nombre": "Laguna 1", "solicitante": "Solís Portales Cristian Andrés", "region": "REGIÓN DE ATACAMA", "provincia": "Provincia de Chañaral", "comuna": "Diego de Almagro", "superficie_ha": 300.0, "datum_original": "PSAD56", "huso": 19, "epsg_origen": 24879, "tipo_publicacion": "pedimento", "fuente_pdf": "http://www.diariooficial.interior.gob.cl/publicaciones/2026/08/26/44534/07/2859811.pdf", "archivo": "gm_pedimento_2859811.pdf", "fecha": "26-08-2026", "edicion": "44534" }, "geometry": { "type": "Polygon", "coordinates": [ [ [ -68.643939158483505, -42.357059837072271 ], [ -68.60751295350029, -42.356940939247885 ], [ -68.607456904240621, -42.365946449430417 ], [ -68.643888310800094, -42.366065384546118 ], [ -68.643939158483505, -42.357059837072271 ] ] ] } },
{ "type": "Feature", "properties": { "cve": "2859812", "nombre": "Laguna 2", "solicitante": "Solís Portales Cristián Andrés", "region": "REGIÓN DE ATACAMA", "provincia": "Provincia de Chañaral", "comuna": "Diego de Almagro", "superficie_ha": 300.0, "datum_original": "PSAD56", "huso": 19, "epsg_origen": 24879, "tipo_publicacion": "pedimento", "fuente_pdf": "http://www.diariooficial.interior.gob.cl/publicaciones/2026/08/26/44534/07/2859812.pdf", "archivo": "gm_pedimento_2859812.pdf", "fecha": "26-08-2026", "edicion": "44534" }, "geometry": { "type": "Polygon", "coordinates": [ [ [ -68.706132532709702, -26.25543199858744 ], [ -68.676090941608734, -26.255367404122396 ], [ -68.676065895527856, -26.264396810566339 ], [ -68.706109809491878, -26.264461430585307 ], [ -68.706132532709702, -26.25543199858744 ] ] ] } },
{ "type": "Feature", "properties": { "cve": "2859813", "nombre": "León 1", "solicitante": "Solís Portales Cristián Andrés", "region": "REGIÓN DE ATACAMA", "provincia": "Provincia de Chañaral", "comuna": "Diego de Almagro", "superficie_ha": 300.0, "datum_original": "PSAD56", "huso": 19, "epsg_origen": 24879, "tipo_publicacion": "pedimento", "fuente_pdf": "http://www.diariooficial.interior.gob.cl/publicaciones/2026/08/26/44534/07/2859813.pdf", "archivo": "gm_pedimento_2859813.pdf", "fecha": "26-08-2026", "edicion": "44534" }, "geometry": { "type": "Polygon", "coordinates": [ [ [ -68.679469812787602, -26.228286520096987 ], [ -68.649435278193067, -26.22821641789416 ], [ -68.649408203339291, -26.237245833911643 ], [ -68.679445057463042, -26.23731596386769 ], [ -68.679469812787602, -26.228286520096987 ] ] ] } },
{ "type": "Feature", "properties": { "cve": "2859814", "nombre": "León 2", "solicitante": "Solís Portales Cristian Andrés", "region": "REGIÓN DE ATACAMA", "provincia": "Provincia de Chañaral", "comuna": "Diego de Almagro", "superficie_ha": 300.0, "datum_original": "PSAD56", "huso": 19, "epsg_origen": 24879, "tipo_publicacion": "pedimento", "fuente_pdf": "http://www.diariooficial.interior.gob.cl/publicaciones/2026/08/26/44534/07/2859814.pdf", "archivo": "gm_pedimento_2859814.pdf", "fecha": "26-08-2026", "edicion": "44534" }, "geometry": { "type": "Polygon", "coordinates": [ [ [ -68.679445057463042, -26.23731596386769 ], [ -68.649408203339291, -26.237245833911643 ], [ -68.649381115641404, -26.246275238462992 ], [ -68.679420290394702, -26.246345396176412 ], [ -68.679445057463042, -26.23731596386769 ] ] ] } },
{ "type": "Feature", "properties": { "cve": "2859466", "nombre": "LA PACHA 1 AL 7", "solicitante": "Araya Vega Mauricio Ernesto", "region": "REGIÓN DE COQUIMBO", "provincia": "Provincia de Elqui", "comuna": "Coquimbo", "superficie_ha": 28.0, "datum_original": "PSAD56", "huso": 19, "epsg_origen": 24879, "tipo_publicacion": "pedimento", "fuente_pdf": "http://www.diariooficial.interior.gob.cl/publicaciones/2026/08/26/44534/07/2859466.pdf", "archivo": "gm_pedimento_2859466.pdf", "fecha": "26-08-2026", "edicion": "44534" }, "geometry": { "type": "Polygon", "coordinates": [ [ [ -71.167888708412619, -30.09482436706082 ], [ -71.163740416006959, -30.094892764606488 ], [ -71.163877956913822, -30.101205360165114 ], [ -71.168026512507879, -30.101136945335391 ], [ -71.167888708412619, -30.09482436706082 ] ] ] } },
{ "type": "Feature", "properties": { "cve": "2859635", "nombre": "SERENA 7", "solicitante": "Inversiones Elqui Limitada", "region": "REGIÓN DE COQUIMBO", "provincia": "Provincia de Elqui", "comuna": null, "superficie_ha": 200.0, "datum_original": "WGS84", "huso": 19, "epsg_origen": 32719, "tipo_publicacion": "pedimento", "fuente_pdf": "http://www.diariooficial.interior.gob.cl/publicaciones/2026/08/26/44534/07/2859635.pdf", "archivo": "gm_pedimento_2859635.pdf", "fecha": "26-08-2026", "edicion": "44534" }, "geometry": { "type": "Polygon", "coordinates": [ [ [ -71.181432752446369, -29.985666904119206 ], [ -71.171073423380363, -29.985838179862739 ], [ -71.171466164756183, -30.003874407994147 ], [ -71.181827364181501, -30.003703008305202 ], [ -71.181432752446369, -29.985666904119206 ] ] ] } }
]
}
