{
"type": "FeatureCollection",
"name": "boletin_mineria_20261007",
"crs": { "type": "name", "properties": { "name": "urn:ogc:def:crs:OGC:1.3:CRS84" } },
"features": [
{ "type": "Feature", "properties": { "cve": "2881753", "nombre": "ALICANTO I 1 AL 7", "solicitante": "Olivares Estay Erwin Juan Carlos", "region": "REGIÓN DE ATACAMA", "provincia": "Provincia de Copiapó", "comuna": "Copiapó", "superficie_ha": 35.0, "datum_original": "PSAD56", "huso": 19, "epsg_origen": 24879, "tipo_publicacion": "manifestacion", "fuente_pdf": "http://www.diariooficial.interior.gob.cl/publicaciones/2026/10/07/44568/07/2881753.pdf", "archivo": "gm_manifestacion_2881753.pdf", "fecha": "07-10-2026", "edicion": "44568" }, "geometry": { "type": "Polygon", "coordinates": [ [ [ -70.517410241117929, -27.723771679580505 ], [ -70.512339590407151, -27.723827186077592 ], [ -70.512426784391764, -27.730144334886315 ], [ -70.517497727178039, -27.730088813594048 ], [ -70.517410241117929, -27.723771679580505 ] ] ] } },
{ "type": "Feature", "properties": { "cve": "2881754", "nombre": "ANITA I 1 AL 7", "solicitante": "Olivares Estay Erwin Juan Carlos", "region": "REGIÓN DE ATACAMA", "provincia": "Provincia de Copiapó", "comuna": "Copiapó", "superficie_ha": 49.0, "datum_original": "PSAD56", "huso": 19, "epsg_origen": 24879, "tipo_publicacion": "manifestacion", "fuente_pdf": "http://www.diariooficial.interior.gob.cl/publicaciones/2026/10/07/44568/07/2881754.pdf", "archivo": "gm_manifestacion_2881754.pdf", "fecha": "07-10-2026", "edicion": "44568" }, "geometry": { "type": "Polygon", "coordinates": [ [ [ -70.54563664401654, -27.27666953988059 ], [ -70.538566446561248, -27.276747473238789 ], [ -70.538653480111762, -27.283064953894741 ], [ -70.545724077126351, -27.282986999532024 ], [ -70.54563664401654, -27.27666953988059 ] ] ] } },
{ "type": "Feature", "properties": { "cve": "2881617", "nombre": "CERRILLO 1/8", "solicitante": "Ghiglino Saltori Sergio", "region": "REGIÓN DE ATACAMA", "provincia": "Provincia de Copiapó", "comuna": null, "superficie_ha": 48.0, "datum_original": "WGS84", "huso": 19, "epsg_origen": 32719, "tipo_publicacion": "manifestacion", "fuente_pdf": "http://www.diariooficial.interior.gob.cl/publicaciones/2026/10/07/44568/07/2881617.pdf", "archivo": "gm_manifestacion_2881617.pdf", "fecha": "07-10-2026", "edicion": "44568" }, "geometry": { "type": "Polygon", "coordinates": [ [ [ -70.21379908420559, -28.044264774119245 ], [ -70.205661086872581, -28.044336457612804 ], [ -70.205721488430058, -28.049751594978567 ], [ -70.21385989321962, -28.049679895232501 ], [ -70.21379908420559, -28.044264774119245 ] ] ] } },
{ "type": "Feature", "properties": { "cve": "2881618", "nombre": "CERRILLO I 1/7", "solicitante": "Ghiglino Saltori  Sergio", "region": "REGIÓN DE ATACAMA", "provincia": "Provincia de Copiapó", "comuna": null, "superficie_ha": 35.0, "datum_original": "WGS84", "huso": 19, "epsg_origen": 32719, "tipo_publicacion": "manifestacion", "fuente_pdf": "http://www.diariooficial.interior.gob.cl/publicaciones/2026/10/07/44568/07/2881618.pdf", "archivo": "gm_manifestacion_2881618.pdf", "fecha": "07-10-2026", "edicion": "44568" }, "geometry": { "type": "Polygon", "coordinates": [ [ [ -70.188906151985478, -28.047190368413453 ], [ -70.183819723107774, -28.047234309494051 ], [ -70.183888925213068, -28.053552017095068 ], [ -70.188975651255859, -28.053508064392076 ], [ -70.188906151985478, -28.047190368413453 ] ] ] } },
{ "type": "Feature", "properties": { "cve": "2881755", "nombre": "LA CONCORDIA 1 AL 6", "solicitante": "Olivares Estay Erwin Juan Carlos", "region": "REGIÓN DE ATACAMA", "provincia": "Provincia de Copiapó", "comuna": "Copiapó", "superficie_ha": 24.0, "datum_original": "PSAD56", "huso": 19, "epsg_origen": 24879, "tipo_publicacion": "manifestacion", "fuente_pdf": "http://www.diariooficial.interior.gob.cl/publicaciones/2026/10/07/44568/07/2881755.pdf", "archivo": "gm_manifestacion_2881755.pdf", "fecha": "07-10-2026", "edicion": "44568" }, "geometry": { "type": "Polygon", "coordinates": [ [ [ -70.509932248705866, -27.696324520369789 ], [ -70.505876730328453, -27.696368681159036 ], [ -70.505951060502284, -27.701783418316769 ], [ -70.510006778875194, -27.701739247431366 ], [ -70.509932248705866, -27.696324520369789 ] ] ] } },
{ "type": "Feature", "properties": { "cve": "2881717", "nombre": "LA FUERTE 15 1 AL 10", "solicitante": "Bartrina Servicios SpA", "region": "REGIÓN DE ATACAMA", "provincia": "Provincia de Copiapó", "comuna": null, "superficie_ha": 100.0, "datum_original": "PSAD56", "huso": 1, "epsg_origen": 24879, "tipo_publicacion": "manifestacion", "fuente_pdf": "http://www.diariooficial.interior.gob.cl/publicaciones/2026/10/07/44568/07/2881717.pdf", "archivo": "gm_manifestacion_2881717.pdf", "fecha": "07-10-2026", "edicion": "44568" }, "geometry": { "type": "Polygon", "coordinates": [ [ [ -70.283912886335614, -27.181824891390235 ], [ -70.273820010385748, -27.181916928399186 ], [ -70.273922543062866, -27.190943050207473 ], [ -70.284016230869454, -27.190850977671776 ], [ -70.283912886335614, -27.181824891390235 ] ] ] } },
{ "type": "Feature", "properties": { "cve": "2881414", "nombre": "SOL DE ATACAMA 1 AL 12", "solicitante": "Guerrero Alfaro Boris Hernán", "region": "REGIÓN DE ATACAMA", "provincia": "Provincia de Huasco", "comuna": null, "superficie_ha": 12.0, "datum_original": "WGS84", "huso": 19, "epsg_origen": 32719, "tipo_publicacion": "manifestacion", "fuente_pdf": "http://www.diariooficial.interior.gob.cl/publicaciones/2026/10/07/44568/07/2881414.pdf", "archivo": "gm_manifestacion_2881414.pdf", "fecha": "07-10-2026", "edicion": "44568" }, "geometry": { "type": "Polygon", "coordinates": [ [ [ -71.233132019400799, -28.897852961039192 ], [ -71.229032388595101, -28.897920884039152 ], [ -71.229090228098713, -28.900626658171991 ], [ -71.233189965067325, -28.900558727626539 ], [ -71.233132019400799, -28.897852961039192 ] ] ] } },
{ "type": "Feature", "properties": { "cve": "2881592", "nombre": "ADO DEL 1 AL 20", "solicitante": "Abba Minerals SpA", "region": "REGIÓN DE VALPARAÍSO", "provincia": "Provincia de Petorca", "comuna": null, "superficie_ha": 200.0, "datum_original": "PSAD56", "huso": 19, "epsg_origen": 24879, "tipo_publicacion": "manifestacion", "fuente_pdf": "http://www.diariooficial.interior.gob.cl/publicaciones/2026/10/07/44568/07/2881592.pdf", "archivo": "gm_manifestacion_2881592.pdf", "fecha": "07-10-2026", "edicion": "44568" }, "geometry": { "type": "Polygon", "coordinates": [ [ [ -71.406261567953777, -32.30191930113606 ], [ -71.395649000040592, -32.302121236414941 ], [ -71.396123689863188, -32.320148055822109 ], [ -71.406738355683345, -32.319945980620183 ], [ -71.406261567953777, -32.30191930113606 ] ] ] } },
{ "type": "Feature", "properties": { "cve": "2881593", "nombre": "CARMENCITA DG DEL 1 AL 10", "solicitante": "Abba Minerals SpA", "region": "REGIÓN DE VALPARAÍSO", "provincia": "Provincia de Petorca", "comuna": null, "superficie_ha": 100.0, "datum_original": "PSAD56", "huso": 19, "epsg_origen": 24879, "tipo_publicacion": "manifestacion", "fuente_pdf": "http://www.diariooficial.interior.gob.cl/publicaciones/2026/10/07/44568/07/2881593.pdf", "archivo": "gm_manifestacion_2881593.pdf", "fecha": "07-10-2026", "edicion": "44568" }, "geometry": { "type": "Polygon", "coordinates": [ [ [ -71.417458317752832, -32.310921536154709 ], [ -71.406844787969078, -32.311124462693151 ], [ -71.407083271005803, -32.320137792593528 ], [ -71.41769784994267, -32.319934795768226 ], [ -71.417458317752832, -32.310921536154709 ] ] ] } },
{ "type": "Feature", "properties": { "cve": "2881746", "nombre": "DOÑA GLORIA  A 2,1 AL 10", "solicitante": "Imakom Mining SpA", "region": "REGIÓN DE VALPARAÍSO", "provincia": "Provincia de Petorca", "comuna": "La Ligua", "superficie_ha": 40.0, "datum_original": "PSAD56", "huso": 19, "epsg_origen": 24879, "tipo_publicacion": "manifestacion", "fuente_pdf": "http://www.diariooficial.interior.gob.cl/publicaciones/2026/10/07/44568/07/2881746.pdf", "archivo": "gm_manifestacion_2881746.pdf", "fecha": "07-10-2026", "edicion": "44568" }, "geometry": { "type": "Polygon", "coordinates": [ [ [ -71.417381211162422, -32.308019263458156 ], [ -71.406768019106366, -32.308222167367134 ], [ -71.406863385814958, -32.311827502948802 ], [ -71.417476997415804, -32.311624570928473 ], [ -71.417381211162422, -32.308019263458156 ] ] ] } },
{ "type": "Feature", "properties": { "cve": "2881747", "nombre": "DOÑA GLORIA V 1, 1 AL 24", "solicitante": "Imakom Mining SpA", "region": "REGIÓN DE VALPARAÍSO", "provincia": "Provincia de Petorca", "comuna": "La Ligua", "superficie_ha": 120.0, "datum_original": "PSAD56", "huso": 19, "epsg_origen": 24879, "tipo_publicacion": "manifestacion", "fuente_pdf": "http://www.diariooficial.interior.gob.cl/publicaciones/2026/10/07/44568/07/2881747.pdf", "archivo": "gm_manifestacion_2881747.pdf", "fecha": "07-10-2026", "edicion": "44568" }, "geometry": { "type": "Polygon", "coordinates": [ [ [ -71.424462236155492, -32.294807512974437 ], [ -71.398994223977681, -32.295294237816343 ], [ -71.399112990935336, -32.299800941979527 ], [ -71.424582260961756, -32.299314132826431 ], [ -71.424462236155492, -32.294807512974437 ] ] ] } },
{ "type": "Feature", "properties": { "cve": "2881748", "nombre": "DOÑA JUANITA 1, 1 AL 14", "solicitante": "Imakom Mining SpA", "region": "REGIÓN DE VALPARAÍSO", "provincia": "Provincia de Petorca", "comuna": "La Ligua", "superficie_ha": 98.0, "datum_original": "PSAD56", "huso": 19, "epsg_origen": 24879, "tipo_publicacion": "manifestacion", "fuente_pdf": "http://www.diariooficial.interior.gob.cl/publicaciones/2026/10/07/44568/07/2881748.pdf", "archivo": "gm_manifestacion_2881748.pdf", "fecha": "07-10-2026", "edicion": "44568" }, "geometry": { "type": "Polygon", "coordinates": [ [ [ -71.406648834685342, -32.303715494615361 ], [ -71.399219903885111, -32.303856972618014 ], [ -71.39955265944883, -32.316475715769492 ], [ -71.40698261816992, -32.316334169150878 ], [ -71.406648834685342, -32.303715494615361 ] ] ] } },
{ "type": "Feature", "properties": { "cve": "2881745", "nombre": "DOÑA VIVIANA H 1, 1 AL 14", "solicitante": "Imakom Mining SpA", "region": "REGIÓN DE VALPARAÍSO", "provincia": "Provincia de Petorca", "comuna": "La Ligua", "superficie_ha": 98.0, "datum_original": "PSAD56", "huso": 19, "epsg_origen": 24879, "tipo_publicacion": "manifestacion", "fuente_pdf": "http://www.diariooficial.interior.gob.cl/publicaciones/2026/10/07/44568/07/2881745.pdf", "archivo": "gm_manifestacion_2881745.pdf", "fecha": "07-10-2026", "edicion": "44568" }, "geometry": { "type": "Polygon", "coordinates": [ [ [ -71.424690306215169, -32.303370087577868 ], [ -71.417261502415656, -32.303512625842529 ], [ -71.417596754307098, -32.316131201988291 ], [ -71.42502658595528, -32.315988594593946 ], [ -71.424690306215169, -32.303370087577868 ] ] ] } },
{ "type": "Feature", "properties": { "cve": "2881766", "nombre": "LOBITO 1 AL 1", "solicitante": "Costa Lobo Francisco Javier", "region": "REGIÓN DE VALPARAÍSO", "provincia": "Provincia de Petorca", "comuna": "Cabildo", "superficie_ha": 1.0, "datum_original": "PSAD56", "huso": 19, "epsg_origen": 24879, "tipo_publicacion": "manifestacion", "fuente_pdf": "http://www.diariooficial.interior.gob.cl/publicaciones/2026/10/07/44568/07/2881766.pdf", "archivo": "gm_manifestacion_2881766.pdf", "fecha": "07-10-2026", "edicion": "44568" }, "geometry": { "type": "Polygon", "coordinates": [ [ [ -70.864206067309496, -32.61421334071354 ], [ -70.863140770906455, -32.614229151275431 ], [ -70.863159446949737, -32.615130761160813 ], [ -70.864224754016206, -32.615114950053929 ], [ -70.864206067309496, -32.61421334071354 ] ] ] } },
{ "type": "Feature", "properties": { "cve": "2881594", "nombre": "OSSA DEL 1 AL 20", "solicitante": "Abba Minerals SpA", "region": "REGIÓN DE VALPARAÍSO", "provincia": "Provincia de Petorca", "comuna": null, "superficie_ha": 200.0, "datum_original": "PSAD56", "huso": 19, "epsg_origen": 24879, "tipo_publicacion": "manifestacion", "fuente_pdf": "http://www.diariooficial.interior.gob.cl/publicaciones/2026/10/07/44568/07/2881594.pdf", "archivo": "gm_manifestacion_2881594.pdf", "fecha": "07-10-2026", "edicion": "44568" }, "geometry": { "type": "Polygon", "coordinates": [ [ [ -71.42849338067667, -32.30105150696054 ], [ -71.417881087823801, -32.301255306136738 ], [ -71.418360164272002, -32.319281832984643 ], [ -71.428974554804284, -32.319077892594144 ], [ -71.42849338067667, -32.30105150696054 ] ] ] } },
{ "type": "Feature", "properties": { "cve": "2881595", "nombre": "ROSAMEL DEL 1 AL 10", "solicitante": "Abba Minerals SpA", "region": "REGIÓN DE VALPARAÍSO", "provincia": "Provincia de Petorca", "comuna": null, "superficie_ha": 100.0, "datum_original": "PSAD56", "huso": 19, "epsg_origen": 24879, "tipo_publicacion": "manifestacion", "fuente_pdf": "http://www.diariooficial.interior.gob.cl/publicaciones/2026/10/07/44568/07/2881595.pdf", "archivo": "gm_manifestacion_2881595.pdf", "fecha": "07-10-2026", "edicion": "44568" }, "geometry": { "type": "Polygon", "coordinates": [ [ [ -71.416956605382154, -32.292029696737899 ], [ -71.406345273105387, -32.292232475999249 ], [ -71.406583532914937, -32.301245836404206 ], [ -71.41719591336431, -32.301042986884518 ], [ -71.416956605382154, -32.292029696737899 ] ] ] } },
{ "type": "Feature", "properties": { "cve": "2881636", "nombre": "ESPERANZA 2A 1 AL 20", "solicitante": "Sociedad Volcania Minerals SpA", "region": "REGIÓN METROPOLITANA DE SANTIAGO", "provincia": "Provincia de Melipilla", "comuna": null, "superficie_ha": 200.0, "datum_original": "PSAD56", "huso": 19, "epsg_origen": 24879, "tipo_publicacion": "manifestacion", "fuente_pdf": "http://www.diariooficial.interior.gob.cl/publicaciones/2026/10/07/44568/07/2881636.pdf", "archivo": "gm_manifestacion_2881636.pdf", "fecha": "07-10-2026", "edicion": "44568" }, "geometry": { "type": "Polygon", "coordinates": [ [ [ -71.045237492312921, -33.859061615149074 ], [ -71.023629664925025, -33.859418356714173 ], [ -71.023842383779723, -33.868431769915929 ], [ -71.045452478687807, -33.868074907734787 ], [ -71.045237492312921, -33.859061615149074 ] ] ] } },
{ "type": "Feature", "properties": { "cve": "2881372", "nombre": "BLANCA MARTA 1-4", "solicitante": "Santa Marta SpA", "region": "REGIÓN METROPOLITANA DE SANTIAGO", "provincia": "Provincia de Talagante", "comuna": null, "superficie_ha": 40.0, "datum_original": "PSAD56", "huso": 19, "epsg_origen": 24879, "tipo_publicacion": "manifestacion", "fuente_pdf": "http://www.diariooficial.interior.gob.cl/publicaciones/2026/10/07/44568/07/2881372.pdf", "archivo": "gm_manifestacion_2881372.pdf", "fecha": "07-10-2026", "edicion": "44568" }, "geometry": { "type": "Polygon", "coordinates": [ [ [ -70.933717063914685, -33.71444090905748 ], [ -70.925087911197124, -33.714575734737473 ], [ -70.925188531033328, -33.719082817910838 ], [ -70.933818134092832, -33.718947969389298 ], [ -70.933717063914685, -33.71444090905748 ] ] ] } },
{ "type": "Feature", "properties": { "cve": "2881608", "nombre": "BLANCA CUATRO DEL 1 AL 31", "solicitante": "Torres Olivares Alonso Ignacio", "region": "REGIÓN DE COQUIMBO", "provincia": "Provincia de Elqui", "comuna": null, "superficie_ha": 155.0, "datum_original": "PSAD56", "huso": 19, "epsg_origen": 24879, "tipo_publicacion": "mensura", "fuente_pdf": "http://www.diariooficial.interior.gob.cl/publicaciones/2026/10/07/44568/07/2881608.pdf", "archivo": "gm_mensura_2881608.pdf", "fecha": "07-10-2026", "edicion": "44568" }, "geometry": { "type": "Polygon", "coordinates": [ [ [ -70.971615135751463, -29.344921225651238 ], [ -70.961319903499017, -29.345072984804464 ], [ -70.961544556747782, -29.356799207277373 ], [ -70.966692771443917, -29.356723390754226 ], [ -70.966779438529102, -29.361233456468508 ], [ -70.971927859972595, -29.361157427539904 ], [ -70.971615135751463, -29.344921225651238 ] ] ] } },
{ "type": "Feature", "properties": { "cve": "2881756", "nombre": "CENTAUROS", "solicitante": "Olivares Estay Erwin Juan Carlos", "region": "REGIÓN DE ATACAMA", "provincia": "Provincia de Copiapó", "comuna": "Tierra Amarilla", "superficie_ha": 100.0, "datum_original": "PSAD56", "huso": 19, "epsg_origen": 24879, "tipo_publicacion": "pedimento", "fuente_pdf": "http://www.diariooficial.interior.gob.cl/publicaciones/2026/10/07/44568/07/2881756.pdf", "archivo": "gm_pedimento_2881756.pdf", "fecha": "07-10-2026", "edicion": "44568" }, "geometry": { "type": "Polygon", "coordinates": [ [ [ -69.504940696758965, -27.589437094933196 ], [ -69.494808613250598, -27.589473567629089 ], [ -69.494849143282835, -27.598501060256378 ], [ -69.504982056630396, -27.598464573621733 ], [ -69.504940696758965, -27.589437094933196 ] ] ] } },
{ "type": "Feature", "properties": { "cve": "2881757", "nombre": "CISNE NEGRO II", "solicitante": "Olivares Estay Erwin Juan Carlos", "region": "REGIÓN DE ATACAMA", "provincia": "Provincia de Copiapó", "comuna": "Copiapó", "superficie_ha": 100.0, "datum_original": "PSAD56", "huso": 19, "epsg_origen": 24879, "tipo_publicacion": "pedimento", "fuente_pdf": "http://www.diariooficial.interior.gob.cl/publicaciones/2026/10/07/44568/07/2881757.pdf", "archivo": "gm_pedimento_2881757.pdf", "fecha": "07-10-2026", "edicion": "44568" }, "geometry": { "type": "Polygon", "coordinates": [ [ [ -70.425110309749783, -27.252133045972798 ], [ -70.415011684884007, -27.25223548561015 ], [ -70.415125924052546, -27.261260991884392 ], [ -70.425225363547654, -27.261158512777495 ], [ -70.425110309749783, -27.252133045972798 ] ] ] } },
{ "type": "Feature", "properties": { "cve": "2881572", "nombre": "GORDITA I", "solicitante": "Peralta Reyes Carlos Segundo", "region": "REGIÓN DE ATACAMA", "provincia": "Provincia de Copiapó", "comuna": null, "superficie_ha": 100.0, "datum_original": "PSAD56", "huso": 19, "epsg_origen": 24879, "tipo_publicacion": "pedimento", "fuente_pdf": "http://www.diariooficial.interior.gob.cl/publicaciones/2026/10/07/44568/07/2881572.pdf", "archivo": "gm_pedimento_2881572.pdf", "fecha": "07-10-2026", "edicion": "44568" }, "geometry": { "type": "Polygon", "coordinates": [ [ [ -70.060976524910402, -28.141889032567772 ], [ -70.050794280790555, -28.141967482306164 ], [ -70.050882378082562, -28.150993059417498 ], [ -70.06106547548066, -28.150914580099311 ], [ -70.060976524910402, -28.141889032567772 ] ] ] } },
{ "type": "Feature", "properties": { "cve": "2881573", "nombre": "GORDITA II", "solicitante": "Peralta Reyes Carlos Segundo", "region": "REGIÓN DE ATACAMA", "provincia": "Provincia de Copiapó", "comuna": null, "superficie_ha": 100.0, "datum_original": "PSAD56", "huso": 19, "epsg_origen": 24879, "tipo_publicacion": "pedimento", "fuente_pdf": "http://www.diariooficial.interior.gob.cl/publicaciones/2026/10/07/44568/07/2881573.pdf", "archivo": "gm_pedimento_2881573.pdf", "fecha": "07-10-2026", "edicion": "44568" }, "geometry": { "type": "Polygon", "coordinates": [ [ [ -70.050679815163903, -28.130234213762371 ], [ -70.04049863902992, -28.130311869187715 ], [ -70.040585830626824, -28.139337491499575 ], [ -70.050767859541239, -28.139259806785752 ], [ -70.050679815163903, -28.130234213762371 ] ] ] } },
{ "type": "Feature", "properties": { "cve": "2881574", "nombre": "JUAN GODOY I", "solicitante": "Richard Mercado Francisco Javier", "region": "REGIÓN DE ATACAMA", "provincia": "Provincia de Copiapó", "comuna": null, "superficie_ha": 100.0, "datum_original": "PSAD56", "huso": 19, "epsg_origen": 24879, "tipo_publicacion": "pedimento", "fuente_pdf": "http://www.diariooficial.interior.gob.cl/publicaciones/2026/10/07/44568/07/2881574.pdf", "archivo": "gm_pedimento_2881574.pdf", "fecha": "07-10-2026", "edicion": "44568" }, "geometry": { "type": "Polygon", "coordinates": [ [ [ -70.505406278652671, -27.883207839421353 ], [ -70.495250094573962, -27.883318365985097 ], [ -70.495374091565168, -27.892342723319992 ], [ -70.505531117095586, -27.892232154830701 ], [ -70.505406278652671, -27.883207839421353 ] ] ] } },
{ "type": "Feature", "properties": { "cve": "2881575", "nombre": "JUAN GODOY II", "solicitante": "Richard Mercado Francisco Javier", "region": "REGIÓN DE ATACAMA", "provincia": "Provincia de Copiapó", "comuna": null, "superficie_ha": 100.0, "datum_original": "PSAD56", "huso": 19, "epsg_origen": 24879, "tipo_publicacion": "pedimento", "fuente_pdf": "http://www.diariooficial.interior.gob.cl/publicaciones/2026/10/07/44568/07/2881575.pdf", "archivo": "gm_pedimento_2881575.pdf", "fecha": "07-10-2026", "edicion": "44568" }, "geometry": { "type": "Polygon", "coordinates": [ [ [ -70.495312085885828, -27.887830546205066 ], [ -70.48515542366026, -27.887940345962953 ], [ -70.485278607722009, -27.896964738732812 ], [ -70.495436111614552, -27.896854897329529 ], [ -70.495312085885828, -27.887830546205066 ] ] ] } },
{ "type": "Feature", "properties": { "cve": "2881576", "nombre": "TESORITO II", "solicitante": "Peralta Reyes Carlos Segundo", "region": "REGIÓN DE ATACAMA", "provincia": "Provincia de Copiapó", "comuna": null, "superficie_ha": 100.0, "datum_original": "PSAD56", "huso": 19, "epsg_origen": 24879, "tipo_publicacion": "pedimento", "fuente_pdf": "http://www.diariooficial.interior.gob.cl/publicaciones/2026/10/07/44568/07/2881576.pdf", "archivo": "gm_pedimento_2881576.pdf", "fecha": "07-10-2026", "edicion": "44568" }, "geometry": { "type": "Polygon", "coordinates": [ [ [ -70.009905453456327, -28.233710948542207 ], [ -69.999714343160406, -28.23378582648251 ], [ -69.999798481275363, -28.242811426116067 ], [ -70.00999044892356, -28.242736520003341 ], [ -70.009905453456327, -28.233710948542207 ] ] ] } },
{ "type": "Feature", "properties": { "cve": "2881696", "nombre": "VINCHUCA 1", "solicitante": "New Golden Indiana Chile SpA", "region": "REGIÓN DE ATACAMA", "provincia": "Provincia de Copiapó", "comuna": "Copiapó", "superficie_ha": 300.0, "datum_original": "PSAD56", "huso": 19, "epsg_origen": 24879, "tipo_publicacion": "pedimento", "fuente_pdf": "http://www.diariooficial.interior.gob.cl/publicaciones/2026/10/07/44568/07/2881696.pdf", "archivo": "gm_pedimento_2881696.pdf", "fecha": "07-10-2026", "edicion": "44568" }, "geometry": { "type": "Polygon", "coordinates": [ [ [ -70.059621087216541, -26.945821423513092 ], [ -70.02940323504545, -26.946045139941425 ], [ -70.029485259637227, -26.955072344328553 ], [ -70.059705518535381, -26.954848541013927 ], [ -70.059621087216541, -26.945821423513092 ] ] ] } },
{ "type": "Feature", "properties": { "cve": "2881707", "nombre": "VINCHUCA 10", "solicitante": "New Golden Indiana Chile SpA", "region": "REGIÓN DE ATACAMA", "provincia": "Provincia de Copiapó", "comuna": "Copiapó", "superficie_ha": 300.0, "datum_original": "PSAD56", "huso": 19, "epsg_origen": 24879, "tipo_publicacion": "pedimento", "fuente_pdf": "http://www.diariooficial.interior.gob.cl/publicaciones/2026/10/07/44568/07/2881707.pdf", "archivo": "gm_pedimento_2881707.pdf", "fecha": "07-10-2026", "edicion": "44568" }, "geometry": { "type": "Polygon", "coordinates": [ [ [ -70.049967047027465, -26.991032329288842 ], [ -70.019737033142064, -26.991254319505749 ], [ -70.019818446201882, -27.000281492882909 ], [ -70.050050872504983, -27.000059416550329 ], [ -70.049967047027465, -26.991032329288842 ] ] ] } },
{ "type": "Feature", "properties": { "cve": "2881708", "nombre": "VINCHUCA 11", "solicitante": "New Golden Indiana Chile SpA", "region": "REGIÓN DE ATACAMA", "provincia": "Provincia de Copiapó", "comuna": "Copiapó", "superficie_ha": 300.0, "datum_original": "PSAD56", "huso": 19, "epsg_origen": 24879, "tipo_publicacion": "pedimento", "fuente_pdf": "http://www.diariooficial.interior.gob.cl/publicaciones/2026/10/07/44568/07/2881708.pdf", "archivo": "gm_pedimento_2881708.pdf", "fecha": "07-10-2026", "edicion": "44568" }, "geometry": { "type": "Polygon", "coordinates": [ [ [ -70.050050872504983, -27.000059416550329 ], [ -70.019818446201882, -27.000281492882909 ], [ -70.019899897448454, -27.009308654369022 ], [ -70.050134737300525, -27.009086491907404 ], [ -70.050050872504983, -27.000059416550329 ] ] ] } },
{ "type": "Feature", "properties": { "cve": "2881697", "nombre": "VINCHUCA 2", "solicitante": "New Golden Indiana Chile SpA", "region": "REGIÓN DE ATACAMA", "provincia": "Provincia de Copiapó", "comuna": "Copiapó", "superficie_ha": 300.0, "datum_original": "PSAD56", "huso": 19, "epsg_origen": 24879, "tipo_publicacion": "pedimento", "fuente_pdf": "http://www.diariooficial.interior.gob.cl/publicaciones/2026/10/07/44568/07/2881697.pdf", "archivo": "gm_pedimento_2881697.pdf", "fecha": "07-10-2026", "edicion": "44568" }, "geometry": { "type": "Polygon", "coordinates": [ [ [ -70.059705518535381, -26.954848541013927 ], [ -70.029485259637227, -26.955072344328553 ], [ -70.029567322726649, -26.964099536834045 ], [ -70.059789989481189, -26.963875646619666 ], [ -70.059705518535381, -26.954848541013927 ] ] ] } },
{ "type": "Feature", "properties": { "cve": "2881698", "nombre": "VINCHUCA 3", "solicitante": "New Golden Indiana Chile SpA", "region": "REGIÓN DE ATACAMA", "provincia": "Provincia de Copiapó", "comuna": "Copiapó", "superficie_ha": 300.0, "datum_original": "PSAD56", "huso": 19, "epsg_origen": 24879, "tipo_publicacion": "pedimento", "fuente_pdf": "http://www.diariooficial.interior.gob.cl/publicaciones/2026/10/07/44568/07/2881698.pdf", "archivo": "gm_pedimento_2881698.pdf", "fecha": "07-10-2026", "edicion": "44568" }, "geometry": { "type": "Polygon", "coordinates": [ [ [ -70.02940323504545, -26.946045139941425 ], [ -70.019330540184896, -26.946118274351097 ], [ -70.019574321530087, -26.973199937089394 ], [ -70.029649424326962, -26.973126717455138 ], [ -70.02940323504545, -26.946045139941425 ] ] ] } },
{ "type": "Feature", "properties": { "cve": "2881699", "nombre": "VINCHUCA 4", "solicitante": "New Golden Indiana Chile SpA", "region": "REGIÓN DE ATACAMA", "provincia": "Provincia de Copiapó", "comuna": "Copiapó", "superficie_ha": 200.0, "datum_original": "PSAD56", "huso": 19, "epsg_origen": 24879, "tipo_publicacion": "pedimento", "fuente_pdf": "http://www.diariooficial.interior.gob.cl/publicaciones/2026/10/07/44568/07/2881699.pdf", "archivo": "gm_pedimento_2881699.pdf", "fecha": "07-10-2026", "edicion": "44568" }, "geometry": { "type": "Polygon", "coordinates": [ [ [ -70.069949446508843, -26.972826641911919 ], [ -70.049799513972431, -26.972978119063665 ], [ -70.049883260854457, -26.982005230125694 ], [ -70.070034800094462, -26.981853694184959 ], [ -70.069949446508843, -26.972826641911919 ] ] ] } },
{ "type": "Feature", "properties": { "cve": "2881700", "nombre": "VINCHUCA 5", "solicitante": "New Golden Indiana Chile SpA", "region": "REGIÓN DE ATACAMA", "provincia": "Provincia de Copiapó", "comuna": "Copiapó", "superficie_ha": 200.0, "datum_original": "PSAD56", "huso": 19, "epsg_origen": 24879, "tipo_publicacion": "pedimento", "fuente_pdf": "http://www.diariooficial.interior.gob.cl/publicaciones/2026/10/07/44568/07/2881700.pdf", "archivo": "gm_pedimento_2881700.pdf", "fecha": "07-10-2026", "edicion": "44568" }, "geometry": { "type": "Polygon", "coordinates": [ [ [ -70.070034800094462, -26.981853694184959 ], [ -70.049883260854457, -26.982005230125694 ], [ -70.049967047027465, -26.991032329288842 ], [ -70.070120193724733, -26.990880734549961 ], [ -70.070034800094462, -26.981853694184959 ] ] ] } },
{ "type": "Feature", "properties": { "cve": "2881701", "nombre": "VINCHUCA 6", "solicitante": "New Golden Indiana Chile SpA", "region": "REGIÓN DE ATACAMA", "provincia": "Provincia de Copiapó", "comuna": "Copiapó", "superficie_ha": 200.0, "datum_original": "PSAD56", "huso": 19, "epsg_origen": 24879, "tipo_publicacion": "pedimento", "fuente_pdf": "http://www.diariooficial.interior.gob.cl/publicaciones/2026/10/07/44568/07/2881701.pdf", "archivo": "gm_pedimento_2881701.pdf", "fecha": "07-10-2026", "edicion": "44568" }, "geometry": { "type": "Polygon", "coordinates": [ [ [ -70.070120193724733, -26.990880734549961 ], [ -70.049967047027465, -26.991032329288842 ], [ -70.050050872504983, -27.000059416550329 ], [ -70.070205627413387, -26.999907763004185 ], [ -70.070120193724733, -26.990880734549961 ] ] ] } },
{ "type": "Feature", "properties": { "cve": "2881703", "nombre": "VINCHUCA 7", "solicitante": "New Golden Indiana Chile SpA", "region": "REGIÓN DE ATACAMA", "provincia": "Provincia de Copiapó", "comuna": "Copiapó", "superficie_ha": 200.0, "datum_original": "PSAD56", "huso": 19, "epsg_origen": 24879, "tipo_publicacion": "pedimento", "fuente_pdf": "http://www.diariooficial.interior.gob.cl/publicaciones/2026/10/07/44568/07/2881703.pdf", "archivo": "gm_pedimento_2881703.pdf", "fecha": "07-10-2026", "edicion": "44568" }, "geometry": { "type": "Polygon", "coordinates": [ [ [ -70.070205627413387, -26.999907763004185 ], [ -70.050050872504983, -27.000059416550329 ], [ -70.050134737300525, -27.009086491907404 ], [ -70.070291101174206, -27.008934779544834 ], [ -70.070205627413387, -26.999907763004185 ] ] ] } },
{ "type": "Feature", "properties": { "cve": "2881705", "nombre": "VINCHUCA 8", "solicitante": "New Golden Indiana Chile SpA", "region": "REGIÓN DE ATACAMA", "provincia": "Provincia de Copiapó", "comuna": "Copiapó", "superficie_ha": 300.0, "datum_original": "PSAD56", "huso": 19, "epsg_origen": 24879, "tipo_publicacion": "pedimento", "fuente_pdf": "http://www.diariooficial.interior.gob.cl/publicaciones/2026/10/07/44568/07/2881705.pdf", "archivo": "gm_pedimento_2881705.pdf", "fecha": "07-10-2026", "edicion": "44568" }, "geometry": { "type": "Polygon", "coordinates": [ [ [ -70.049799513972431, -26.972978119063665 ], [ -70.019574321530087, -26.973199937089394 ], [ -70.019655658255829, -26.982227134240315 ], [ -70.049883260854457, -26.982005230125694 ], [ -70.049799513972431, -26.972978119063665 ] ] ] } },
{ "type": "Feature", "properties": { "cve": "2881706", "nombre": "VINCHUCA 9", "solicitante": "New Golden Indiana Chile SpA", "region": "REGIÓN DE ATACAMA", "provincia": "Provincia de Copiapó", "comuna": "Copiapó", "superficie_ha": 300.0, "datum_original": "PSAD56", "huso": 19, "epsg_origen": 24879, "tipo_publicacion": "pedimento", "fuente_pdf": "http://www.diariooficial.interior.gob.cl/publicaciones/2026/10/07/44568/07/2881706.pdf", "archivo": "gm_pedimento_2881706.pdf", "fecha": "07-10-2026", "edicion": "44568" }, "geometry": { "type": "Polygon", "coordinates": [ [ [ -70.049883260854457, -26.982005230125694 ], [ -70.019655658255829, -26.982227134240315 ], [ -70.019737033142064, -26.991254319505749 ], [ -70.049967047027465, -26.991032329288842 ], [ -70.049883260854457, -26.982005230125694 ] ] ] } },
{ "type": "Feature", "properties": { "cve": "2881726", "nombre": "JORGE", "solicitante": "Osorio Olivares Edgardo Alexis", "region": "REGIÓN DE ATACAMA", "provincia": "Provincia de Huasco", "comuna": "Vallenar", "superficie_ha": 300.0, "datum_original": "PSAD56", "huso": 19, "epsg_origen": 24879, "tipo_publicacion": "pedimento", "fuente_pdf": "http://www.diariooficial.interior.gob.cl/publicaciones/2026/10/07/44568/07/2881726.pdf", "archivo": "gm_pedimento_2881726.pdf", "fecha": "07-10-2026", "edicion": "44568" }, "geometry": { "type": "Polygon", "coordinates": [ [ [ -70.93917649172063, -28.840645307909398 ], [ -70.908440073405004, -28.84108375697236 ], [ -70.908604773392298, -28.850104895548657 ], [ -70.939343840266076, -28.84966628387307 ], [ -70.93917649172063, -28.840645307909398 ] ] ] } },
{ "type": "Feature", "properties": { "cve": "2881727", "nombre": "JULIÁN", "solicitante": "Osorio Olivares Edgardo Alexis", "region": "REGIÓN DE ATACAMA", "provincia": "Provincia de Huasco", "comuna": "Vallenar", "superficie_ha": 300.0, "datum_original": "PSAD56", "huso": 19, "epsg_origen": 24879, "tipo_publicacion": "pedimento", "fuente_pdf": "http://www.diariooficial.interior.gob.cl/publicaciones/2026/10/07/44568/07/2881727.pdf", "archivo": "gm_pedimento_2881727.pdf", "fecha": "07-10-2026", "edicion": "44568" }, "geometry": { "type": "Polygon", "coordinates": [ [ [ -70.939009219877363, -28.831624318891702 ], [ -70.908275448907006, -28.832062605369405 ], [ -70.908440073405004, -28.84108375697236 ], [ -70.93917649172063, -28.840645307909398 ], [ -70.939009219877363, -28.831624318891702 ] ] ] } },
{ "type": "Feature", "properties": { "cve": "2881652", "nombre": "LOS MORTEROS 1", "solicitante": "Austral Exploraciones SpA", "region": "REGIÓN DE ATACAMA", "provincia": "Provincia de Huasco", "comuna": null, "superficie_ha": 300.0, "datum_original": "PSAD56", "huso": 19, "epsg_origen": 24879, "tipo_publicacion": "pedimento", "fuente_pdf": "http://www.diariooficial.interior.gob.cl/publicaciones/2026/10/07/44568/07/2881652.pdf", "archivo": "gm_pedimento_2881652.pdf", "fecha": "07-10-2026", "edicion": "44568" }, "geometry": { "type": "Polygon", "coordinates": [ [ [ -70.454005000540278, -28.58954298248355 ], [ -70.443781478864125, -28.589652188505394 ], [ -70.44415160842388, -28.616723029909391 ], [ -70.454377748770668, -28.616613701635895 ], [ -70.454005000540278, -28.58954298248355 ] ] ] } },
{ "type": "Feature", "properties": { "cve": "2881653", "nombre": "LOS MORTEROS 2", "solicitante": "Austral Exploraciones SpA", "region": "REGIÓN DE ATACAMA", "provincia": "Provincia de Huasco", "comuna": null, "superficie_ha": 300.0, "datum_original": "PSAD56", "huso": 19, "epsg_origen": 24879, "tipo_publicacion": "pedimento", "fuente_pdf": "http://www.diariooficial.interior.gob.cl/publicaciones/2026/10/07/44568/07/2881653.pdf", "archivo": "gm_pedimento_2881653.pdf", "fecha": "07-10-2026", "edicion": "44568" }, "geometry": { "type": "Polygon", "coordinates": [ [ [ -70.443781478864125, -28.589652188505394 ], [ -70.433557900501484, -28.589760624494421 ], [ -70.433925411328886, -28.616831587288292 ], [ -70.44415160842388, -28.616723029909391 ], [ -70.443781478864125, -28.589652188505394 ] ] ] } },
{ "type": "Feature", "properties": { "cve": "2881630", "nombre": "ALONDRA", "solicitante": "Caroca Lazo Rubén Misael y otro", "region": "REGIÓN DE COQUIMBO", "provincia": "Provincia de Elqui", "comuna": "Vicuña", "superficie_ha": 100.0, "datum_original": "PSAD56", "huso": 19, "epsg_origen": 24879, "tipo_publicacion": "pedimento", "fuente_pdf": "http://www.diariooficial.interior.gob.cl/publicaciones/2026/10/07/44568/07/2881630.pdf", "archivo": "gm_pedimento_2881630.pdf", "fecha": "07-10-2026", "edicion": "44568" }, "geometry": { "type": "Polygon", "coordinates": [ [ [ -70.594691800416868, -30.030084622600747 ], [ -70.584324381113134, -30.030209886506913 ], [ -70.584467903692129, -30.039230963450734 ], [ -70.594836261204264, -30.039105654248349 ], [ -70.594691800416868, -30.030084622600747 ] ] ] } },
{ "type": "Feature", "properties": { "cve": "2881693", "nombre": "ECLIPSE 4", "solicitante": "David Ivanov Herrera Arellano", "region": "REGIÓN DEL MAULE", "provincia": "Provincia de Talca", "comuna": null, "superficie_ha": 200.0, "datum_original": "WGS84", "huso": 19, "epsg_origen": 32719, "tipo_publicacion": "pedimento", "fuente_pdf": "http://www.diariooficial.interior.gob.cl/publicaciones/2026/10/07/44568/07/2881693.pdf", "archivo": "gm_pedimento_2881693.pdf", "fecha": "07-10-2026", "edicion": "44568" }, "geometry": { "type": "Polygon", "coordinates": [ [ [ -70.43798529765661, -35.635740261352822 ], [ -70.415902512957075, -35.636001899834085 ], [ -70.416061557446568, -35.645015623019347 ], [ -70.438146820577501, -35.644753898128059 ], [ -70.43798529765661, -35.635740261352822 ] ] ] } }
]
}
