{
"type": "FeatureCollection",
"name": "boletin_mineria_historico",
"crs": { "type": "name", "properties": { "name": "urn:ogc:def:crs:OGC:1.3:CRS84" } },
"features": [
{ "type": "Feature", "properties": { "cve": "2854602", "nombre": "MARTINA 1 AL 7", "solicitante": "Zavala Espinoza Raúl", "region": "REGIÓN DE ARICA Y PARINACOTA", "provincia": "Provincia de Arica", "comuna": null, "superficie_ha": 49.0, "datum_original": "WGS84", "huso": 19, "epsg_origen": 32719, "tipo_publicacion": "manifestacion", "fuente_pdf": "http://www.diariooficial.interior.gob.cl/publicaciones/2026/08/17/44526/07/2854602.pdf", "archivo": "gm_manifestacion_2854602.pdf", "fecha": "17-08-2026", "edicion": "44526" }, "geometry": { "type": "Polygon", "coordinates": [ [ [ -70.24813273654587, -18.774609501664028 ], [ -70.241492365055791, -18.774653736287927 ], [ -70.241538690491964, -18.780978774200999 ], [ -70.248179309606556, -18.780934523591359 ], [ -70.24813273654587, -18.774609501664028 ] ] ] } },
{ "type": "Feature", "properties": { "cve": "2854612", "nombre": "COSTASUR UNA A LA DIEZ", "solicitante": "Derpich Leme Ruth Elizabeth", "region": "REGIÓN DE TARAPACÁ", "provincia": "Provincia de Iquique", "comuna": null, "superficie_ha": 100.0, "datum_original": "PSAD56", "huso": 19, "epsg_origen": 24879, "tipo_publicacion": "manifestacion", "fuente_pdf": "http://www.diariooficial.interior.gob.cl/publicaciones/2026/08/17/44526/07/2854612.pdf", "archivo": "gm_manifestacion_2854612.pdf", "fecha": "17-08-2026", "edicion": "44526" }, "geometry": { "type": "Polygon", "coordinates": [ [ [ -70.128084357360009, -21.079627386654906 ], [ -70.118459175218234, -21.07969108307654 ], [ -70.118526768871106, -21.088724868077296 ], [ -70.128152532407668, -21.088661141815244 ], [ -70.128084357360009, -21.079627386654906 ] ] ] } },
{ "type": "Feature", "properties": { "cve": "2854606", "nombre": "TIGRETONA 1 AL 30", "solicitante": "Álvarez Leiva Cristián Eduardo", "region": "REGIÓN DE TARAPACÁ", "provincia": "Provincia del Tamarugal", "comuna": "Huara", "superficie_ha": 300.0, "datum_original": "PSAD56", "huso": 19, "epsg_origen": 24879, "tipo_publicacion": "manifestacion", "fuente_pdf": "http://www.diariooficial.interior.gob.cl/publicaciones/2026/08/17/44526/07/2854606.pdf", "archivo": "gm_manifestacion_2854606.pdf", "fecha": "17-08-2026", "edicion": "44526" }, "geometry": { "type": "Polygon", "coordinates": [ [ [ -70.105617321405632, -19.268221788812326 ], [ -70.07707294601235, -19.268392162808066 ], [ -70.077131983052865, -19.277427949678188 ], [ -70.105677922267347, -19.277257489637403 ], [ -70.105617321405632, -19.268221788812326 ] ] ] } },
{ "type": "Feature", "properties": { "cve": "2854453", "nombre": "ARGENTINA DEL 1 AL 5", "solicitante": "Gallardo Funes Julio Enrique", "region": "REGIÓN DE ANTOFAGASTA", "provincia": "Provincia de Antofagasta", "comuna": null, "superficie_ha": 25.0, "datum_original": "PSAD56", "huso": 19, "epsg_origen": 24879, "tipo_publicacion": "manifestacion", "fuente_pdf": "http://www.diariooficial.interior.gob.cl/publicaciones/2026/08/17/44526/07/2854453.pdf", "archivo": "gm_manifestacion_2854453.pdf", "fecha": "17-08-2026", "edicion": "44526" }, "geometry": { "type": "Polygon", "coordinates": [ [ [ -70.501456249965173, -23.307202729822539 ], [ -70.496567901945426, -23.307249470606962 ], [ -70.496618432063499, -23.311764435707026 ], [ -70.501506944982509, -23.311717684821019 ], [ -70.501456249965173, -23.307202729822539 ] ] ] } },
{ "type": "Feature", "properties": { "cve": "2854446", "nombre": "ATIKA B 2, 1 al 10", "solicitante": "Antofagasta Minerals S.A.", "region": "REGIÓN DE ANTOFAGASTA", "provincia": "Provincia de Antofagasta", "comuna": null, "superficie_ha": 100.0, "datum_original": "PSAD56", "huso": 19, "epsg_origen": 24879, "tipo_publicacion": "manifestacion", "fuente_pdf": "http://www.diariooficial.interior.gob.cl/publicaciones/2026/08/17/44526/07/2854446.pdf", "archivo": "gm_manifestacion_2854446.pdf", "fecha": "17-08-2026", "edicion": "44526" }, "geometry": { "type": "Polygon", "coordinates": [ [ [ -70.039023810080295, -23.380947228162395 ], [ -70.029239949275038, -23.381011914689882 ], [ -70.029309710805336, -23.390043388060942 ], [ -70.039094234467868, -23.389978673636058 ], [ -70.039023810080295, -23.380947228162395 ] ] ] } },
{ "type": "Feature", "properties": { "cve": "2854447", "nombre": "ATIKA B 5, 1 al 30", "solicitante": "Antofagasta Minerals S.A.", "region": "REGIÓN DE ANTOFAGASTA", "provincia": "Provincia de Antofagasta", "comuna": null, "superficie_ha": 300.0, "datum_original": "PSAD56", "huso": 19, "epsg_origen": 24879, "tipo_publicacion": "manifestacion", "fuente_pdf": "http://www.diariooficial.interior.gob.cl/publicaciones/2026/08/17/44526/07/2854447.pdf", "archivo": "gm_manifestacion_2854447.pdf", "fecha": "17-08-2026", "edicion": "44526" }, "geometry": { "type": "Polygon", "coordinates": [ [ [ -70.068469323710005, -23.392490264239878 ], [ -70.039115368652602, -23.392688105187869 ], [ -70.039185838835181, -23.401719536724645 ], [ -70.068541783693277, -23.401521610487119 ], [ -70.068469323710005, -23.392490264239878 ] ] ] } },
{ "type": "Feature", "properties": { "cve": "2854448", "nombre": "ATIKA B 6, 1 al 30", "solicitante": "Antofagasta Minerals S.A.", "region": "REGIÓN DE ANTOFAGASTA", "provincia": "Provincia de Antofagasta", "comuna": null, "superficie_ha": 300.0, "datum_original": "PSAD56", "huso": 19, "epsg_origen": 24879, "tipo_publicacion": "manifestacion", "fuente_pdf": "http://www.diariooficial.interior.gob.cl/publicaciones/2026/08/17/44526/07/2854448.pdf", "archivo": "gm_manifestacion_2854448.pdf", "fecha": "17-08-2026", "edicion": "44526" }, "geometry": { "type": "Polygon", "coordinates": [ [ [ -70.068505549173082, -23.397005938705242 ], [ -70.039150599339678, -23.397203822296614 ], [ -70.03922108714049, -23.406235248471607 ], [ -70.068578027271968, -23.406037279585099 ], [ -70.068505549173082, -23.397005938705242 ] ] ] } },
{ "type": "Feature", "properties": { "cve": "2854503", "nombre": "FABIAN DEL 1 AL 1", "solicitante": "Montecinos Funes Fernando Arnaldo", "region": "REGIÓN DE ANTOFAGASTA", "provincia": "Provincia de Antofagasta", "comuna": "Antofagasta", "superficie_ha": 1.0, "datum_original": "PSAD56", "huso": 19, "epsg_origen": 24879, "tipo_publicacion": "manifestacion", "fuente_pdf": "http://www.diariooficial.interior.gob.cl/publicaciones/2026/08/17/44526/07/2854503.pdf", "archivo": "gm_manifestacion_2854503.pdf", "fecha": "17-08-2026", "edicion": "44526" }, "geometry": { "type": "Polygon", "coordinates": [ [ [ -70.39268815837319, -23.518630554570841 ], [ -70.39170888825862, -23.518639310823595 ], [ -70.391718380880036, -23.519542321294036 ], [ -70.392697657668776, -23.519533564665451 ], [ -70.39268815837319, -23.518630554570841 ] ] ] } },
{ "type": "Feature", "properties": { "cve": "2854522", "nombre": "SAN LORENZO II 1 AL 5", "solicitante": "SLM Río Blanco Primera de la Comuna de Taltal", "region": "REGIÓN DE ANTOFAGASTA", "provincia": "Provincia de Antofagasta", "comuna": null, "superficie_ha": 25.0, "datum_original": "PSAD56", "huso": 19, "epsg_origen": 24879, "tipo_publicacion": "manifestacion", "fuente_pdf": "http://www.diariooficial.interior.gob.cl/publicaciones/2026/08/17/44526/07/2854522.pdf", "archivo": "gm_manifestacion_2854522.pdf", "fecha": "17-08-2026", "edicion": "44526" }, "geometry": { "type": "Polygon", "coordinates": [ [ [ -70.39078759030204, -25.3591264505711 ], [ -70.385819635612094, -25.359173297891449 ], [ -70.385871108725794, -25.363687253329811 ], [ -70.390839247794347, -25.363640396510274 ], [ -70.39078759030204, -25.3591264505711 ] ] ] } },
{ "type": "Feature", "properties": { "cve": "2854523", "nombre": "SAN LORENZO III 1 AL 3", "solicitante": "SLM Río Blanco Primera de la Comuna de Taltal", "region": "REGIÓN DE ANTOFAGASTA", "provincia": "Provincia de Antofagasta", "comuna": null, "superficie_ha": 15.0, "datum_original": "PSAD56", "huso": 19, "epsg_origen": 24879, "tipo_publicacion": "manifestacion", "fuente_pdf": "http://www.diariooficial.interior.gob.cl/publicaciones/2026/08/17/44526/07/2854523.pdf", "archivo": "gm_manifestacion_2854523.pdf", "fecha": "17-08-2026", "edicion": "44526" }, "geometry": { "type": "Polygon", "coordinates": [ [ [ -70.380808851270132, -25.351076311896819 ], [ -70.375841204505178, -25.35112280882193 ], [ -70.375871853445204, -25.353831196837188 ], [ -70.380839610786438, -25.353784694253925 ], [ -70.380808851270132, -25.351076311896819 ] ] ] } },
{ "type": "Feature", "properties": { "cve": "2854524", "nombre": "SAN LORENZO IV 1 AL 5", "solicitante": "SLM Río Blanco Primera de la Comuna de Taltal", "region": "REGIÓN DE ANTOFAGASTA", "provincia": "Provincia de Antofagasta", "comuna": null, "superficie_ha": 25.0, "datum_original": "PSAD56", "huso": 19, "epsg_origen": 24879, "tipo_publicacion": "manifestacion", "fuente_pdf": "http://www.diariooficial.interior.gob.cl/publicaciones/2026/08/17/44526/07/2854524.pdf", "archivo": "gm_manifestacion_2854524.pdf", "fecha": "17-08-2026", "edicion": "44526" }, "geometry": { "type": "Polygon", "coordinates": [ [ [ -70.373833307259488, -25.252382587570956 ], [ -70.368869666782217, -25.252428681628018 ], [ -70.36892026614133, -25.256942735191281 ], [ -70.373884089955865, -25.256896631758693 ], [ -70.373833307259488, -25.252382587570956 ] ] ] } },
{ "type": "Feature", "properties": { "cve": "2854647", "nombre": "VERDE OCRE IX 1 AL 10", "solicitante": "Díaz Luoni Edgardo Daniel", "region": "REGIÓN DE ANTOFAGASTA", "provincia": "Provincia de Antofagasta", "comuna": "Antofagasta", "superficie_ha": 100.0, "datum_original": "PSAD56", "huso": 19, "epsg_origen": 24879, "tipo_publicacion": "manifestacion", "fuente_pdf": "http://www.diariooficial.interior.gob.cl/publicaciones/2026/08/17/44526/07/2854647.pdf", "archivo": "gm_manifestacion_2854647.pdf", "fecha": "17-08-2026", "edicion": "44526" }, "geometry": { "type": "Polygon", "coordinates": [ [ [ -70.295648658616585, -23.610231327362595 ], [ -70.285848755242839, -23.610312807622741 ], [ -70.285936865367134, -23.61934319184434 ], [ -70.295737439802778, -23.619261676711695 ], [ -70.295648658616585, -23.610231327362595 ] ] ] } },
{ "type": "Feature", "properties": { "cve": "2853881", "nombre": "ARCADIA 2 DEL 1 AL 30", "solicitante": "Grupo Mawida SpA", "region": "REGIÓN DE ANTOFAGASTA", "provincia": "Provincia de El Loa", "comuna": null, "superficie_ha": 270.0, "datum_original": "PSAD56", "huso": 19, "epsg_origen": 24879, "tipo_publicacion": "manifestacion", "fuente_pdf": "http://www.diariooficial.interior.gob.cl/publicaciones/2026/08/17/44526/07/2853881.pdf", "archivo": "gm_manifestacion_2853881.pdf", "fecha": "17-08-2026", "edicion": "44526" }, "geometry": { "type": "Polygon", "coordinates": [ [ [ -68.658156230449876, -21.879012361108895 ], [ -68.64363692111462, -21.878981595877885 ], [ -68.643596525507377, -21.895243631516962 ], [ -68.658117480602016, -21.895274421923553 ], [ -68.658156230449876, -21.879012361108895 ] ] ] } },
{ "type": "Feature", "properties": { "cve": "2853882", "nombre": "ETERNA 2 DEL 1 AL 111", "solicitante": "Grupo Mawida SpA", "region": "REGIÓN DE ANTOFAGASTA", "provincia": "Provincia de El Loa", "comuna": null, "superficie_ha": 555.0, "datum_original": "PSAD56", "huso": 19, "epsg_origen": 24879, "tipo_publicacion": "manifestacion", "fuente_pdf": "http://www.diariooficial.interior.gob.cl/publicaciones/2026/08/17/44526/07/2853882.pdf", "archivo": "gm_manifestacion_2853882.pdf", "fecha": "17-08-2026", "edicion": "44526" }, "geometry": { "type": "Polygon", "coordinates": [ [ [ -68.65339821181945, -21.845122867881642 ], [ -68.638882334816117, -21.845091729316401 ], [ -68.638798293893572, -21.878519333036824 ], [ -68.65331754892857, -21.878550524051374 ], [ -68.65339821181945, -21.845122867881642 ] ] ] } },
{ "type": "Feature", "properties": { "cve": "2854171", "nombre": "LA YOYITA 1 al 48", "solicitante": "Mamani Anza Raúl Alejandro", "region": "REGIÓN DE ANTOFAGASTA", "provincia": "Provincia de El Loa", "comuna": null, "superficie_ha": 96.0, "datum_original": "PSAD56", "huso": 19, "epsg_origen": 24879, "tipo_publicacion": "manifestacion", "fuente_pdf": "http://www.diariooficial.interior.gob.cl/publicaciones/2026/08/17/44526/07/2854171.pdf", "archivo": "gm_manifestacion_2854171.pdf", "fecha": "17-08-2026", "edicion": "44526" }, "geometry": { "type": "Polygon", "coordinates": [ [ [ -68.275622401962238, -22.297850700753205 ], [ -68.263973383256598, -22.297798288559736 ], [ -68.263935527253764, -22.30502503170678 ], [ -68.275585144973803, -22.305077462672422 ], [ -68.275622401962238, -22.297850700753205 ] ] ] } },
{ "type": "Feature", "properties": { "cve": "2854239", "nombre": "ANTELOPE 10, 1 AL 60", "solicitante": "Gold Hart Chile SpA", "region": "REGIÓN DE ATACAMA", "provincia": "Provincia de Copiapó", "comuna": null, "superficie_ha": 300.0, "datum_original": "PSAD56", "huso": 19, "epsg_origen": 24879, "tipo_publicacion": "manifestacion", "fuente_pdf": "http://www.diariooficial.interior.gob.cl/publicaciones/2026/08/17/44526/07/2854239.pdf", "archivo": "gm_manifestacion_2854239.pdf", "fecha": "17-08-2026", "edicion": "44526" }, "geometry": { "type": "Polygon", "coordinates": [ [ [ -69.357343033010565, -27.847632370688494 ], [ -69.326874489998147, -27.847707898074574 ], [ -69.326901558998472, -27.856735241578662 ], [ -69.357372625034472, -27.856659685509143 ], [ -69.357343033010565, -27.847632370688494 ] ] ] } },
{ "type": "Feature", "properties": { "cve": "2854240", "nombre": "ANTELOPE 11, 1 AL 60", "solicitante": "Gold Hart Chile SpA", "region": "REGIÓN DE ATACAMA", "provincia": "Provincia de Copiapó", "comuna": null, "superficie_ha": 300.0, "datum_original": "PSAD56", "huso": 19, "epsg_origen": 24879, "tipo_publicacion": "manifestacion", "fuente_pdf": "http://www.diariooficial.interior.gob.cl/publicaciones/2026/08/17/44526/07/2854240.pdf", "archivo": "gm_manifestacion_2854240.pdf", "fecha": "17-08-2026", "edicion": "44526" }, "geometry": { "type": "Polygon", "coordinates": [ [ [ -69.357372625034472, -27.856659685509143 ], [ -69.326901558998472, -27.856735241578662 ], [ -69.326928640556446, -27.865762573146966 ], [ -69.357402230786477, -27.865686988389374 ], [ -69.357372625034472, -27.856659685509143 ] ] ] } },
{ "type": "Feature", "properties": { "cve": "2854241", "nombre": "ANTELOPE 12, 1 AL 60", "solicitante": "Gold Hart Chile SpA", "region": "REGIÓN DE ATACAMA", "provincia": "Provincia de Copiapó", "comuna": null, "superficie_ha": 300.0, "datum_original": "PSAD56", "huso": 19, "epsg_origen": 24879, "tipo_publicacion": "manifestacion", "fuente_pdf": "http://www.diariooficial.interior.gob.cl/publicaciones/2026/08/17/44526/07/2854241.pdf", "archivo": "gm_manifestacion_2854241.pdf", "fecha": "17-08-2026", "edicion": "44526" }, "geometry": { "type": "Polygon", "coordinates": [ [ [ -69.357402230786477, -27.865686988389374 ], [ -69.326928640556446, -27.865762573146966 ], [ -69.326955734676531, -27.874789892776942 ], [ -69.357431850271411, -27.874714279326639 ], [ -69.357402230786477, -27.865686988389374 ] ] ] } },
{ "type": "Feature", "properties": { "cve": "2854237", "nombre": "ANTELOPE 8, 1 AL 60", "solicitante": "Gold Hart Chile SpA", "region": "REGIÓN DE ATACAMA", "provincia": "Provincia de Copiapó", "comuna": null, "superficie_ha": 300.0, "datum_original": "PSAD56", "huso": 19, "epsg_origen": 24879, "tipo_publicacion": "manifestacion", "fuente_pdf": "http://www.diariooficial.interior.gob.cl/publicaciones/2026/08/17/44526/07/2854237.pdf", "archivo": "gm_manifestacion_2854237.pdf", "fecha": "17-08-2026", "edicion": "44526" }, "geometry": { "type": "Polygon", "coordinates": [ [ [ -69.357283890127547, -27.829577705236044 ], [ -69.326820389652639, -27.829653175269122 ], [ -69.326847433551009, -27.838680542637199 ], [ -69.357313454709868, -27.838605043929949 ], [ -69.357283890127547, -27.829577705236044 ] ] ] } },
{ "type": "Feature", "properties": { "cve": "2854345", "nombre": "ARAYA COPPER I 1 AL 20", "solicitante": "SLM Río Blanco Primera de la Comuna de Taltal", "region": "REGIÓN DE ATACAMA", "provincia": "Provincia de Copiapó", "comuna": null, "superficie_ha": 100.0, "datum_original": "PSAD56", "huso": 19, "epsg_origen": 24879, "tipo_publicacion": "manifestacion", "fuente_pdf": "http://www.diariooficial.interior.gob.cl/publicaciones/2026/08/17/44526/07/2854345.pdf", "archivo": "gm_manifestacion_2854345.pdf", "fecha": "17-08-2026", "edicion": "44526" }, "geometry": { "type": "Polygon", "coordinates": [ [ [ -69.989996308327932, -27.045627487606964 ], [ -69.979914617595597, -27.045698047877345 ], [ -69.979993035361048, -27.054725260846727 ], [ -69.99007553256213, -27.054654673242119 ], [ -69.989996308327932, -27.045627487606964 ] ] ] } },
{ "type": "Feature", "properties": { "cve": "2854346", "nombre": "ARAYA COPPER II 1 AL 20", "solicitante": "SLM Río Blanco Primera de la Comuna de Taltal", "region": "REGIÓN DE ATACAMA", "provincia": "Provincia de Copiapó", "comuna": null, "superficie_ha": 100.0, "datum_original": "PSAD56", "huso": 19, "epsg_origen": 24879, "tipo_publicacion": "manifestacion", "fuente_pdf": "http://www.diariooficial.interior.gob.cl/publicaciones/2026/08/17/44526/07/2854346.pdf", "archivo": "gm_manifestacion_2854346.pdf", "fecha": "17-08-2026", "edicion": "44526" }, "geometry": { "type": "Polygon", "coordinates": [ [ [ -69.989869076377687, -27.036616787638568 ], [ -69.97978819011729, -27.036687317178099 ], [ -69.979866567353412, -27.045714542143678 ], [ -69.989948259705528, -27.045643985275508 ], [ -69.989869076377687, -27.036616787638568 ] ] ] } },
{ "type": "Feature", "properties": { "cve": "2854347", "nombre": "ARAYA COPPER III 1 AL 5", "solicitante": "SLM Río Blanco Primera de la Comuna de Taltal", "region": "REGIÓN DE ATACAMA", "provincia": "Provincia de Copiapó", "comuna": null, "superficie_ha": 25.0, "datum_original": "PSAD56", "huso": 19, "epsg_origen": 24879, "tipo_publicacion": "manifestacion", "fuente_pdf": "http://www.diariooficial.interior.gob.cl/publicaciones/2026/08/17/44526/07/2854347.pdf", "archivo": "gm_manifestacion_2854347.pdf", "fecha": "17-08-2026", "edicion": "44526" }, "geometry": { "type": "Polygon", "coordinates": [ [ [ -69.999698750618791, -27.044097670592681 ], [ -69.994657993045095, -27.044133386615243 ], [ -69.994697784446601, -27.048646975497835 ], [ -69.999738743594705, -27.048611252557301 ], [ -69.999698750618791, -27.044097670592681 ] ] ] } },
{ "type": "Feature", "properties": { "cve": "2854348", "nombre": "ARAYA COPPER IV 1 AL 20", "solicitante": "SLM Río Blanco Primera de la Comuna de Taltal", "region": "REGIÓN DE ATACAMA", "provincia": "Provincia de Copiapó", "comuna": null, "superficie_ha": 100.0, "datum_original": "PSAD56", "huso": 19, "epsg_origen": 24879, "tipo_publicacion": "manifestacion", "fuente_pdf": "http://www.diariooficial.interior.gob.cl/publicaciones/2026/08/17/44526/07/2854348.pdf", "archivo": "gm_manifestacion_2854348.pdf", "fecha": "17-08-2026", "edicion": "44526" }, "geometry": { "type": "Polygon", "coordinates": [ [ [ -69.967384033312939, -27.143542793855005 ], [ -69.957293504279235, -27.143611963791074 ], [ -69.957370435153976, -27.152639110467351 ], [ -69.967461774785122, -27.15256991380242 ], [ -69.967384033312939, -27.143542793855005 ] ] ] } },
{ "type": "Feature", "properties": { "cve": "2854013", "nombre": "COBA II 4, 1 AL 30", "solicitante": "Compañía Minera San Lorenzo Limitada", "region": "REGIÓN DE ATACAMA", "provincia": "Provincia de Copiapó", "comuna": null, "superficie_ha": 300.0, "datum_original": "PSAD56", "huso": 19, "epsg_origen": 24879, "tipo_publicacion": "manifestacion", "fuente_pdf": "http://www.diariooficial.interior.gob.cl/publicaciones/2026/08/17/44526/07/2854013.pdf", "archivo": "gm_manifestacion_2854013.pdf", "fecha": "17-08-2026", "edicion": "44526" }, "geometry": { "type": "Polygon", "coordinates": [ [ [ -70.954276528302245, -27.992185643490931 ], [ -70.923784386358889, -27.992615681263757 ], [ -70.923944644847097, -28.001637871636966 ], [ -70.954439322989913, -28.001207671204526 ], [ -70.954276528302245, -27.992185643490931 ] ] ] } },
{ "type": "Feature", "properties": { "cve": "2854015", "nombre": "COBA III 10, 1 AL 30", "solicitante": "Compañía Minera San Lorenzo Limitada", "region": "REGIÓN DE ATACAMA", "provincia": "Provincia de Copiapó", "comuna": null, "superficie_ha": 300.0, "datum_original": "PSAD56", "huso": 19, "epsg_origen": 24879, "tipo_publicacion": "manifestacion", "fuente_pdf": "http://www.diariooficial.interior.gob.cl/publicaciones/2026/08/17/44526/07/2854015.pdf", "archivo": "gm_manifestacion_2854015.pdf", "fecha": "17-08-2026", "edicion": "44526" }, "geometry": { "type": "Polygon", "coordinates": [ [ [ -70.975097931454783, -28.018960914652656 ], [ -70.944598628630189, -28.019395948096591 ], [ -70.944760802896781, -28.028417991902874 ], [ -70.975262645280324, -28.027982794017078 ], [ -70.975097931454783, -28.018960914652656 ] ] ] } },
{ "type": "Feature", "properties": { "cve": "2854016", "nombre": "COBA III 11, 1 AL 20", "solicitante": "Compañía Minera San Lorenzo Limitada", "region": "REGIÓN DE ATACAMA", "provincia": "Provincia de Copiapó", "comuna": null, "superficie_ha": 200.0, "datum_original": "PSAD56", "huso": 19, "epsg_origen": 24879, "tipo_publicacion": "manifestacion", "fuente_pdf": "http://www.diariooficial.interior.gob.cl/publicaciones/2026/08/17/44526/07/2854016.pdf", "archivo": "gm_manifestacion_2854016.pdf", "fecha": "17-08-2026", "edicion": "44526" }, "geometry": { "type": "Polygon", "coordinates": [ [ [ -70.944598628630189, -28.019395948096591 ], [ -70.924265384376241, -28.019682214031093 ], [ -70.924425865469914, -28.028704366046099 ], [ -70.944760802896781, -28.028417991902874 ], [ -70.944598628630189, -28.019395948096591 ] ] ] } },
{ "type": "Feature", "properties": { "cve": "2854014", "nombre": "COBA III 5, 1 AL 30", "solicitante": "Compañía Minera San Lorenzo Limitada", "region": "REGIÓN DE ATACAMA", "provincia": "Provincia de Copiapó", "comuna": null, "superficie_ha": 300.0, "datum_original": "PSAD56", "huso": 19, "epsg_origen": 24879, "tipo_publicacion": "manifestacion", "fuente_pdf": "http://www.diariooficial.interior.gob.cl/publicaciones/2026/08/17/44526/07/2854014.pdf", "archivo": "gm_manifestacion_2854014.pdf", "fecha": "17-08-2026", "edicion": "44526" }, "geometry": { "type": "Polygon", "coordinates": [ [ [ -70.974768732329579, -28.000917117426873 ], [ -70.94427450510247, -28.001351822067196 ], [ -70.944436529374315, -28.010373891483713 ], [ -70.97493329381355, -28.009939022454926 ], [ -70.974768732329579, -28.000917117426873 ] ] ] } },
{ "type": "Feature", "properties": { "cve": "2854553", "nombre": "SUERTE I 1/14", "solicitante": "Ghiglino Saltori Sergio", "region": "REGIÓN DE ATACAMA", "provincia": "Provincia de Copiapó", "comuna": null, "superficie_ha": 70.0, "datum_original": "WGS84", "huso": 19, "epsg_origen": 32719, "tipo_publicacion": "manifestacion", "fuente_pdf": "http://www.diariooficial.interior.gob.cl/publicaciones/2026/08/17/44526/07/2854553.pdf", "archivo": "gm_manifestacion_2854553.pdf", "fecha": "17-08-2026", "edicion": "44526" }, "geometry": { "type": "Polygon", "coordinates": [ [ [ -70.168831655576312, -28.025401964616243 ], [ -70.158660762276682, -28.025488110422298 ], [ -70.158728432013334, -28.031805894981638 ], [ -70.168899918999557, -28.031719726378032 ], [ -70.168831655576312, -28.025401964616243 ] ] ] } },
{ "type": "Feature", "properties": { "cve": "2854554", "nombre": "SUERTE II 1/20", "solicitante": "Ghiglino Saltori Sergio", "region": "REGIÓN DE ATACAMA", "provincia": "Provincia de Copiapó", "comuna": null, "superficie_ha": 100.0, "datum_original": "WGS84", "huso": 19, "epsg_origen": 32719, "tipo_publicacion": "manifestacion", "fuente_pdf": "http://www.diariooficial.interior.gob.cl/publicaciones/2026/08/17/44526/07/2854554.pdf", "archivo": "gm_manifestacion_2854554.pdf", "fecha": "17-08-2026", "edicion": "44526" }, "geometry": { "type": "Polygon", "coordinates": [ [ [ -70.14404816496679, -28.08548143575149 ], [ -70.133871527033776, -28.085565912303103 ], [ -70.133966375691486, -28.094591316453617 ], [ -70.144143864452374, -28.094506808009736 ], [ -70.14404816496679, -28.08548143575149 ] ] ] } },
{ "type": "Feature", "properties": { "cve": "2854555", "nombre": "SUERTE III 1/20", "solicitante": "Ghiglino Saltori Sergio", "region": "REGIÓN DE ATACAMA", "provincia": "Provincia de Copiapó", "comuna": null, "superficie_ha": 100.0, "datum_original": "WGS84", "huso": 19, "epsg_origen": 32719, "tipo_publicacion": "manifestacion", "fuente_pdf": "http://www.diariooficial.interior.gob.cl/publicaciones/2026/08/17/44526/07/2854555.pdf", "archivo": "gm_manifestacion_2854555.pdf", "fecha": "17-08-2026", "edicion": "44526" }, "geometry": { "type": "Polygon", "coordinates": [ [ [ -70.14395250972548, -28.07645605131669 ], [ -70.133776722227111, -28.076540495981241 ], [ -70.133871527033776, -28.085565912303103 ], [ -70.14404816496679, -28.08548143575149 ], [ -70.14395250972548, -28.07645605131669 ] ] ] } },
{ "type": "Feature", "properties": { "cve": "2854556", "nombre": "SUERTE IV 1/10", "solicitante": "Ghiglino Saltori Sergio", "region": "REGIÓN DE ATACAMA", "provincia": "Provincia de Copiapó", "comuna": null, "superficie_ha": 50.0, "datum_original": "WGS84", "huso": 19, "epsg_origen": 32719, "tipo_publicacion": "manifestacion", "fuente_pdf": "http://www.diariooficial.interior.gob.cl/publicaciones/2026/08/17/44526/07/2854556.pdf", "archivo": "gm_manifestacion_2854556.pdf", "fecha": "17-08-2026", "edicion": "44526" }, "geometry": { "type": "Polygon", "coordinates": [ [ [ -70.133795679681114, -28.078345580219199 ], [ -70.128707684440172, -28.078387522897721 ], [ -70.128802072753288, -28.087412952622788 ], [ -70.133890493256729, -28.087370994107001 ], [ -70.133795679681114, -28.078345580219199 ] ] ] } },
{ "type": "Feature", "properties": { "cve": "2854161", "nombre": "VERDE 4, 1 AL 25", "solicitante": "Atacama Salt Lakes SpA", "region": "REGIÓN DE ATACAMA", "provincia": "Provincia de Copiapó", "comuna": null, "superficie_ha": 25.0, "datum_original": "PSAD56", "huso": 19, "epsg_origen": 24879, "tipo_publicacion": "manifestacion", "fuente_pdf": "http://www.diariooficial.interior.gob.cl/publicaciones/2026/08/17/44526/07/2854161.pdf", "archivo": "gm_manifestacion_2854161.pdf", "fecha": "17-08-2026", "edicion": "44526" }, "geometry": { "type": "Polygon", "coordinates": [ [ [ -68.508618096652086, -26.853883428337301 ], [ -68.503585217088769, -26.853865852383706 ], [ -68.503565519633838, -26.858380076993789 ], [ -68.50859859887926, -26.858397656368901 ], [ -68.508618096652086, -26.853883428337301 ] ] ] } },
{ "type": "Feature", "properties": { "cve": "2854162", "nombre": "VERDE 6, 1 AL 5", "solicitante": "Atacama Salt Lakes SpA", "region": "REGIÓN DE ATACAMA", "provincia": "Provincia de Copiapó", "comuna": null, "superficie_ha": 5.0, "datum_original": "PSAD56", "huso": 19, "epsg_origen": 24879, "tipo_publicacion": "manifestacion", "fuente_pdf": "http://www.diariooficial.interior.gob.cl/publicaciones/2026/08/17/44526/07/2854162.pdf", "archivo": "gm_manifestacion_2854162.pdf", "fecha": "17-08-2026", "edicion": "44526" }, "geometry": { "type": "Polygon", "coordinates": [ [ [ -68.468295062390993, -26.898880240264603 ], [ -68.467288093943822, -26.898876446567886 ], [ -68.467266915101888, -26.903390616393597 ], [ -68.468273923578153, -26.903394410827985 ], [ -68.468295062390993, -26.898880240264603 ] ] ] } },
{ "type": "Feature", "properties": { "cve": "2854163", "nombre": "VERDE 7, 1 AL 80", "solicitante": "Atacama Salt Lakes SpA", "region": "REGIÓN DE ATACAMA", "provincia": "Provincia de Copiapó", "comuna": null, "superficie_ha": 80.0, "datum_original": "PSAD56", "huso": 19, "epsg_origen": 24879, "tipo_publicacion": "manifestacion", "fuente_pdf": "http://www.diariooficial.interior.gob.cl/publicaciones/2026/08/17/44526/07/2854163.pdf", "archivo": "gm_manifestacion_2854163.pdf", "fecha": "17-08-2026", "edicion": "44526" }, "geometry": { "type": "Polygon", "coordinates": [ [ [ -68.488445493849639, -26.896507917476168 ], [ -68.478375995963404, -26.896471096861372 ], [ -68.478342816216809, -26.903693782574592 ], [ -68.488412954540465, -26.903730614645536 ], [ -68.488445493849639, -26.896507917476168 ] ] ] } },
{ "type": "Feature", "properties": { "cve": "2854164", "nombre": "VERDE 7, 1 AL 80", "solicitante": "Atacama Salt Lakes SpA", "region": "REGIÓN DE ATACAMA", "provincia": "Provincia de Copiapó", "comuna": null, "superficie_ha": 80.0, "datum_original": "PSAD56", "huso": 19, "epsg_origen": 24879, "tipo_publicacion": "manifestacion", "fuente_pdf": "http://www.diariooficial.interior.gob.cl/publicaciones/2026/08/17/44526/07/2854164.pdf", "archivo": "gm_manifestacion_2854164.pdf", "fecha": "17-08-2026", "edicion": "44526" }, "geometry": { "type": "Polygon", "coordinates": [ [ [ -68.508607982654766, -26.891162361268425 ], [ -68.504580358219144, -26.891148296550217 ], [ -68.504501571721178, -26.909205084136378 ], [ -68.508529836606101, -26.909219159797182 ], [ -68.508607982654766, -26.891162361268425 ] ] ] } },
{ "type": "Feature", "properties": { "cve": "2853993", "nombre": "LEGENDA X 1 AL 9", "solicitante": "Invexmin Chile SpA", "region": "REGIÓN DE ATACAMA", "provincia": "Provincia de Chañaral", "comuna": null, "superficie_ha": 45.0, "datum_original": "PSAD56", "huso": 19, "epsg_origen": 24879, "tipo_publicacion": "manifestacion", "fuente_pdf": "http://www.diariooficial.interior.gob.cl/publicaciones/2026/08/17/44526/07/2853993.pdf", "archivo": "gm_manifestacion_2853993.pdf", "fecha": "17-08-2026", "edicion": "44526" }, "geometry": { "type": "Polygon", "coordinates": [ [ [ -70.046013764889622, -26.725822331269089 ], [ -70.040987179340718, -26.725859300589558 ], [ -70.041061122310481, -26.733984010226255 ], [ -70.046088064747394, -26.733947027909391 ], [ -70.046013764889622, -26.725822331269089 ] ] ] } },
{ "type": "Feature", "properties": { "cve": "2854493", "nombre": "ORION I 1 AL 10", "solicitante": "Matogroso Mineral SpA", "region": "REGIÓN DE ATACAMA", "provincia": "Provincia de Chañaral", "comuna": null, "superficie_ha": 40.0, "datum_original": "PSAD56", "huso": 19, "epsg_origen": 24879, "tipo_publicacion": "manifestacion", "fuente_pdf": "http://www.diariooficial.interior.gob.cl/publicaciones/2026/08/17/44526/07/2854493.pdf", "archivo": "gm_manifestacion_2854493.pdf", "fecha": "17-08-2026", "edicion": "44526" }, "geometry": { "type": "Polygon", "coordinates": [ [ [ -70.41963247091175, -26.328794807863822 ], [ -70.415625576434508, -26.328834433477862 ], [ -70.415735382042669, -26.33786112365047 ], [ -70.419742587067972, -26.337821482396031 ], [ -70.41963247091175, -26.328794807863822 ] ] ] } },
{ "type": "Feature", "properties": { "cve": "2854464", "nombre": "DAYANA 1 AL 5", "solicitante": "Mascareña Santana Iván Arcadio", "region": "REGIÓN DE ATACAMA", "provincia": "Provincia de Huasco", "comuna": null, "superficie_ha": 25.0, "datum_original": "PSAD56", "huso": 19, "epsg_origen": 24879, "tipo_publicacion": "manifestacion", "fuente_pdf": "http://www.diariooficial.interior.gob.cl/publicaciones/2026/08/17/44526/07/2854464.pdf", "archivo": "gm_manifestacion_2854464.pdf", "fecha": "17-08-2026", "edicion": "44526" }, "geometry": { "type": "Polygon", "coordinates": [ [ [ -70.896347755906262, -28.875002179079292 ], [ -70.891223254462147, -28.875074191478163 ], [ -70.891304966924636, -28.879584784614483 ], [ -70.896429689455658, -28.879512758872124 ], [ -70.896347755906262, -28.875002179079292 ] ] ] } },
{ "type": "Feature", "properties": { "cve": "2854257", "nombre": "ELENA 1 AL 20", "solicitante": "Ardiles Zárate Miriam Ester", "region": "REGIÓN DE COQUIMBO", "provincia": "Provincia de Elqui", "comuna": "La Serena", "superficie_ha": 100.0, "datum_original": "PSAD56", "huso": 19, "epsg_origen": 24879, "tipo_publicacion": "manifestacion", "fuente_pdf": "http://www.diariooficial.interior.gob.cl/publicaciones/2026/08/17/44526/07/2854257.pdf", "archivo": "gm_manifestacion_2854257.pdf", "fecha": "17-08-2026", "edicion": "44526" }, "geometry": { "type": "Polygon", "coordinates": [ [ [ -71.122796896636302, -29.794241571448069 ], [ -71.112456967860894, -29.794407254531944 ], [ -71.112646503738659, -29.803425963095027 ], [ -71.122987358548457, -29.803260219824605 ], [ -71.122796896636302, -29.794241571448069 ] ] ] } },
{ "type": "Feature", "properties": { "cve": "2853385", "nombre": "BELEN 1/20", "solicitante": "Rojas Cabrera Luis Antonio", "region": "REGIÓN DE COQUIMBO", "provincia": "Provincia de Limarí", "comuna": null, "superficie_ha": 100.0, "datum_original": "WGS84", "huso": 19, "epsg_origen": 32719, "tipo_publicacion": "manifestacion", "fuente_pdf": "http://www.diariooficial.interior.gob.cl/publicaciones/2026/08/17/44526/07/2853385.pdf", "archivo": "gm_manifestacion_2853385.pdf", "fecha": "17-08-2026", "edicion": "44526" }, "geometry": { "type": "Polygon", "coordinates": [ [ [ -70.979917671108765, -31.111147207089573 ], [ -70.969436802465722, -31.111307857615568 ], [ -70.969623066700251, -31.120325571072573 ], [ -70.980104925021976, -31.12016486368594 ], [ -70.979917671108765, -31.111147207089573 ] ] ] } },
{ "type": "Feature", "properties": { "cve": "2854585", "nombre": "ESPERANZA II 1 AL 20", "solicitante": "Rui Juan Pablo", "region": "REGIÓN DE COQUIMBO", "provincia": "Provincia de Limarí", "comuna": null, "superficie_ha": 100.0, "datum_original": "PSAD56", "huso": 19, "epsg_origen": 24879, "tipo_publicacion": "manifestacion", "fuente_pdf": "http://www.diariooficial.interior.gob.cl/publicaciones/2026/08/17/44526/07/2854585.pdf", "archivo": "gm_manifestacion_2854585.pdf", "fecha": "17-08-2026", "edicion": "44526" }, "geometry": { "type": "Polygon", "coordinates": [ [ [ -70.842809919687909, -30.866626007691668 ], [ -70.832354950730007, -30.866774438662112 ], [ -70.832526569391462, -30.875793180810334 ], [ -70.842982516216182, -30.875644697054401 ], [ -70.842809919687909, -30.866626007691668 ] ] ] } },
{ "type": "Feature", "properties": { "cve": "2854586", "nombre": "ESPERANZA III 1 AL 20", "solicitante": "Rui Juan Pablo", "region": "REGIÓN DE COQUIMBO", "provincia": "Provincia de Limarí", "comuna": null, "superficie_ha": 100.0, "datum_original": "PSAD56", "huso": 19, "epsg_origen": 24879, "tipo_publicacion": "manifestacion", "fuente_pdf": "http://www.diariooficial.interior.gob.cl/publicaciones/2026/08/17/44526/07/2854586.pdf", "archivo": "gm_manifestacion_2854586.pdf", "fecha": "17-08-2026", "edicion": "44526" }, "geometry": { "type": "Polygon", "coordinates": [ [ [ -70.853134681434781, -30.859712747055092 ], [ -70.842680523319842, -30.859861981781943 ], [ -70.842853061529297, -30.868880681302088 ], [ -70.853308197150696, -30.868731393497203 ], [ -70.853134681434781, -30.859712747055092 ] ] ] } },
{ "type": "Feature", "properties": { "cve": "2854587", "nombre": "ESPERANZA V 1 AL 10", "solicitante": "Rui Juan Pablo", "region": "REGIÓN DE COQUIMBO", "provincia": "Provincia de Limarí", "comuna": null, "superficie_ha": 50.0, "datum_original": "PSAD56", "huso": 19, "epsg_origen": 24879, "tipo_publicacion": "manifestacion", "fuente_pdf": "http://www.diariooficial.interior.gob.cl/publicaciones/2026/08/17/44526/07/2854587.pdf", "archivo": "gm_manifestacion_2854587.pdf", "fecha": "17-08-2026", "edicion": "44526" }, "geometry": { "type": "Polygon", "coordinates": [ [ [ -70.839269417115958, -30.873442235257862 ], [ -70.828813687603855, -30.873590409641388 ], [ -70.828899344610548, -30.878099786560895 ], [ -70.839355563171424, -30.87795158583485 ], [ -70.839269417115958, -30.873442235257862 ] ] ] } },
{ "type": "Feature", "properties": { "cve": "2853382", "nombre": "LA CORINITA 1 AL 12", "solicitante": "Araya Tapia Reinaldo Antonio", "region": "REGIÓN DE COQUIMBO", "provincia": "Provincia de Limarí", "comuna": null, "superficie_ha": 12.0, "datum_original": "PSAD56", "huso": 19, "epsg_origen": 24879, "tipo_publicacion": "manifestacion", "fuente_pdf": "http://www.diariooficial.interior.gob.cl/publicaciones/2026/08/17/44526/07/2853382.pdf", "archivo": "gm_manifestacion_2853382.pdf", "fecha": "17-08-2026", "edicion": "44526" }, "geometry": { "type": "Polygon", "coordinates": [ [ [ -71.035694374670342, -30.989888979583409 ], [ -71.032554225868623, -30.989938446000362 ], [ -71.03263073200732, -30.993545448397153 ], [ -71.035770998806612, -30.993495974961306 ], [ -71.035694374670342, -30.989888979583409 ] ] ] } },
{ "type": "Feature", "properties": { "cve": "2854558", "nombre": "NUEVA ESPERANZA 1 AL 10", "solicitante": "Urquieta Albanez Exequiel Ernesto", "region": "REGIÓN DE COQUIMBO", "provincia": "Provincia de Limarí", "comuna": null, "superficie_ha": 50.0, "datum_original": "PSAD56", "huso": 19, "epsg_origen": 24879, "tipo_publicacion": "manifestacion", "fuente_pdf": "http://www.diariooficial.interior.gob.cl/publicaciones/2026/08/17/44526/07/2854558.pdf", "archivo": "gm_manifestacion_2854558.pdf", "fecha": "17-08-2026", "edicion": "44526" }, "geometry": { "type": "Polygon", "coordinates": [ [ [ -71.13657673762944, -30.813305904429495 ], [ -71.131353084325539, -30.813391951386006 ], [ -71.131552273770794, -30.8224091339513 ], [ -71.136776414356191, -30.822323056368727 ], [ -71.13657673762944, -30.813305904429495 ] ] ] } },
{ "type": "Feature", "properties": { "cve": "2853687", "nombre": "MANUEL UNO 1 AL 10", "solicitante": "Aguilar Díaz Manuel del Carmen", "region": "REGIÓN DE VALPARAÍSO", "provincia": "Provincia de Petorca", "comuna": null, "superficie_ha": 100.0, "datum_original": "WGS84", "huso": 19, "epsg_origen": 32719, "tipo_publicacion": "manifestacion", "fuente_pdf": "http://www.diariooficial.interior.gob.cl/publicaciones/2026/08/17/44526/07/2853687.pdf", "archivo": "gm_manifestacion_2853687.pdf", "fecha": "17-08-2026", "edicion": "44526" }, "geometry": { "type": "Polygon", "coordinates": [ [ [ -71.102471474851868, -32.236286175157602 ], [ -71.091864274338306, -32.236462273849341 ], [ -71.092070988678657, -32.24547771061421 ], [ -71.102679235499039, -32.245301550839095 ], [ -71.102471474851868, -32.236286175157602 ] ] ] } },
{ "type": "Feature", "properties": { "cve": "2854607", "nombre": "GIOVI 1 AL 11", "solicitante": "Álvarez Leiva Cristian Eduardo", "region": "REGIÓN DE TARAPACÁ", "provincia": "Provincia del Tamarugal", "comuna": null, "superficie_ha": 55.0, "datum_original": "PSAD56", "huso": 19, "epsg_origen": 24879, "tipo_publicacion": "mensura", "fuente_pdf": "http://www.diariooficial.interior.gob.cl/publicaciones/2026/08/17/44526/07/2854607.pdf", "archivo": "gm_mensura_2854607.pdf", "fecha": "17-08-2026", "edicion": "44526" }, "geometry": { "type": "Polygon", "coordinates": [ [ [ -69.490208960080452, -21.47569327076188 ], [ -69.479591222262215, -21.475724059166915 ], [ -69.479606012084432, -21.480241444728385 ], [ -69.490224077305015, -21.480210649219387 ], [ -69.490208960080452, -21.47569327076188 ] ] ] } },
{ "type": "Feature", "properties": { "cve": "2854444", "nombre": "CARTAGO 1 AL 1", "solicitante": "SLM Cartago Primera de la Comuna de Taltal", "region": "REGIÓN DE ANTOFAGASTA", "provincia": "Provincia de Antofagasta", "comuna": null, "superficie_ha": 1.0, "datum_original": "PSAD56", "huso": 19, "epsg_origen": 24879, "tipo_publicacion": "mensura", "fuente_pdf": "http://www.diariooficial.interior.gob.cl/publicaciones/2026/08/17/44526/07/2854444.pdf", "archivo": "gm_mensura_2854444.pdf", "fecha": "17-08-2026", "edicion": "44526" }, "geometry": { "type": "Polygon", "coordinates": [ [ [ -70.475409283171658, -25.392620585600731 ], [ -70.47441545609999, -25.392630551676088 ], [ -70.47442642418136, -25.393533303851591 ], [ -70.475420258639488, -25.393523337372482 ], [ -70.475409283171658, -25.392620585600731 ] ] ] } },
{ "type": "Feature", "properties": { "cve": "2854457", "nombre": "EDITH 1 AL 10", "solicitante": "Zepeda Rojas Luis Alejandro", "region": "REGIÓN DE ANTOFAGASTA", "provincia": "Provincia de Antofagasta", "comuna": null, "superficie_ha": 70.0, "datum_original": "PSAD56", "huso": 19, "epsg_origen": 24879, "tipo_publicacion": "mensura", "fuente_pdf": "http://www.diariooficial.interior.gob.cl/publicaciones/2026/08/17/44526/07/2854457.pdf", "archivo": "gm_mensura_2854457.pdf", "fecha": "17-08-2026", "edicion": "44526" }, "geometry": { "type": "Polygon", "coordinates": [ [ [ -69.843568017225934, -25.492676791851185 ], [ -69.833619289989784, -25.492733668029217 ], [ -69.833662903936073, -25.499054274240859 ], [ -69.843612151527964, -25.498997381975705 ], [ -69.843568017225934, -25.492676791851185 ] ] ] } },
{ "type": "Feature", "properties": { "cve": "2854445", "nombre": "LOS DOS 1 AL 1", "solicitante": "Baeza Vega Berna del Carmen", "region": "REGIÓN DE ANTOFAGASTA", "provincia": "Provincia de Antofagasta", "comuna": null, "superficie_ha": 1.0, "datum_original": "PSAD56", "huso": 19, "epsg_origen": 24879, "tipo_publicacion": "mensura", "fuente_pdf": "http://www.diariooficial.interior.gob.cl/publicaciones/2026/08/17/44526/07/2854445.pdf", "archivo": "gm_mensura_2854445.pdf", "fecha": "17-08-2026", "edicion": "44526" }, "geometry": { "type": "Polygon", "coordinates": [ [ [ -70.462369043540022, -25.390177652359686 ], [ -70.461375230644933, -25.390187529456202 ], [ -70.461386100546321, -25.39109028722244 ], [ -70.46237992082709, -25.391080409725749 ], [ -70.462369043540022, -25.390177652359686 ] ] ] } },
{ "type": "Feature", "properties": { "cve": "2854518", "nombre": "MINDY 1/14", "solicitante": "Ghiglino Gangas Ángelo", "region": "REGIÓN DE ATACAMA", "provincia": "Provincia de Copiapó", "comuna": null, "superficie_ha": 30.0, "datum_original": "PSAD56", "huso": 19, "epsg_origen": 24879, "tipo_publicacion": "mensura", "fuente_pdf": "http://www.diariooficial.interior.gob.cl/publicaciones/2026/08/17/44526/07/2854518.pdf", "archivo": "gm_mensura_2854518.pdf", "fecha": "17-08-2026", "edicion": "44526" }, "geometry": { "type": "Polygon", "coordinates": [ [ [ -70.600384614571212, -27.605953912977906 ], [ -70.595319597668095, -27.606012230853128 ], [ -70.595398040478258, -27.611426809387652 ], [ -70.600463306172543, -27.611368478150609 ], [ -70.600384614571212, -27.605953912977906 ] ] ] } },
{ "type": "Feature", "properties": { "cve": "2854330", "nombre": "CONQUISTA I 1 AL 7", "solicitante": "Ruz Prado Pedro Javier", "region": "REGIÓN DE ATACAMA", "provincia": "Provincia de Chañaral", "comuna": null, "superficie_ha": 35.0, "datum_original": "PSAD56", "huso": 19, "epsg_origen": 24879, "tipo_publicacion": "mensura", "fuente_pdf": "http://www.diariooficial.interior.gob.cl/publicaciones/2026/08/17/44526/07/2854330.pdf", "archivo": "gm_mensura_2854330.pdf", "fecha": "17-08-2026", "edicion": "44526" }, "geometry": { "type": "Polygon", "coordinates": [ [ [ -70.242212167612962, -26.739858085032456 ], [ -70.237185309556168, -26.73990202559952 ], [ -70.23725369698623, -26.746220800328629 ], [ -70.242280832736952, -26.746176847752572 ], [ -70.242212167612962, -26.739858085032456 ] ] ] } },
{ "type": "Feature", "properties": { "cve": "2854584", "nombre": "Susy 1/20", "solicitante": "Helfmann Verdejo Maximiliano Enrique", "region": "REGIÓN DE ATACAMA", "provincia": "Provincia de Chañaral", "comuna": null, "superficie_ha": 200.0, "datum_original": "PSAD56", "huso": 19, "epsg_origen": 24879, "tipo_publicacion": "mensura", "fuente_pdf": "http://www.diariooficial.interior.gob.cl/publicaciones/2026/08/17/44526/07/2854584.pdf", "archivo": "gm_mensura_2854584.pdf", "fecha": "17-08-2026", "edicion": "44526" }, "geometry": { "type": "Polygon", "coordinates": [ [ [ -70.184811980249123, -26.389611577136492 ], [ -70.174788553856047, -26.38969420041316 ], [ -70.174971338818096, -26.407749137649535 ], [ -70.184996323867097, -26.407666449245138 ], [ -70.184811980249123, -26.389611577136492 ] ] ] } },
{ "type": "Feature", "properties": { "cve": "2854107", "nombre": "San José 1 al 266", "solicitante": "Fernández Riesco Pedro Pablo", "region": "REGIÓN DE ATACAMA", "provincia": "Provincia de Huasco", "comuna": null, "superficie_ha": 798.0, "datum_original": "WGS84", "huso": 19, "epsg_origen": 32719, "tipo_publicacion": "mensura", "fuente_pdf": "http://www.diariooficial.interior.gob.cl/publicaciones/2026/08/17/44526/07/2854107.pdf", "archivo": "gm_mensura_2854107.pdf", "fecha": "17-08-2026", "edicion": "44526" }, "geometry": { "type": "Polygon", "coordinates": [ [ [ -70.64129761481766, -28.193247295406145 ], [ -70.61990971639635, -28.193502147077016 ], [ -70.620427273419608, -28.227791054767106 ], [ -70.641821997787076, -28.227535838408439 ], [ -70.64129761481766, -28.193247295406145 ] ] ] } },
{ "type": "Feature", "properties": { "cve": "2854301", "nombre": "LA CHICA 1 AL 10", "solicitante": "Jorquera Bugueño Herman Eduardo", "region": "REGIÓN DE COQUIMBO", "provincia": "Provincia de Choapa", "comuna": null, "superficie_ha": 50.0, "datum_original": "PSAD56", "huso": 19, "epsg_origen": 24879, "tipo_publicacion": "mensura", "fuente_pdf": "http://www.diariooficial.interior.gob.cl/publicaciones/2026/08/17/44526/07/2854301.pdf", "archivo": "gm_mensura_2854301.pdf", "fecha": "17-08-2026", "edicion": "44526" }, "geometry": { "type": "Polygon", "coordinates": [ [ [ -71.312349864778568, -31.596762499621633 ], [ -71.30708361117334, -31.596857744611956 ], [ -71.307305963478854, -31.605872744925382 ], [ -71.312572723534018, -31.605777466529442 ], [ -71.312349864778568, -31.596762499621633 ] ] ] } },
{ "type": "Feature", "properties": { "cve": "2854306", "nombre": "MATILDE 2 1-100", "solicitante": "Polanco López Hugo Alejandro", "region": "REGIÓN DE COQUIMBO", "provincia": "Provincia de Choapa", "comuna": null, "superficie_ha": 24.0, "datum_original": "PSAD56", "huso": 19, "epsg_origen": 24879, "tipo_publicacion": "mensura", "fuente_pdf": "http://www.diariooficial.interior.gob.cl/publicaciones/2026/08/17/44526/07/2854306.pdf", "archivo": "gm_mensura_2854306.pdf", "fecha": "17-08-2026", "edicion": "44526" }, "geometry": { "type": "Polygon", "coordinates": [ [ [ -71.121476246028138, -31.617330216230037 ], [ -71.115154532888553, -31.617435104229827 ], [ -71.115236132761723, -31.621041562426139 ], [ -71.121558089339388, -31.620936659715625 ], [ -71.121476246028138, -31.617330216230037 ] ] ] } },
{ "type": "Feature", "properties": { "cve": "2854543", "nombre": "CARMONA IV 14, 1 AL 30", "solicitante": "Compañía Minera Kairos Chile SpA", "region": "REGIÓN DE COQUIMBO", "provincia": "Provincia de Limarí", "comuna": null, "superficie_ha": 300.0, "datum_original": "PSAD56", "huso": 19, "epsg_origen": 24879, "tipo_publicacion": "mensura", "fuente_pdf": "http://www.diariooficial.interior.gob.cl/publicaciones/2026/08/17/44526/07/2854543.pdf", "archivo": "gm_mensura_2854543.pdf", "fecha": "17-08-2026", "edicion": "44526" }, "geometry": { "type": "Polygon", "coordinates": [ [ [ -70.681277815481394, -30.599076295153271 ], [ -70.670850781438091, -30.599210629536252 ], [ -70.671315522527564, -30.626270281812989 ], [ -70.681745453491288, -30.626135803330889 ], [ -70.681277815481394, -30.599076295153271 ] ] ] } },
{ "type": "Feature", "properties": { "cve": "2854533", "nombre": "PARRAL 1 AL 156", "solicitante": "Minera El Parral SpA", "region": "REGIÓN DE COQUIMBO", "provincia": "Provincia de Limarí", "comuna": null, "superficie_ha": 156.0, "datum_original": "PSAD56", "huso": 19, "epsg_origen": 24879, "tipo_publicacion": "mensura", "fuente_pdf": "http://www.diariooficial.interior.gob.cl/publicaciones/2026/08/17/44526/07/2854533.pdf", "archivo": "gm_mensura_2854533.pdf", "fecha": "17-08-2026", "edicion": "44526" }, "geometry": { "type": "Polygon", "coordinates": [ [ [ -71.021280775816166, -31.148108605095551 ], [ -71.007650742205257, -31.148321859367059 ], [ -71.007878911053893, -31.159142758564911 ], [ -71.021510491150735, -31.158929413778356 ], [ -71.021280775816166, -31.148108605095551 ] ] ] } },
{ "type": "Feature", "properties": { "cve": "2853570", "nombre": "ANDES 23, 1 AL 20", "solicitante": "Glencore Exploraciones Limitada", "region": "REGIÓN DE VALPARAÍSO", "provincia": "Provincia de Los Andes", "comuna": null, "superficie_ha": 100.0, "datum_original": "WGS84", "huso": 19, "epsg_origen": 32719, "tipo_publicacion": "mensura", "fuente_pdf": "http://www.diariooficial.interior.gob.cl/publicaciones/2026/08/17/44526/07/2853570.pdf", "archivo": "gm_mensura_2853570.pdf", "fecha": "17-08-2026", "edicion": "44526" }, "geometry": { "type": "Polygon", "coordinates": [ [ [ -70.344113128885937, -32.692530053258771 ], [ -70.33344806873086, -32.692643892826538 ], [ -70.333582188955987, -32.701662256968021 ], [ -70.34424832103474, -32.7015483781962 ], [ -70.344113128885937, -32.692530053258771 ] ] ] } },
{ "type": "Feature", "properties": { "cve": "2853647", "nombre": "HEKA 9 del 1 al 20", "solicitante": "Delgado Tobar René Luis", "region": "REGIÓN DE VALPARAÍSO", "provincia": "Provincia de Petorca", "comuna": null, "superficie_ha": 80.0, "datum_original": "WGS84", "huso": 19, "epsg_origen": 32719, "tipo_publicacion": "mensura", "fuente_pdf": "http://www.diariooficial.interior.gob.cl/publicaciones/2026/08/17/44526/07/2853647.pdf", "archivo": "gm_mensura_2853647.pdf", "fecha": "17-08-2026", "edicion": "44526" }, "geometry": { "type": "Polygon", "coordinates": [ [ [ -71.011632380612312, -32.254306350029907 ], [ -71.006327441976339, -32.254390740064608 ], [ -71.006248105776208, -32.250784378378036 ], [ -71.00094335440582, -32.250868534182331 ], [ -71.001141197855944, -32.259884463392332 ], [ -71.011751725726612, -32.259715870809295 ], [ -71.011632380612312, -32.254306350029907 ] ] ] } },
{ "type": "Feature", "properties": { "cve": "2854414", "nombre": "MORA 1-40", "solicitante": "Minera Las Cenizas S.A.", "region": "REGIÓN DE VALPARAÍSO", "provincia": "Provincia de Petorca", "comuna": null, "superficie_ha": 200.0, "datum_original": "PSAD56", "huso": 19, "epsg_origen": 24879, "tipo_publicacion": "mensura", "fuente_pdf": "http://www.diariooficial.interior.gob.cl/publicaciones/2026/08/17/44526/07/2854414.pdf", "archivo": "gm_mensura_2854414.pdf", "fecha": "17-08-2026", "edicion": "44526" }, "geometry": { "type": "Polygon", "coordinates": [ [ [ -71.102179451125366, -32.460027649963742 ], [ -71.091546164033446, -32.460204786001874 ], [ -71.091963158027951, -32.478234911952164 ], [ -71.102598561293007, -32.478057653474472 ], [ -71.102179451125366, -32.460027649963742 ] ] ] } },
{ "type": "Feature", "properties": { "cve": "2854416", "nombre": "TORITA 1,1-56", "solicitante": "Minera Las Cenizas S.A.", "region": "REGIÓN DE VALPARAÍSO", "provincia": "Provincia de Petorca", "comuna": null, "superficie_ha": 56.0, "datum_original": "PSAD56", "huso": 19, "epsg_origen": 24879, "tipo_publicacion": "mensura", "fuente_pdf": "http://www.diariooficial.interior.gob.cl/publicaciones/2026/08/17/44526/07/2854416.pdf", "archivo": "gm_mensura_2854416.pdf", "fecha": "17-08-2026", "edicion": "44526" }, "geometry": { "type": "Polygon", "coordinates": [ [ [ -71.048803676509124, -32.45169971162678 ], [ -71.040297549417758, -32.451837855164356 ], [ -71.040439835551723, -32.458148618488188 ], [ -71.048946554833194, -32.45801044152855 ], [ -71.048803676509124, -32.45169971162678 ] ] ] } },
{ "type": "Feature", "properties": { "cve": "2854415", "nombre": "TORITA 2, 1-42", "solicitante": "Minera Las Cenizas S.A.", "region": "REGIÓN DE VALPARAÍSO", "provincia": "Provincia de Petorca", "comuna": null, "superficie_ha": 42.0, "datum_original": "PSAD56", "huso": 19, "epsg_origen": 24879, "tipo_publicacion": "mensura", "fuente_pdf": "http://www.diariooficial.interior.gob.cl/publicaciones/2026/08/17/44526/07/2854415.pdf", "archivo": "gm_mensura_2854415.pdf", "fecha": "17-08-2026", "edicion": "44526" }, "geometry": { "type": "Polygon", "coordinates": [ [ [ -71.0403627922514, -32.454731791778279 ], [ -71.033982955138711, -32.454835034213517 ], [ -71.034124817455236, -32.461145819333353 ], [ -71.04050509878499, -32.461042551921075 ], [ -71.0403627922514, -32.454731791778279 ] ] ] } },
{ "type": "Feature", "properties": { "cve": "2854355", "nombre": "RINCÓN 1 AL 20", "solicitante": "Fernández Riesco Pedro Pablo", "region": "REGIÓN METROPOLITANA DE SANTIAGO", "provincia": "Provincia de Chacabuco", "comuna": null, "superficie_ha": 50.0, "datum_original": "WGS84", "huso": 19, "epsg_origen": 32719, "tipo_publicacion": "mensura", "fuente_pdf": "http://www.diariooficial.interior.gob.cl/publicaciones/2026/08/17/44526/07/2854355.pdf", "archivo": "gm_mensura_2854355.pdf", "fecha": "17-08-2026", "edicion": "44526" }, "geometry": { "type": "Polygon", "coordinates": [ [ [ -70.679822859432321, -33.044732156830911 ], [ -70.673399477836426, -33.0448185048105 ], [ -70.673570063827214, -33.053834951598873 ], [ -70.677852757305217, -33.053777403306874 ], [ -70.677767236765334, -33.049269191490815 ], [ -70.679908469912448, -33.049240367172992 ], [ -70.679822859432321, -33.044732156830911 ] ] ] } }
]
}
