{
"type": "FeatureCollection",
"name": "boletin_mineria_20260903",
"crs": { "type": "name", "properties": { "name": "urn:ogc:def:crs:OGC:1.3:CRS84" } },
"features": [
{ "type": "Feature", "properties": { "cve": "2864351", "nombre": "BLANCA B18, 1 AL 40", "solicitante": "Minera Santo Domingo SCM", "region": "REGIÓN DE ATACAMA", "provincia": "Provincia de Copiapó", "comuna": "Caldera", "superficie_ha": 200.0, "datum_original": "PSAD56", "huso": 19, "epsg_origen": 24879, "tipo_publicacion": "manifestacion", "fuente_pdf": "http://www.diariooficial.interior.gob.cl/publicaciones/2026/09/03/44541/07/2864351.pdf", "archivo": "gm_manifestacion_2864351.pdf", "fecha": "03-09-2026", "edicion": "44541" }, "geometry": { "type": "Polygon", "coordinates": [ [ [ -70.750767766815542, -26.761119747401885 ], [ -70.730661169833581, -26.761366706192657 ], [ -70.730797961190135, -26.770391475390284 ], [ -70.750906145428615, -26.770144420253263 ], [ -70.750767766815542, -26.761119747401885 ] ] ] } },
{ "type": "Feature", "properties": { "cve": "2864352", "nombre": "BLANCA B19, 1 AL 20", "solicitante": "Minera Santo Domingo SCM", "region": "REGIÓN DE ATACAMA", "provincia": "Provincia de Copiapó", "comuna": "Caldera", "superficie_ha": 100.0, "datum_original": "PSAD56", "huso": 19, "epsg_origen": 24879, "tipo_publicacion": "manifestacion", "fuente_pdf": "http://www.diariooficial.interior.gob.cl/publicaciones/2026/09/03/44541/07/2864352.pdf", "archivo": "gm_manifestacion_2864352.pdf", "fecha": "03-09-2026", "edicion": "44541" }, "geometry": { "type": "Polygon", "coordinates": [ [ [ -70.746884529316461, -26.770194059336109 ], [ -70.736830443624854, -26.770317658174388 ], [ -70.736967775742556, -26.779342386342744 ], [ -70.747022655433355, -26.779218739296152 ], [ -70.746884529316461, -26.770194059336109 ] ] ] } },
{ "type": "Feature", "properties": { "cve": "2864312", "nombre": "CATALINA 1 del 1-36", "solicitante": "Molina Donoso Arturo", "region": "REGIÓN DE ATACAMA", "provincia": "Provincia de Copiapó", "comuna": null, "superficie_ha": 36.0, "datum_original": "WGS84", "huso": 19, "epsg_origen": 32719, "tipo_publicacion": "manifestacion", "fuente_pdf": "http://www.diariooficial.interior.gob.cl/publicaciones/2026/09/03/44541/07/2864312.pdf", "archivo": "gm_manifestacion_2864312.pdf", "fecha": "03-09-2026", "edicion": "44541" }, "geometry": { "type": "Polygon", "coordinates": [ [ [ -70.169472394392884, -27.529172724970671 ], [ -70.160360041132563, -27.529249073915167 ], [ -70.160397959602747, -27.532859494339156 ], [ -70.169510610473523, -27.532783133709184 ], [ -70.169472394392884, -27.529172724970671 ] ] ] } },
{ "type": "Feature", "properties": { "cve": "2864313", "nombre": "CATALINA 2 del 1-60", "solicitante": "Molina Donoso Arturo", "region": "REGIÓN DE ATACAMA", "provincia": "Provincia de Copiapó", "comuna": null, "superficie_ha": 60.0, "datum_original": "WGS84", "huso": 19, "epsg_origen": 32719, "tipo_publicacion": "manifestacion", "fuente_pdf": "http://www.diariooficial.interior.gob.cl/publicaciones/2026/09/03/44541/07/2864313.pdf", "archivo": "gm_manifestacion_2864313.pdf", "fecha": "03-09-2026", "edicion": "44541" }, "geometry": { "type": "Polygon", "coordinates": [ [ [ -70.146395110717435, -27.585656263825864 ], [ -70.140317053458858, -27.585706315244302 ], [ -70.140410449282484, -27.594732353009359 ], [ -70.146489004089432, -27.594682282465193 ], [ -70.146395110717435, -27.585656263825864 ] ] ] } },
{ "type": "Feature", "properties": { "cve": "2864314", "nombre": "CAYETANO I 1 AL 20", "solicitante": "Carrizo Díaz Alberto Moisés", "region": "REGIÓN DE ATACAMA", "provincia": "Provincia de Copiapó", "comuna": "Tierra Amarilla", "superficie_ha": 100.0, "datum_original": "PSAD56", "huso": 19, "epsg_origen": 24879, "tipo_publicacion": "manifestacion", "fuente_pdf": "http://www.diariooficial.interior.gob.cl/publicaciones/2026/09/03/44541/07/2864314.pdf", "archivo": "gm_manifestacion_2864314.pdf", "fecha": "03-09-2026", "edicion": "44541" }, "geometry": { "type": "Polygon", "coordinates": [ [ [ -70.328399040443031, -27.778518588387819 ], [ -70.318251820918334, -27.778615742499952 ], [ -70.318360660392784, -27.787640925331843 ], [ -70.328508717109088, -27.787543734270312 ], [ -70.328399040443031, -27.778518588387819 ] ] ] } },
{ "type": "Feature", "properties": { "cve": "2864363", "nombre": "COTO VIEJO 1 AL 5", "solicitante": "González Navea Victorio Enrique", "region": "REGIÓN DE ATACAMA", "provincia": "Provincia de Copiapó", "comuna": null, "superficie_ha": 15.0, "datum_original": "WGS84", "huso": 19, "epsg_origen": 32719, "tipo_publicacion": "manifestacion", "fuente_pdf": "http://www.diariooficial.interior.gob.cl/publicaciones/2026/09/03/44541/07/2864363.pdf", "archivo": "gm_manifestacion_2864363.pdf", "fecha": "03-09-2026", "edicion": "44541" }, "geometry": { "type": "Polygon", "coordinates": [ [ [ -70.681726643577704, -27.481562612499211 ], [ -70.678691180886034, -27.481599258624335 ], [ -70.678759609261206, -27.486111298880523 ], [ -70.681795195545206, -27.48607464573762 ], [ -70.681726643577704, -27.481562612499211 ] ] ] } },
{ "type": "Feature", "properties": { "cve": "2864553", "nombre": "DON JOSE LUIS 1 AL 10", "solicitante": "Pardo Soto Daniela Andrea", "region": "REGIÓN DE ATACAMA", "provincia": "Provincia de Copiapó", "comuna": null, "superficie_ha": 100.0, "datum_original": "WGS84", "huso": 19, "epsg_origen": 32719, "tipo_publicacion": "manifestacion", "fuente_pdf": "http://www.diariooficial.interior.gob.cl/publicaciones/2026/09/03/44541/07/2864553.pdf", "archivo": "gm_manifestacion_2864553.pdf", "fecha": "03-09-2026", "edicion": "44541" }, "geometry": { "type": "Polygon", "coordinates": [ [ [ -69.408074119250855, -26.827358398703524 ], [ -69.398010588950399, -26.827387061887944 ], [ -69.398042146345929, -26.836415653583536 ], [ -69.408106474508557, -26.836386979231811 ], [ -69.408074119250855, -26.827358398703524 ] ] ] } },
{ "type": "Feature", "properties": { "cve": "2864443", "nombre": "ESPACIO 1/3", "solicitante": "Ghiglino Saltori Sergio", "region": "REGIÓN DE ATACAMA", "provincia": "Provincia de Copiapó", "comuna": null, "superficie_ha": 6.0, "datum_original": "WGS84", "huso": 19, "epsg_origen": 32719, "tipo_publicacion": "manifestacion", "fuente_pdf": "http://www.diariooficial.interior.gob.cl/publicaciones/2026/09/03/44541/07/2864443.pdf", "archivo": "gm_manifestacion_2864443.pdf", "fecha": "03-09-2026", "edicion": "44541" }, "geometry": { "type": "Polygon", "coordinates": [ [ [ -70.010643804090492, -27.083625805230668 ], [ -70.007618302934929, -27.083647523628745 ], [ -70.007634455232363, -27.085452940610736 ], [ -70.010660004867148, -27.08543122053182 ], [ -70.010643804090492, -27.083625805230668 ] ] ] } },
{ "type": "Feature", "properties": { "cve": "2864315", "nombre": "INMIN 1 1 AL 10", "solicitante": "Inmin SpA", "region": "REGIÓN DE ATACAMA", "provincia": "Provincia de Copiapó", "comuna": null, "superficie_ha": 100.0, "datum_original": "PSAD56", "huso": 19, "epsg_origen": 24879, "tipo_publicacion": "manifestacion", "fuente_pdf": "http://www.diariooficial.interior.gob.cl/publicaciones/2026/09/03/44541/07/2864315.pdf", "archivo": "gm_manifestacion_2864315.pdf", "fecha": "03-09-2026", "edicion": "44541" }, "geometry": { "type": "Polygon", "coordinates": [ [ [ -70.12723621966947, -27.658445587005954 ], [ -70.117099345270461, -27.658527648250384 ], [ -70.117191111381302, -27.667553665305924 ], [ -70.127328818064001, -27.667471572758199 ], [ -70.12723621966947, -27.658445587005954 ] ] ] } },
{ "type": "Feature", "properties": { "cve": "2864444", "nombre": "JUSTA 1/20", "solicitante": "Ghiglino Saltori Sergio", "region": "REGIÓN DE ATACAMA", "provincia": "Provincia de Copiapó", "comuna": null, "superficie_ha": 100.0, "datum_original": "WGS84", "huso": 19, "epsg_origen": 32719, "tipo_publicacion": "manifestacion", "fuente_pdf": "http://www.diariooficial.interior.gob.cl/publicaciones/2026/09/03/44541/07/2864444.pdf", "archivo": "gm_manifestacion_2864444.pdf", "fecha": "03-09-2026", "edicion": "44541" }, "geometry": { "type": "Polygon", "coordinates": [ [ [ -70.516127144951341, -28.057505795963671 ], [ -70.50595467587101, -28.057617762145114 ], [ -70.506080495458846, -28.066641847051233 ], [ -70.516253813638187, -28.066529838577697 ], [ -70.516127144951341, -28.057505795963671 ] ] ] } },
{ "type": "Feature", "properties": { "cve": "2864364", "nombre": "LOLA 1 AL 5", "solicitante": "González Caballero Lindor Homero", "region": "REGIÓN DE ATACAMA", "provincia": "Provincia de Copiapó", "comuna": null, "superficie_ha": 25.0, "datum_original": "WGS84", "huso": 19, "epsg_origen": 32719, "tipo_publicacion": "manifestacion", "fuente_pdf": "http://www.diariooficial.interior.gob.cl/publicaciones/2026/09/03/44541/07/2864364.pdf", "archivo": "gm_manifestacion_2864364.pdf", "fecha": "03-09-2026", "edicion": "44541" }, "geometry": { "type": "Polygon", "coordinates": [ [ [ -70.590757644187988, -27.590626964401839 ], [ -70.58569330938937, -27.590684908764391 ], [ -70.585758248435951, -27.595197087785991 ], [ -70.590822790421868, -27.595139132356394 ], [ -70.590757644187988, -27.590626964401839 ] ] ] } },
{ "type": "Feature", "properties": { "cve": "2864551", "nombre": "NICOLAS DEL 1 AL 7", "solicitante": "Molina Donoso Osvaldo", "region": "REGIÓN DE ATACAMA", "provincia": "Provincia de Copiapó", "comuna": null, "superficie_ha": 42.0, "datum_original": "WGS84", "huso": 19, "epsg_origen": 32719, "tipo_publicacion": "manifestacion", "fuente_pdf": "http://www.diariooficial.interior.gob.cl/publicaciones/2026/09/03/44541/07/2864551.pdf", "archivo": "gm_manifestacion_2864551.pdf", "fecha": "03-09-2026", "edicion": "44541" }, "geometry": { "type": "Polygon", "coordinates": [ [ [ -69.826763162031952, -27.040139093024141 ], [ -69.81264884953832, -27.040221300363594 ], [ -69.812668354216243, -27.04292958940762 ], [ -69.826783005379326, -27.042847372513634 ], [ -69.826763162031952, -27.040139093024141 ] ] ] } },
{ "type": "Feature", "properties": { "cve": "2864529", "nombre": "PAMELA 1 AL 10", "solicitante": "Compañía Minera Minerales Copiapó Limitada", "region": "REGIÓN DE ATACAMA", "provincia": "Provincia de Copiapó", "comuna": null, "superficie_ha": 100.0, "datum_original": "PSAD56", "huso": 19, "epsg_origen": 24879, "tipo_publicacion": "manifestacion", "fuente_pdf": "http://www.diariooficial.interior.gob.cl/publicaciones/2026/09/03/44541/07/2864529.pdf", "archivo": "gm_manifestacion_2864529.pdf", "fecha": "03-09-2026", "edicion": "44541" }, "geometry": { "type": "Polygon", "coordinates": [ [ [ -69.755499223968485, -27.558599799093003 ], [ -69.745370456907807, -27.55865449656552 ], [ -69.745431429745835, -27.567681600523851 ], [ -69.755561025169712, -27.567626882132714 ], [ -69.755499223968485, -27.558599799093003 ] ] ] } },
{ "type": "Feature", "properties": { "cve": "2864316", "nombre": "REINA SOFIA 3 DEL 1-96", "solicitante": "Molina Donoso Arturo", "region": "REGIÓN DE ATACAMA", "provincia": "Provincia de Copiapó", "comuna": null, "superficie_ha": 96.0, "datum_original": "WGS84", "huso": 19, "epsg_origen": 32719, "tipo_publicacion": "manifestacion", "fuente_pdf": "http://www.diariooficial.interior.gob.cl/publicaciones/2026/09/03/44541/07/2864316.pdf", "archivo": "gm_manifestacion_2864316.pdf", "fecha": "03-09-2026", "edicion": "44541" }, "geometry": { "type": "Polygon", "coordinates": [ [ [ -70.422430305678205, -27.412089573428286 ], [ -70.414339802058052, -27.412171880301869 ], [ -70.414477787749817, -27.423002234430914 ], [ -70.42256908004795, -27.422919889656505 ], [ -70.422430305678205, -27.412089573428286 ] ] ] } },
{ "type": "Feature", "properties": { "cve": "2864550", "nombre": "MISAEL DEL 1 AL 81", "solicitante": "Molina Donoso Osvaldo", "region": "REGIÓN DE ATACAMA", "provincia": "Provincia de Chañaral", "comuna": null, "superficie_ha": 81.0, "datum_original": "WGS84", "huso": 19, "epsg_origen": 32719, "tipo_publicacion": "manifestacion", "fuente_pdf": "http://www.diariooficial.interior.gob.cl/publicaciones/2026/09/03/44541/07/2864550.pdf", "archivo": "gm_manifestacion_2864550.pdf", "fecha": "03-09-2026", "edicion": "44541" }, "geometry": { "type": "Polygon", "coordinates": [ [ [ -69.945604159783457, -26.807579779205472 ], [ -69.93654955493183, -26.807639970058609 ], [ -69.936616325121335, -26.815764832422328 ], [ -69.945671575276918, -26.815704620455264 ], [ -69.945604159783457, -26.807579779205472 ] ] ] } },
{ "type": "Feature", "properties": { "cve": "2864293", "nombre": "ROSALIACHICA I 1 AL 7", "solicitante": "Fonseca Porras Carolina de Lourdes", "region": "REGIÓN DE ATACAMA", "provincia": "Provincia de Chañaral", "comuna": null, "superficie_ha": 42.0, "datum_original": "PSAD56", "huso": 19, "epsg_origen": 24879, "tipo_publicacion": "manifestacion", "fuente_pdf": "http://www.diariooficial.interior.gob.cl/publicaciones/2026/09/03/44541/07/2864293.pdf", "archivo": "gm_manifestacion_2864293.pdf", "fecha": "03-09-2026", "edicion": "44541" }, "geometry": { "type": "Polygon", "coordinates": [ [ [ -69.710157986888575, -26.790919818398276 ], [ -69.703116121568883, -26.790954946997751 ], [ -69.703149509964049, -26.796371859285479 ], [ -69.710191709607841, -26.796336722466602 ], [ -69.710157986888575, -26.790919818398276 ] ] ] } },
{ "type": "Feature", "properties": { "cve": "2864247", "nombre": "VICTORIA 1 AL 20", "solicitante": "Minera Saavedra SpA", "region": "REGIÓN DE ATACAMA", "provincia": "Provincia de Chañaral", "comuna": "Diego de Almagro", "superficie_ha": 100.0, "datum_original": "PSAD56", "huso": 19, "epsg_origen": 24879, "tipo_publicacion": "manifestacion", "fuente_pdf": "http://www.diariooficial.interior.gob.cl/publicaciones/2026/09/03/44541/07/2864247.pdf", "archivo": "gm_manifestacion_2864247.pdf", "fecha": "03-09-2026", "edicion": "44541" }, "geometry": { "type": "Polygon", "coordinates": [ [ [ -69.628393385088813, -26.848285077341828 ], [ -69.618328341067652, -26.848329434637517 ], [ -69.618377404575554, -26.857357700376056 ], [ -69.62844324711709, -26.857313325807503 ], [ -69.628393385088813, -26.848285077341828 ] ] ] } },
{ "type": "Feature", "properties": { "cve": "2864213", "nombre": "CTLITHIUM 17A, 1 AL 120", "solicitante": "Atacama Salt Lakes SpA", "region": "REGIÓN DE ATACAMA", "provincia": "Provincia de Copiapó", "comuna": null, "superficie_ha": 120.0, "datum_original": "PSAD56", "huso": 19, "epsg_origen": 24879, "tipo_publicacion": "mensura", "fuente_pdf": "http://www.diariooficial.interior.gob.cl/publicaciones/2026/09/03/44541/07/2864213.pdf", "archivo": "gm_mensura_2864213.pdf", "fecha": "03-09-2026", "edicion": "44541" }, "geometry": { "type": "Polygon", "coordinates": [ [ [ -68.498594110923818, -26.844368223418808 ], [ -68.478464335096376, -26.844295442178922 ], [ -68.478439511741357, -26.849712497563598 ], [ -68.498570245579046, -26.849785295809792 ], [ -68.498594110923818, -26.844368223418808 ] ] ] } },
{ "type": "Feature", "properties": { "cve": "2864127", "nombre": "MOOSE 1, 1 AL 60", "solicitante": "Gold Hart Chile SpA", "region": "REGIÓN DE ATACAMA", "provincia": "Provincia de Copiapó", "comuna": null, "superficie_ha": 300.0, "datum_original": "PSAD56", "huso": 19, "epsg_origen": 24879, "tipo_publicacion": "mensura", "fuente_pdf": "http://www.diariooficial.interior.gob.cl/publicaciones/2026/09/03/44541/07/2864127.pdf", "archivo": "gm_mensura_2864127.pdf", "fecha": "03-09-2026", "edicion": "44541" }, "geometry": { "type": "Polygon", "coordinates": [ [ [ -69.215120002043435, -27.829872394379152 ], [ -69.184656064747955, -27.829916498066577 ], [ -69.184671344986754, -27.838943965482194 ], [ -69.215137803120697, -27.838899845037865 ], [ -69.215120002043435, -27.829872394379152 ] ] ] } },
{ "type": "Feature", "properties": { "cve": "2864128", "nombre": "MOOSE 6, 1 AL 60", "solicitante": "Gold Hart Chile SpA", "region": "REGIÓN DE ATACAMA", "provincia": "Provincia de Copiapó", "comuna": null, "superficie_ha": 300.0, "datum_original": "PSAD56", "huso": 19, "epsg_origen": 24879, "tipo_publicacion": "mensura", "fuente_pdf": "http://www.diariooficial.interior.gob.cl/publicaciones/2026/09/03/44541/07/2864128.pdf", "archivo": "gm_mensura_2864128.pdf", "fecha": "03-09-2026", "edicion": "44541" }, "geometry": { "type": "Polygon", "coordinates": [ [ [ -69.17451584424208, -27.838957178054059 ], [ -69.164360336797259, -27.83896964350123 ], [ -69.164401173670399, -27.866052003517339 ], [ -69.174559204316353, -27.866039523862483 ], [ -69.17451584424208, -27.838957178054059 ] ] ] } },
{ "type": "Feature", "properties": { "cve": "2864399", "nombre": "LA CHOLITA 1 AL 25", "solicitante": "De la Torre Rivera Cristián Eduardo", "region": "REGIÓN DE ATACAMA", "provincia": "Provincia de Huasco", "comuna": null, "superficie_ha": null, "datum_original": "WGS84", "huso": 19, "epsg_origen": 32719, "tipo_publicacion": "mensura", "fuente_pdf": "http://www.diariooficial.interior.gob.cl/publicaciones/2026/09/03/44541/07/2864399.pdf", "archivo": "gm_mensura_2864399.pdf", "fecha": "03-09-2026", "edicion": "44541" }, "geometry": { "type": "Polygon", "coordinates": [ [ [ -70.462982692870909, -28.907068278589467 ], [ -70.45785547117768, -28.907123878823885 ], [ -70.45791855498851, -28.91163545739802 ], [ -70.463045998352484, -28.911579846866811 ], [ -70.462982692870909, -28.907068278589467 ] ] ] } },
{ "type": "Feature", "properties": { "cve": "2864424", "nombre": "LA CODICIADA 1 AL 50", "solicitante": "De la Torre Rivera Cristián Eduardo", "region": "REGIÓN DE ATACAMA", "provincia": "Provincia de Huasco", "comuna": null, "superficie_ha": 50.0, "datum_original": "WGS84", "huso": 19, "epsg_origen": 32719, "tipo_publicacion": "mensura", "fuente_pdf": "http://www.diariooficial.interior.gob.cl/publicaciones/2026/09/03/44541/07/2864424.pdf", "archivo": "gm_mensura_2864424.pdf", "fecha": "03-09-2026", "edicion": "44541" }, "geometry": { "type": "Polygon", "coordinates": [ [ [ -70.356937791334644, -29.001764384781865 ], [ -70.346673533069264, -29.001867623259479 ], [ -70.346732034408674, -29.006379353447954 ], [ -70.356996738235196, -29.006276095890591 ], [ -70.356937791334644, -29.001764384781865 ] ] ] } },
{ "type": "Feature", "properties": { "cve": "2864271", "nombre": "EXPLANADA X 1 AL 20", "solicitante": "Angloamerican Sur S.A.", "region": "REGIÓN METROPOLITANA DE SANTIAGO", "provincia": "Provincia de Chacabuco", "comuna": null, "superficie_ha": 176.0, "datum_original": "WGS84", "huso": 19, "epsg_origen": 32719, "tipo_publicacion": "mensura", "fuente_pdf": "http://www.diariooficial.interior.gob.cl/publicaciones/2026/09/03/44541/07/2864271.pdf", "archivo": "gm_mensura_2864271.pdf", "fecha": "03-09-2026", "edicion": "44541" }, "geometry": { "type": "Polygon", "coordinates": [ [ [ -70.733293386386251, -32.960126765045601 ], [ -70.743899875106877, -32.95546974264321 ], [ -70.722510758336739, -32.955766574122137 ], [ -70.722650748332754, -32.962979651766815 ], [ -70.735485297800238, -32.962801943310353 ], [ -70.735520563588736, -32.964605199152196 ], [ -70.744077040722715, -32.964485986542051 ], [ -70.733293386386251, -32.960126765045601 ] ] ] } },
{ "type": "Feature", "properties": { "cve": "2864356", "nombre": "SANTA FE, 1 AL 7", "solicitante": "Pinochet Gazzari Ricardo", "region": "REGIÓN DEL MAULE", "provincia": "Provincia de Talca", "comuna": null, "superficie_ha": 49.0, "datum_original": "PSAD56", "huso": 19, "epsg_origen": 24879, "tipo_publicacion": "mensura", "fuente_pdf": "http://www.diariooficial.interior.gob.cl/publicaciones/2026/09/03/44541/07/2864356.pdf", "archivo": "gm_mensura_2864356.pdf", "fecha": "03-09-2026", "edicion": "44541" }, "geometry": { "type": "Polygon", "coordinates": [ [ [ -71.801057412289438, -35.49612617835605 ], [ -71.793348727852489, -35.49630501002791 ], [ -71.793567137914934, -35.502609118500416 ], [ -71.801276423169341, -35.502430245452061 ], [ -71.801057412289438, -35.49612617835605 ] ] ] } },
{ "type": "Feature", "properties": { "cve": "2864540", "nombre": "SOLSATION 1", "solicitante": "Andes Exploration SpA", "region": "REGIÓN DE TARAPACÁ", "provincia": "Provincia del Tamarugal", "comuna": "Pozo Almonte", "superficie_ha": 200.0, "datum_original": "PSAD56", "huso": 19, "epsg_origen": 24879, "tipo_publicacion": "pedimento", "fuente_pdf": "http://www.diariooficial.interior.gob.cl/publicaciones/2026/09/03/44541/07/2864540.pdf", "archivo": "gm_pedimento_2864540.pdf", "fecha": "03-09-2026", "edicion": "44541" }, "geometry": { "type": "Polygon", "coordinates": [ [ [ -68.972957539575006, -20.725559916098202 ], [ -68.95374858037566, -20.725555826219026 ], [ -68.95374583633722, -20.73459171636885 ], [ -68.972955935179456, -20.734595808191347 ], [ -68.972957539575006, -20.725559916098202 ] ] ] } },
{ "type": "Feature", "properties": { "cve": "2864541", "nombre": "SOLSATION 2", "solicitante": "Andes Exploration SpA", "region": "REGIÓN DE TARAPACÁ", "provincia": "Provincia del Tamarugal", "comuna": "Pozo Almonte", "superficie_ha": 300.0, "datum_original": "PSAD56", "huso": 19, "epsg_origen": 24879, "tipo_publicacion": "pedimento", "fuente_pdf": "http://www.diariooficial.interior.gob.cl/publicaciones/2026/09/03/44541/07/2864541.pdf", "archivo": "gm_pedimento_2864541.pdf", "fecha": "03-09-2026", "edicion": "44541" }, "geometry": { "type": "Polygon", "coordinates": [ [ [ -69.001771257355017, -20.749055333468771 ], [ -68.992165293338843, -20.749055164127554 ], [ -68.992163896394757, -20.776162739723436 ], [ -69.001771573173784, -20.776162909305853 ], [ -69.001771257355017, -20.749055333468771 ] ] ] } },
{ "type": "Feature", "properties": { "cve": "2864542", "nombre": "SOLSATION 3", "solicitante": "Andes Exploration SpA", "region": "REGIÓN DE TARAPACÁ", "provincia": "Provincia del Tamarugal", "comuna": "Pozo Almonte", "superficie_ha": 300.0, "datum_original": "PSAD56", "huso": 19, "epsg_origen": 24879, "tipo_publicacion": "pedimento", "fuente_pdf": "http://www.diariooficial.interior.gob.cl/publicaciones/2026/09/03/44541/07/2864542.pdf", "archivo": "gm_pedimento_2864542.pdf", "fecha": "03-09-2026", "edicion": "44541" }, "geometry": { "type": "Polygon", "coordinates": [ [ [ -68.992165293338843, -20.749055164127554 ], [ -68.982559329571885, -20.749054458179049 ], [ -68.98255621986516, -20.776162032769417 ], [ -68.992163896394757, -20.776162739723436 ], [ -68.992165293338843, -20.749055164127554 ] ] ] } },
{ "type": "Feature", "properties": { "cve": "2864543", "nombre": "SOLSATION 4", "solicitante": "Andes Exploration SpA", "region": "REGIÓN DE TARAPACÁ", "provincia": "Provincia del Tamarugal", "comuna": "Pozo Almonte", "superficie_ha": 300.0, "datum_original": "PSAD56", "huso": 19, "epsg_origen": 24879, "tipo_publicacion": "pedimento", "fuente_pdf": "http://www.diariooficial.interior.gob.cl/publicaciones/2026/09/03/44541/07/2864543.pdf", "archivo": "gm_pedimento_2864543.pdf", "fecha": "03-09-2026", "edicion": "44541" }, "geometry": { "type": "Polygon", "coordinates": [ [ [ -68.982559329571885, -20.749054458179049 ], [ -68.972953366359448, -20.749053215623341 ], [ -68.972948543890496, -20.776160788443942 ], [ -68.98255621986516, -20.776162032769417 ], [ -68.982559329571885, -20.749054458179049 ] ] ] } },
{ "type": "Feature", "properties": { "cve": "2864544", "nombre": "SOLSATION 5", "solicitante": "Andes Exploration SpA", "region": "REGIÓN DE TARAPACÁ", "provincia": "Provincia del Tamarugal", "comuna": "Pozo Almonte", "superficie_ha": 300.0, "datum_original": "PSAD56", "huso": 19, "epsg_origen": 24879, "tipo_publicacion": "pedimento", "fuente_pdf": "http://www.diariooficial.interior.gob.cl/publicaciones/2026/09/03/44541/07/2864544.pdf", "archivo": "gm_pedimento_2864544.pdf", "fecha": "03-09-2026", "edicion": "44541" }, "geometry": { "type": "Polygon", "coordinates": [ [ [ -68.972954329924761, -20.74363169070967 ], [ -68.96334870979463, -20.743629912053631 ], [ -68.96334217666147, -20.770737499592038 ], [ -68.972949509003442, -20.770739280781953 ], [ -68.972954329924761, -20.74363169070967 ] ] ] } },
{ "type": "Feature", "properties": { "cve": "2864545", "nombre": "SOLSATION 6", "solicitante": "Andes Exploration SpA", "region": "REGIÓN DE TARAPACÁ", "provincia": "Provincia del Tamarugal", "comuna": "Pozo Almonte", "superficie_ha": 300.0, "datum_original": "PSAD56", "huso": 19, "epsg_origen": 24879, "tipo_publicacion": "pedimento", "fuente_pdf": "http://www.diariooficial.interior.gob.cl/publicaciones/2026/09/03/44541/07/2864545.pdf", "archivo": "gm_pedimento_2864545.pdf", "fecha": "03-09-2026", "edicion": "44541" }, "geometry": { "type": "Polygon", "coordinates": [ [ [ -68.96334870979463, -20.743629912053631 ], [ -68.953743090829349, -20.743627596943615 ], [ -68.953734845485286, -20.770735181183923 ], [ -68.96334217666147, -20.770737499592038 ], [ -68.96334870979463, -20.743629912053631 ] ] ] } },
{ "type": "Feature", "properties": { "cve": "2864097", "nombre": "ANILLO 1", "solicitante": "Bustamante Mujica Christian Omar", "region": "REGIÓN DE ATACAMA", "provincia": "Provincia de Chañaral", "comuna": "Diego de Almagro", "superficie_ha": 300.0, "datum_original": "PSAD56", "huso": 19, "epsg_origen": 24879, "tipo_publicacion": "pedimento", "fuente_pdf": "http://www.diariooficial.interior.gob.cl/publicaciones/2026/09/03/44541/07/2864097.pdf", "archivo": "gm_pedimento_2864097.pdf", "fecha": "03-09-2026", "edicion": "44541" }, "geometry": { "type": "Polygon", "coordinates": [ [ [ -68.711230404255687, -26.34004812513221 ], [ -68.701209254000844, -26.340027585695861 ], [ -68.701139651469077, -26.367115513019964 ], [ -68.711163136044519, -26.367136076780788 ], [ -68.711230404255687, -26.34004812513221 ] ] ] } },
{ "type": "Feature", "properties": { "cve": "2864180", "nombre": "DAVID CINCO", "solicitante": "Minera Chañar Blanco S.A.", "region": "REGIÓN DE VALPARAÍSO", "provincia": "Provincia de Los Andes", "comuna": "San Esteban", "superficie_ha": 300.0, "datum_original": "PSAD56", "huso": 19, "epsg_origen": 24879, "tipo_publicacion": "pedimento", "fuente_pdf": "http://www.diariooficial.interior.gob.cl/publicaciones/2026/09/03/44541/07/2864180.pdf", "archivo": "gm_pedimento_2864180.pdf", "fecha": "03-09-2026", "edicion": "44541" }, "geometry": { "type": "Polygon", "coordinates": [ [ [ -70.237700699363231, -32.568913355754312 ], [ -70.227049905702216, -32.569017786814825 ], [ -70.22741853741951, -32.596074349477675 ], [ -70.23807252882068, -32.595969810277467 ], [ -70.237700699363231, -32.568913355754312 ] ] ] } },
{ "type": "Feature", "properties": { "cve": "2864179", "nombre": "DAVID CUATRO", "solicitante": "Minera Chañar Blanco S.A.", "region": "REGIÓN DE VALPARAÍSO", "provincia": "Provincia de Los Andes", "comuna": "San Esteban", "superficie_ha": 300.0, "datum_original": "PSAD56", "huso": 19, "epsg_origen": 24879, "tipo_publicacion": "pedimento", "fuente_pdf": "http://www.diariooficial.interior.gob.cl/publicaciones/2026/09/03/44541/07/2864179.pdf", "archivo": "gm_pedimento_2864179.pdf", "fecha": "03-09-2026", "edicion": "44541" }, "geometry": { "type": "Polygon", "coordinates": [ [ [ -70.24835143771179, -32.568808022591412 ], [ -70.237700699363231, -32.568913355754312 ], [ -70.23807252882068, -32.595969810277467 ], [ -70.248726464841383, -32.595864368040949 ], [ -70.24835143771179, -32.568808022591412 ] ] ] } },
{ "type": "Feature", "properties": { "cve": "2864185", "nombre": "DAVID DIEZ", "solicitante": "Minera Chañar Blanco S.A.", "region": "REGIÓN DE VALPARAÍSO", "provincia": "Provincia de Los Andes", "comuna": "San Esteban", "superficie_ha": 300.0, "datum_original": "PSAD56", "huso": 19, "epsg_origen": 24879, "tipo_publicacion": "pedimento", "fuente_pdf": "http://www.diariooficial.interior.gob.cl/publicaciones/2026/09/03/44541/07/2864185.pdf", "archivo": "gm_pedimento_2864185.pdf", "fecha": "03-09-2026", "edicion": "44541" }, "geometry": { "type": "Polygon", "coordinates": [ [ [ -70.23807252882068, -32.595969810277467 ], [ -70.22741853741951, -32.596074349477675 ], [ -70.22778766327859, -32.623130790873901 ], [ -70.238444856704618, -32.623026143470298 ], [ -70.23807252882068, -32.595969810277467 ] ] ] } },
{ "type": "Feature", "properties": { "cve": "2864177", "nombre": "DAVID DOS", "solicitante": "Minera Chañar Blanco S.A.", "region": "REGIÓN DE VALPARAÍSO", "provincia": "Provincia de Los Andes", "comuna": "San Esteban", "superficie_ha": 300.0, "datum_original": "PSAD56", "huso": 19, "epsg_origen": 24879, "tipo_publicacion": "pedimento", "fuente_pdf": "http://www.diariooficial.interior.gob.cl/publicaciones/2026/09/03/44541/07/2864177.pdf", "archivo": "gm_pedimento_2864177.pdf", "fecha": "03-09-2026", "edicion": "44541" }, "geometry": { "type": "Polygon", "coordinates": [ [ [ -70.269741699400697, -32.57490775660618 ], [ -70.259090327395043, -32.575014919806129 ], [ -70.259468670371334, -32.602071126912762 ], [ -70.270123240910522, -32.601963852756285 ], [ -70.269741699400697, -32.57490775660618 ] ] ] } },
{ "type": "Feature", "properties": { "cve": "2864184", "nombre": "DAVID NUEVE", "solicitante": "Minera Chañar Blanco S.A.", "region": "REGIÓN DE VALPARAÍSO", "provincia": "Provincia de Los Andes", "comuna": "San Esteban", "superficie_ha": 300.0, "datum_original": "PSAD56", "huso": 19, "epsg_origen": 24879, "tipo_publicacion": "pedimento", "fuente_pdf": "http://www.diariooficial.interior.gob.cl/publicaciones/2026/09/03/44541/07/2864184.pdf", "archivo": "gm_pedimento_2864184.pdf", "fecha": "03-09-2026", "edicion": "44541" }, "geometry": { "type": "Polygon", "coordinates": [ [ [ -70.248726464841383, -32.595864368040949 ], [ -70.23807252882068, -32.595969810277467 ], [ -70.238444856704618, -32.623026143470298 ], [ -70.249101994681993, -32.62292059209593 ], [ -70.248726464841383, -32.595864368040949 ] ] ] } },
{ "type": "Feature", "properties": { "cve": "2864183", "nombre": "DAVID OCHO", "solicitante": "Minera Chañar Blanco S.A.", "region": "REGIÓN DE VALPARAÍSO", "provincia": "Provincia de Los Andes", "comuna": "San Esteban", "superficie_ha": 300.0, "datum_original": "PSAD56", "huso": 19, "epsg_origen": 24879, "tipo_publicacion": "pedimento", "fuente_pdf": "http://www.diariooficial.interior.gob.cl/publicaciones/2026/09/03/44541/07/2864183.pdf", "archivo": "gm_pedimento_2864183.pdf", "fecha": "03-09-2026", "edicion": "44541" }, "geometry": { "type": "Polygon", "coordinates": [ [ [ -70.259380345005539, -32.595758022784189 ], [ -70.248726464841383, -32.595864368040949 ], [ -70.249101994681993, -32.62292059209593 ], [ -70.259759076734099, -32.622814136766912 ], [ -70.259380345005539, -32.595758022784189 ] ] ] } },
{ "type": "Feature", "properties": { "cve": "2864186", "nombre": "DAVID ONCE", "solicitante": "Minera Chañar Blanco S.A.", "region": "REGIÓN DE VALPARAÍSO", "provincia": "Provincia de Los Andes", "comuna": "San Esteban", "superficie_ha": 300.0, "datum_original": "PSAD56", "huso": 19, "epsg_origen": 24879, "tipo_publicacion": "pedimento", "fuente_pdf": "http://www.diariooficial.interior.gob.cl/publicaciones/2026/09/03/44541/07/2864186.pdf", "archivo": "gm_pedimento_2864186.pdf", "fecha": "03-09-2026", "edicion": "44541" }, "geometry": { "type": "Polygon", "coordinates": [ [ [ -70.22741853741951, -32.596074349477675 ], [ -70.216764491113963, -32.596177985625623 ], [ -70.2171304148806, -32.623234534290788 ], [ -70.22778766327859, -32.623130790873901 ], [ -70.22741853741951, -32.596074349477675 ] ] ] } },
{ "type": "Feature", "properties": { "cve": "2864181", "nombre": "DAVID SEIS", "solicitante": "Minera Chañar Blanco S.A.", "region": "REGIÓN DE VALPARAÍSO", "provincia": "Provincia de Los Andes", "comuna": "San Esteban", "superficie_ha": 300.0, "datum_original": "PSAD56", "huso": 19, "epsg_origen": 24879, "tipo_publicacion": "pedimento", "fuente_pdf": "http://www.diariooficial.interior.gob.cl/publicaciones/2026/09/03/44541/07/2864181.pdf", "archivo": "gm_pedimento_2864181.pdf", "fecha": "03-09-2026", "edicion": "44541" }, "geometry": { "type": "Polygon", "coordinates": [ [ [ -70.227049905702216, -32.569017786814825 ], [ -70.216399057204242, -32.569121315756959 ], [ -70.216764491113963, -32.596177985625623 ], [ -70.22741853741951, -32.596074349477675 ], [ -70.227049905702216, -32.569017786814825 ] ] ] } },
{ "type": "Feature", "properties": { "cve": "2864182", "nombre": "DAVID SIETE", "solicitante": "Minera Chañar Blanco S.A.", "region": "REGIÓN DE VALPARAÍSO", "provincia": "Provincia de Los Andes", "comuna": "San Esteban", "superficie_ha": 200.0, "datum_original": "PSAD56", "huso": 19, "epsg_origen": 24879, "tipo_publicacion": "pedimento", "fuente_pdf": "http://www.diariooficial.interior.gob.cl/publicaciones/2026/09/03/44541/07/2864182.pdf", "archivo": "gm_pedimento_2864182.pdf", "fecha": "03-09-2026", "edicion": "44541" }, "geometry": { "type": "Polygon", "coordinates": [ [ [ -70.280777754624808, -32.60185567539412 ], [ -70.259468670371334, -32.602071126912762 ], [ -70.259594897363954, -32.611089835623879 ], [ -70.280906115853966, -32.610874309793751 ], [ -70.280777754624808, -32.60185567539412 ] ] ] } },
{ "type": "Feature", "properties": { "cve": "2864178", "nombre": "DAVID TRES", "solicitante": "Minera Chañar Blanco S.A.", "region": "REGIÓN DE VALPARAÍSO", "provincia": "Provincia de Los Andes", "comuna": "San Esteban", "superficie_ha": 300.0, "datum_original": "PSAD56", "huso": 19, "epsg_origen": 24879, "tipo_publicacion": "pedimento", "fuente_pdf": "http://www.diariooficial.interior.gob.cl/publicaciones/2026/09/03/44541/07/2864178.pdf", "archivo": "gm_pedimento_2864178.pdf", "fecha": "03-09-2026", "edicion": "44541" }, "geometry": { "type": "Polygon", "coordinates": [ [ [ -70.259002120272442, -32.568701787342121 ], [ -70.24835143771179, -32.568808022591412 ], [ -70.248726464841383, -32.595864368040949 ], [ -70.259380345005539, -32.595758022784189 ], [ -70.259002120272442, -32.568701787342121 ] ] ] } },
{ "type": "Feature", "properties": { "cve": "2864176", "nombre": "DAVID UNO", "solicitante": "Minera Chañar Blanco S.A.", "region": "REGIÓN DE VALPARAÍSO", "provincia": "Provincia de Los Andes", "comuna": "San Esteban", "superficie_ha": 300.0, "datum_original": "PSAD56", "huso": 19, "epsg_origen": 24879, "tipo_publicacion": "pedimento", "fuente_pdf": "http://www.diariooficial.interior.gob.cl/publicaciones/2026/09/03/44541/07/2864176.pdf", "archivo": "gm_pedimento_2864176.pdf", "fecha": "03-09-2026", "edicion": "44541" }, "geometry": { "type": "Polygon", "coordinates": [ [ [ -70.280393014651253, -32.574799691134537 ], [ -70.269741699400697, -32.57490775660618 ], [ -70.270123240910522, -32.601963852756285 ], [ -70.280777754624808, -32.60185567539412 ], [ -70.280393014651253, -32.574799691134537 ] ] ] } },
{ "type": "Feature", "properties": { "cve": "2864457", "nombre": "EMA 10", "solicitante": "Varela Echaurren Juan Francisco", "region": "REGIÓN DE ÑUBLE", "provincia": "Provincia de Itata", "comuna": "Quirihue", "superficie_ha": 300.0, "datum_original": "PSAD56", "huso": 18, "epsg_origen": 24878, "tipo_publicacion": "pedimento", "fuente_pdf": "http://www.diariooficial.interior.gob.cl/publicaciones/2026/09/03/44541/07/2864457.pdf", "archivo": "gm_pedimento_2864457.pdf", "fecha": "03-09-2026", "edicion": "44541" }, "geometry": { "type": "Polygon", "coordinates": [ [ [ -72.448862306749049, -36.172511858237769 ], [ -72.437753778976983, -36.172274511626298 ], [ -72.43687308490729, -36.199294374081987 ], [ -72.44798542077227, -36.199531954268956 ], [ -72.448862306749049, -36.172511858237769 ] ] ] } },
{ "type": "Feature", "properties": { "cve": "2864458", "nombre": "EMA 11", "solicitante": "Varela Echaurren Juan Francisco", "region": "REGIÓN DE ÑUBLE", "provincia": "Provincia de Itata", "comuna": "Quirihue", "superficie_ha": 300.0, "datum_original": "PSAD56", "huso": 18, "epsg_origen": 24878, "tipo_publicacion": "pedimento", "fuente_pdf": "http://www.diariooficial.interior.gob.cl/publicaciones/2026/09/03/44541/07/2864458.pdf", "archivo": "gm_pedimento_2864458.pdf", "fecha": "03-09-2026", "edicion": "44541" }, "geometry": { "type": "Polygon", "coordinates": [ [ [ -72.437753778976983, -36.172274511626298 ], [ -72.426645381421096, -36.172036135804618 ], [ -72.425760879435629, -36.199055763673357 ], [ -72.43687308490729, -36.199294374081987 ], [ -72.437753778976983, -36.172274511626298 ] ] ] } },
{ "type": "Feature", "properties": { "cve": "2864459", "nombre": "EMA 12", "solicitante": "Varela Echaurren Juan Francisco", "region": "REGIÓN DE ÑUBLE", "provincia": "Provincia de Itata", "comuna": "Quirihue", "superficie_ha": 300.0, "datum_original": "PSAD56", "huso": 18, "epsg_origen": 24878, "tipo_publicacion": "pedimento", "fuente_pdf": "http://www.diariooficial.interior.gob.cl/publicaciones/2026/09/03/44541/07/2864459.pdf", "archivo": "gm_pedimento_2864459.pdf", "fecha": "03-09-2026", "edicion": "44541" }, "geometry": { "type": "Polygon", "coordinates": [ [ [ -72.426645381421096, -36.172036135804618 ], [ -72.415537114643257, -36.171796730811174 ], [ -72.414648804919878, -36.198816123081556 ], [ -72.425760879435629, -36.199055763673357 ], [ -72.426645381421096, -36.172036135804618 ] ] ] } },
{ "type": "Feature", "properties": { "cve": "2864460", "nombre": "EMA 13", "solicitante": "Varela Echaurren Juan Francisco", "region": "REGIÓN DE ÑUBLE", "provincia": "Provincia de Itata", "comuna": "Quirihue", "superficie_ha": 300.0, "datum_original": "PSAD56", "huso": 18, "epsg_origen": 24878, "tipo_publicacion": "pedimento", "fuente_pdf": "http://www.diariooficial.interior.gob.cl/publicaciones/2026/09/03/44541/07/2864460.pdf", "archivo": "gm_pedimento_2864460.pdf", "fecha": "03-09-2026", "edicion": "44541" }, "geometry": { "type": "Polygon", "coordinates": [ [ [ -72.481323205100324, -36.200238513117178 ], [ -72.470210481431508, -36.200004023824626 ], [ -72.469340053823686, -36.227024442789393 ], [ -72.480456591177202, -36.227259162778488 ], [ -72.481323205100324, -36.200238513117178 ] ] ] } },
{ "type": "Feature", "properties": { "cve": "2864462", "nombre": "EMA 15", "solicitante": "Varela Echaurren Juan Francisco", "region": "REGIÓN DE ÑUBLE", "provincia": "Provincia de Itata", "comuna": "Quirihue", "superficie_ha": 300.0, "datum_original": "PSAD56", "huso": 18, "epsg_origen": 24878, "tipo_publicacion": "pedimento", "fuente_pdf": "http://www.diariooficial.interior.gob.cl/publicaciones/2026/09/03/44541/07/2864462.pdf", "archivo": "gm_pedimento_2864462.pdf", "fecha": "03-09-2026", "edicion": "44541" }, "geometry": { "type": "Polygon", "coordinates": [ [ [ -72.459097886467902, -36.199768504195895 ], [ -72.44798542077227, -36.199531954268956 ], [ -72.447107366321433, -36.226551908803749 ], [ -72.4582236453506, -36.226788691451802 ], [ -72.459097886467902, -36.199768504195895 ] ] ] } },
{ "type": "Feature", "properties": { "cve": "2864463", "nombre": "EMA 16", "solicitante": "Varela Echaurren Juan Francisco", "region": "REGIÓN DE ÑUBLE", "provincia": "Provincia de Itata", "comuna": "Quirihue", "superficie_ha": 300.0, "datum_original": "PSAD56", "huso": 18, "epsg_origen": 24878, "tipo_publicacion": "pedimento", "fuente_pdf": "http://www.diariooficial.interior.gob.cl/publicaciones/2026/09/03/44541/07/2864463.pdf", "archivo": "gm_pedimento_2864463.pdf", "fecha": "03-09-2026", "edicion": "44541" }, "geometry": { "type": "Polygon", "coordinates": [ [ [ -72.44798542077227, -36.199531954268956 ], [ -72.43687308490729, -36.199294374081987 ], [ -72.435991217299673, -36.226314094883499 ], [ -72.447107366321433, -36.226551908803749 ], [ -72.44798542077227, -36.199531954268956 ] ] ] } },
{ "type": "Feature", "properties": { "cve": "2864464", "nombre": "EMA 17", "solicitante": "Varela Echaurren Juan Francisco", "region": "REGIÓN DE ÑUBLE", "provincia": "Provincia de Itata", "comuna": "Quirihue", "superficie_ha": 300.0, "datum_original": "PSAD56", "huso": 18, "epsg_origen": 24878, "tipo_publicacion": "pedimento", "fuente_pdf": "http://www.diariooficial.interior.gob.cl/publicaciones/2026/09/03/44541/07/2864464.pdf", "archivo": "gm_pedimento_2864464.pdf", "fecha": "03-09-2026", "edicion": "44541" }, "geometry": { "type": "Polygon", "coordinates": [ [ [ -72.43687308490729, -36.199294374081987 ], [ -72.425760879435629, -36.199055763673357 ], [ -72.42487519884871, -36.226075249729448 ], [ -72.435991217299673, -36.226314094883499 ], [ -72.43687308490729, -36.199294374081987 ] ] ] } },
{ "type": "Feature", "properties": { "cve": "2864465", "nombre": "EMA 18", "solicitante": "Varela Echaurren Juan Francisco", "region": "REGIÓN DE ÑUBLE", "provincia": "Provincia de Itata", "comuna": "Quirihue", "superficie_ha": 300.0, "datum_original": "PSAD56", "huso": 18, "epsg_origen": 24878, "tipo_publicacion": "pedimento", "fuente_pdf": "http://www.diariooficial.interior.gob.cl/publicaciones/2026/09/03/44541/07/2864465.pdf", "archivo": "gm_pedimento_2864465.pdf", "fecha": "03-09-2026", "edicion": "44541" }, "geometry": { "type": "Polygon", "coordinates": [ [ [ -72.425760879435629, -36.199055763673357 ], [ -72.414648804919878, -36.198816123081556 ], [ -72.413759311531919, -36.225835373380171 ], [ -72.42487519884871, -36.226075249729448 ], [ -72.425760879435629, -36.199055763673357 ] ] ] } },
{ "type": "Feature", "properties": { "cve": "2864468", "nombre": "EMA 24", "solicitante": "Varela Echaurren Juan Francisco", "region": "REGIÓN DE ÑUBLE", "provincia": "Provincia de Itata", "comuna": "Quirihue", "superficie_ha": 300.0, "datum_original": "PSAD56", "huso": 18, "epsg_origen": 24878, "tipo_publicacion": "pedimento", "fuente_pdf": "http://www.diariooficial.interior.gob.cl/publicaciones/2026/09/03/44541/07/2864468.pdf", "archivo": "gm_pedimento_2864468.pdf", "fecha": "03-09-2026", "edicion": "44541" }, "geometry": { "type": "Polygon", "coordinates": [ [ [ -72.518297260288989, -36.291727159843106 ], [ -72.507171262785207, -36.29149560219885 ], [ -72.506310671362826, -36.31851637123841 ], [ -72.517440500220786, -36.318748156465915 ], [ -72.518297260288989, -36.291727159843106 ] ] ] } },
{ "type": "Feature", "properties": { "cve": "2864469", "nombre": "EMA 25", "solicitante": "Varela Echaurren Juan Francisco", "region": "REGIÓN DE ÑUBLE", "provincia": "Provincia de Itata", "comuna": "Quirihue", "superficie_ha": 300.0, "datum_original": "PSAD56", "huso": 18, "epsg_origen": 24878, "tipo_publicacion": "pedimento", "fuente_pdf": "http://www.diariooficial.interior.gob.cl/publicaciones/2026/09/03/44541/07/2864469.pdf", "archivo": "gm_pedimento_2864469.pdf", "fecha": "03-09-2026", "edicion": "44541" }, "geometry": { "type": "Polygon", "coordinates": [ [ [ -72.507171262785207, -36.29149560219885 ], [ -72.496045392548993, -36.291263010683828 ], [ -72.495180969946091, -36.318283551125369 ], [ -72.506310671362826, -36.31851637123841 ], [ -72.507171262785207, -36.29149560219885 ] ] ] } },
{ "type": "Feature", "properties": { "cve": "2864471", "nombre": "EMA 30", "solicitante": "Varela Echaurren Juan Francisco", "region": "REGIÓN DE ÑUBLE", "provincia": "Provincia de Itata", "comuna": "Quirihue", "superficie_ha": 300.0, "datum_original": "PSAD56", "huso": 18, "epsg_origen": 24878, "tipo_publicacion": "pedimento", "fuente_pdf": "http://www.diariooficial.interior.gob.cl/publicaciones/2026/09/03/44541/07/2864471.pdf", "archivo": "gm_pedimento_2864471.pdf", "fecha": "03-09-2026", "edicion": "44541" }, "geometry": { "type": "Polygon", "coordinates": [ [ [ -72.494979105627181, -36.324588323599635 ], [ -72.483848637583534, -36.324354415040027 ], [ -72.482978956582429, -36.351374551685865 ], [ -72.494113261917661, -36.351608690050419 ], [ -72.494979105627181, -36.324588323599635 ] ] ] } },
{ "type": "Feature", "properties": { "cve": "2864472", "nombre": "EMA 31", "solicitante": "Varela Echaurren Juan Francisco", "region": "REGIÓN DE ÑUBLE", "provincia": "Provincia de Itata", "comuna": "Quirihue", "superficie_ha": 300.0, "datum_original": "PSAD56", "huso": 18, "epsg_origen": 24878, "tipo_publicacion": "pedimento", "fuente_pdf": "http://www.diariooficial.interior.gob.cl/publicaciones/2026/09/03/44541/07/2864472.pdf", "archivo": "gm_pedimento_2864472.pdf", "fecha": "03-09-2026", "edicion": "44541" }, "geometry": { "type": "Polygon", "coordinates": [ [ [ -72.483848637583534, -36.324354415040027 ], [ -72.472718298154476, -36.324119471433498 ], [ -72.471844780037443, -36.351139377258882 ], [ -72.482978956582429, -36.351374551685865 ], [ -72.483848637583534, -36.324354415040027 ] ] ] } },
{ "type": "Feature", "properties": { "cve": "2864473", "nombre": "EMA 32", "solicitante": "Varela Echaurren Juan Francisco", "region": "REGIÓN DE ÑUBLE", "provincia": "Provincia de Itata", "comuna": "Quirihue", "superficie_ha": 300.0, "datum_original": "PSAD56", "huso": 18, "epsg_origen": 24878, "tipo_publicacion": "pedimento", "fuente_pdf": "http://www.diariooficial.interior.gob.cl/publicaciones/2026/09/03/44541/07/2864473.pdf", "archivo": "gm_pedimento_2864473.pdf", "fecha": "03-09-2026", "edicion": "44541" }, "geometry": { "type": "Polygon", "coordinates": [ [ [ -72.472718298154476, -36.324119471433498 ], [ -72.461588087906279, -36.323883492818091 ], [ -72.46071073284979, -36.350903166807555 ], [ -72.471844780037443, -36.351139377258882 ], [ -72.472718298154476, -36.324119471433498 ] ] ] } },
{ "type": "Feature", "properties": { "cve": "2864485", "nombre": "EMA 33", "solicitante": "Varela Echaurren Juan Francisco", "region": "REGIÓN DE ÑUBLE", "provincia": "Provincia de Itata", "comuna": "Quirihue", "superficie_ha": 300.0, "datum_original": "PSAD56", "huso": 18, "epsg_origen": 24878, "tipo_publicacion": "pedimento", "fuente_pdf": "http://www.diariooficial.interior.gob.cl/publicaciones/2026/09/03/44541/07/2864485.pdf", "archivo": "gm_pedimento_2864485.pdf", "fecha": "03-09-2026", "edicion": "44541" }, "geometry": { "type": "Polygon", "coordinates": [ [ [ -72.461588087906279, -36.323883492818091 ], [ -72.450458007405231, -36.323646479231975 ], [ -72.449576815586497, -36.350665920370098 ], [ -72.46071073284979, -36.350903166807555 ], [ -72.461588087906279, -36.323883492818091 ] ] ] } },
{ "type": "Feature", "properties": { "cve": "2864486", "nombre": "EMA 34", "solicitante": "Varela Echaurren Juan Francisco", "region": "REGIÓN DE ÑUBLE", "provincia": "Provincia de Itata", "comuna": "Quirihue", "superficie_ha": 300.0, "datum_original": "PSAD56", "huso": 18, "epsg_origen": 24878, "tipo_publicacion": "pedimento", "fuente_pdf": "http://www.diariooficial.interior.gob.cl/publicaciones/2026/09/03/44541/07/2864486.pdf", "archivo": "gm_pedimento_2864486.pdf", "fecha": "03-09-2026", "edicion": "44541" }, "geometry": { "type": "Polygon", "coordinates": [ [ [ -72.661876856287279, -36.255865386071349 ], [ -72.650754765532113, -36.255647372545873 ], [ -72.649944776172561, -36.282671177101228 ], [ -72.661070693138043, -36.282889405007651 ], [ -72.661876856287279, -36.255865386071349 ] ] ] } },
{ "type": "Feature", "properties": { "cve": "2864487", "nombre": "EMA 35", "solicitante": "Varela Echaurren Juan Francisco", "region": "REGIÓN DE ÑUBLE", "provincia": "Provincia de Itata", "comuna": "Quirihue", "superficie_ha": 300.0, "datum_original": "PSAD56", "huso": 18, "epsg_origen": 24878, "tipo_publicacion": "pedimento", "fuente_pdf": "http://www.diariooficial.interior.gob.cl/publicaciones/2026/09/03/44541/07/2864487.pdf", "archivo": "gm_pedimento_2864487.pdf", "fecha": "03-09-2026", "edicion": "44541" }, "geometry": { "type": "Polygon", "coordinates": [ [ [ -72.650754765532113, -36.255647372545873 ], [ -72.63963279456901, -36.255428326137277 ], [ -72.638818979162451, -36.282451915297251 ], [ -72.649944776172561, -36.282671177101228 ], [ -72.650754765532113, -36.255647372545873 ] ] ] } },
{ "type": "Feature", "properties": { "cve": "2864488", "nombre": "EMA 36", "solicitante": "Varela Echaurren Juan Francisco", "region": "REGIÓN DE ÑUBLE", "provincia": "Provincia de Itata", "comuna": "Quirihue", "superficie_ha": 300.0, "datum_original": "PSAD56", "huso": 18, "epsg_origen": 24878, "tipo_publicacion": "pedimento", "fuente_pdf": "http://www.diariooficial.interior.gob.cl/publicaciones/2026/09/03/44541/07/2864488.pdf", "archivo": "gm_pedimento_2864488.pdf", "fecha": "03-09-2026", "edicion": "44541" }, "geometry": { "type": "Polygon", "coordinates": [ [ [ -72.63963279456901, -36.255428326137277 ], [ -72.628510943962823, -36.255208246881026 ], [ -72.627693302673393, -36.282231619631148 ], [ -72.638818979162451, -36.282451915297251 ], [ -72.63963279456901, -36.255428326137277 ] ] ] } },
{ "type": "Feature", "properties": { "cve": "2864493", "nombre": "EMA 43", "solicitante": "Varela Echaurren Juan Francisco", "region": "REGIÓN DE ÑUBLE", "provincia": "Provincia de Itata", "comuna": "Quirihue", "superficie_ha": 300.0, "datum_original": "PSAD56", "huso": 18, "epsg_origen": 24878, "tipo_publicacion": "pedimento", "fuente_pdf": "http://www.diariooficial.interior.gob.cl/publicaciones/2026/09/03/44541/07/2864493.pdf", "archivo": "gm_pedimento_2864493.pdf", "fecha": "03-09-2026", "edicion": "44541" }, "geometry": { "type": "Polygon", "coordinates": [ [ [ -72.649944776172561, -36.282671177101228 ], [ -72.638818979162451, -36.282451915297251 ], [ -72.638004079068565, -36.309475365413789 ], [ -72.649133707216265, -36.309694842759171 ], [ -72.649944776172561, -36.282671177101228 ] ] ] } },
{ "type": "Feature", "properties": { "cve": "2864496", "nombre": "EMA 46", "solicitante": "Varela Echaurren Juan Francisco", "region": "REGIÓN DE ÑUBLE", "provincia": "Provincia de Itata", "comuna": "Quirihue", "superficie_ha": 300.0, "datum_original": "PSAD56", "huso": 18, "epsg_origen": 24878, "tipo_publicacion": "pedimento", "fuente_pdf": "http://www.diariooficial.interior.gob.cl/publicaciones/2026/09/03/44541/07/2864496.pdf", "archivo": "gm_pedimento_2864496.pdf", "fecha": "03-09-2026", "edicion": "44541" }, "geometry": { "type": "Polygon", "coordinates": [ [ [ -72.616567747270921, -36.28201029013853 ], [ -72.605442313520598, -36.281787926855209 ], [ -72.604615921003855, -36.30881072425705 ], [ -72.615745185396051, -36.30903330612697 ], [ -72.616567747270921, -36.28201029013853 ] ] ] } },
{ "type": "Feature", "properties": { "cve": "2864498", "nombre": "EMA 48", "solicitante": "Varela Echaurren Juan Francisco", "region": "REGIÓN DE ÑUBLE", "provincia": "Provincia de Itata", "comuna": "Quirihue", "superficie_ha": 300.0, "datum_original": "PSAD56", "huso": 18, "epsg_origen": 24878, "tipo_publicacion": "pedimento", "fuente_pdf": "http://www.diariooficial.interior.gob.cl/publicaciones/2026/09/03/44541/07/2864498.pdf", "archivo": "gm_pedimento_2864498.pdf", "fecha": "03-09-2026", "edicion": "44541" }, "geometry": { "type": "Polygon", "coordinates": [ [ [ -72.594317001987946, -36.281564529817103 ], [ -72.583191813238415, -36.281340099060365 ], [ -72.582357759938986, -36.308362456244197 ], [ -72.593486778996095, -36.308587107617406 ], [ -72.594317001987946, -36.281564529817103 ] ] ] } },
{ "type": "Feature", "properties": { "cve": "2864501", "nombre": "EMA 51", "solicitante": "Varela Echaurren Juan Francisco", "region": "REGIÓN DE ÑUBLE", "provincia": "Provincia de Itata", "comuna": "Quirihue", "superficie_ha": 300.0, "datum_original": "PSAD56", "huso": 18, "epsg_origen": 24878, "tipo_publicacion": "pedimento", "fuente_pdf": "http://www.diariooficial.interior.gob.cl/publicaciones/2026/09/03/44541/07/2864501.pdf", "archivo": "gm_pedimento_2864501.pdf", "fecha": "03-09-2026", "edicion": "44541" }, "geometry": { "type": "Polygon", "coordinates": [ [ [ -72.649133707216265, -36.309694842759171 ], [ -72.638004079068565, -36.309475365413789 ], [ -72.637188092807236, -36.336498676424952 ], [ -72.648321557190002, -36.336718369457984 ], [ -72.649133707216265, -36.309694842759171 ] ] ] } },
{ "type": "Feature", "properties": { "cve": "2864502", "nombre": "EMA 52", "solicitante": "Varela Echaurren Juan Francisco", "region": "REGIÓN DE ÑUBLE", "provincia": "Provincia de Itata", "comuna": "Quirihue", "superficie_ha": 300.0, "datum_original": "PSAD56", "huso": 18, "epsg_origen": 24878, "tipo_publicacion": "pedimento", "fuente_pdf": "http://www.diariooficial.interior.gob.cl/publicaciones/2026/09/03/44541/07/2864502.pdf", "archivo": "gm_pedimento_2864502.pdf", "fecha": "03-09-2026", "edicion": "44541" }, "geometry": { "type": "Polygon", "coordinates": [ [ [ -72.638004079068565, -36.309475365413789 ], [ -72.626874571606407, -36.309254853191163 ], [ -72.626054749274786, -36.336277947498878 ], [ -72.637188092807236, -36.336498676424952 ], [ -72.638004079068565, -36.309475365413789 ] ] ] } },
{ "type": "Feature", "properties": { "cve": "2864503", "nombre": "EMA 53", "solicitante": "Varela Echaurren Juan Francisco", "region": "REGIÓN DE ÑUBLE", "provincia": "Provincia de Itata", "comuna": "Quirihue", "superficie_ha": 300.0, "datum_original": "PSAD56", "huso": 18, "epsg_origen": 24878, "tipo_publicacion": "pedimento", "fuente_pdf": "http://www.diariooficial.interior.gob.cl/publicaciones/2026/09/03/44541/07/2864503.pdf", "archivo": "gm_pedimento_2864503.pdf", "fecha": "03-09-2026", "edicion": "44541" }, "geometry": { "type": "Polygon", "coordinates": [ [ [ -72.626874571606407, -36.309254853191163 ], [ -72.615745185396051, -36.30903330612697 ], [ -72.614921527159751, -36.336056182715495 ], [ -72.626054749274786, -36.336277947498878 ], [ -72.626874571606407, -36.309254853191163 ] ] ] } },
{ "type": "Feature", "properties": { "cve": "2864505", "nombre": "EMA 55", "solicitante": "Varela Echaurren Juan Francisco", "region": "REGIÓN DE ÑUBLE", "provincia": "Provincia de Itata", "comuna": "Quirihue", "superficie_ha": 300.0, "datum_original": "PSAD56", "huso": 18, "epsg_origen": 24878, "tipo_publicacion": "pedimento", "fuente_pdf": "http://www.diariooficial.interior.gob.cl/publicaciones/2026/09/03/44541/07/2864505.pdf", "archivo": "gm_pedimento_2864505.pdf", "fecha": "03-09-2026", "edicion": "44541" }, "geometry": { "type": "Polygon", "coordinates": [ [ [ -72.604615921003855, -36.30881072425705 ], [ -72.593486778996095, -36.308587107617406 ], [ -72.592655449450234, -36.335609545720516 ], [ -72.603788427029215, -36.335833382110707 ], [ -72.604615921003855, -36.30881072425705 ] ] ] } },
{ "type": "Feature", "properties": { "cve": "2864454", "nombre": "EMA 7", "solicitante": "Varela Echaurren Juan Francisco", "region": "REGIÓN DE ÑUBLE", "provincia": "Provincia de Itata", "comuna": "Quirihue", "superficie_ha": 200.0, "datum_original": "PSAD56", "huso": 18, "epsg_origen": 24878, "tipo_publicacion": "pedimento", "fuente_pdf": "http://www.diariooficial.interior.gob.cl/publicaciones/2026/09/03/44541/07/2864454.pdf", "archivo": "gm_pedimento_2864454.pdf", "fecha": "03-09-2026", "edicion": "44541" }, "geometry": { "type": "Polygon", "coordinates": [ [ [ -72.4426160486708, -36.154352631621414 ], [ -72.43151013676146, -36.154114808085076 ], [ -72.430922099028336, -36.172128032339145 ], [ -72.442030546783968, -36.172366011919429 ], [ -72.4426160486708, -36.154352631621414 ] ] ] } },
{ "type": "Feature", "properties": { "cve": "2864455", "nombre": "EMA 8", "solicitante": "Varela Echaurren Juan Francisco", "region": "REGIÓN DE ÑUBLE", "provincia": "Provincia de Itata", "comuna": "Quirihue", "superficie_ha": 300.0, "datum_original": "PSAD56", "huso": 18, "epsg_origen": 24878, "tipo_publicacion": "pedimento", "fuente_pdf": "http://www.diariooficial.interior.gob.cl/publicaciones/2026/09/03/44541/07/2864455.pdf", "archivo": "gm_pedimento_2864455.pdf", "fecha": "03-09-2026", "edicion": "44541" }, "geometry": { "type": "Polygon", "coordinates": [ [ [ -72.471079750694187, -36.172983463676992 ], [ -72.45997096417544, -36.172748175600688 ], [ -72.459097886467902, -36.199768504195895 ], [ -72.470210481431508, -36.200004023824626 ], [ -72.471079750694187, -36.172983463676992 ] ] ] } },
{ "type": "Feature", "properties": { "cve": "2864456", "nombre": "EMA 9", "solicitante": "Varela Echaurren Juan Francisco", "region": "REGIÓN DE ÑUBLE", "provincia": "Provincia de Itata", "comuna": "Quirihue", "superficie_ha": 300.0, "datum_original": "PSAD56", "huso": 18, "epsg_origen": 24878, "tipo_publicacion": "pedimento", "fuente_pdf": "http://www.diariooficial.interior.gob.cl/publicaciones/2026/09/03/44541/07/2864456.pdf", "archivo": "gm_pedimento_2864456.pdf", "fecha": "03-09-2026", "edicion": "44541" }, "geometry": { "type": "Polygon", "coordinates": [ [ [ -72.45997096417544, -36.172748175600688 ], [ -72.448862306749049, -36.172511858237769 ], [ -72.44798542077227, -36.199531954268956 ], [ -72.459097886467902, -36.199768504195895 ], [ -72.45997096417544, -36.172748175600688 ] ] ] } }
]
}
