{
"type": "FeatureCollection",
"name": "boletin_mineria_20260819",
"crs": { "type": "name", "properties": { "name": "urn:ogc:def:crs:OGC:1.3:CRS84" } },
"features": [
{ "type": "Feature", "properties": { "cve": "2856144", "nombre": "ALGABUR 1 AL 1", "solicitante": "Rivero Mancilla Mauricio Hernán", "region": "REGIÓN DE ANTOFAGASTA", "provincia": "Provincia de Antofagasta", "comuna": null, "superficie_ha": 1.0, "datum_original": "PSAD56", "huso": 19, "epsg_origen": 24879, "tipo_publicacion": "manifestacion", "fuente_pdf": "http://www.diariooficial.interior.gob.cl/publicaciones/2026/08/19/44528/07/2856144.pdf", "archivo": "gm_manifestacion_2856144.pdf", "fecha": "19-08-2026", "edicion": "44528" }, "geometry": { "type": "Polygon", "coordinates": [ [ [ -70.721132733077738, -25.834819875386241 ], [ -70.720135362395055, -25.834831689350235 ], [ -70.720148413491103, -25.835734278062937 ], [ -70.721145791731999, -25.835722463626361 ], [ -70.721132733077738, -25.834819875386241 ] ] ] } },
{ "type": "Feature", "properties": { "cve": "2855961", "nombre": "CAMILA 2, 1 AL 200", "solicitante": "Camayo Vanessa Delgado", "region": "REGIÓN DE ANTOFAGASTA", "provincia": "Provincia de Antofagasta", "comuna": null, "superficie_ha": 200.0, "datum_original": "PSAD56", "huso": 19, "epsg_origen": 24879, "tipo_publicacion": "manifestacion", "fuente_pdf": "http://www.diariooficial.interior.gob.cl/publicaciones/2026/08/19/44528/07/2855961.pdf", "archivo": "gm_manifestacion_2855961.pdf", "fecha": "19-08-2026", "edicion": "44528" }, "geometry": { "type": "Polygon", "coordinates": [ [ [ -70.292233456949376, -23.055731165420671 ], [ -70.282474129906646, -23.055810633700606 ], [ -70.282645319334662, -23.07387270447353 ], [ -70.292405948208327, -23.073793166898366 ], [ -70.292233456949376, -23.055731165420671 ] ] ] } },
{ "type": "Feature", "properties": { "cve": "2855957", "nombre": "CAMILA 3 1 AL 200", "solicitante": "Delgado Camayo Vanessa", "region": "REGIÓN DE ANTOFAGASTA", "provincia": "Provincia de Antofagasta", "comuna": null, "superficie_ha": 200.0, "datum_original": "PSAD56", "huso": 19, "epsg_origen": 24879, "tipo_publicacion": "manifestacion", "fuente_pdf": "http://www.diariooficial.interior.gob.cl/publicaciones/2026/08/19/44528/07/2855957.pdf", "archivo": "gm_manifestacion_2855957.pdf", "fecha": "19-08-2026", "edicion": "44528" }, "geometry": { "type": "Polygon", "coordinates": [ [ [ -70.292405948208327, -23.073793166898366 ], [ -70.282645319334662, -23.07387270447353 ], [ -70.282816681263924, -23.091934732404596 ], [ -70.292578613279957, -23.091855125516272 ], [ -70.292405948208327, -23.073793166898366 ] ] ] } },
{ "type": "Feature", "properties": { "cve": "2855958", "nombre": "CAMILA 4 1 AL 280", "solicitante": "Camayo Vanessa Delgado", "region": "REGIÓN DE ANTOFAGASTA", "provincia": "Provincia de Antofagasta", "comuna": null, "superficie_ha": 280.0, "datum_original": "PSAD56", "huso": 19, "epsg_origen": 24879, "tipo_publicacion": "manifestacion", "fuente_pdf": "http://www.diariooficial.interior.gob.cl/publicaciones/2026/08/19/44528/07/2855958.pdf", "archivo": "gm_manifestacion_2855958.pdf", "fecha": "19-08-2026", "edicion": "44528" }, "geometry": { "type": "Polygon", "coordinates": [ [ [ -70.295964337874835, -23.03763719307257 ], [ -70.282303112877372, -23.037748520112075 ], [ -70.282474129906646, -23.055810633700606 ], [ -70.296137175625233, -23.055699209525944 ], [ -70.295964337874835, -23.03763719307257 ] ] ] } },
{ "type": "Feature", "properties": { "cve": "2856003", "nombre": "ESPERANZA NORTE DEL 1 AL 10", "solicitante": "Angamos Servicios Industriales Limitada", "region": "REGIÓN DE ANTOFAGASTA", "provincia": "Provincia de Antofagasta", "comuna": "Mejillones", "superficie_ha": 50.0, "datum_original": "WGS84", "huso": 19, "epsg_origen": 32719, "tipo_publicacion": "manifestacion", "fuente_pdf": "http://www.diariooficial.interior.gob.cl/publicaciones/2026/08/19/44528/07/2856003.pdf", "archivo": "gm_manifestacion_2856003.pdf", "fecha": "19-08-2026", "edicion": "44528" }, "geometry": { "type": "Polygon", "coordinates": [ [ [ -70.31798250410553, -23.077430170862868 ], [ -70.313102079332751, -23.077470817282833 ], [ -70.31318980148194, -23.086501787089539 ], [ -70.318070552063205, -23.086461122963978 ], [ -70.31798250410553, -23.077430170862868 ] ] ] } },
{ "type": "Feature", "properties": { "cve": "2856004", "nombre": "ESPERANZA SUR DEL 1 AL 8", "solicitante": "Angamos Servicios Industriales Limitada", "region": "REGIÓN DE ANTOFAGASTA", "provincia": "Provincia de Antofagasta", "comuna": "Mejillones", "superficie_ha": 40.0, "datum_original": "WGS84", "huso": 19, "epsg_origen": 32719, "tipo_publicacion": "manifestacion", "fuente_pdf": "http://www.diariooficial.interior.gob.cl/publicaciones/2026/08/19/44528/07/2856004.pdf", "archivo": "gm_manifestacion_2856004.pdf", "fecha": "19-08-2026", "edicion": "44528" }, "geometry": { "type": "Polygon", "coordinates": [ [ [ -70.333033599700755, -23.11884937276135 ], [ -70.328151708259469, -23.118890553637705 ], [ -70.328222828775878, -23.126115248489263 ], [ -70.333104981446709, -23.126074053282551 ], [ -70.333033599700755, -23.11884937276135 ] ] ] } },
{ "type": "Feature", "properties": { "cve": "2855959", "nombre": "VANESSA 2 1 AL 200", "solicitante": "Camayo Vanessa Delgado", "region": "REGIÓN DE ANTOFAGASTA", "provincia": "Provincia de Antofagasta", "comuna": null, "superficie_ha": 200.0, "datum_original": "PSAD56", "huso": 19, "epsg_origen": 24879, "tipo_publicacion": "manifestacion", "fuente_pdf": "http://www.diariooficial.interior.gob.cl/publicaciones/2026/08/19/44528/07/2855959.pdf", "archivo": "gm_manifestacion_2855959.pdf", "fecha": "19-08-2026", "edicion": "44528" }, "geometry": { "type": "Polygon", "coordinates": [ [ [ -70.295705407711182, -23.010544088123687 ], [ -70.285949346819066, -23.010623623552167 ], [ -70.286120624867408, -23.028685773677605 ], [ -70.295877984304951, -23.028606168788833 ], [ -70.295705407711182, -23.010544088123687 ] ] ] } },
{ "type": "Feature", "properties": { "cve": "2855851", "nombre": "MERCURIO 1 R;1 AL 200", "solicitante": "Sociedad Minera Cerro del León SpA", "region": "REGIÓN DE ANTOFAGASTA", "provincia": "Provincia de El Loa", "comuna": null, "superficie_ha": 200.0, "datum_original": "PSAD56", "huso": 19, "epsg_origen": 24879, "tipo_publicacion": "manifestacion", "fuente_pdf": "http://www.diariooficial.interior.gob.cl/publicaciones/2026/08/19/44528/07/2855851.pdf", "archivo": "gm_manifestacion_2855851.pdf", "fecha": "19-08-2026", "edicion": "44528" }, "geometry": { "type": "Polygon", "coordinates": [ [ [ -68.191267643123467, -23.109526708903839 ], [ -68.171738284843968, -23.1094254305597 ], [ -68.171682872927462, -23.118457734870919 ], [ -68.191213537398198, -23.118559057295247 ], [ -68.191267643123467, -23.109526708903839 ] ] ] } },
{ "type": "Feature", "properties": { "cve": "2855852", "nombre": "MERCURIO 2 R; 1 AL 300", "solicitante": "Sociedad Minera Cerro del León SpA", "region": "REGIÓN DE ANTOFAGASTA", "provincia": "Provincia de El Loa", "comuna": null, "superficie_ha": 300.0, "datum_original": "PSAD56", "huso": 19, "epsg_origen": 24879, "tipo_publicacion": "manifestacion", "fuente_pdf": "http://www.diariooficial.interior.gob.cl/publicaciones/2026/08/19/44528/07/2855852.pdf", "archivo": "gm_manifestacion_2855852.pdf", "fecha": "19-08-2026", "edicion": "44528" }, "geometry": { "type": "Polygon", "coordinates": [ [ [ -68.171738284843968, -23.1094254305597 ], [ -68.142444457337973, -23.109268983255411 ], [ -68.14238708619709, -23.118301219474912 ], [ -68.171682872927462, -23.118457734870919 ], [ -68.171738284843968, -23.1094254305597 ] ] ] } },
{ "type": "Feature", "properties": { "cve": "2855853", "nombre": "MERCURIO 5 R; 1 AL 100", "solicitante": "Sociedad Minera Cerro del León SpA", "region": "REGIÓN DE ANTOFAGASTA", "provincia": "Provincia de El Loa", "comuna": null, "superficie_ha": 100.0, "datum_original": "PSAD56", "huso": 19, "epsg_origen": 24879, "tipo_publicacion": "manifestacion", "fuente_pdf": "http://www.diariooficial.interior.gob.cl/publicaciones/2026/08/19/44528/07/2855853.pdf", "archivo": "gm_manifestacion_2855853.pdf", "fecha": "19-08-2026", "edicion": "44528" }, "geometry": { "type": "Polygon", "coordinates": [ [ [ -68.147782068507951, -23.037037073602324 ], [ -68.138022714834491, -23.036984203185654 ], [ -68.13796524915044, -23.046016512225211 ], [ -68.147725253260461, -23.046069405709503 ], [ -68.147782068507951, -23.037037073602324 ] ] ] } },
{ "type": "Feature", "properties": { "cve": "2855854", "nombre": "MERCURIO 6 R;1 AL 100", "solicitante": "Sociedad Minera Cerro del León SpA", "region": "REGIÓN DE ANTOFAGASTA", "provincia": "Provincia de El Loa", "comuna": null, "superficie_ha": 100.0, "datum_original": "PSAD56", "huso": 19, "epsg_origen": 24879, "tipo_publicacion": "manifestacion", "fuente_pdf": "http://www.diariooficial.interior.gob.cl/publicaciones/2026/08/19/44528/07/2855854.pdf", "archivo": "gm_manifestacion_2855854.pdf", "fecha": "19-08-2026", "edicion": "44528" }, "geometry": { "type": "Polygon", "coordinates": [ [ [ -68.147895613115907, -23.018972377793698 ], [ -68.138137559332421, -23.018919553503274 ], [ -68.138080151558967, -23.027951883610601 ], [ -68.147838855123595, -23.028004730962667 ], [ -68.147895613115907, -23.018972377793698 ] ] ] } },
{ "type": "Feature", "properties": { "cve": "2855855", "nombre": "MERCURIO 9 R;1 AL 100", "solicitante": "Sociedad Minera Cerro del León SpA", "region": "REGIÓN DE ANTOFAGASTA", "provincia": "Provincia de El Loa", "comuna": null, "superficie_ha": 100.0, "datum_original": "PSAD56", "huso": 19, "epsg_origen": 24879, "tipo_publicacion": "manifestacion", "fuente_pdf": "http://www.diariooficial.interior.gob.cl/publicaciones/2026/08/19/44528/07/2855855.pdf", "archivo": "gm_manifestacion_2855855.pdf", "fecha": "19-08-2026", "edicion": "44528" }, "geometry": { "type": "Polygon", "coordinates": [ [ [ -68.211323645563468, -23.019301077953809 ], [ -68.201565411637105, -23.019252162431997 ], [ -68.201512227590371, -23.028284637747568 ], [ -68.211271111351351, -23.028333574624671 ], [ -68.211323645563468, -23.019301077953809 ] ] ] } },
{ "type": "Feature", "properties": { "cve": "2855982", "nombre": "LA PORFIADA 1 AL 14", "solicitante": "Godoy Molina Dionisio del Carmen", "region": "REGIÓN DE ATACAMA", "provincia": "Provincia de Copiapó", "comuna": null, "superficie_ha": 98.0, "datum_original": "PSAD56", "huso": 19, "epsg_origen": 24879, "tipo_publicacion": "manifestacion", "fuente_pdf": "http://www.diariooficial.interior.gob.cl/publicaciones/2026/08/19/44528/07/2855982.pdf", "archivo": "gm_manifestacion_2855982.pdf", "fecha": "19-08-2026", "edicion": "44528" }, "geometry": { "type": "Polygon", "coordinates": [ [ [ -70.391812737503656, -28.094702762464781 ], [ -70.384689171214134, -28.094774849400292 ], [ -70.384851385104795, -28.107409169938194 ], [ -70.391975785252455, -28.107337044910651 ], [ -70.391812737503656, -28.094702762464781 ] ] ] } },
{ "type": "Feature", "properties": { "cve": "2856086", "nombre": "MAÑUNGO 1 AL 10", "solicitante": "Pesenti Rojas Fernando Humberto", "region": "REGIÓN DE ATACAMA", "provincia": "Provincia de Copiapó", "comuna": null, "superficie_ha": 50.0, "datum_original": "PSAD56", "huso": 19, "epsg_origen": 24879, "tipo_publicacion": "manifestacion", "fuente_pdf": "http://www.diariooficial.interior.gob.cl/publicaciones/2026/08/19/44528/07/2856086.pdf", "archivo": "gm_manifestacion_2856086.pdf", "fecha": "19-08-2026", "edicion": "44528" }, "geometry": { "type": "Polygon", "coordinates": [ [ [ -70.282515363125725, -28.025591367483504 ], [ -70.277430130530732, -28.025638735906607 ], [ -70.277536704203456, -28.034663738856061 ], [ -70.282622360767206, -28.034616352524502 ], [ -70.282515363125725, -28.025591367483504 ] ] ] } },
{ "type": "Feature", "properties": { "cve": "2856054", "nombre": "LA IGUANA 1 AL 100", "solicitante": "Contreras Miranda Juan Ilderino", "region": "REGIÓN DE ATACAMA", "provincia": "Provincia de Huasco", "comuna": null, "superficie_ha": 100.0, "datum_original": "WGS84", "huso": 19, "epsg_origen": 32719, "tipo_publicacion": "manifestacion", "fuente_pdf": "http://www.diariooficial.interior.gob.cl/publicaciones/2026/08/19/44528/07/2856054.pdf", "archivo": "gm_manifestacion_2856054.pdf", "fecha": "19-08-2026", "edicion": "44528" }, "geometry": { "type": "Polygon", "coordinates": [ [ [ -70.628854039424681, -28.843619345355101 ], [ -70.60835911742042, -28.843865338557862 ], [ -70.608428530914921, -28.848376641043718 ], [ -70.628924336490755, -28.848130602223364 ], [ -70.628854039424681, -28.843619345355101 ] ] ] } },
{ "type": "Feature", "properties": { "cve": "2856120", "nombre": "NAVIDAD F 10; 1 AL 100", "solicitante": "Sociedad Minera Cerro del León SpA", "region": "REGIÓN DE ATACAMA", "provincia": "Provincia de Huasco", "comuna": null, "superficie_ha": 100.0, "datum_original": "PSAD56", "huso": 19, "epsg_origen": 24879, "tipo_publicacion": "manifestacion", "fuente_pdf": "http://www.diariooficial.interior.gob.cl/publicaciones/2026/08/19/44528/07/2856120.pdf", "archivo": "gm_manifestacion_2856120.pdf", "fecha": "19-08-2026", "edicion": "44528" }, "geometry": { "type": "Polygon", "coordinates": [ [ [ -71.117993313365915, -28.847880706123004 ], [ -71.107748341392323, -28.848041248477166 ], [ -71.107930286756357, -28.857061273046547 ], [ -71.11817614148984, -28.856900671166642 ], [ -71.117993313365915, -28.847880706123004 ] ] ] } },
{ "type": "Feature", "properties": { "cve": "2855975", "nombre": "LAS NIÑAS CUARTA 1 AL 20", "solicitante": "Barahona Farfán María Verónica", "region": "REGIÓN DEL LIBERTADOR GENERAL BERNARDO O’HIGGINS", "provincia": "Provincia de Colchagua", "comuna": null, "superficie_ha": 100.0, "datum_original": "WGS84", "huso": 19, "epsg_origen": 32719, "tipo_publicacion": "manifestacion", "fuente_pdf": "http://www.diariooficial.interior.gob.cl/publicaciones/2026/08/19/44528/07/2855975.pdf", "archivo": "gm_manifestacion_2855975.pdf", "fecha": "19-08-2026", "edicion": "44528" }, "geometry": { "type": "Polygon", "coordinates": [ [ [ -70.954844970386461, -34.629762932325328 ], [ -70.943941499060131, -34.629937257564499 ], [ -70.944151852430892, -34.638950035551844 ], [ -70.955056501791873, -34.638775652006657 ], [ -70.954844970386461, -34.629762932325328 ] ] ] } },
{ "type": "Feature", "properties": { "cve": "2855980", "nombre": "LAS NIÑAS NOVENA 1 AL 10", "solicitante": "Barahona Farfán María Verónica", "region": "REGIÓN DEL LIBERTADOR GENERAL BERNARDO O’HIGGINS", "provincia": "Provincia de Colchagua", "comuna": null, "superficie_ha": 40.0, "datum_original": "WGS84", "huso": 19, "epsg_origen": 32719, "tipo_publicacion": "manifestacion", "fuente_pdf": "http://www.diariooficial.interior.gob.cl/publicaciones/2026/08/19/44528/07/2855980.pdf", "archivo": "gm_manifestacion_2855980.pdf", "fecha": "19-08-2026", "edicion": "44528" }, "geometry": { "type": "Polygon", "coordinates": [ [ [ -70.90103582992252, -34.651179727265529 ], [ -70.890129210567508, -34.651349333354574 ], [ -70.890211077959307, -34.654954547296917 ], [ -70.901118169022382, -34.654784918524122 ], [ -70.90103582992252, -34.651179727265529 ] ] ] } },
{ "type": "Feature", "properties": { "cve": "2855979", "nombre": "LAS NIÑAS OCTAVA 1 AL 13", "solicitante": "Barahona Farfán María Verónica", "region": "REGIÓN DEL LIBERTADOR GENERAL BERNARDO O’HIGGINS", "provincia": "Provincia de Colchagua", "comuna": null, "superficie_ha": 104.0, "datum_original": "WGS84", "huso": 19, "epsg_origen": 32719, "tipo_publicacion": "manifestacion", "fuente_pdf": "http://www.diariooficial.interior.gob.cl/publicaciones/2026/08/19/44528/07/2855979.pdf", "archivo": "gm_manifestacion_2855979.pdf", "fecha": "19-08-2026", "edicion": "44528" }, "geometry": { "type": "Polygon", "coordinates": [ [ [ -70.915158313891325, -34.648524296696024 ], [ -70.900980259297427, -34.648746221861842 ], [ -70.901144932378998, -34.655956605186432 ], [ -70.915324213328233, -34.655734620654222 ], [ -70.915158313891325, -34.648524296696024 ] ] ] } },
{ "type": "Feature", "properties": { "cve": "2855972", "nombre": "LAS NIÑAS PRIMERA 1 AL 20", "solicitante": "Barahona Farfán María Verónica", "region": "REGIÓN DEL LIBERTADOR GENERAL BERNARDO O’HIGGINS", "provincia": "Provincia de Colchagua", "comuna": null, "superficie_ha": 100.0, "datum_original": "WGS84", "huso": 19, "epsg_origen": 32719, "tipo_publicacion": "manifestacion", "fuente_pdf": "http://www.diariooficial.interior.gob.cl/publicaciones/2026/08/19/44528/07/2855972.pdf", "archivo": "gm_manifestacion_2855972.pdf", "fecha": "19-08-2026", "edicion": "44528" }, "geometry": { "type": "Polygon", "coordinates": [ [ [ -70.984591991285029, -34.614288649458032 ], [ -70.973690738242126, -34.614465565131866 ], [ -70.973904186387131, -34.623478205451072 ], [ -70.984806616482999, -34.623301230593462 ], [ -70.984591991285029, -34.614288649458032 ] ] ] } },
{ "type": "Feature", "properties": { "cve": "2855976", "nombre": "LAS NIÑAS QUINTA 1 AL 20", "solicitante": "Barahona Farfán María Verónica", "region": "REGIÓN DEL LIBERTADOR GENERAL BERNARDO O’HIGGINS", "provincia": "Provincia de Colchagua", "comuna": null, "superficie_ha": 100.0, "datum_original": "WGS84", "huso": 19, "epsg_origen": 32719, "tipo_publicacion": "manifestacion", "fuente_pdf": "http://www.diariooficial.interior.gob.cl/publicaciones/2026/08/19/44528/07/2855976.pdf", "archivo": "gm_manifestacion_2855976.pdf", "fecha": "19-08-2026", "edicion": "44528" }, "geometry": { "type": "Polygon", "coordinates": [ [ [ -70.944041615615518, -34.634227341690185 ], [ -70.933137490202583, -34.634400720601498 ], [ -70.933346709716332, -34.643413549690571 ], [ -70.944252013453223, -34.643240112792888 ], [ -70.944041615615518, -34.634227341690185 ] ] ] } },
{ "type": "Feature", "properties": { "cve": "2855973", "nombre": "LAS NIÑAS SEGUNDA 1 AL 20", "solicitante": "Barahona Farfán María Verónica", "region": "REGIÓN DEL LIBERTADOR GENERAL BERNARDO O’HIGGINS", "provincia": "Provincia de Colchagua", "comuna": null, "superficie_ha": 100.0, "datum_original": "WGS84", "huso": 19, "epsg_origen": 32719, "tipo_publicacion": "manifestacion", "fuente_pdf": "http://www.diariooficial.interior.gob.cl/publicaciones/2026/08/19/44528/07/2855973.pdf", "archivo": "gm_manifestacion_2855973.pdf", "fecha": "19-08-2026", "edicion": "44528" }, "geometry": { "type": "Polygon", "coordinates": [ [ [ -70.973753810614511, -34.619892235110157 ], [ -70.962851753694522, -34.620068207066304 ], [ -70.963064074432992, -34.629080897878069 ], [ -70.973967308761686, -34.628904867057933 ], [ -70.973753810614511, -34.619892235110157 ] ] ] } },
{ "type": "Feature", "properties": { "cve": "2855978", "nombre": "LAS NIÑAS SÉPTIMA 1 AL 14", "solicitante": "Barahona Farfán María Verónica", "region": "REGIÓN DEL LIBERTADOR GENERAL BERNARDO O’HIGGINS", "provincia": "Provincia de Colchagua", "comuna": null, "superficie_ha": 98.0, "datum_original": "WGS84", "huso": 19, "epsg_origen": 32719, "tipo_publicacion": "manifestacion", "fuente_pdf": "http://www.diariooficial.interior.gob.cl/publicaciones/2026/08/19/44528/07/2855978.pdf", "archivo": "gm_manifestacion_2855978.pdf", "fecha": "19-08-2026", "edicion": "44528" }, "geometry": { "type": "Polygon", "coordinates": [ [ [ -70.930388152841246, -34.646616084438556 ], [ -70.915119958035945, -34.646856907965578 ], [ -70.915265104895823, -34.653165943803415 ], [ -70.930534455131806, -34.65292506390692 ], [ -70.930388152841246, -34.646616084438556 ] ] ] } },
{ "type": "Feature", "properties": { "cve": "2855977", "nombre": "LAS NIÑAS SEXTA 1 AL 20", "solicitante": "Barahona Farfán María Verónica", "region": "REGIÓN DEL LIBERTADOR GENERAL BERNARDO O’HIGGINS", "provincia": "Provincia de Colchagua", "comuna": null, "superficie_ha": 100.0, "datum_original": "WGS84", "huso": 19, "epsg_origen": 32719, "tipo_publicacion": "manifestacion", "fuente_pdf": "http://www.diariooficial.interior.gob.cl/publicaciones/2026/08/19/44528/07/2855977.pdf", "archivo": "gm_manifestacion_2855977.pdf", "fecha": "19-08-2026", "edicion": "44528" }, "geometry": { "type": "Polygon", "coordinates": [ [ [ -70.940513522584055, -34.641045647151216 ], [ -70.918703348704383, -34.641390858935011 ], [ -70.918807193184264, -34.645897308408898 ], [ -70.940618545683051, -34.645552038905407 ], [ -70.940513522584055, -34.641045647151216 ] ] ] } },
{ "type": "Feature", "properties": { "cve": "2855974", "nombre": "LAS NIÑAS TERCERA 1 AL 20", "solicitante": "Barahona Farfán María Verónica", "region": "REGIÓN DEL LIBERTADOR GENERAL BERNARDO O’HIGGINS", "provincia": "Provincia de Colchagua", "comuna": null, "superficie_ha": 100.0, "datum_original": "WGS84", "huso": 19, "epsg_origen": 32719, "tipo_publicacion": "manifestacion", "fuente_pdf": "http://www.diariooficial.interior.gob.cl/publicaciones/2026/08/19/44528/07/2855974.pdf", "archivo": "gm_manifestacion_2855974.pdf", "fecha": "19-08-2026", "edicion": "44528" }, "geometry": { "type": "Polygon", "coordinates": [ [ [ -70.96303520893828, -34.625078211820735 ], [ -70.952132403723539, -34.625253248633591 ], [ -70.952343606215564, -34.634265989587966 ], [ -70.963247589170081, -34.634090894227668 ], [ -70.96303520893828, -34.625078211820735 ] ] ] } },
{ "type": "Feature", "properties": { "cve": "2856140", "nombre": "LANUS 1/300", "solicitante": "Minera Andes del Sur SpA", "region": "REGIÓN DE ARICA Y PARINACOTA", "provincia": "Provincia de Parinacota", "comuna": null, "superficie_ha": 300.0, "datum_original": "PSAD56", "huso": 19, "epsg_origen": 24879, "tipo_publicacion": "mensura", "fuente_pdf": "http://www.diariooficial.interior.gob.cl/publicaciones/2026/08/19/44528/07/2856140.pdf", "archivo": "gm_mensura_2856140.pdf", "fecha": "19-08-2026", "edicion": "44528" }, "geometry": { "type": "Polygon", "coordinates": [ [ [ -69.728385693645436, -17.801406382298207 ], [ -69.700081277119168, -17.801509699564097 ], [ -69.700116526568934, -17.81054768730808 ], [ -69.728422367935906, -17.810444314168471 ], [ -69.728385693645436, -17.801406382298207 ] ] ] } },
{ "type": "Feature", "properties": { "cve": "2856101", "nombre": "EMILIA 1, 1/20", "solicitante": "Beseler Valdivia Jorge Carlos", "region": "REGIÓN DE TARAPACÁ", "provincia": "Provincia del Tamarugal", "comuna": null, "superficie_ha": 200.0, "datum_original": "PSAD56", "huso": 19, "epsg_origen": 24879, "tipo_publicacion": "mensura", "fuente_pdf": "http://www.diariooficial.interior.gob.cl/publicaciones/2026/08/19/44528/07/2856101.pdf", "archivo": "gm_mensura_2856101.pdf", "fecha": "19-08-2026", "edicion": "44528" }, "geometry": { "type": "Polygon", "coordinates": [ [ [ -69.326733265003796, -19.971634405695536 ], [ -69.307617544630205, -19.971668572082688 ], [ -69.307635073664699, -19.980705121091695 ], [ -69.326751883267505, -19.980670937961658 ], [ -69.326733265003796, -19.971634405695536 ] ] ] } },
{ "type": "Feature", "properties": { "cve": "2856110", "nombre": "EMILIA 10, 1/30", "solicitante": "Beseler Valdivia Jorge Carlos", "region": "REGIÓN DE TARAPACÁ", "provincia": "Provincia del Tamarugal", "comuna": null, "superficie_ha": 300.0, "datum_original": "PSAD56", "huso": 19, "epsg_origen": 24879, "tipo_publicacion": "mensura", "fuente_pdf": "http://www.diariooficial.interior.gob.cl/publicaciones/2026/08/19/44528/07/2856110.pdf", "archivo": "gm_mensura_2856110.pdf", "fecha": "19-08-2026", "edicion": "44528" }, "geometry": { "type": "Polygon", "coordinates": [ [ [ -69.297957958714321, -19.917465345924995 ], [ -69.288403336130614, -19.917481095758781 ], [ -69.288452520488804, -19.944590929368751 ], [ -69.298008772461799, -19.944575156325328 ], [ -69.297957958714321, -19.917465345924995 ] ] ] } },
{ "type": "Feature", "properties": { "cve": "2856102", "nombre": "EMILIA 2, 1/20", "solicitante": "Beseler Valdivia Jorge Carlos", "region": "REGIÓN DE TARAPACÁ", "provincia": "Provincia del Tamarugal", "comuna": null, "superficie_ha": 200.0, "datum_original": "PSAD56", "huso": 19, "epsg_origen": 24879, "tipo_publicacion": "mensura", "fuente_pdf": "http://www.diariooficial.interior.gob.cl/publicaciones/2026/08/19/44528/07/2856102.pdf", "archivo": "gm_mensura_2856102.pdf", "fecha": "19-08-2026", "edicion": "44528" }, "geometry": { "type": "Polygon", "coordinates": [ [ [ -69.307617544630205, -19.971668572082688 ], [ -69.288501785843948, -19.971700679379015 ], [ -69.288518225639237, -19.98073724412189 ], [ -69.307635073664699, -19.980705121091695 ], [ -69.307617544630205, -19.971668572082688 ] ] ] } },
{ "type": "Feature", "properties": { "cve": "2856103", "nombre": "EMILIA 3, 1/30", "solicitante": "Beseler Valdivia Jorge Carlos", "region": "REGIÓN DE TARAPACÁ", "provincia": "Provincia del Tamarugal", "comuna": null, "superficie_ha": 300.0, "datum_original": "PSAD56", "huso": 19, "epsg_origen": 24879, "tipo_publicacion": "mensura", "fuente_pdf": "http://www.diariooficial.interior.gob.cl/publicaciones/2026/08/19/44528/07/2856103.pdf", "archivo": "gm_mensura_2856103.pdf", "fecha": "19-08-2026", "edicion": "44528" }, "geometry": { "type": "Polygon", "coordinates": [ [ [ -69.326677471402974, -19.944524753094104 ], [ -69.31712124821702, -19.944542068185815 ], [ -69.317175409767771, -19.971651746274361 ], [ -69.326733265003796, -19.971634405695536 ], [ -69.326677471402974, -19.944524753094104 ] ] ] } },
{ "type": "Feature", "properties": { "cve": "2856104", "nombre": "EMILIA 4, 1/30", "solicitante": "Beseler Valdivia Jorge Carlos", "region": "REGIÓN DE TARAPACÁ", "provincia": "Provincia del Tamarugal", "comuna": null, "superficie_ha": 300.0, "datum_original": "PSAD56", "huso": 19, "epsg_origen": 24879, "tipo_publicacion": "mensura", "fuente_pdf": "http://www.diariooficial.interior.gob.cl/publicaciones/2026/08/19/44528/07/2856104.pdf", "archivo": "gm_mensura_2856104.pdf", "fecha": "19-08-2026", "edicion": "44528" }, "geometry": { "type": "Polygon", "coordinates": [ [ [ -69.31712124821702, -19.944542068185815 ], [ -69.307565015137257, -19.944558869263627 ], [ -69.307617544630205, -19.971668572082688 ], [ -69.317175409767771, -19.971651746274361 ], [ -69.31712124821702, -19.944542068185815 ] ] ] } },
{ "type": "Feature", "properties": { "cve": "2856105", "nombre": "EMILIA 5, 1/30", "solicitante": "Beseler Valdivia Jorge Carlos", "region": "REGIÓN DE TARAPACÁ", "provincia": "Provincia del Tamarugal", "comuna": null, "superficie_ha": 300.0, "datum_original": "PSAD56", "huso": 19, "epsg_origen": 24879, "tipo_publicacion": "mensura", "fuente_pdf": "http://www.diariooficial.interior.gob.cl/publicaciones/2026/08/19/44528/07/2856105.pdf", "archivo": "gm_mensura_2856105.pdf", "fecha": "19-08-2026", "edicion": "44528" }, "geometry": { "type": "Polygon", "coordinates": [ [ [ -69.307565015137257, -19.944558869263627 ], [ -69.298008772461799, -19.944575156325328 ], [ -69.298059669889469, -19.971684883118293 ], [ -69.307617544630205, -19.971668572082688 ], [ -69.307565015137257, -19.944558869263627 ] ] ] } },
{ "type": "Feature", "properties": { "cve": "2856106", "nombre": "EMILIA 6, 1/30", "solicitante": "Beseler Valdivia Jorge Carlos", "region": "REGIÓN DE TARAPACÁ", "provincia": "Provincia del Tamarugal", "comuna": null, "superficie_ha": 300.0, "datum_original": "PSAD56", "huso": 19, "epsg_origen": 24879, "tipo_publicacion": "mensura", "fuente_pdf": "http://www.diariooficial.interior.gob.cl/publicaciones/2026/08/19/44528/07/2856106.pdf", "archivo": "gm_mensura_2856106.pdf", "fecha": "19-08-2026", "edicion": "44528" }, "geometry": { "type": "Polygon", "coordinates": [ [ [ -69.298008772461799, -19.944575156325328 ], [ -69.288452520488804, -19.944590929368751 ], [ -69.288501785843948, -19.971700679379015 ], [ -69.298059669889469, -19.971684883118293 ], [ -69.298008772461799, -19.944575156325328 ] ] ] } },
{ "type": "Feature", "properties": { "cve": "2856107", "nombre": "EMILIA 7, 1/30", "solicitante": "Beseler Valdivia Jorge Carlos", "region": "REGIÓN DE TARAPACÁ", "provincia": "Provincia del Tamarugal", "comuna": null, "superficie_ha": 300.0, "datum_original": "PSAD56", "huso": 19, "epsg_origen": 24879, "tipo_publicacion": "mensura", "fuente_pdf": "http://www.diariooficial.interior.gob.cl/publicaciones/2026/08/19/44528/07/2856107.pdf", "archivo": "gm_mensura_2856107.pdf", "fecha": "19-08-2026", "edicion": "44528" }, "geometry": { "type": "Polygon", "coordinates": [ [ [ -69.326621769532053, -19.917415016860819 ], [ -69.31706717571295, -19.917432306473827 ], [ -69.31712124821702, -19.944542068185815 ], [ -69.326677471402974, -19.944524753094104 ], [ -69.326621769532053, -19.917415016860819 ] ] ] } },
{ "type": "Feature", "properties": { "cve": "2856108", "nombre": "EMILIA 8, 1/30", "solicitante": "Beseler Valdivia Jorge Carlos", "region": "REGIÓN DE TARAPACÁ", "provincia": "Provincia del Tamarugal", "comuna": null, "superficie_ha": 300.0, "datum_original": "PSAD56", "huso": 19, "epsg_origen": 24879, "tipo_publicacion": "mensura", "fuente_pdf": "http://www.diariooficial.interior.gob.cl/publicaciones/2026/08/19/44528/07/2856108.pdf", "archivo": "gm_mensura_2856108.pdf", "fecha": "19-08-2026", "edicion": "44528" }, "geometry": { "type": "Polygon", "coordinates": [ [ [ -69.31706717571295, -19.917432306473827 ], [ -69.307512572007752, -19.91744908282929 ], [ -69.307565015137257, -19.944558869263627 ], [ -69.31712124821702, -19.944542068185815 ], [ -69.31706717571295, -19.917432306473827 ] ] ] } },
{ "type": "Feature", "properties": { "cve": "2856109", "nombre": "EMILIA 9, 1/30", "solicitante": "Beseler Valdivia Jorge Carlos", "region": "REGIÓN DE TARAPACÁ", "provincia": "Provincia del Tamarugal", "comuna": null, "superficie_ha": 300.0, "datum_original": "PSAD56", "huso": 19, "epsg_origen": 24879, "tipo_publicacion": "mensura", "fuente_pdf": "http://www.diariooficial.interior.gob.cl/publicaciones/2026/08/19/44528/07/2856109.pdf", "archivo": "gm_mensura_2856109.pdf", "fecha": "19-08-2026", "edicion": "44528" }, "geometry": { "type": "Polygon", "coordinates": [ [ [ -69.307512572007752, -19.91744908282929 ], [ -69.297957958714321, -19.917465345924995 ], [ -69.298008772461799, -19.944575156325328 ], [ -69.307565015137257, -19.944558869263627 ], [ -69.307512572007752, -19.91744908282929 ] ] ] } },
{ "type": "Feature", "properties": { "cve": "2856122", "nombre": "FITZ C 1 AL 100", "solicitante": "Compañía Minera Doña Inés de Collahuasi SCM", "region": "REGIÓN DE TARAPACÁ", "provincia": "Provincia del Tamarugal", "comuna": null, "superficie_ha": 1000.0, "datum_original": "WGS84", "huso": 19, "epsg_origen": 32719, "tipo_publicacion": "mensura", "fuente_pdf": "http://www.diariooficial.interior.gob.cl/publicaciones/2026/08/19/44528/07/2856122.pdf", "archivo": "gm_mensura_2856122.pdf", "fecha": "19-08-2026", "edicion": "44528" }, "geometry": { "type": "Polygon", "coordinates": [ [ [ -68.577774192948482, -20.591536850745559 ], [ -68.529795141510604, -20.591413101419469 ], [ -68.529739718273731, -20.609484627833332 ], [ -68.577724424589007, -20.609608495381877 ], [ -68.577774192948482, -20.591536850745559 ] ] ] } },
{ "type": "Feature", "properties": { "cve": "2856123", "nombre": "FITZ E 1 AL 100", "solicitante": "Compañía Minera Doña Inés de Collahuasi SCM", "region": "REGIÓN DE TARAPACÁ", "provincia": "Provincia del Tamarugal", "comuna": null, "superficie_ha": 1000.0, "datum_original": "WGS84", "huso": 19, "epsg_origen": 32719, "tipo_publicacion": "mensura", "fuente_pdf": "http://www.diariooficial.interior.gob.cl/publicaciones/2026/08/19/44528/07/2856123.pdf", "archivo": "gm_mensura_2856123.pdf", "fecha": "19-08-2026", "edicion": "44528" }, "geometry": { "type": "Polygon", "coordinates": [ [ [ -68.577724424589007, -20.609608495381877 ], [ -68.529739718273731, -20.609484627833332 ], [ -68.529684235450347, -20.627556116358207 ], [ -68.577674602722496, -20.627680102156173 ], [ -68.577724424589007, -20.609608495381877 ] ] ] } },
{ "type": "Feature", "properties": { "cve": "2856124", "nombre": "FITZ F 1 AL 20", "solicitante": "Compañía Minera Doña Inés de Collahuasi SCM", "region": "REGIÓN DE TARAPACÁ", "provincia": "Provincia del Tamarugal", "comuna": null, "superficie_ha": 200.0, "datum_original": "WGS84", "huso": 19, "epsg_origen": 32719, "tipo_publicacion": "mensura", "fuente_pdf": "http://www.diariooficial.interior.gob.cl/publicaciones/2026/08/19/44528/07/2856124.pdf", "archivo": "gm_mensura_2856124.pdf", "fecha": "19-08-2026", "edicion": "44528" }, "geometry": { "type": "Polygon", "coordinates": [ [ [ -68.529739718273731, -20.609484627833332 ], [ -68.520142820484679, -20.609458256197883 ], [ -68.520086205493214, -20.627529719547255 ], [ -68.529684235450347, -20.627556116358207 ], [ -68.529739718273731, -20.609484627833332 ] ] ] } },
{ "type": "Feature", "properties": { "cve": "2856125", "nombre": "FITZ G 1 AL 60", "solicitante": "Compañía Minera Doña Inés de Collahuasi SCM", "region": "REGIÓN DE TARAPACÁ", "provincia": "Provincia del Tamarugal", "comuna": null, "superficie_ha": 600.0, "datum_original": "WGS84", "huso": 19, "epsg_origen": 32719, "tipo_publicacion": "mensura", "fuente_pdf": "http://www.diariooficial.interior.gob.cl/publicaciones/2026/08/19/44528/07/2856125.pdf", "archivo": "gm_mensura_2856125.pdf", "fecha": "19-08-2026", "edicion": "44528" }, "geometry": { "type": "Polygon", "coordinates": [ [ [ -68.520142820484679, -20.609458256197883 ], [ -68.491352219536907, -20.609375945102677 ], [ -68.491292208090769, -20.627447329874379 ], [ -68.520086205493214, -20.627529719547255 ], [ -68.520142820484679, -20.609458256197883 ] ] ] } },
{ "type": "Feature", "properties": { "cve": "2856126", "nombre": "FITZ K 1 AL 60", "solicitante": "Compañía Minera Doña Inés de Collahuasi SCM", "region": "REGIÓN DE TARAPACÁ", "provincia": "Provincia del Tamarugal", "comuna": null, "superficie_ha": 600.0, "datum_original": "WGS84", "huso": 19, "epsg_origen": 32719, "tipo_publicacion": "mensura", "fuente_pdf": "http://www.diariooficial.interior.gob.cl/publicaciones/2026/08/19/44528/07/2856126.pdf", "archivo": "gm_mensura_2856126.pdf", "fecha": "19-08-2026", "edicion": "44528" }, "geometry": { "type": "Polygon", "coordinates": [ [ [ -68.520086205493214, -20.627529719547255 ], [ -68.491292208090769, -20.627447329874379 ], [ -68.49123213216015, -20.645518676706164 ], [ -68.520029529666772, -20.645601144974666 ], [ -68.520086205493214, -20.627529719547255 ] ] ] } },
{ "type": "Feature", "properties": { "cve": "2856127", "nombre": "MILLUNO A 1 AL 88", "solicitante": "Compañía Minera Doña Inés de Collahuasi SCM", "region": "REGIÓN DE TARAPACÁ", "provincia": "Provincia del Tamarugal", "comuna": null, "superficie_ha": 868.0, "datum_original": "WGS84", "huso": 19, "epsg_origen": 32719, "tipo_publicacion": "mensura", "fuente_pdf": "http://www.diariooficial.interior.gob.cl/publicaciones/2026/08/19/44528/07/2856127.pdf", "archivo": "gm_mensura_2856127.pdf", "fecha": "19-08-2026", "edicion": "44528" }, "geometry": { "type": "Polygon", "coordinates": [ [ [ -68.577148235400571, -20.817429680532694 ], [ -68.548318087459137, -20.817356158802184 ], [ -68.548285767589078, -20.828198823267979 ], [ -68.554052199640978, -20.82821392395736 ], [ -68.554041559324787, -20.831828145247599 ], [ -68.551158273867827, -20.83182061772786 ], [ -68.551152918458271, -20.833627727087681 ], [ -68.549230705934761, -20.833622681315077 ], [ -68.549225327018092, -20.835429789815414 ], [ -68.548264209503799, -20.835427258604291 ], [ -68.548237248950329, -20.84446279417563 ], [ -68.577072556299399, -20.844536420323447 ], [ -68.577148235400571, -20.817429680532694 ] ] ] } },
{ "type": "Feature", "properties": { "cve": "2856128", "nombre": "PAMPA B 1 AL 90", "solicitante": "Compañía Minera Doña Inés de Collahuasi SCM", "region": "REGIÓN DE TARAPACÁ", "provincia": "Provincia del Tamarugal", "comuna": null, "superficie_ha": 900.0, "datum_original": "WGS84", "huso": 19, "epsg_origen": 32719, "tipo_publicacion": "mensura", "fuente_pdf": "http://www.diariooficial.interior.gob.cl/publicaciones/2026/08/19/44528/07/2856128.pdf", "archivo": "gm_mensura_2856128.pdf", "fecha": "19-08-2026", "edicion": "44528" }, "geometry": { "type": "Polygon", "coordinates": [ [ [ -68.547939732325773, -20.943853053913038 ], [ -68.519085566274057, -20.943774165351684 ], [ -68.518998924593092, -20.970880287042622 ], [ -68.547858288574204, -20.970959287085773 ], [ -68.547939732325773, -20.943853053913038 ] ] ] } },
{ "type": "Feature", "properties": { "cve": "2856076", "nombre": "EL BETO 1 AL 10", "solicitante": "Pirita Azul SpA", "region": "REGIÓN DE ATACAMA", "provincia": "Provincia de Copiapó", "comuna": null, "superficie_ha": 60.0, "datum_original": "PSAD56", "huso": 19, "epsg_origen": 24879, "tipo_publicacion": "mensura", "fuente_pdf": "http://www.diariooficial.interior.gob.cl/publicaciones/2026/08/19/44528/07/2856076.pdf", "archivo": "gm_mensura_2856076.pdf", "fecha": "19-08-2026", "edicion": "44528" }, "geometry": { "type": "Polygon", "coordinates": [ [ [ -69.921105804867011, -27.935785436614083 ], [ -69.915007836335789, -27.93582608848838 ], [ -69.915083888874278, -27.944852307223858 ], [ -69.921182364075136, -27.944811639945438 ], [ -69.921105804867011, -27.935785436614083 ] ] ] } },
{ "type": "Feature", "properties": { "cve": "2856181", "nombre": "GÉNESIS 1 AL 3", "solicitante": "Famsa e Hijos​​​​​​​ SpA", "region": "REGIÓN DE ATACAMA", "provincia": "Provincia de Copiapó", "comuna": null, "superficie_ha": 7.0, "datum_original": "PSAD56", "huso": 19, "epsg_origen": 24879, "tipo_publicacion": "mensura", "fuente_pdf": "http://www.diariooficial.interior.gob.cl/publicaciones/2026/08/19/44528/07/2856181.pdf", "archivo": "gm_mensura_2856181.pdf", "fecha": "19-08-2026", "edicion": "44528" }, "geometry": { "type": "Polygon", "coordinates": [ [ [ -69.949944447920998, -26.811182205085608 ], [ -69.947932252567227, -26.811195692486834 ], [ -69.947947268617284, -26.813001213542027 ], [ -69.947705801256305, -26.813002830234879 ], [ -69.947713307898937, -26.813905590648417 ], [ -69.950731672347558, -26.813885351605347 ], [ -69.950724141805821, -26.812982591980493 ], [ -69.949959495834264, -26.812987725089528 ], [ -69.949944447920998, -26.811182205085608 ] ] ] } },
{ "type": "Feature", "properties": { "cve": "2856015", "nombre": "PORFIADA SUR 1, 1 AL 60", "solicitante": "Del Campo Arias Arnaldo", "region": "REGIÓN DE ATACAMA", "provincia": "Provincia de Huasco", "comuna": null, "superficie_ha": 300.0, "datum_original": "PSAD56", "huso": 19, "epsg_origen": 24879, "tipo_publicacion": "mensura", "fuente_pdf": "http://www.diariooficial.interior.gob.cl/publicaciones/2026/08/19/44528/07/2856015.pdf", "archivo": "gm_mensura_2856015.pdf", "fecha": "19-08-2026", "edicion": "44528" }, "geometry": { "type": "Polygon", "coordinates": [ [ [ -70.803352747233447, -28.986908669028757 ], [ -70.808247616650547, -28.973307548845462 ], [ -70.797988413998837, -28.973445105199442 ], [ -70.798456686942004, -29.000509640767088 ], [ -70.808718557987632, -29.00037193177775 ], [ -70.803352747233447, -28.986908669028757 ] ] ] } },
{ "type": "Feature", "properties": { "cve": "2856016", "nombre": "PORFIADA SUR 2, 1 AL 58", "solicitante": "Del Campo Arias Arnaldo", "region": "REGIÓN DE ATACAMA", "provincia": "Provincia de Huasco", "comuna": null, "superficie_ha": 250.0, "datum_original": "PSAD56", "huso": 19, "epsg_origen": 24879, "tipo_publicacion": "mensura", "fuente_pdf": "http://www.diariooficial.interior.gob.cl/publicaciones/2026/08/19/44528/07/2856016.pdf", "archivo": "gm_mensura_2856016.pdf", "fecha": "19-08-2026", "edicion": "44528" }, "geometry": { "type": "Polygon", "coordinates": [ [ [ -70.843623933247315, -29.05854992893191 ], [ -70.848516278962023, -29.044947564471443 ], [ -70.840303444344713, -29.045060381642685 ], [ -70.840623839485019, -29.063102799559413 ], [ -70.838570266524655, -29.063130946218664 ], [ -70.83873039544369, -29.072152146016521 ], [ -70.843864768863938, -29.072081694529547 ], [ -70.843832647900157, -29.070277460811358 ], [ -70.848966913635905, -29.070206818310083 ], [ -70.843623933247315, -29.05854992893191 ] ] ] } },
{ "type": "Feature", "properties": { "cve": "2856017", "nombre": "PORFIADA SUR 3, 1 AL 40", "solicitante": "Del Campo Arias Arnaldo", "region": "REGIÓN DE ATACAMA", "provincia": "Provincia de Huasco", "comuna": null, "superficie_ha": 200.0, "datum_original": "PSAD56", "huso": 19, "epsg_origen": 24879, "tipo_publicacion": "mensura", "fuente_pdf": "http://www.diariooficial.interior.gob.cl/publicaciones/2026/08/19/44528/07/2856017.pdf", "archivo": "gm_mensura_2856017.pdf", "fecha": "19-08-2026", "edicion": "44528" }, "geometry": { "type": "Polygon", "coordinates": [ [ [ -70.849127994517701, -29.079227955617533 ], [ -70.854101160956205, -29.070135979598358 ], [ -70.843832647900157, -29.070277460811358 ], [ -70.844153989797775, -29.088319774520812 ], [ -70.854424289950344, -29.088178188883084 ], [ -70.849127994517701, -29.079227955617533 ] ] ] } },
{ "type": "Feature", "properties": { "cve": "2856018", "nombre": "PORFIADA SUR 4, 1 AL 58", "solicitante": "Del Campo Arias Arnaldo", "region": "REGIÓN DE ATACAMA", "provincia": "Provincia de Huasco", "comuna": null, "superficie_ha": 252.0, "datum_original": "PSAD56", "huso": 19, "epsg_origen": 24879, "tipo_publicacion": "mensura", "fuente_pdf": "http://www.diariooficial.interior.gob.cl/publicaciones/2026/08/19/44528/07/2856018.pdf", "archivo": "gm_mensura_2856018.pdf", "fecha": "19-08-2026", "edicion": "44528" }, "geometry": { "type": "Polygon", "coordinates": [ [ [ -70.818081871577519, -29.066117078875809 ], [ -70.819897848475748, -29.052557285293169 ], [ -70.818871154902325, -29.052571199452387 ], [ -70.818902818135712, -29.054375463198301 ], [ -70.81274253440634, -29.054458789596463 ], [ -70.813184623631841, -29.079718513518308 ], [ -70.823454249260749, -29.07957933558329 ], [ -70.823168376176724, -29.063341045747627 ], [ -70.820087978455732, -29.063382853797069 ], [ -70.818081871577519, -29.066117078875809 ] ] ] } },
{ "type": "Feature", "properties": { "cve": "2855881", "nombre": "CAMAN 1 D, 1 al 100", "solicitante": "Ar Caman SpA", "region": "REGIÓN DE LOS RÍOS", "provincia": "Provincia de Valdivia", "comuna": null, "superficie_ha": 100.0, "datum_original": "PSAD56", "huso": 19, "epsg_origen": 24879, "tipo_publicacion": "mensura", "fuente_pdf": "http://www.diariooficial.interior.gob.cl/publicaciones/2026/08/19/44528/07/2855881.pdf", "archivo": "gm_mensura_2855881.pdf", "fecha": "19-08-2026", "edicion": "44528" }, "geometry": { "type": "Polygon", "coordinates": [ [ [ -67.076809602282239, -39.992026118848543 ], [ -67.065102964331189, -39.991831223613929 ], [ -67.064848754155307, -40.000835527799708 ], [ -67.076556927826431, -40.001030484844357 ], [ -67.076809602282239, -39.992026118848543 ] ] ] } },
{ "type": "Feature", "properties": { "cve": "2855882", "nombre": "CAMAN 2 D, 1 al 300", "solicitante": "AR Caman SpA", "region": "REGIÓN DE LOS RÍOS", "provincia": "Provincia de Valdivia", "comuna": null, "superficie_ha": 300.0, "datum_original": "PSAD56", "huso": 19, "epsg_origen": 24879, "tipo_publicacion": "mensura", "fuente_pdf": "http://www.diariooficial.interior.gob.cl/publicaciones/2026/08/19/44528/07/2855882.pdf", "archivo": "gm_mensura_2855882.pdf", "fecha": "19-08-2026", "edicion": "44528" }, "geometry": { "type": "Polygon", "coordinates": [ [ [ -67.065357060145274, -39.982826903968608 ], [ -67.030242439968177, -39.982235317021818 ], [ -67.029983739409658, -39.991239449039583 ], [ -67.065102964331189, -39.991831223613929 ], [ -67.065357060145274, -39.982826903968608 ] ] ] } },
{ "type": "Feature", "properties": { "cve": "2855886", "nombre": "CAMAN 24 D, 1 al 300", "solicitante": "AR Caman SpA", "region": "REGIÓN DE LOS RÍOS", "provincia": "Provincia de Valdivia", "comuna": null, "superficie_ha": 300.0, "datum_original": "PSAD56", "huso": 19, "epsg_origen": 24879, "tipo_publicacion": "mensura", "fuente_pdf": "http://www.diariooficial.interior.gob.cl/publicaciones/2026/08/19/44528/07/2855886.pdf", "archivo": "gm_mensura_2855886.pdf", "fecha": "19-08-2026", "edicion": "44528" }, "geometry": { "type": "Polygon", "coordinates": [ [ [ -66.918758792245555, -39.932091277161234 ], [ -66.907063505466297, -39.931880681973304 ], [ -66.906239989240603, -39.958891202870262 ], [ -66.917939869685796, -39.959101998535772 ], [ -66.918758792245555, -39.932091277161234 ] ] ] } },
{ "type": "Feature", "properties": { "cve": "2855883", "nombre": "CAMAN 3 D, 1 al 200", "solicitante": "AR Caman SpA", "region": "REGIÓN DE LOS RÍOS", "provincia": "Provincia de Valdivia", "comuna": null, "superficie_ha": 200.0, "datum_original": "PSAD56", "huso": 19, "epsg_origen": 24879, "tipo_publicacion": "mensura", "fuente_pdf": "http://www.diariooficial.interior.gob.cl/publicaciones/2026/08/19/44528/07/2855883.pdf", "archivo": "gm_mensura_2855883.pdf", "fecha": "19-08-2026", "edicion": "44528" }, "geometry": { "type": "Polygon", "coordinates": [ [ [ -67.053907587321746, -39.97362661644997 ], [ -67.030501024153764, -39.973231169497431 ], [ -67.030242439968177, -39.982235317021818 ], [ -67.053652071528916, -39.982630889401129 ], [ -67.053907587321746, -39.97362661644997 ] ] ] } },
{ "type": "Feature", "properties": { "cve": "2855884", "nombre": "CAMAN 4 D, 1 al 100", "solicitante": "AR Caman SpA", "region": "REGIÓN DE LOS RÍOS", "provincia": "Provincia de Valdivia", "comuna": null, "superficie_ha": 100.0, "datum_original": "PSAD56", "huso": 19, "epsg_origen": 24879, "tipo_publicacion": "mensura", "fuente_pdf": "http://www.diariooficial.interior.gob.cl/publicaciones/2026/08/19/44528/07/2855884.pdf", "archivo": "gm_mensura_2855884.pdf", "fecha": "19-08-2026", "edicion": "44528" }, "geometry": { "type": "Polygon", "coordinates": [ [ [ -67.042461182317737, -39.964425257402347 ], [ -67.030759492024757, -39.964227006468001 ], [ -67.030501024153764, -39.973231169497431 ], [ -67.042204247924943, -39.973429483315947 ], [ -67.042461182317737, -39.964425257402347 ] ] ] } },
{ "type": "Feature", "properties": { "cve": "2855887", "nombre": "CAMAN 41 D, 1 al 300", "solicitante": "AR Caman SpA", "region": "REGIÓN DE LOS RÍOS", "provincia": "Provincia de Valdivia", "comuna": null, "superficie_ha": 300.0, "datum_original": "PSAD56", "huso": 19, "epsg_origen": 24879, "tipo_publicacion": "mensura", "fuente_pdf": "http://www.diariooficial.interior.gob.cl/publicaciones/2026/08/19/44528/07/2855887.pdf", "archivo": "gm_mensura_2855887.pdf", "fecha": "19-08-2026", "edicion": "44528" }, "geometry": { "type": "Polygon", "coordinates": [ [ [ -66.925544857912357, -39.959238383051471 ], [ -66.913844897517222, -39.959028354253505 ], [ -66.913023259071707, -39.986038864549599 ], [ -66.924727819447128, -39.986249093251715 ], [ -66.925544857912357, -39.959238383051471 ] ] ] } },
{ "type": "Feature", "properties": { "cve": "2855885", "nombre": "CAMAN 5 D, 1 al 300", "solicitante": "AR Caman SpA", "region": "REGIÓN DE LOS RÍOS", "provincia": "Provincia de Valdivia", "comuna": null, "superficie_ha": 300.0, "datum_original": "PSAD56", "huso": 19, "epsg_origen": 24879, "tipo_publicacion": "mensura", "fuente_pdf": "http://www.diariooficial.interior.gob.cl/publicaciones/2026/08/19/44528/07/2855885.pdf", "archivo": "gm_mensura_2855885.pdf", "fecha": "19-08-2026", "edicion": "44528" }, "geometry": { "type": "Polygon", "coordinates": [ [ [ -67.030591501136399, -39.97007971420075 ], [ -66.995484140732003, -39.969477755803119 ], [ -66.995220995836618, -39.978481717825815 ], [ -67.030332957667568, -39.97908386715207 ], [ -67.030591501136399, -39.97007971420075 ] ] ] } },
{ "type": "Feature", "properties": { "cve": "2856150", "nombre": "Mila 1", "solicitante": "Hofmann Fuentes Rodrigo Andrés", "region": "REGIÓN DE ARICA Y PARINACOTA", "provincia": "Provincia de Arica", "comuna": null, "superficie_ha": 300.0, "datum_original": "PSAD56", "huso": 19, "epsg_origen": 24879, "tipo_publicacion": "pedimento", "fuente_pdf": "http://www.diariooficial.interior.gob.cl/publicaciones/2026/08/19/44528/07/2856150.pdf", "archivo": "gm_pedimento_2856150.pdf", "fecha": "19-08-2026", "edicion": "44528" }, "geometry": { "type": "Polygon", "coordinates": [ [ [ -69.721348662706731, -18.388890229822294 ], [ -69.69294980401952, -18.388995777676698 ], [ -69.69298592679479, -18.398033223634297 ], [ -69.72138626557917, -18.397927620288637 ], [ -69.721348662706731, -18.388890229822294 ] ] ] } },
{ "type": "Feature", "properties": { "cve": "2856151", "nombre": "Mila 3", "solicitante": "Hofmann Fuentes Rodrigo Andrés", "region": "REGIÓN DE ARICA Y PARINACOTA", "provincia": "Provincia de Arica", "comuna": null, "superficie_ha": 300.0, "datum_original": "PSAD56", "huso": 19, "epsg_origen": 24879, "tipo_publicacion": "pedimento", "fuente_pdf": "http://www.diariooficial.interior.gob.cl/publicaciones/2026/08/19/44528/07/2856151.pdf", "archivo": "gm_pedimento_2856151.pdf", "fecha": "19-08-2026", "edicion": "44528" }, "geometry": { "type": "Polygon", "coordinates": [ [ [ -69.721311081592091, -18.379852830618827 ], [ -69.69291370214566, -18.379958322987569 ], [ -69.69294980401952, -18.388995777676698 ], [ -69.721348662706731, -18.388890229822294 ], [ -69.721311081592091, -18.379852830618827 ] ] ] } },
{ "type": "Feature", "properties": { "cve": "2856152", "nombre": "Mila 6", "solicitante": "Hofmann Fuentes Rodrigo Andrés", "region": "REGIÓN DE ARICA Y PARINACOTA", "provincia": "Provincia de Arica", "comuna": null, "superficie_ha": 300.0, "datum_original": "PSAD56", "huso": 19, "epsg_origen": 24879, "tipo_publicacion": "pedimento", "fuente_pdf": "http://www.diariooficial.interior.gob.cl/publicaciones/2026/08/19/44528/07/2856152.pdf", "archivo": "gm_pedimento_2856152.pdf", "fecha": "19-08-2026", "edicion": "44528" }, "geometry": { "type": "Polygon", "coordinates": [ [ [ -69.749669227568518, -18.370705752345437 ], [ -69.721273522229978, -18.370815422681897 ], [ -69.721311081592091, -18.379852830618827 ], [ -69.749708265268154, -18.379743102574729 ], [ -69.749669227568518, -18.370705752345437 ] ] ] } },
{ "type": "Feature", "properties": { "cve": "2856019", "nombre": "ALCALDE 1", "solicitante": "FQM Exploration (Chile) S.A.", "region": "REGIÓN DE ANTOFAGASTA", "provincia": "Provincia de Antofagasta", "comuna": null, "superficie_ha": 200.0, "datum_original": "PSAD56", "huso": 19, "epsg_origen": 24879, "tipo_publicacion": "pedimento", "fuente_pdf": "http://www.diariooficial.interior.gob.cl/publicaciones/2026/08/19/44528/07/2856019.pdf", "archivo": "gm_pedimento_2856019.pdf", "fecha": "19-08-2026", "edicion": "44528" }, "geometry": { "type": "Polygon", "coordinates": [ [ [ -69.11966106737907, -23.856760039567686 ], [ -69.10001939512388, -23.856774044318982 ], [ -69.100026329728294, -23.86580640983729 ], [ -69.119669363784368, -23.865792399138311 ], [ -69.11966106737907, -23.856760039567686 ] ] ] } },
{ "type": "Feature", "properties": { "cve": "2856028", "nombre": "ALCALDE 10", "solicitante": "FQM Exploration (Chile) S.A.", "region": "REGIÓN DE ANTOFAGASTA", "provincia": "Provincia de Antofagasta", "comuna": null, "superficie_ha": 300.0, "datum_original": "PSAD56", "huso": 19, "epsg_origen": 24879, "tipo_publicacion": "pedimento", "fuente_pdf": "http://www.diariooficial.interior.gob.cl/publicaciones/2026/08/19/44528/07/2856028.pdf", "archivo": "gm_pedimento_2856028.pdf", "fecha": "19-08-2026", "edicion": "44528" }, "geometry": { "type": "Polygon", "coordinates": [ [ [ -69.109870717789434, -23.892896741563955 ], [ -69.080400016896391, -23.892914962235569 ], [ -69.080405600739169, -23.901947289879558 ], [ -69.109878348386289, -23.901929061478757 ], [ -69.109870717789434, -23.892896741563955 ] ] ] } },
{ "type": "Feature", "properties": { "cve": "2856029", "nombre": "ALCALDE 11", "solicitante": "FQM Exploration (Chile) S.A.", "region": "REGIÓN DE ANTOFAGASTA", "provincia": "Provincia de Antofagasta", "comuna": null, "superficie_ha": 300.0, "datum_original": "PSAD56", "huso": 19, "epsg_origen": 24879, "tipo_publicacion": "pedimento", "fuente_pdf": "http://www.diariooficial.interior.gob.cl/publicaciones/2026/08/19/44528/07/2856029.pdf", "archivo": "gm_pedimento_2856029.pdf", "fecha": "19-08-2026", "edicion": "44528" }, "geometry": { "type": "Polygon", "coordinates": [ [ [ -69.109878348386289, -23.901929061478757 ], [ -69.080405600739169, -23.901947289879558 ], [ -69.08041118734495, -23.910979606826384 ], [ -69.109885982758911, -23.910961370695361 ], [ -69.109878348386289, -23.901929061478757 ] ] ] } },
{ "type": "Feature", "properties": { "cve": "2856030", "nombre": "ALCALDE 12", "solicitante": "FQM Exploration (Chile) S.A.", "region": "REGIÓN DE ANTOFAGASTA", "provincia": "Provincia de Antofagasta", "comuna": null, "superficie_ha": 300.0, "datum_original": "PSAD56", "huso": 19, "epsg_origen": 24879, "tipo_publicacion": "pedimento", "fuente_pdf": "http://www.diariooficial.interior.gob.cl/publicaciones/2026/08/19/44528/07/2856030.pdf", "archivo": "gm_pedimento_2856030.pdf", "fecha": "19-08-2026", "edicion": "44528" }, "geometry": { "type": "Polygon", "coordinates": [ [ [ -69.109885982758911, -23.910961370695361 ], [ -69.08041118734495, -23.910979606826384 ], [ -69.080416776714557, -23.920011913073033 ], [ -69.109893620908437, -23.919993669210758 ], [ -69.109885982758911, -23.910961370695361 ] ] ] } },
{ "type": "Feature", "properties": { "cve": "2856020", "nombre": "ALCALDE 2", "solicitante": "FQM Exploration (Chile) S.A.", "region": "REGIÓN DE ANTOFAGASTA", "provincia": "Provincia de Antofagasta", "comuna": null, "superficie_ha": 300.0, "datum_original": "PSAD56", "huso": 19, "epsg_origen": 24879, "tipo_publicacion": "pedimento", "fuente_pdf": "http://www.diariooficial.interior.gob.cl/publicaciones/2026/08/19/44528/07/2856020.pdf", "archivo": "gm_pedimento_2856020.pdf", "fecha": "19-08-2026", "edicion": "44528" }, "geometry": { "type": "Polygon", "coordinates": [ [ [ -69.119669363784368, -23.865792399138311 ], [ -69.090204807381127, -23.865812475667678 ], [ -69.090211064180252, -23.874844833075603 ], [ -69.119677664297967, -23.874824748022405 ], [ -69.119669363784368, -23.865792399138311 ] ] ] } },
{ "type": "Feature", "properties": { "cve": "2856021", "nombre": "ALCALDE 3", "solicitante": "FQM Exploration (Chile) S.A.", "region": "REGIÓN DE ANTOFAGASTA", "provincia": "Provincia de Antofagasta", "comuna": null, "superficie_ha": 200.0, "datum_original": "PSAD56", "huso": 19, "epsg_origen": 24879, "tipo_publicacion": "pedimento", "fuente_pdf": "http://www.diariooficial.interior.gob.cl/publicaciones/2026/08/19/44528/07/2856021.pdf", "archivo": "gm_pedimento_2856021.pdf", "fecha": "19-08-2026", "edicion": "44528" }, "geometry": { "type": "Polygon", "coordinates": [ [ [ -69.129499856568273, -23.874816799782611 ], [ -69.109855467918337, -23.87483206965182 ], [ -69.109863090967167, -23.883864410953958 ], [ -69.12950884276448, -23.883849134603551 ], [ -69.129499856568273, -23.874816799782611 ] ] ] } },
{ "type": "Feature", "properties": { "cve": "2856022", "nombre": "ALCALDE 4", "solicitante": "FQM Exploration (Chile) S.A.", "region": "REGIÓN DE ANTOFAGASTA", "provincia": "Provincia de Antofagasta", "comuna": null, "superficie_ha": 200.0, "datum_original": "PSAD56", "huso": 19, "epsg_origen": 24879, "tipo_publicacion": "pedimento", "fuente_pdf": "http://www.diariooficial.interior.gob.cl/publicaciones/2026/08/19/44528/07/2856022.pdf", "archivo": "gm_pedimento_2856022.pdf", "fecha": "19-08-2026", "edicion": "44528" }, "geometry": { "type": "Polygon", "coordinates": [ [ [ -69.12950884276448, -23.883849134603551 ], [ -69.109863090967167, -23.883864410953958 ], [ -69.109870717789434, -23.892896741563955 ], [ -69.129517833408869, -23.892881458731463 ], [ -69.12950884276448, -23.883849134603551 ] ] ] } },
{ "type": "Feature", "properties": { "cve": "2856023", "nombre": "ALCALDE 5", "solicitante": "FQM Exploration (Chile) S.A.", "region": "REGIÓN DE ANTOFAGASTA", "provincia": "Provincia de Antofagasta", "comuna": null, "superficie_ha": 200.0, "datum_original": "PSAD56", "huso": 19, "epsg_origen": 24879, "tipo_publicacion": "pedimento", "fuente_pdf": "http://www.diariooficial.interior.gob.cl/publicaciones/2026/08/19/44528/07/2856023.pdf", "archivo": "gm_pedimento_2856023.pdf", "fecha": "19-08-2026", "edicion": "44528" }, "geometry": { "type": "Polygon", "coordinates": [ [ [ -69.129517833408869, -23.892881458731463 ], [ -69.109870717789434, -23.892896741563955 ], [ -69.109878348386289, -23.901929061478757 ], [ -69.129526828502819, -23.901913772163319 ], [ -69.129517833408869, -23.892881458731463 ] ] ] } },
{ "type": "Feature", "properties": { "cve": "2856024", "nombre": "ALCALDE 7", "solicitante": "FQM Exploration (Chile) S.A.", "region": "REGIÓN DE ANTOFAGASTA", "provincia": "Provincia de Antofagasta", "comuna": null, "superficie_ha": 200.0, "datum_original": "PSAD56", "huso": 19, "epsg_origen": 24879, "tipo_publicacion": "pedimento", "fuente_pdf": "http://www.diariooficial.interior.gob.cl/publicaciones/2026/08/19/44528/07/2856024.pdf", "archivo": "gm_pedimento_2856024.pdf", "fecha": "19-08-2026", "edicion": "44528" }, "geometry": { "type": "Polygon", "coordinates": [ [ [ -69.129535828047693, -23.910946074896099 ], [ -69.109885982758911, -23.910961370695361 ], [ -69.109893620908437, -23.919993669210758 ], [ -69.129544832044857, -23.919978366926788 ], [ -69.129535828047693, -23.910946074896099 ] ] ] } },
{ "type": "Feature", "properties": { "cve": "2856025", "nombre": "ALCALDE 8", "solicitante": "FQM Exploration (Chile) S.A.", "region": "REGIÓN DE ANTOFAGASTA", "provincia": "Provincia de Antofagasta", "comuna": null, "superficie_ha": 300.0, "datum_original": "PSAD56", "huso": 19, "epsg_origen": 24879, "tipo_publicacion": "pedimento", "fuente_pdf": "http://www.diariooficial.interior.gob.cl/publicaciones/2026/08/19/44528/07/2856025.pdf", "archivo": "gm_pedimento_2856025.pdf", "fecha": "19-08-2026", "edicion": "44528" }, "geometry": { "type": "Polygon", "coordinates": [ [ [ -69.109855467918337, -23.87483206965182 ], [ -69.080388857496374, -23.874850274868216 ], [ -69.080394435815748, -23.883882623897453 ], [ -69.109863090967167, -23.883864410953958 ], [ -69.109855467918337, -23.87483206965182 ] ] ] } },
{ "type": "Feature", "properties": { "cve": "2856027", "nombre": "ALCALDE 9", "solicitante": "FQM Exploration (Chile) S.A.", "region": "REGIÓN DE ANTOFAGASTA", "provincia": "Provincia de Antofagasta", "comuna": null, "superficie_ha": 300.0, "datum_original": "PSAD56", "huso": 19, "epsg_origen": 24879, "tipo_publicacion": "pedimento", "fuente_pdf": "http://www.diariooficial.interior.gob.cl/publicaciones/2026/08/19/44528/07/2856027.pdf", "archivo": "gm_pedimento_2856027.pdf", "fecha": "19-08-2026", "edicion": "44528" }, "geometry": { "type": "Polygon", "coordinates": [ [ [ -69.109863090967167, -23.883864410953958 ], [ -69.080394435815748, -23.883882623897453 ], [ -69.080400016896391, -23.892914962235569 ], [ -69.109870717789434, -23.892896741563955 ], [ -69.109863090967167, -23.883864410953958 ] ] ] } },
{ "type": "Feature", "properties": { "cve": "2855960", "nombre": "CRISTINA 1 AL 100", "solicitante": "Delgado Camayo Vanessa", "region": "REGIÓN DE ANTOFAGASTA", "provincia": "Provincia de Antofagasta", "comuna": null, "superficie_ha": 100.0, "datum_original": "PSAD56", "huso": 19, "epsg_origen": 24879, "tipo_publicacion": "pedimento", "fuente_pdf": "http://www.diariooficial.interior.gob.cl/publicaciones/2026/08/19/44528/07/2855960.pdf", "archivo": "gm_pedimento_2855960.pdf", "fecha": "19-08-2026", "edicion": "44528" }, "geometry": { "type": "Polygon", "coordinates": [ [ [ -70.347534858730327, -24.821654085420644 ], [ -70.337642060391303, -24.82174290433775 ], [ -70.337739044646653, -24.830771652879488 ], [ -70.347632559724914, -24.830682797365714 ], [ -70.347534858730327, -24.821654085420644 ] ] ] } },
{ "type": "Feature", "properties": { "cve": "2856119", "nombre": "CARMEN 1", "solicitante": "Sociedad Minera Cerro del León SpA", "region": "REGIÓN DE ATACAMA", "provincia": "Provincia de Huasco", "comuna": null, "superficie_ha": 100.0, "datum_original": "PSAD56", "huso": 19, "epsg_origen": 24879, "tipo_publicacion": "pedimento", "fuente_pdf": "http://www.diariooficial.interior.gob.cl/publicaciones/2026/08/19/44528/07/2856119.pdf", "archivo": "gm_pedimento_2856119.pdf", "fecha": "19-08-2026", "edicion": "44528" }, "geometry": { "type": "Polygon", "coordinates": [ [ [ -71.109365954479856, -28.844406802926173 ], [ -71.099121265859509, -28.844566672530043 ], [ -71.099302440876059, -28.853586751865723 ], [ -71.109548012120101, -28.853426822980602 ], [ -71.109365954479856, -28.844406802926173 ] ] ] } },
{ "type": "Feature", "properties": { "cve": "2856043", "nombre": "CHIQUERO 37", "solicitante": "Minera San Vicente Limitada", "region": "REGIÓN DE COQUIMBO", "provincia": "Provincia de Elqui", "comuna": null, "superficie_ha": 200.0, "datum_original": "WGS84", "huso": 19, "epsg_origen": 32719, "tipo_publicacion": "pedimento", "fuente_pdf": "http://www.diariooficial.interior.gob.cl/publicaciones/2026/08/19/44528/07/2856043.pdf", "archivo": "gm_pedimento_2856043.pdf", "fecha": "19-08-2026", "edicion": "44528" }, "geometry": { "type": "Polygon", "coordinates": [ [ [ -70.831432159405068, -29.803335734023342 ], [ -70.821089455820882, -29.803478685169761 ], [ -70.821416494576283, -29.821519267671569 ], [ -70.831761053021353, -29.821376212664134 ], [ -70.831432159405068, -29.803335734023342 ] ] ] } },
{ "type": "Feature", "properties": { "cve": "2856044", "nombre": "CHIQUERO 38", "solicitante": "Minera San Vicente Limitada", "region": "REGIÓN DE COQUIMBO", "provincia": "Provincia de Elqui", "comuna": null, "superficie_ha": 200.0, "datum_original": "WGS84", "huso": 19, "epsg_origen": 32719, "tipo_publicacion": "pedimento", "fuente_pdf": "http://www.diariooficial.interior.gob.cl/publicaciones/2026/08/19/44528/07/2856044.pdf", "archivo": "gm_pedimento_2856044.pdf", "fecha": "19-08-2026", "edicion": "44528" }, "geometry": { "type": "Polygon", "coordinates": [ [ [ -70.821089455820882, -29.803478685169761 ], [ -70.8107466779839, -29.803620827617902 ], [ -70.811071861822484, -29.821661513393469 ], [ -70.821416494576283, -29.821519267671569 ], [ -70.821089455820882, -29.803478685169761 ] ] ] } },
{ "type": "Feature", "properties": { "cve": "2856042", "nombre": "EL DORADO 0160", "solicitante": "Minera Santa María Limitada", "region": "REGIÓN DE COQUIMBO", "provincia": "Provincia de Elqui", "comuna": null, "superficie_ha": 200.0, "datum_original": "WGS84", "huso": 19, "epsg_origen": 32719, "tipo_publicacion": "pedimento", "fuente_pdf": "http://www.diariooficial.interior.gob.cl/publicaciones/2026/08/19/44528/07/2856042.pdf", "archivo": "gm_pedimento_2856042.pdf", "fecha": "19-08-2026", "edicion": "44528" }, "geometry": { "type": "Polygon", "coordinates": [ [ [ -70.809708073209009, -29.745890280396996 ], [ -70.799371146146129, -29.746031285770936 ], [ -70.799693536127208, -29.764072242063708 ], [ -70.81003231278028, -29.763931134118295 ], [ -70.809708073209009, -29.745890280396996 ] ] ] } },
{ "type": "Feature", "properties": { "cve": "2856045", "nombre": "LAS TORTOLAS 018", "solicitante": "Servicios a la Minería Omint SpA", "region": "REGIÓN DE COQUIMBO", "provincia": "Provincia de Elqui", "comuna": null, "superficie_ha": 300.0, "datum_original": "WGS84", "huso": 19, "epsg_origen": 32719, "tipo_publicacion": "pedimento", "fuente_pdf": "http://www.diariooficial.interior.gob.cl/publicaciones/2026/08/19/44528/07/2856045.pdf", "archivo": "gm_pedimento_2856045.pdf", "fecha": "19-08-2026", "edicion": "44528" }, "geometry": { "type": "Polygon", "coordinates": [ [ [ -70.832518643108713, -29.862869113882116 ], [ -70.822169812089015, -29.863012407908226 ], [ -70.822661954538546, -29.890073001607433 ], [ -70.833013576828023, -29.889929551595511 ], [ -70.832518643108713, -29.862869113882116 ] ] ] } },
{ "type": "Feature", "properties": { "cve": "2856046", "nombre": "LAS TORTOLAS 57", "solicitante": "Minera San Vicente Limitada", "region": "REGIÓN DE COQUIMBO", "provincia": "Provincia de Elqui", "comuna": null, "superficie_ha": 300.0, "datum_original": "WGS84", "huso": 19, "epsg_origen": 32719, "tipo_publicacion": "pedimento", "fuente_pdf": "http://www.diariooficial.interior.gob.cl/publicaciones/2026/08/19/44528/07/2856046.pdf", "archivo": "gm_pedimento_2856046.pdf", "fecha": "19-08-2026", "edicion": "44528" }, "geometry": { "type": "Polygon", "coordinates": [ [ [ -70.873071248348282, -29.817187892954504 ], [ -70.842039363011324, -29.81762427776393 ], [ -70.842204819870261, -29.826644450386542 ], [ -70.873239488632947, -29.826207907112494 ], [ -70.873071248348282, -29.817187892954504 ] ] ] } },
{ "type": "Feature", "properties": { "cve": "2856095", "nombre": "TAMBETÁ", "solicitante": "Echeverría Rivera Julio Alberto", "region": "REGIÓN DE COQUIMBO", "provincia": "Provincia de Limarí", "comuna": "Monte Patria", "superficie_ha": 200.0, "datum_original": "PSAD56", "huso": 19, "epsg_origen": 24879, "tipo_publicacion": "pedimento", "fuente_pdf": "http://www.diariooficial.interior.gob.cl/publicaciones/2026/08/19/44528/07/2856095.pdf", "archivo": "gm_pedimento_2856095.pdf", "fecha": "19-08-2026", "edicion": "44528" }, "geometry": { "type": "Polygon", "coordinates": [ [ [ -70.497620841440167, -30.86296056568403 ], [ -70.487164434080313, -30.863081107977266 ], [ -70.487443048297706, -30.881121750256508 ], [ -70.497901412844016, -30.88100112219907 ], [ -70.497620841440167, -30.86296056568403 ] ] ] } },
{ "type": "Feature", "properties": { "cve": "2856096", "nombre": "WUAYRA", "solicitante": "Echeverría Rivera Julio Alberto", "region": "REGIÓN DE COQUIMBO", "provincia": "Provincia de Limarí", "comuna": "Monte Patria", "superficie_ha": 300.0, "datum_original": "PSAD56", "huso": 19, "epsg_origen": 24879, "tipo_publicacion": "pedimento", "fuente_pdf": "http://www.diariooficial.interior.gob.cl/publicaciones/2026/08/19/44528/07/2856096.pdf", "archivo": "gm_pedimento_2856096.pdf", "fecha": "19-08-2026", "edicion": "44528" }, "geometry": { "type": "Polygon", "coordinates": [ [ [ -70.507936016801537, -30.853818924470097 ], [ -70.49748065054618, -30.853940267549024 ], [ -70.497901412844016, -30.88100112219907 ], [ -70.508359714144248, -30.880879649585321 ], [ -70.507936016801537, -30.853818924470097 ] ] ] } },
{ "type": "Feature", "properties": { "cve": "2856051", "nombre": "PAHUIL 12", "solicitante": "Bosques Pacífico Verde S.A.", "region": "REGIÓN DEL MAULE", "provincia": "Provincia de Talca", "comuna": null, "superficie_ha": 200.0, "datum_original": "PSAD56", "huso": 18, "epsg_origen": 24878, "tipo_publicacion": "pedimento", "fuente_pdf": "http://www.diariooficial.interior.gob.cl/publicaciones/2026/08/19/44528/07/2856051.pdf", "archivo": "gm_pedimento_2856051.pdf", "fecha": "19-08-2026", "edicion": "44528" }, "geometry": { "type": "Polygon", "coordinates": [ [ [ -72.586754969508988, -35.543157694719063 ], [ -72.575732870559733, -35.542936511839564 ], [ -72.575190153217719, -35.560953343121618 ], [ -72.586214713814769, -35.561174672196913 ], [ -72.586754969508988, -35.543157694719063 ] ] ] } },
{ "type": "Feature", "properties": { "cve": "2856052", "nombre": "PAHUIL 13", "solicitante": "Bosques Pacífico Verde S.A.", "region": "REGIÓN DEL MAULE", "provincia": "Provincia de Talca", "comuna": null, "superficie_ha": 200.0, "datum_original": "PSAD56", "huso": 18, "epsg_origen": 24878, "tipo_publicacion": "pedimento", "fuente_pdf": "http://www.diariooficial.interior.gob.cl/publicaciones/2026/08/19/44528/07/2856052.pdf", "archivo": "gm_pedimento_2856052.pdf", "fecha": "19-08-2026", "edicion": "44528" }, "geometry": { "type": "Polygon", "coordinates": [ [ [ -72.608612214117429, -35.549903092721003 ], [ -72.5975890146822, -35.5496838714839 ], [ -72.597051053666021, -35.567700973003106 ], [ -72.608076715725545, -35.567920339129778 ], [ -72.608612214117429, -35.549903092721003 ] ] ] } },
{ "type": "Feature", "properties": { "cve": "2856059", "nombre": "PAHUIL 10", "solicitante": "Bosques Pacífico Verde S.A.", "region": "REGIÓN DEL MAULE", "provincia": "Provincia de Cauquenes", "comuna": null, "superficie_ha": 200.0, "datum_original": "PSAD56", "huso": 18, "epsg_origen": 24878, "tipo_publicacion": "pedimento", "fuente_pdf": "http://www.diariooficial.interior.gob.cl/publicaciones/2026/08/19/44528/07/2856059.pdf", "archivo": "gm_pedimento_2856059.pdf", "fecha": "19-08-2026", "edicion": "44528" }, "geometry": { "type": "Polygon", "coordinates": [ [ [ -72.61824865498852, -35.596966395668218 ], [ -72.607218929152992, -35.596747805768182 ], [ -72.606682193667524, -35.614764892627548 ], [ -72.617714387912542, -35.61498362691777 ], [ -72.61824865498852, -35.596966395668218 ] ] ] } },
{ "type": "Feature", "properties": { "cve": "2856060", "nombre": "PAHUIL 11", "solicitante": "Bosques Pacífico Verde S.A.", "region": "REGIÓN DEL MAULE", "provincia": "Provincia de Cauquenes", "comuna": null, "superficie_ha": 200.0, "datum_original": "PSAD56", "huso": 18, "epsg_origen": 24878, "tipo_publicacion": "pedimento", "fuente_pdf": "http://www.diariooficial.interior.gob.cl/publicaciones/2026/08/19/44528/07/2856060.pdf", "archivo": "gm_pedimento_2856060.pdf", "fecha": "19-08-2026", "edicion": "44528" }, "geometry": { "type": "Polygon", "coordinates": [ [ [ -72.607487118314978, -35.587739239319603 ], [ -72.596458744847666, -35.587519713740853 ], [ -72.595919780277427, -35.60553668626941 ], [ -72.606950620954862, -35.605756356871623 ], [ -72.607487118314978, -35.587739239319603 ] ] ] } },
{ "type": "Feature", "properties": { "cve": "2856056", "nombre": "PAHUIL 7", "solicitante": "Bosques Pacífico Verde S.A.", "region": "REGIÓN DEL MAULE", "provincia": "Provincia de Cauquenes", "comuna": null, "superficie_ha": 100.0, "datum_original": "PSAD56", "huso": 18, "epsg_origen": 24878, "tipo_publicacion": "pedimento", "fuente_pdf": "http://www.diariooficial.interior.gob.cl/publicaciones/2026/08/19/44528/07/2856056.pdf", "archivo": "gm_pedimento_2856056.pdf", "fecha": "19-08-2026", "edicion": "44528" }, "geometry": { "type": "Polygon", "coordinates": [ [ [ -72.608351905058655, -35.632825774598288 ], [ -72.59731733557166, -35.632606088240948 ], [ -72.597047561840256, -35.641614519899733 ], [ -72.608083367404404, -35.641834278774148 ], [ -72.608351905058655, -35.632825774598288 ] ] ] } },
{ "type": "Feature", "properties": { "cve": "2856057", "nombre": "PAHUIL 8", "solicitante": "Bosques Pacífico Verde S.A.", "region": "REGIÓN DEL MAULE", "provincia": "Provincia de Cauquenes", "comuna": null, "superficie_ha": 200.0, "datum_original": "PSAD56", "huso": 18, "epsg_origen": 24878, "tipo_publicacion": "pedimento", "fuente_pdf": "http://www.diariooficial.interior.gob.cl/publicaciones/2026/08/19/44528/07/2856057.pdf", "archivo": "gm_pedimento_2856057.pdf", "fecha": "19-08-2026", "edicion": "44528" }, "geometry": { "type": "Polygon", "coordinates": [ [ [ -72.617714387912542, -35.61498362691777 ], [ -72.606682193667524, -35.614764892627548 ], [ -72.606144981612587, -35.632781918087304 ], [ -72.617179646454971, -35.633000796831354 ], [ -72.617714387912542, -35.61498362691777 ] ] ] } },
{ "type": "Feature", "properties": { "cve": "2856058", "nombre": "PAHUIL 9", "solicitante": "Bosques Pacífico Verde S.A.", "region": "REGIÓN DEL MAULE", "provincia": "Provincia de Cauquenes", "comuna": null, "superficie_ha": 200.0, "datum_original": "PSAD56", "huso": 18, "epsg_origen": 24878, "tipo_publicacion": "pedimento", "fuente_pdf": "http://www.diariooficial.interior.gob.cl/publicaciones/2026/08/19/44528/07/2856058.pdf", "archivo": "gm_pedimento_2856058.pdf", "fecha": "19-08-2026", "edicion": "44528" }, "geometry": { "type": "Polygon", "coordinates": [ [ [ -72.629278499313955, -35.597183977350852 ], [ -72.61824865498852, -35.596966395668218 ], [ -72.617714387912542, -35.61498362691777 ], [ -72.628746700753211, -35.6152013523254 ], [ -72.629278499313955, -35.597183977350852 ] ] ] } }
]
}
