{
"type": "FeatureCollection",
"name": "boletin_mineria_20260604",
"crs": { "type": "name", "properties": { "name": "urn:ogc:def:crs:OGC:1.3:CRS84" } },
"features": [
{ "type": "Feature", "properties": { "cve": "2818487", "nombre": "KIARA 2 DEL 1 AL 10", "solicitante": "Rivera León Marjorie Francis", "region": "REGIÓN DE ANTOFAGASTA", "provincia": "Provincia de Antofagasta", "comuna": null, "superficie_ha": 10.0, "datum_original": "PSAD56", "huso": 19, "epsg_origen": 24879, "tipo_publicacion": "manifestacion", "fuente_pdf": "http://www.diariooficial.interior.gob.cl/publicaciones/2026/06/04/44466/07/2818487.pdf", "archivo": "gm_manifestacion_2818487.pdf", "fecha": "04-06-2026", "edicion": "44466" }, "geometry": { "type": "Polygon", "coordinates": [ [ [ -70.033698543844196, -24.558658424985943 ], [ -70.028761955693184, -24.558692198976846 ], [ -70.028776691999639, -24.560498215375855 ], [ -70.033713350833267, -24.560464438579285 ], [ -70.033698543844196, -24.558658424985943 ] ] ] } },
{ "type": "Feature", "properties": { "cve": "2818306", "nombre": "DON RAUL III 1 AL 10", "solicitante": "Leal Paz Juan Pablo", "region": "REGIÓN DE ATACAMA", "provincia": "Provincia de Copiapó", "comuna": null, "superficie_ha": 100.0, "datum_original": "PSAD56", "huso": 19, "epsg_origen": 24879, "tipo_publicacion": "manifestacion", "fuente_pdf": "http://www.diariooficial.interior.gob.cl/publicaciones/2026/06/04/44466/07/2818306.pdf", "archivo": "gm_manifestacion_2818306.pdf", "fecha": "04-06-2026", "edicion": "44466" }, "geometry": { "type": "Polygon", "coordinates": [ [ [ -69.626319801190633, -26.921325256191537 ], [ -69.616248281448208, -26.921369576564167 ], [ -69.616297334543631, -26.930397751737239 ], [ -69.626369655847952, -26.9303534141388 ], [ -69.626319801190633, -26.921325256191537 ] ] ] } },
{ "type": "Feature", "properties": { "cve": "2818307", "nombre": "DON RAUL IV 1 AL 10", "solicitante": "Leal Paz Juan Pablo", "region": "REGIÓN DE ATACAMA", "provincia": "Provincia de Copiapó", "comuna": null, "superficie_ha": 100.0, "datum_original": "PSAD56", "huso": 19, "epsg_origen": 24879, "tipo_publicacion": "manifestacion", "fuente_pdf": "http://www.diariooficial.interior.gob.cl/publicaciones/2026/06/04/44466/07/2818307.pdf", "archivo": "gm_manifestacion_2818307.pdf", "fecha": "04-06-2026", "edicion": "44466" }, "geometry": { "type": "Polygon", "coordinates": [ [ [ -69.626319801190633, -26.921325256191537 ], [ -69.616248281448208, -26.921369576564167 ], [ -69.616297334543631, -26.930397751737239 ], [ -69.626369655847952, -26.9303534141388 ], [ -69.626319801190633, -26.921325256191537 ] ] ] } },
{ "type": "Feature", "properties": { "cve": "2818308", "nombre": "MILA 1 AL 20", "solicitante": "Leal Paz Juan Pablo", "region": "REGIÓN DE ATACAMA", "provincia": "Provincia de Copiapó", "comuna": null, "superficie_ha": 200.0, "datum_original": "PSAD56", "huso": 19, "epsg_origen": 24879, "tipo_publicacion": "manifestacion", "fuente_pdf": "http://www.diariooficial.interior.gob.cl/publicaciones/2026/06/04/44466/07/2818308.pdf", "archivo": "gm_manifestacion_2818308.pdf", "fecha": "04-06-2026", "edicion": "44466" }, "geometry": { "type": "Polygon", "coordinates": [ [ [ -69.621234613556993, -26.912319327852519 ], [ -69.611163883444689, -26.912363271953812 ], [ -69.611261165230644, -26.930419651040729 ], [ -69.621333498098423, -26.930375672769657 ], [ -69.621234613556993, -26.912319327852519 ] ] ] } },
{ "type": "Feature", "properties": { "cve": "2818309", "nombre": "MILA I 1 AL 6", "solicitante": "Leal Paz Juan Pablo", "region": "REGIÓN DE ATACAMA", "provincia": "Provincia de Copiapó", "comuna": null, "superficie_ha": 60.0, "datum_original": "PSAD56", "huso": 19, "epsg_origen": 24879, "tipo_publicacion": "manifestacion", "fuente_pdf": "http://www.diariooficial.interior.gob.cl/publicaciones/2026/06/04/44466/07/2818309.pdf", "archivo": "gm_manifestacion_2818309.pdf", "fecha": "04-06-2026", "edicion": "44466" }, "geometry": { "type": "Polygon", "coordinates": [ [ [ -69.634225654632417, -26.894204780397036 ], [ -69.628184198264535, -26.894231772143961 ], [ -69.628234142827466, -26.903259961791154 ], [ -69.634276079450729, -26.903232959546102 ], [ -69.634225654632417, -26.894204780397036 ] ] ] } },
{ "type": "Feature", "properties": { "cve": "2818310", "nombre": "MILA II 1 AL 10", "solicitante": "Leal Paz Juan Pablo", "region": "REGIÓN DE ATACAMA", "provincia": "Provincia de Copiapó", "comuna": null, "superficie_ha": 100.0, "datum_original": "PSAD56", "huso": 19, "epsg_origen": 24879, "tipo_publicacion": "manifestacion", "fuente_pdf": "http://www.diariooficial.interior.gob.cl/publicaciones/2026/06/04/44466/07/2818310.pdf", "archivo": "gm_manifestacion_2818310.pdf", "fecha": "04-06-2026", "edicion": "44466" }, "geometry": { "type": "Polygon", "coordinates": [ [ [ -69.636290056434277, -26.903223901373078 ], [ -69.626220162072215, -26.903268905114665 ], [ -69.626269969934739, -26.912297086515927 ], [ -69.636340665098373, -26.912252065274771 ], [ -69.636290056434277, -26.903223901373078 ] ] ] } },
{ "type": "Feature", "properties": { "cve": "2818397", "nombre": "DYL 1/20", "solicitante": "Sola Luna Luis del Rosario", "region": "REGIÓN DE COQUIMBO", "provincia": "Provincia de Elqui", "comuna": "La Serena", "superficie_ha": 100.0, "datum_original": "PSAD56", "huso": 19, "epsg_origen": 24879, "tipo_publicacion": "manifestacion", "fuente_pdf": "http://www.diariooficial.interior.gob.cl/publicaciones/2026/06/04/44466/07/2818397.pdf", "archivo": "gm_manifestacion_2818397.pdf", "fecha": "04-06-2026", "edicion": "44466" }, "geometry": { "type": "Polygon", "coordinates": [ [ [ -71.334616148628754, -29.767259701326022 ], [ -71.324280480137176, -29.767441799554994 ], [ -71.324488784344197, -29.776459248680407 ], [ -71.33482537708106, -29.776277084274149 ], [ -71.334616148628754, -29.767259701326022 ] ] ] } },
{ "type": "Feature", "properties": { "cve": "2818413", "nombre": "MINA LA TAURO 1 AL 20", "solicitante": "Gómez Manzano Víctor Iván", "region": "REGIÓN DE COQUIMBO", "provincia": "Provincia de Elqui", "comuna": "Coquimbo", "superficie_ha": 100.0, "datum_original": "PSAD56", "huso": 19, "epsg_origen": 24879, "tipo_publicacion": "manifestacion", "fuente_pdf": "http://www.diariooficial.interior.gob.cl/publicaciones/2026/06/04/44466/07/2818413.pdf", "archivo": "gm_manifestacion_2818413.pdf", "fecha": "04-06-2026", "edicion": "44466" }, "geometry": { "type": "Polygon", "coordinates": [ [ [ -71.289053749290844, -30.278596114074819 ], [ -71.278664578658379, -30.27877741521386 ], [ -71.278873042328769, -30.287794447783995 ], [ -71.289263161395567, -30.287613081441457 ], [ -71.289053749290844, -30.278596114074819 ] ] ] } },
{ "type": "Feature", "properties": { "cve": "2818410", "nombre": "SAMO D 1 AL 81", "solicitante": "Pruneda Flores Alyson Jenyffer Jesús", "region": "REGIÓN DE COQUIMBO", "provincia": "Provincia de Limarí", "comuna": "Ovalle", "superficie_ha": 81.0, "datum_original": "PSAD56", "huso": 19, "epsg_origen": 24879, "tipo_publicacion": "manifestacion", "fuente_pdf": "http://www.diariooficial.interior.gob.cl/publicaciones/2026/06/04/44466/07/2818410.pdf", "archivo": "gm_manifestacion_2818410.pdf", "fecha": "04-06-2026", "edicion": "44466" }, "geometry": { "type": "Polygon", "coordinates": [ [ [ -71.141399650797553, -30.518797022783513 ], [ -71.132025558184196, -30.518950775076945 ], [ -71.132202795472452, -30.527066607114506 ], [ -71.141577665914099, -30.526912805287306 ], [ -71.141399650797553, -30.518797022783513 ] ] ] } },
{ "type": "Feature", "properties": { "cve": "2818314", "nombre": "LA CANDELILLA DEL 1-6", "solicitante": "Figueroa Quiroz Juan Luis", "region": "REGIÓN DE VALPARAÍSO", "provincia": "Provincia de Petorca", "comuna": "Cabildo", "superficie_ha": 36.0, "datum_original": "PSAD56", "huso": 19, "epsg_origen": 24879, "tipo_publicacion": "manifestacion", "fuente_pdf": "http://www.diariooficial.interior.gob.cl/publicaciones/2026/06/04/44466/07/2818314.pdf", "archivo": "gm_manifestacion_2818314.pdf", "fecha": "04-06-2026", "edicion": "44466" }, "geometry": { "type": "Polygon", "coordinates": [ [ [ -70.953022409785234, -32.350595479306151 ], [ -70.946649552967131, -32.350694016324518 ], [ -70.946765461710541, -32.356103638788781 ], [ -70.953138697398558, -32.356005081300651 ], [ -70.953022409785234, -32.350595479306151 ] ] ] } },
{ "type": "Feature", "properties": { "cve": "2818370", "nombre": "MINA REFUGIO 2 DEL 1-10", "solicitante": "Atenas Muñoz Guillermo Alejandro", "region": "REGIÓN DE VALPARAÍSO", "provincia": "Provincia de Petorca", "comuna": "Cabildo", "superficie_ha": 100.0, "datum_original": "PSAD56", "huso": 19, "epsg_origen": 24879, "tipo_publicacion": "manifestacion", "fuente_pdf": "http://www.diariooficial.interior.gob.cl/publicaciones/2026/06/04/44466/07/2818370.pdf", "archivo": "gm_manifestacion_2818370.pdf", "fecha": "04-06-2026", "edicion": "44466" }, "geometry": { "type": "Polygon", "coordinates": [ [ [ -70.703987490068869, -32.334724146625895 ], [ -70.693366425442434, -32.334867165133389 ], [ -70.693534391681752, -32.343884493565739 ], [ -70.704156508580326, -32.34374142551917 ], [ -70.703987490068869, -32.334724146625895 ] ] ] } },
{ "type": "Feature", "properties": { "cve": "2819696", "nombre": "CAMAN 1 D, 1 AL 100", "solicitante": "AR Caman SpA", "region": "REGIÓN DE LOS RÍOS", "provincia": "Provincia de Valdivia", "comuna": null, "superficie_ha": 100.0, "datum_original": "PSAD56", "huso": 18, "epsg_origen": 24878, "tipo_publicacion": "manifestacion", "fuente_pdf": "http://www.diariooficial.interior.gob.cl/publicaciones/2026/06/04/44466/07/2819696.pdf", "archivo": "gm_manifestacion_2819696.pdf", "fecha": "04-06-2026", "edicion": "44466" }, "geometry": { "type": "Polygon", "coordinates": [ [ [ -73.076945034954051, -39.997156821445969 ], [ -73.065237114868552, -39.996961914956586 ], [ -73.064982870649786, -40.005966524709443 ], [ -73.076692326936111, -40.00616149301139 ], [ -73.076945034954051, -39.997156821445969 ] ] ] } },
{ "type": "Feature", "properties": { "cve": "2819697", "nombre": "CAMAN 3 D, 1 AL 200", "solicitante": "AR Caman SpA", "region": "REGIÓN DE LOS RÍOS", "provincia": "Provincia de Valdivia", "comuna": null, "superficie_ha": 200.0, "datum_original": "PSAD56", "huso": 18, "epsg_origen": 24878, "tipo_publicacion": "manifestacion", "fuente_pdf": "http://www.diariooficial.interior.gob.cl/publicaciones/2026/06/04/44466/07/2819697.pdf", "archivo": "gm_manifestacion_2819697.pdf", "fecha": "04-06-2026", "edicion": "44466" }, "geometry": { "type": "Polygon", "coordinates": [ [ [ -73.054040524728649, -39.978756685076178 ], [ -73.030631399320399, -39.978361214222318 ], [ -73.030372779693792, -39.987365667340455 ], [ -73.053784974455183, -39.987761263626602 ], [ -73.054040524728649, -39.978756685076178 ] ] ] } },
{ "type": "Feature", "properties": { "cve": "2819698", "nombre": "CAMAN 5 D, 1 AL 300", "solicitante": "AR Caman SpA", "region": "REGIÓN DE LOS RÍOS", "provincia": "Provincia de Valdivia", "comuna": null, "superficie_ha": 300.0, "datum_original": "PSAD56", "huso": 18, "epsg_origen": 24878, "tipo_publicacion": "manifestacion", "fuente_pdf": "http://www.diariooficial.interior.gob.cl/publicaciones/2026/06/04/44466/07/2819698.pdf", "archivo": "gm_manifestacion_2819698.pdf", "fecha": "04-06-2026", "edicion": "44466" }, "geometry": { "type": "Polygon", "coordinates": [ [ [ -73.030721888702217, -39.975209651963695 ], [ -72.99561068560682, -39.974607655614314 ], [ -72.99534750383792, -39.983611923228004 ], [ -73.030463309800041, -39.984214110514891 ], [ -73.030721888702217, -39.975209651963695 ] ] ] } },
{ "type": "Feature", "properties": { "cve": "2818161", "nombre": "CASTOR 21 AL 25", "solicitante": "Torres Pedrero Jorge Israel", "region": "REGIÓN DE LOS LAGOS", "provincia": "Provincia de Osorno", "comuna": null, "superficie_ha": 25.0, "datum_original": "PSAD56", "huso": 18, "epsg_origen": 24878, "tipo_publicacion": "manifestacion", "fuente_pdf": "http://www.diariooficial.interior.gob.cl/publicaciones/2026/06/04/44466/07/2818161.pdf", "archivo": "gm_manifestacion_2818161.pdf", "fecha": "04-06-2026", "edicion": "44466" }, "geometry": { "type": "Polygon", "coordinates": [ [ [ -73.519365413179145, -40.606342223907902 ], [ -73.513457262300847, -40.606266325804135 ], [ -73.513357468542253, -40.610769208169522 ], [ -73.519266015689311, -40.610845118266326 ], [ -73.519365413179145, -40.606342223907902 ] ] ] } },
{ "type": "Feature", "properties": { "cve": "2818405", "nombre": "MARÍA JOSÉ 1, 1 al 60", "solicitante": "Arica Solar Generación 2 SpA", "region": "REGIÓN DE ARICA Y PARINACOTA", "provincia": "Provincia de Arica", "comuna": null, "superficie_ha": 300.0, "datum_original": "PSAD56", "huso": 19, "epsg_origen": 24879, "tipo_publicacion": "mensura", "fuente_pdf": "http://www.diariooficial.interior.gob.cl/publicaciones/2026/06/04/44466/07/2818405.pdf", "archivo": "gm_mensura_2818405.pdf", "fecha": "04-06-2026", "edicion": "44466" }, "geometry": { "type": "Polygon", "coordinates": [ [ [ -70.179339289049253, -18.504077425965676 ], [ -70.169867969426122, -18.504136215700402 ], [ -70.17005224770476, -18.531244505990127 ], [ -70.179525058415962, -18.531185624032119 ], [ -70.179339289049253, -18.504077425965676 ] ] ] } },
{ "type": "Feature", "properties": { "cve": "2818406", "nombre": "MARÍA JOSÉ 3, 1 al 60", "solicitante": "Arica Solar Generación 2 SpA", "region": "REGIÓN DE ARICA Y PARINACOTA", "provincia": "Provincia de Arica", "comuna": null, "superficie_ha": 300.0, "datum_original": "PSAD56", "huso": 19, "epsg_origen": 24879, "tipo_publicacion": "mensura", "fuente_pdf": "http://www.diariooficial.interior.gob.cl/publicaciones/2026/06/04/44466/07/2818406.pdf", "archivo": "gm_mensura_2818406.pdf", "fecha": "04-06-2026", "edicion": "44466" }, "geometry": { "type": "Polygon", "coordinates": [ [ [ -70.179525058415962, -18.531185624032119 ], [ -70.17005224770476, -18.531244505990127 ], [ -70.170236844503833, -18.558352716051555 ], [ -70.17971114888006, -18.558293741842213 ], [ -70.179525058415962, -18.531185624032119 ] ] ] } },
{ "type": "Feature", "properties": { "cve": "2818451", "nombre": "PAMPA 10", "solicitante": "Zamorano Pichard Augusto Elías", "region": "REGIÓN DE ATACAMA", "provincia": "Provincia de Chañaral", "comuna": "Diego de Almagro", "superficie_ha": 300.0, "datum_original": "PSAD56", "huso": 19, "epsg_origen": 24879, "tipo_publicacion": "pedimento", "fuente_pdf": "http://www.diariooficial.interior.gob.cl/publicaciones/2026/06/04/44466/07/2818451.pdf", "archivo": "gm_pedimento_2818451.pdf", "fecha": "04-06-2026", "edicion": "44466" }, "geometry": { "type": "Polygon", "coordinates": [ [ [ -69.142534279474958, -26.656291229020532 ], [ -69.112388116218668, -26.656318259758315 ], [ -69.112396960262487, -26.665347282677327 ], [ -69.142545495762619, -26.665320241360035 ], [ -69.142534279474958, -26.656291229020532 ] ] ] } },
{ "type": "Feature", "properties": { "cve": "2818452", "nombre": "PAMPA 11", "solicitante": "Zamorano Pichard Augusto Elías", "region": "REGIÓN DE ATACAMA", "provincia": "Provincia de Chañaral", "comuna": "Diego de Almagro", "superficie_ha": 100.0, "datum_original": "PSAD56", "huso": 19, "epsg_origen": 24879, "tipo_publicacion": "pedimento", "fuente_pdf": "http://www.diariooficial.interior.gob.cl/publicaciones/2026/06/04/44466/07/2818452.pdf", "archivo": "gm_pedimento_2818452.pdf", "fecha": "04-06-2026", "edicion": "44466" }, "geometry": { "type": "Polygon", "coordinates": [ [ [ -69.147570247325234, -26.665315112683945 ], [ -69.137520742878337, -26.665325192382163 ], [ -69.137531568893621, -26.674354195085858 ], [ -69.147581864458715, -26.674344111443506 ], [ -69.147570247325234, -26.665315112683945 ] ] ] } },
{ "type": "Feature", "properties": { "cve": "2818453", "nombre": "PAMPA 12", "solicitante": "Zamorano Pichard Augusto Elías", "region": "REGIÓN DE ATACAMA", "provincia": "Provincia de Chañaral", "comuna": "Diego de Almagro", "superficie_ha": 100.0, "datum_original": "PSAD56", "huso": 19, "epsg_origen": 24879, "tipo_publicacion": "pedimento", "fuente_pdf": "http://www.diariooficial.interior.gob.cl/publicaciones/2026/06/04/44466/07/2818453.pdf", "archivo": "gm_pedimento_2818453.pdf", "fecha": "04-06-2026", "edicion": "44466" }, "geometry": { "type": "Polygon", "coordinates": [ [ [ -69.154617068118881, -26.674336629912315 ], [ -69.144566776347091, -26.67434721118007 ], [ -69.144578161508605, -26.683376199576138 ], [ -69.154629244770121, -26.68336561416897 ], [ -69.154617068118881, -26.674336629912315 ] ] ] } },
{ "type": "Feature", "properties": { "cve": "2818448", "nombre": "PAMPA 7", "solicitante": "Zamorano Pichard Augusto Elías", "region": "REGIÓN DE ATACAMA", "provincia": "Provincia de Chañaral", "comuna": "Diego de Almagro", "superficie_ha": 200.0, "datum_original": "PSAD56", "huso": 19, "epsg_origen": 24879, "tipo_publicacion": "pedimento", "fuente_pdf": "http://www.diariooficial.interior.gob.cl/publicaciones/2026/06/04/44466/07/2818448.pdf", "archivo": "gm_pedimento_2818448.pdf", "fecha": "04-06-2026", "edicion": "44466" }, "geometry": { "type": "Polygon", "coordinates": [ [ [ -69.102387763025391, -26.710499831040085 ], [ -69.082280791960756, -26.710512909792179 ], [ -69.082287282066844, -26.71954187132679 ], [ -69.102395839113726, -26.719528787463133 ], [ -69.102387763025391, -26.710499831040085 ] ] ] } },
{ "type": "Feature", "properties": { "cve": "2818449", "nombre": "PAMPA 8", "solicitante": "Zamorano Pichard Augusto Elías", "region": "REGIÓN DE ATACAMA", "provincia": "Provincia de Chañaral", "comuna": "DIEGO DE ALMAGRO", "superficie_ha": 200.0, "datum_original": "PSAD56", "huso": 19, "epsg_origen": 24879, "tipo_publicacion": "pedimento", "fuente_pdf": "http://www.diariooficial.interior.gob.cl/publicaciones/2026/06/04/44466/07/2818449.pdf", "archivo": "gm_pedimento_2818449.pdf", "fecha": "04-06-2026", "edicion": "44466" }, "geometry": { "type": "Polygon", "coordinates": [ [ [ -69.122494718881086, -26.710483904242071 ], [ -69.102387763025391, -26.710499831040085 ], [ -69.102395839113726, -26.719528787463133 ], [ -69.122504380946467, -26.719512854440431 ], [ -69.122494718881086, -26.710483904242071 ] ] ] } },
{ "type": "Feature", "properties": { "cve": "2818450", "nombre": "PAMPA 9", "solicitante": "Zamorano Pichard Augusto Elías", "region": "REGIÓN DE ATACAMA", "provincia": "Provincia de Chañaral", "comuna": "Diego de Almagro", "superficie_ha": 300.0, "datum_original": "PSAD56", "huso": 19, "epsg_origen": 24879, "tipo_publicacion": "pedimento", "fuente_pdf": "http://www.diariooficial.interior.gob.cl/publicaciones/2026/06/04/44466/07/2818450.pdf", "archivo": "gm_pedimento_2818450.pdf", "fecha": "04-06-2026", "edicion": "44466" }, "geometry": { "type": "Polygon", "coordinates": [ [ [ -69.137520742878337, -26.665325192382163 ], [ -69.107372200426568, -26.665351167772176 ], [ -69.107380653077442, -26.674380180639918 ], [ -69.137531568893621, -26.674354195085858 ], [ -69.137520742878337, -26.665325192382163 ] ] ] } },
{ "type": "Feature", "properties": { "cve": "2818246", "nombre": "SALVADOR", "solicitante": "Guzmán Cruzat Nicolás", "region": "REGIÓN METROPOLITANA DE SANTIAGO", "provincia": "Provincia de Santiago", "comuna": null, "superficie_ha": 100.0, "datum_original": "PSAD56", "huso": 19, "epsg_origen": 24879, "tipo_publicacion": "pedimento", "fuente_pdf": "http://www.diariooficial.interior.gob.cl/publicaciones/2026/06/04/44466/07/2818246.pdf", "archivo": "gm_pedimento_2818246.pdf", "fecha": "04-06-2026", "edicion": "44466" }, "geometry": { "type": "Polygon", "coordinates": [ [ [ -70.660867807477231, -33.356337368470918 ], [ -70.650124131697467, -33.356480633015579 ], [ -70.650294333108747, -33.365496676262609 ], [ -70.661039115802851, -33.365353362902511 ], [ -70.660867807477231, -33.356337368470918 ] ] ] } },
{ "type": "Feature", "properties": { "cve": "2818427", "nombre": "ARESIO I", "solicitante": "Inmobiliaria Acceso Norte II SpA", "region": "REGIÓN METROPOLITANA DE SANTIAGO", "provincia": "Provincia de Chacabuco", "comuna": null, "superficie_ha": 100.0, "datum_original": "PSAD56", "huso": 19, "epsg_origen": 24879, "tipo_publicacion": "pedimento", "fuente_pdf": "http://www.diariooficial.interior.gob.cl/publicaciones/2026/06/04/44466/07/2818427.pdf", "archivo": "gm_pedimento_2818427.pdf", "fecha": "04-06-2026", "edicion": "44466" }, "geometry": { "type": "Polygon", "coordinates": [ [ [ -70.720869686594128, -33.309076356052032 ], [ -70.710132141593135, -33.309224626891876 ], [ -70.710308214556989, -33.318240461419045 ], [ -70.721046863755546, -33.318092140022706 ], [ -70.720869686594128, -33.309076356052032 ] ] ] } },
{ "type": "Feature", "properties": { "cve": "2818049", "nombre": "PUERTO 4", "solicitante": "Pinilla Calderón Daniela", "region": "REGIÓN DE LA ARAUCANÍA", "provincia": "Provincia de Cautín", "comuna": "Puerto Saavedra", "superficie_ha": 100.0, "datum_original": "PSAD56", "huso": 18, "epsg_origen": 24878, "tipo_publicacion": "pedimento", "fuente_pdf": "http://www.diariooficial.interior.gob.cl/publicaciones/2026/06/04/44466/07/2818049.pdf", "archivo": "gm_pedimento_2818049.pdf", "fecha": "04-06-2026", "edicion": "44466" }, "geometry": { "type": "Polygon", "coordinates": [ [ [ -73.394399281512193, -38.780682607621472 ], [ -73.382890908583263, -38.780523902855386 ], [ -73.382687385073538, -38.789531965435842 ], [ -73.39419720488219, -38.789690720984339 ], [ -73.394399281512193, -38.780682607621472 ] ] ] } }
]
}
