{
"type": "FeatureCollection",
"name": "boletin_mineria_20260909",
"crs": { "type": "name", "properties": { "name": "urn:ogc:def:crs:OGC:1.3:CRS84" } },
"features": [
{ "type": "Feature", "properties": { "cve": "2867194", "nombre": "ALPACA A, 1 AL 15", "solicitante": "Madero Santana Percival Víctor", "region": "REGIÓN DE ATACAMA", "provincia": "Provincia de Copiapó", "comuna": null, "superficie_ha": 15.0, "datum_original": "PSAD56", "huso": 19, "epsg_origen": 24879, "tipo_publicacion": "manifestacion", "fuente_pdf": "http://www.diariooficial.interior.gob.cl/publicaciones/2026/09/09/44546/07/2867194.pdf", "archivo": "gm_manifestacion_2867194.pdf", "fecha": "09-09-2026", "edicion": "44546" }, "geometry": { "type": "Polygon", "coordinates": [ [ [ -70.054849631721396, -26.97429458488519 ], [ -70.049812073500462, -26.974332186481412 ], [ -70.049837195207942, -26.977040320513897 ], [ -70.054874873921875, -26.977002714540049 ], [ -70.054849631721396, -26.97429458488519 ] ] ] } },
{ "type": "Feature", "properties": { "cve": "2867195", "nombre": "ALPACA B, 1 AL 12", "solicitante": "Madero Santana Percival Víctor", "region": "REGIÓN DE ATACAMA", "provincia": "Provincia de Copiapó", "comuna": null, "superficie_ha": 12.0, "datum_original": "PSAD56", "huso": 19, "epsg_origen": 24879, "tipo_publicacion": "manifestacion", "fuente_pdf": "http://www.diariooficial.interior.gob.cl/publicaciones/2026/09/09/44546/07/2867195.pdf", "archivo": "gm_manifestacion_2867195.pdf", "fecha": "09-09-2026", "edicion": "44546" }, "geometry": { "type": "Polygon", "coordinates": [ [ [ -70.04783883860361, -26.978860735773349 ], [ -70.043808621154412, -26.978890635720433 ], [ -70.043833604127784, -26.981598773194165 ], [ -70.047863917995045, -26.981568869766502 ], [ -70.04783883860361, -26.978860735773349 ] ] ] } },
{ "type": "Feature", "properties": { "cve": "2867184", "nombre": "LAS PINTADAS 28 ALFA 1-4", "solicitante": "Empresa Nacional de Minería", "region": "REGIÓN DE ATACAMA", "provincia": "Provincia de Copiapó", "comuna": null, "superficie_ha": 20.0, "datum_original": "PSAD56", "huso": 19, "epsg_origen": 24879, "tipo_publicacion": "manifestacion", "fuente_pdf": "http://www.diariooficial.interior.gob.cl/publicaciones/2026/09/09/44546/07/2867184.pdf", "archivo": "gm_manifestacion_2867184.pdf", "fecha": "09-09-2026", "edicion": "44546" }, "geometry": { "type": "Polygon", "coordinates": [ [ [ -69.433603606852145, -27.869982182664309 ], [ -69.431571976470124, -27.869988554144062 ], [ -69.431607749112445, -27.879015758609757 ], [ -69.433639547881796, -27.879009384711598 ], [ -69.433603606852145, -27.869982182664309 ] ] ] } },
{ "type": "Feature", "properties": { "cve": "2867185", "nombre": "LAS PINTADAS 28 BETA 1-10", "solicitante": "Empresa Nacional de Minería", "region": "REGIÓN DE ATACAMA", "provincia": "Provincia de Copiapó", "comuna": null, "superficie_ha": 50.0, "datum_original": "PSAD56", "huso": 19, "epsg_origen": 24879, "tipo_publicacion": "manifestacion", "fuente_pdf": "http://www.diariooficial.interior.gob.cl/publicaciones/2026/09/09/44546/07/2867185.pdf", "archivo": "gm_manifestacion_2867185.pdf", "fecha": "09-09-2026", "edicion": "44546" }, "geometry": { "type": "Polygon", "coordinates": [ [ [ -69.428524529654226, -27.869998055260883 ], [ -69.423445448339407, -27.870013740847799 ], [ -69.423480547430117, -27.879040954873542 ], [ -69.428560049715117, -27.879025263332888 ], [ -69.428524529654226, -27.869998055260883 ] ] ] } },
{ "type": "Feature", "properties": { "cve": "2867180", "nombre": "PORFIADO 4-A 1 AL 30", "solicitante": "Inversiones Elqui Limitada", "region": "REGIÓN DE ATACAMA", "provincia": "Provincia de Copiapó", "comuna": null, "superficie_ha": 300.0, "datum_original": "PSAD56", "huso": 19, "epsg_origen": 24879, "tipo_publicacion": "manifestacion", "fuente_pdf": "http://www.diariooficial.interior.gob.cl/publicaciones/2026/09/09/44546/07/2867180.pdf", "archivo": "gm_manifestacion_2867180.pdf", "fecha": "09-09-2026", "edicion": "44546" }, "geometry": { "type": "Polygon", "coordinates": [ [ [ -70.08066229549334, -28.074038317601492 ], [ -70.070486520779099, -28.074118053812118 ], [ -70.070755123953958, -28.101194845546136 ], [ -70.080933450736325, -28.101115018981474 ], [ -70.08066229549334, -28.074038317601492 ] ] ] } },
{ "type": "Feature", "properties": { "cve": "2867181", "nombre": "PORFIADO 8-A 1 AL 30", "solicitante": "Inversiones Elqui Limitada", "region": "REGIÓN DE ATACAMA", "provincia": "Provincia de Copiapó", "comuna": null, "superficie_ha": 300.0, "datum_original": "PSAD56", "huso": 19, "epsg_origen": 24879, "tipo_publicacion": "manifestacion", "fuente_pdf": "http://www.diariooficial.interior.gob.cl/publicaciones/2026/09/09/44546/07/2867181.pdf", "archivo": "gm_manifestacion_2867181.pdf", "fecha": "09-09-2026", "edicion": "44546" }, "geometry": { "type": "Polygon", "coordinates": [ [ [ -70.070486520779099, -28.074118053812118 ], [ -70.060310704681854, -28.074197035944977 ], [ -70.060576755744293, -28.101273917178673 ], [ -70.070755123953958, -28.101194845546136 ], [ -70.070486520779099, -28.074118053812118 ] ] ] } },
{ "type": "Feature", "properties": { "cve": "2867188", "nombre": "SAN JUAQUIN 3 DEL 1-98", "solicitante": "Molina Donoso Arturo", "region": "REGIÓN DE ATACAMA", "provincia": "Provincia de Copiapó", "comuna": null, "superficie_ha": 98.0, "datum_original": "WGS84", "huso": 19, "epsg_origen": 32719, "tipo_publicacion": "manifestacion", "fuente_pdf": "http://www.diariooficial.interior.gob.cl/publicaciones/2026/09/09/44546/07/2867188.pdf", "archivo": "gm_manifestacion_2867188.pdf", "fecha": "09-09-2026", "edicion": "44546" }, "geometry": { "type": "Polygon", "coordinates": [ [ [ -70.193314062524607, -27.900548146654543 ], [ -70.179091301505707, -27.900670576454718 ], [ -70.17915980345299, -27.906988429487029 ], [ -70.193383390299857, -27.90686596719031 ], [ -70.193314062524607, -27.900548146654543 ] ] ] } },
{ "type": "Feature", "properties": { "cve": "2867189", "nombre": "SAN JUAQUIN 4 DEL 1-98", "solicitante": "Molina Donoso Arturo", "region": "REGIÓN DE ATACAMA", "provincia": "Provincia de Copiapó", "comuna": null, "superficie_ha": 98.0, "datum_original": "WGS84", "huso": 19, "epsg_origen": 32719, "tipo_publicacion": "manifestacion", "fuente_pdf": "http://www.diariooficial.interior.gob.cl/publicaciones/2026/09/09/44546/07/2867189.pdf", "archivo": "gm_manifestacion_2867189.pdf", "fecha": "09-09-2026", "edicion": "44546" }, "geometry": { "type": "Polygon", "coordinates": [ [ [ -70.208097585203362, -27.903352878189374 ], [ -70.193874534118081, -27.903476844997662 ], [ -70.193943903013448, -27.909794661554692 ], [ -70.208167780027921, -27.909670661844284 ], [ -70.208097585203362, -27.903352878189374 ] ] ] } },
{ "type": "Feature", "properties": { "cve": "2866833", "nombre": "KANELOR II 1 AL 12", "solicitante": "Atenas Jorquera Francisco Javier y otro", "region": "REGIÓN DE COQUIMBO", "provincia": "Provincia de Elqui", "comuna": null, "superficie_ha": 60.0, "datum_original": "PSAD56", "huso": 19, "epsg_origen": 24879, "tipo_publicacion": "manifestacion", "fuente_pdf": "http://www.diariooficial.interior.gob.cl/publicaciones/2026/09/09/44546/07/2866833.pdf", "archivo": "gm_manifestacion_2866833.pdf", "fecha": "09-09-2026", "edicion": "44546" }, "geometry": { "type": "Polygon", "coordinates": [ [ [ -71.117367992241071, -30.197020893401298 ], [ -71.112177106253924, -30.197104631866726 ], [ -71.112408246745261, -30.207926415276077 ], [ -71.117599699749661, -30.207842640607435 ], [ -71.117367992241071, -30.197020893401298 ] ] ] } },
{ "type": "Feature", "properties": { "cve": "2867172", "nombre": "EL BRAVO GOLD I 1 AL 8", "solicitante": "Iribarren V. Víctor Manuel", "region": "REGIÓN DE ATACAMA", "provincia": "Provincia de Huasco", "comuna": null, "superficie_ha": 40.0, "datum_original": "WGS84", "huso": 19, "epsg_origen": 32719, "tipo_publicacion": "mensura", "fuente_pdf": "http://www.diariooficial.interior.gob.cl/publicaciones/2026/09/09/44546/07/2867172.pdf", "archivo": "gm_mensura_2867172.pdf", "fecha": "09-09-2026", "edicion": "44546" }, "geometry": { "type": "Polygon", "coordinates": [ [ [ -70.517802596683566, -28.889585963874772 ], [ -70.512676361891678, -28.889643619000669 ], [ -70.512781022431525, -28.896861982142891 ], [ -70.517907611571005, -28.896804309926534 ], [ -70.517802596683566, -28.889585963874772 ] ] ] } },
{ "type": "Feature", "properties": { "cve": "2867173", "nombre": "EL BRAVO GOLD II 1 AL 5", "solicitante": "Iribarren V. Víctor Manuel", "region": "REGIÓN DE ATACAMA", "provincia": "Provincia de Huasco", "comuna": null, "superficie_ha": 25.0, "datum_original": "WGS84", "huso": 19, "epsg_origen": 32719, "tipo_publicacion": "mensura", "fuente_pdf": "http://www.diariooficial.interior.gob.cl/publicaciones/2026/09/09/44546/07/2867173.pdf", "archivo": "gm_mensura_2867173.pdf", "fecha": "09-09-2026", "edicion": "44546" }, "geometry": { "type": "Polygon", "coordinates": [ [ [ -70.515856977717377, -28.896827402208544 ], [ -70.510730382575446, -28.896884996439816 ], [ -70.510795726286261, -28.901396473560734 ], [ -70.515922542962457, -28.901338868661188 ], [ -70.515856977717377, -28.896827402208544 ] ] ] } },
{ "type": "Feature", "properties": { "cve": "2867050", "nombre": "SHAKIRA II 1 AL 20", "solicitante": "Paredes Páez Yovana Yengla", "region": "REGIÓN DE ATACAMA", "provincia": "Provincia de Huasco", "comuna": null, "superficie_ha": 60.0, "datum_original": "WGS84", "huso": 19, "epsg_origen": 32719, "tipo_publicacion": "mensura", "fuente_pdf": "http://www.diariooficial.interior.gob.cl/publicaciones/2026/09/09/44546/07/2867050.pdf", "archivo": "gm_mensura_2867050.pdf", "fecha": "09-09-2026", "edicion": "44546" }, "geometry": { "type": "Polygon", "coordinates": [ [ [ -70.533133488263246, -28.886163593948567 ], [ -70.522881412886605, -28.886279863199658 ], [ -70.522960423151275, -28.891693613365835 ], [ -70.533213029920773, -28.891577318264485 ], [ -70.533133488263246, -28.886163593948567 ] ] ] } },
{ "type": "Feature", "properties": { "cve": "2867030", "nombre": "CICLON 10", "solicitante": "Eco Earth Elements SpA", "region": "REGIÓN DE ANTOFAGASTA", "provincia": "Provincia de Antofagasta", "comuna": "Taltal", "superficie_ha": 300.0, "datum_original": "PSAD56", "huso": 19, "epsg_origen": 24879, "tipo_publicacion": "pedimento", "fuente_pdf": "http://www.diariooficial.interior.gob.cl/publicaciones/2026/09/09/44546/07/2867030.pdf", "archivo": "gm_pedimento_2867030.pdf", "fecha": "09-09-2026", "edicion": "44546" }, "geometry": { "type": "Polygon", "coordinates": [ [ [ -69.351074616301304, -25.834213317070677 ], [ -69.341096623881313, -25.834237082374202 ], [ -69.341174326198939, -25.861326475638766 ], [ -69.351154591508219, -25.861302681796964 ], [ -69.351074616301304, -25.834213317070677 ] ] ] } },
{ "type": "Feature", "properties": { "cve": "2867031", "nombre": "CICLON 11", "solicitante": "Eco Earth Elements SpA", "region": "REGIÓN DE ANTOFAGASTA", "provincia": "Provincia de Antofagasta", "comuna": "Taltal", "superficie_ha": 300.0, "datum_original": "PSAD56", "huso": 19, "epsg_origen": 24879, "tipo_publicacion": "pedimento", "fuente_pdf": "http://www.diariooficial.interior.gob.cl/publicaciones/2026/09/09/44546/07/2867031.pdf", "archivo": "gm_pedimento_2867031.pdf", "fecha": "09-09-2026", "edicion": "44546" }, "geometry": { "type": "Polygon", "coordinates": [ [ [ -69.330892978044304, -25.752991287602249 ], [ -69.300979291031979, -25.753056182708409 ], [ -69.301002052283522, -25.76208612902299 ], [ -69.330918001391808, -25.762021207885194 ], [ -69.330892978044304, -25.752991287602249 ] ] ] } },
{ "type": "Feature", "properties": { "cve": "2867032", "nombre": "CICLON 12", "solicitante": "Eco Earth Elements SpA", "region": "REGIÓN DE ANTOFAGASTA", "provincia": "Provincia de Antofagasta", "comuna": "Taltal", "superficie_ha": 300.0, "datum_original": "PSAD56", "huso": 19, "epsg_origen": 24879, "tipo_publicacion": "pedimento", "fuente_pdf": "http://www.diariooficial.interior.gob.cl/publicaciones/2026/09/09/44546/07/2867032.pdf", "archivo": "gm_pedimento_2867032.pdf", "fecha": "09-09-2026", "edicion": "44546" }, "geometry": { "type": "Polygon", "coordinates": [ [ [ -69.330918001391808, -25.762021207885194 ], [ -69.301002052283522, -25.76208612902299 ], [ -69.301024824415009, -25.771116064025133 ], [ -69.330943036700546, -25.771051116851869 ], [ -69.330918001391808, -25.762021207885194 ] ] ] } },
{ "type": "Feature", "properties": { "cve": "2867033", "nombre": "CICLON 13", "solicitante": "Eco Earth Elements SpA", "region": "REGIÓN DE ANTOFAGASTA", "provincia": "Provincia de Antofagasta", "comuna": "Taltal", "superficie_ha": 300.0, "datum_original": "PSAD56", "huso": 19, "epsg_origen": 24879, "tipo_publicacion": "pedimento", "fuente_pdf": "http://www.diariooficial.interior.gob.cl/publicaciones/2026/09/09/44546/07/2867033.pdf", "archivo": "gm_pedimento_2867033.pdf", "fecha": "09-09-2026", "edicion": "44546" }, "geometry": { "type": "Polygon", "coordinates": [ [ [ -69.330943036700546, -25.771051116851869 ], [ -69.301024824415009, -25.771116064025133 ], [ -69.30104760743005, -25.780145987712036 ], [ -69.330968083974454, -25.780081014499459 ], [ -69.330943036700546, -25.771051116851869 ] ] ] } },
{ "type": "Feature", "properties": { "cve": "2867034", "nombre": "CICLON 14", "solicitante": "Eco Earth Elements SpA", "region": "REGIÓN DE ANTOFAGASTA", "provincia": "Provincia de Antofagasta", "comuna": "Taltal", "superficie_ha": 300.0, "datum_original": "PSAD56", "huso": 19, "epsg_origen": 24879, "tipo_publicacion": "pedimento", "fuente_pdf": "http://www.diariooficial.interior.gob.cl/publicaciones/2026/09/09/44546/07/2867034.pdf", "archivo": "gm_pedimento_2867034.pdf", "fecha": "09-09-2026", "edicion": "44546" }, "geometry": { "type": "Polygon", "coordinates": [ [ [ -69.330968083974454, -25.780081014499459 ], [ -69.320994603280965, -25.780103355749919 ], [ -69.321067550521221, -25.807193007619265 ], [ -69.331043297626636, -25.807170639499809 ], [ -69.330968083974454, -25.780081014499459 ] ] ] } },
{ "type": "Feature", "properties": { "cve": "2867035", "nombre": "CICLON 15", "solicitante": "Eco Earth Elements SpA", "region": "REGIÓN DE ANTOFAGASTA", "provincia": "Provincia de Antofagasta", "comuna": "Taltal", "superficie_ha": 200.0, "datum_original": "PSAD56", "huso": 19, "epsg_origen": 24879, "tipo_publicacion": "pedimento", "fuente_pdf": "http://www.diariooficial.interior.gob.cl/publicaciones/2026/09/09/44546/07/2867035.pdf", "archivo": "gm_pedimento_2867035.pdf", "fecha": "09-09-2026", "edicion": "44546" }, "geometry": { "type": "Polygon", "coordinates": [ [ [ -69.331043297626636, -25.807170639499809 ], [ -69.321067550521221, -25.807193007619265 ], [ -69.321116240108012, -25.825252718892088 ], [ -69.331093499959607, -25.825230332853362 ], [ -69.331043297626636, -25.807170639499809 ] ] ] } },
{ "type": "Feature", "properties": { "cve": "2867036", "nombre": "CICLON 16", "solicitante": "Eco Earth Elements SpA", "region": "REGIÓN DE ANTOFAGASTA", "provincia": "Provincia de Antofagasta", "comuna": "Taltal", "superficie_ha": 300.0, "datum_original": "PSAD56", "huso": 19, "epsg_origen": 24879, "tipo_publicacion": "pedimento", "fuente_pdf": "http://www.diariooficial.interior.gob.cl/publicaciones/2026/09/09/44546/07/2867036.pdf", "archivo": "gm_pedimento_2867036.pdf", "fecha": "09-09-2026", "edicion": "44546" }, "geometry": { "type": "Polygon", "coordinates": [ [ [ -69.320994603280965, -25.780103355749919 ], [ -69.311021110979297, -25.780125013488455 ], [ -69.311091791796116, -25.80721469140477 ], [ -69.321067550521221, -25.807193007619265 ], [ -69.320994603280965, -25.780103355749919 ] ] ] } },
{ "type": "Feature", "properties": { "cve": "2867037", "nombre": "CICLON 17", "solicitante": "Eco Earth Elements SpA", "region": "REGIÓN DE ANTOFAGASTA", "provincia": "Provincia de Antofagasta", "comuna": "Taltal", "superficie_ha": 200.0, "datum_original": "PSAD56", "huso": 19, "epsg_origen": 24879, "tipo_publicacion": "pedimento", "fuente_pdf": "http://www.diariooficial.interior.gob.cl/publicaciones/2026/09/09/44546/07/2867037.pdf", "archivo": "gm_pedimento_2867037.pdf", "fecha": "09-09-2026", "edicion": "44546" }, "geometry": { "type": "Polygon", "coordinates": [ [ [ -69.321067550521221, -25.807193007619265 ], [ -69.311091791796116, -25.80721469140477 ], [ -69.311138968629066, -25.825274420048643 ], [ -69.321116240108012, -25.825252718892088 ], [ -69.321067550521221, -25.807193007619265 ] ] ] } },
{ "type": "Feature", "properties": { "cve": "2867038", "nombre": "CICLON 18", "solicitante": "Eco Earth Elements SpA", "region": "REGIÓN DE ANTOFAGASTA", "provincia": "Provincia de Antofagasta", "comuna": "Taltal", "superficie_ha": 300.0, "datum_original": "PSAD56", "huso": 19, "epsg_origen": 24879, "tipo_publicacion": "pedimento", "fuente_pdf": "http://www.diariooficial.interior.gob.cl/publicaciones/2026/09/09/44546/07/2867038.pdf", "archivo": "gm_pedimento_2867038.pdf", "fecha": "09-09-2026", "edicion": "44546" }, "geometry": { "type": "Polygon", "coordinates": [ [ [ -69.311021110979297, -25.780125013488455 ], [ -69.281100568031576, -25.780185885602691 ], [ -69.281121851688397, -25.789215813963786 ], [ -69.311044659998814, -25.78915491745024 ], [ -69.311021110979297, -25.780125013488455 ] ] ] } },
{ "type": "Feature", "properties": { "cve": "2867039", "nombre": "CICLON 19", "solicitante": "Eco Earth Elements SpA", "region": "REGIÓN DE ANTOFAGASTA", "provincia": "Provincia de Antofagasta", "comuna": "Taltal", "superficie_ha": 300.0, "datum_original": "PSAD56", "huso": 19, "epsg_origen": 24879, "tipo_publicacion": "pedimento", "fuente_pdf": "http://www.diariooficial.interior.gob.cl/publicaciones/2026/09/09/44546/07/2867039.pdf", "archivo": "gm_pedimento_2867039.pdf", "fecha": "09-09-2026", "edicion": "44546" }, "geometry": { "type": "Polygon", "coordinates": [ [ [ -69.311044659998814, -25.78915491745024 ], [ -69.281121851688397, -25.789215813963786 ], [ -69.281143145514349, -25.7982457310064 ], [ -69.31106822026986, -25.798184810089939 ], [ -69.311044659998814, -25.78915491745024 ] ] ] } },
{ "type": "Feature", "properties": { "cve": "2867040", "nombre": "CICLON 20", "solicitante": "Eco Earth Elements SpA", "region": "REGIÓN DE ANTOFAGASTA", "provincia": "Provincia de Antofagasta", "comuna": "Taltal", "superficie_ha": 300.0, "datum_original": "PSAD56", "huso": 19, "epsg_origen": 24879, "tipo_publicacion": "pedimento", "fuente_pdf": "http://www.diariooficial.interior.gob.cl/publicaciones/2026/09/09/44546/07/2867040.pdf", "archivo": "gm_pedimento_2867040.pdf", "fecha": "09-09-2026", "edicion": "44546" }, "geometry": { "type": "Polygon", "coordinates": [ [ [ -69.360970465614614, -25.807099429169522 ], [ -69.331043297626636, -25.807170639499809 ], [ -69.331068392800674, -25.816200491843119 ], [ -69.360997829342026, -25.816129252991384 ], [ -69.360970465614614, -25.807099429169522 ] ] ] } },
{ "type": "Feature", "properties": { "cve": "2867029", "nombre": "CICLON 9", "solicitante": "Eco Earth Elements SpA", "region": "REGIÓN DE ANTOFAGASTA", "provincia": "Provincia de Antofagasta", "comuna": "Taltal", "superficie_ha": 300.0, "datum_original": "PSAD56", "huso": 19, "epsg_origen": 24879, "tipo_publicacion": "pedimento", "fuente_pdf": "http://www.diariooficial.interior.gob.cl/publicaciones/2026/09/09/44546/07/2867029.pdf", "archivo": "gm_pedimento_2867029.pdf", "fecha": "09-09-2026", "edicion": "44546" }, "geometry": { "type": "Polygon", "coordinates": [ [ [ -69.360997829342026, -25.816129252991384 ], [ -69.331068392800674, -25.816200491843119 ], [ -69.331093499959607, -25.825230332853362 ], [ -69.361025206137697, -25.82515906547599 ], [ -69.360997829342026, -25.816129252991384 ] ] ] } },
{ "type": "Feature", "properties": { "cve": "2867027", "nombre": "TITAN X", "solicitante": "Invexmin Chile SpA", "region": "REGIÓN DE ANTOFAGASTA", "provincia": "Provincia de Antofagasta", "comuna": "Taltal", "superficie_ha": 100.0, "datum_original": "PSAD56", "huso": 19, "epsg_origen": 24879, "tipo_publicacion": "pedimento", "fuente_pdf": "http://www.diariooficial.interior.gob.cl/publicaciones/2026/09/09/44546/07/2867027.pdf", "archivo": "gm_pedimento_2867027.pdf", "fecha": "09-09-2026", "edicion": "44546" }, "geometry": { "type": "Polygon", "coordinates": [ [ [ -69.140469667310896, -24.917067910660627 ], [ -69.130566572784744, -24.91707690882043 ], [ -69.13057608154611, -24.926107990002961 ], [ -69.140479897278553, -24.92609898814516 ], [ -69.140469667310896, -24.917067910660627 ] ] ] } },
{ "type": "Feature", "properties": { "cve": "2866987", "nombre": "DULCINEA 1", "solicitante": "Inversiones GMS Petorca SpA", "region": "REGIÓN DE VALPARAÍSO", "provincia": "Provincia de Petorca", "comuna": null, "superficie_ha": 400.0, "datum_original": "PSAD56", "huso": 19, "epsg_origen": 24879, "tipo_publicacion": "pedimento", "fuente_pdf": "http://www.diariooficial.interior.gob.cl/publicaciones/2026/09/09/44546/07/2866987.pdf", "archivo": "gm_pedimento_2866987.pdf", "fecha": "09-09-2026", "edicion": "44546" }, "geometry": { "type": "Polygon", "coordinates": [ [ [ -70.847435569416277, -32.096486263573269 ], [ -70.836842982043535, -32.096640342473478 ], [ -70.837565560957842, -32.132708150503788 ], [ -70.848162309487606, -32.132553857208862 ], [ -70.847435569416277, -32.096486263573269 ] ] ] } },
{ "type": "Feature", "properties": { "cve": "2866988", "nombre": "DULCINEA 2", "solicitante": "Inversiones GMS Petorca SpA", "region": "REGIÓN DE VALPARAÍSO", "provincia": "Provincia de Petorca", "comuna": null, "superficie_ha": 400.0, "datum_original": "PSAD56", "huso": 19, "epsg_origen": 24879, "tipo_publicacion": "pedimento", "fuente_pdf": "http://www.diariooficial.interior.gob.cl/publicaciones/2026/09/09/44546/07/2866988.pdf", "archivo": "gm_pedimento_2866988.pdf", "fecha": "09-09-2026", "edicion": "44546" }, "geometry": { "type": "Polygon", "coordinates": [ [ [ -70.836842982043535, -32.096640342473478 ], [ -70.826250313924476, -32.09679353634349 ], [ -70.826968731551176, -32.132861557537765 ], [ -70.837565560957842, -32.132708150503788 ], [ -70.836842982043535, -32.096640342473478 ] ] ] } },
{ "type": "Feature", "properties": { "cve": "2866989", "nombre": "DULCINEA 3", "solicitante": "Inversiones GMS Petorca SpA", "region": "REGIÓN DE VALPARAÍSO", "provincia": "Provincia de Petorca", "comuna": null, "superficie_ha": 300.0, "datum_original": "PSAD56", "huso": 19, "epsg_origen": 24879, "tipo_publicacion": "pedimento", "fuente_pdf": "http://www.diariooficial.interior.gob.cl/publicaciones/2026/09/09/44546/07/2866989.pdf", "archivo": "gm_pedimento_2866989.pdf", "fecha": "09-09-2026", "edicion": "44546" }, "geometry": { "type": "Polygon", "coordinates": [ [ [ -70.848162309487606, -32.132553857208862 ], [ -70.837565560957842, -32.132708150503788 ], [ -70.838108344239231, -32.159758860946845 ], [ -70.848708218522034, -32.159604406747484 ], [ -70.848162309487606, -32.132553857208862 ] ] ] } },
{ "type": "Feature", "properties": { "cve": "2866990", "nombre": "DULCINEA 4", "solicitante": "Inversiones GMS Petorca SpA", "region": "REGIÓN DE VALPARAÍSO", "provincia": "Provincia de Petorca", "comuna": null, "superficie_ha": 300.0, "datum_original": "PSAD56", "huso": 19, "epsg_origen": 24879, "tipo_publicacion": "pedimento", "fuente_pdf": "http://www.diariooficial.interior.gob.cl/publicaciones/2026/09/09/44546/07/2866990.pdf", "archivo": "gm_pedimento_2866990.pdf", "fecha": "09-09-2026", "edicion": "44546" }, "geometry": { "type": "Polygon", "coordinates": [ [ [ -70.837565560957842, -32.132708150503788 ], [ -70.826968731551176, -32.132861557537765 ], [ -70.8275083889814, -32.159912427961537 ], [ -70.838108344239231, -32.159758860946845 ], [ -70.837565560957842, -32.132708150503788 ] ] ] } },
{ "type": "Feature", "properties": { "cve": "2866991", "nombre": "DULCINEA 5", "solicitante": "Inversiones GMS Petorca SpA", "region": "REGIÓN DE VALPARAÍSO", "provincia": "Provincia de Petorca", "comuna": null, "superficie_ha": 300.0, "datum_original": "PSAD56", "huso": 19, "epsg_origen": 24879, "tipo_publicacion": "pedimento", "fuente_pdf": "http://www.diariooficial.interior.gob.cl/publicaciones/2026/09/09/44546/07/2866991.pdf", "archivo": "gm_pedimento_2866991.pdf", "fecha": "09-09-2026", "edicion": "44546" }, "geometry": { "type": "Polygon", "coordinates": [ [ [ -70.826887845377755, -32.128803916217436 ], [ -70.816291404090521, -32.128956413116633 ], [ -70.816827827588668, -32.156007461292404 ], [ -70.827427394196093, -32.155854805349996 ], [ -70.826887845377755, -32.128803916217436 ] ] ] } },
{ "type": "Feature", "properties": { "cve": "2866993", "nombre": "DULCINEA 6", "solicitante": "Inversiones GMS Petorca SpA", "region": "REGIÓN DE VALPARAÍSO", "provincia": "Provincia de Petorca", "comuna": null, "superficie_ha": 200.0, "datum_original": "PSAD56", "huso": 19, "epsg_origen": 24879, "tipo_publicacion": "pedimento", "fuente_pdf": "http://www.diariooficial.interior.gob.cl/publicaciones/2026/09/09/44546/07/2866993.pdf", "archivo": "gm_pedimento_2866993.pdf", "fecha": "09-09-2026", "edicion": "44546" }, "geometry": { "type": "Polygon", "coordinates": [ [ [ -70.816543433481755, -32.141670421281631 ], [ -70.805945443838709, -32.141822106316916 ], [ -70.806301120622763, -32.159856218661936 ], [ -70.816901194724721, -32.159704428195191 ], [ -70.816543433481755, -32.141670421281631 ] ] ] } },
{ "type": "Feature", "properties": { "cve": "2866994", "nombre": "DULCINEA 7", "solicitante": "Inversiones GMS Petorca SpA", "region": "REGIÓN DE VALPARAÍSO", "provincia": "Provincia de Petorca", "comuna": null, "superficie_ha": 200.0, "datum_original": "PSAD56", "huso": 19, "epsg_origen": 24879, "tipo_publicacion": "pedimento", "fuente_pdf": "http://www.diariooficial.interior.gob.cl/publicaciones/2026/09/09/44546/07/2866994.pdf", "archivo": "gm_pedimento_2866994.pdf", "fecha": "09-09-2026", "edicion": "44546" }, "geometry": { "type": "Polygon", "coordinates": [ [ [ -70.805945443838709, -32.141822106316916 ], [ -70.795347374684013, -32.141972904726408 ], [ -70.79570096694485, -32.16000712188702 ], [ -70.806301120622763, -32.159856218661936 ], [ -70.805945443838709, -32.141822106316916 ] ] ] } },
{ "type": "Feature", "properties": { "cve": "2866995", "nombre": "DULCINEA 8", "solicitante": "Inversiones GMS Petorca SpA", "region": "REGIÓN DE VALPARAÍSO", "provincia": "Provincia de Petorca", "comuna": null, "superficie_ha": 100.0, "datum_original": "PSAD56", "huso": 19, "epsg_origen": 24879, "tipo_publicacion": "pedimento", "fuente_pdf": "http://www.diariooficial.interior.gob.cl/publicaciones/2026/09/09/44546/07/2866995.pdf", "archivo": "gm_pedimento_2866995.pdf", "fecha": "09-09-2026", "edicion": "44546" }, "geometry": { "type": "Polygon", "coordinates": [ [ [ -70.79883889127386, -32.129205643824257 ], [ -70.788242239421876, -32.129355794984889 ], [ -70.788418210782268, -32.138372963706864 ], [ -70.799015904027215, -32.138222760356918 ], [ -70.79883889127386, -32.129205643824257 ] ] ] } },
{ "type": "Feature", "properties": { "cve": "2866996", "nombre": "DULCINEA 9", "solicitante": "Inversiones GMS Petorca SpA", "region": "REGIÓN DE VALPARAÍSO", "provincia": "Provincia de Petorca", "comuna": null, "superficie_ha": 300.0, "datum_original": "PSAD56", "huso": 19, "epsg_origen": 24879, "tipo_publicacion": "pedimento", "fuente_pdf": "http://www.diariooficial.interior.gob.cl/publicaciones/2026/09/09/44546/07/2866996.pdf", "archivo": "gm_pedimento_2866996.pdf", "fecha": "09-09-2026", "edicion": "44546" }, "geometry": { "type": "Polygon", "coordinates": [ [ [ -70.88028245935287, -32.120806424622671 ], [ -70.848496619952755, -32.121274559327311 ], [ -70.848678461736881, -32.130291437547072 ], [ -70.880467423545269, -32.129823140112279 ], [ -70.88028245935287, -32.120806424622671 ] ] ] } },
{ "type": "Feature", "properties": { "cve": "2867069", "nombre": "IRIS 54", "solicitante": "Varela Echaurren Juan Francisco", "region": "REGIÓN DEL MAULE", "provincia": "Provincia de Talca", "comuna": null, "superficie_ha": 300.0, "datum_original": "PSAD56", "huso": 18, "epsg_origen": 24878, "tipo_publicacion": "pedimento", "fuente_pdf": "http://www.diariooficial.interior.gob.cl/publicaciones/2026/09/09/44546/07/2867069.pdf", "archivo": "gm_pedimento_2867069.pdf", "fecha": "09-09-2026", "edicion": "44546" }, "geometry": { "type": "Polygon", "coordinates": [ [ [ -72.219854755671321, -35.628988306891969 ], [ -72.186763240382078, -35.628219561894099 ], [ -72.186447454597015, -35.637225051581304 ], [ -72.219542672669064, -35.63799405026915 ], [ -72.219854755671321, -35.628988306891969 ] ] ] } },
{ "type": "Feature", "properties": { "cve": "2867070", "nombre": "IRIS 55", "solicitante": "Varela Echaurren Juan Francisco", "region": "REGIÓN DEL MAULE", "provincia": "Provincia de Talca", "comuna": null, "superficie_ha": 300.0, "datum_original": "PSAD56", "huso": 18, "epsg_origen": 24878, "tipo_publicacion": "pedimento", "fuente_pdf": "http://www.diariooficial.interior.gob.cl/publicaciones/2026/09/09/44546/07/2867070.pdf", "archivo": "gm_pedimento_2867070.pdf", "fecha": "09-09-2026", "edicion": "44546" }, "geometry": { "type": "Polygon", "coordinates": [ [ [ -72.219542672669064, -35.63799405026915 ], [ -72.186447454597015, -35.637225051581304 ], [ -72.186131528695327, -35.646230525250772 ], [ -72.219230451189176, -35.646999777684449 ], [ -72.219542672669064, -35.63799405026915 ] ] ] } },
{ "type": "Feature", "properties": { "cve": "2867071", "nombre": "IRIS 56", "solicitante": "Varela Echaurren Juan Francisco", "region": "REGIÓN DEL MAULE", "provincia": "Provincia de Talca", "comuna": null, "superficie_ha": 300.0, "datum_original": "PSAD56", "huso": 18, "epsg_origen": 24878, "tipo_publicacion": "pedimento", "fuente_pdf": "http://www.diariooficial.interior.gob.cl/publicaciones/2026/09/09/44546/07/2867071.pdf", "archivo": "gm_pedimento_2867071.pdf", "fecha": "09-09-2026", "edicion": "44546" }, "geometry": { "type": "Polygon", "coordinates": [ [ [ -72.219230451189176, -35.646999777684449 ], [ -72.186131528695327, -35.646230525250772 ], [ -72.185815462614471, -35.655235982899683 ], [ -72.218918091169868, -35.656005489135119 ], [ -72.219230451189176, -35.646999777684449 ] ] ] } },
{ "type": "Feature", "properties": { "cve": "2867072", "nombre": "IRIS 57", "solicitante": "Varela Echaurren Juan Francisco", "region": "REGIÓN DEL MAULE", "provincia": "Provincia de Talca", "comuna": null, "superficie_ha": 300.0, "datum_original": "PSAD56", "huso": 18, "epsg_origen": 24878, "tipo_publicacion": "pedimento", "fuente_pdf": "http://www.diariooficial.interior.gob.cl/publicaciones/2026/09/09/44546/07/2867072.pdf", "archivo": "gm_pedimento_2867072.pdf", "fecha": "09-09-2026", "edicion": "44546" }, "geometry": { "type": "Polygon", "coordinates": [ [ [ -72.218918091169868, -35.656005489135119 ], [ -72.185815462614471, -35.655235982899683 ], [ -72.185499256291877, -35.664241424525315 ], [ -72.218605592549267, -35.665011184618479 ], [ -72.218918091169868, -35.656005489135119 ] ] ] } },
{ "type": "Feature", "properties": { "cve": "2867073", "nombre": "IRIS 58", "solicitante": "Varela Echaurren Juan Francisco", "region": "REGIÓN DEL MAULE", "provincia": "Provincia de Talca", "comuna": null, "superficie_ha": 300.0, "datum_original": "PSAD56", "huso": 18, "epsg_origen": 24878, "tipo_publicacion": "pedimento", "fuente_pdf": "http://www.diariooficial.interior.gob.cl/publicaciones/2026/09/09/44546/07/2867073.pdf", "archivo": "gm_pedimento_2867073.pdf", "fecha": "09-09-2026", "edicion": "44546" }, "geometry": { "type": "Polygon", "coordinates": [ [ [ -72.186763240382078, -35.628219561894099 ], [ -72.153672985581991, -35.627441742821354 ], [ -72.153353497576546, -35.63644697582901 ], [ -72.186447454597015, -35.637225051581304 ], [ -72.186763240382078, -35.628219561894099 ] ] ] } },
{ "type": "Feature", "properties": { "cve": "2867074", "nombre": "IRIS 59", "solicitante": "Varela Echaurren Juan Francisco", "region": "REGIÓN DEL MAULE", "provincia": "Provincia de Talca", "comuna": null, "superficie_ha": 300.0, "datum_original": "PSAD56", "huso": 18, "epsg_origen": 24878, "tipo_publicacion": "pedimento", "fuente_pdf": "http://www.diariooficial.interior.gob.cl/publicaciones/2026/09/09/44546/07/2867074.pdf", "archivo": "gm_pedimento_2867074.pdf", "fecha": "09-09-2026", "edicion": "44546" }, "geometry": { "type": "Polygon", "coordinates": [ [ [ -72.186447454597015, -35.637225051581304 ], [ -72.153353497576546, -35.63644697582901 ], [ -72.153033867815864, -35.645452192762384 ], [ -72.186131528695327, -35.646230525250772 ], [ -72.186447454597015, -35.637225051581304 ] ] ] } },
{ "type": "Feature", "properties": { "cve": "2867075", "nombre": "IRIS 60", "solicitante": "Varela Echaurren Juan Francisco", "region": "REGIÓN DEL MAULE", "provincia": "Provincia de Talca", "comuna": null, "superficie_ha": 300.0, "datum_original": "PSAD56", "huso": 18, "epsg_origen": 24878, "tipo_publicacion": "pedimento", "fuente_pdf": "http://www.diariooficial.interior.gob.cl/publicaciones/2026/09/09/44546/07/2867075.pdf", "archivo": "gm_pedimento_2867075.pdf", "fecha": "09-09-2026", "edicion": "44546" }, "geometry": { "type": "Polygon", "coordinates": [ [ [ -72.186131528695327, -35.646230525250772 ], [ -72.153033867815864, -35.645452192762384 ], [ -72.152714096236664, -35.654457393618621 ], [ -72.185815462614471, -35.655235982899683 ], [ -72.186131528695327, -35.646230525250772 ] ] ] } },
{ "type": "Feature", "properties": { "cve": "2867076", "nombre": "IRIS 61", "solicitante": "Varela Echaurren Juan Francisco", "region": "REGIÓN DEL MAULE", "provincia": "Provincia de Talca", "comuna": null, "superficie_ha": 300.0, "datum_original": "PSAD56", "huso": 18, "epsg_origen": 24878, "tipo_publicacion": "pedimento", "fuente_pdf": "http://www.diariooficial.interior.gob.cl/publicaciones/2026/09/09/44546/07/2867076.pdf", "archivo": "gm_pedimento_2867076.pdf", "fecha": "09-09-2026", "edicion": "44546" }, "geometry": { "type": "Polygon", "coordinates": [ [ [ -72.185815462614471, -35.655235982899683 ], [ -72.152714096236664, -35.654457393618621 ], [ -72.152394182775637, -35.663462578395006 ], [ -72.185499256291877, -35.664241424525315 ], [ -72.185815462614471, -35.655235982899683 ] ] ] } },
{ "type": "Feature", "properties": { "cve": "2867077", "nombre": "IRIS 62", "solicitante": "Varela Echaurren Juan Francisco", "region": "REGIÓN DEL MAULE", "provincia": "Provincia de Talca", "comuna": null, "superficie_ha": 200.0, "datum_original": "PSAD56", "huso": 18, "epsg_origen": 24878, "tipo_publicacion": "pedimento", "fuente_pdf": "http://www.diariooficial.interior.gob.cl/publicaciones/2026/09/09/44546/07/2867077.pdf", "archivo": "gm_pedimento_2867077.pdf", "fecha": "09-09-2026", "edicion": "44546" }, "geometry": { "type": "Polygon", "coordinates": [ [ [ -72.174464090752579, -35.663982818653167 ], [ -72.152394182775637, -35.663462578395006 ], [ -72.152074127369488, -35.672467747088689 ], [ -72.174146507802874, -35.672988158949906 ], [ -72.174464090752579, -35.663982818653167 ] ] ] } },
{ "type": "Feature", "properties": { "cve": "2867078", "nombre": "IRIS 63", "solicitante": "Varela Echaurren Juan Francisco", "region": "REGIÓN DEL MAULE", "provincia": "Provincia de Talca", "comuna": null, "superficie_ha": 300.0, "datum_original": "PSAD56", "huso": 18, "epsg_origen": 24878, "tipo_publicacion": "pedimento", "fuente_pdf": "http://www.diariooficial.interior.gob.cl/publicaciones/2026/09/09/44546/07/2867078.pdf", "archivo": "gm_pedimento_2867078.pdf", "fecha": "09-09-2026", "edicion": "44546" }, "geometry": { "type": "Polygon", "coordinates": [ [ [ -72.152714096236664, -35.654457393618621 ], [ -72.141680590479268, -35.654195845596888 ], [ -72.140716715797311, -35.68121109277471 ], [ -72.151753929954751, -35.681472899696921 ], [ -72.152714096236664, -35.654457393618621 ] ] ] } },
{ "type": "Feature", "properties": { "cve": "2867079", "nombre": "IRIS 64", "solicitante": "Varela Echaurren Juan Francisco", "region": "REGIÓN DEL MAULE", "provincia": "Provincia de Talca", "comuna": null, "superficie_ha": 300.0, "datum_original": "PSAD56", "huso": 18, "epsg_origen": 24878, "tipo_publicacion": "pedimento", "fuente_pdf": "http://www.diariooficial.interior.gob.cl/publicaciones/2026/09/09/44546/07/2867079.pdf", "archivo": "gm_pedimento_2867079.pdf", "fecha": "09-09-2026", "edicion": "44546" }, "geometry": { "type": "Polygon", "coordinates": [ [ [ -72.141680590479268, -35.654195845596888 ], [ -72.130647227150533, -35.65393328851394 ], [ -72.12967964425944, -35.680948275794165 ], [ -72.140716715797311, -35.68121109277471 ], [ -72.141680590479268, -35.654195845596888 ] ] ] } },
{ "type": "Feature", "properties": { "cve": "2867080", "nombre": "IRIS 65", "solicitante": "Varela Echaurren Juan Francisco", "region": "REGIÓN DEL MAULE", "provincia": "Provincia de Talca", "comuna": null, "superficie_ha": 300.0, "datum_original": "PSAD56", "huso": 18, "epsg_origen": 24878, "tipo_publicacion": "pedimento", "fuente_pdf": "http://www.diariooficial.interior.gob.cl/publicaciones/2026/09/09/44546/07/2867080.pdf", "archivo": "gm_pedimento_2867080.pdf", "fecha": "09-09-2026", "edicion": "44546" }, "geometry": { "type": "Polygon", "coordinates": [ [ [ -72.130647227150533, -35.65393328851394 ], [ -72.119614006796994, -35.653669722411777 ], [ -72.118642715888384, -35.680684448797287 ], [ -72.12967964425944, -35.680948275794165 ], [ -72.130647227150533, -35.65393328851394 ] ] ] } },
{ "type": "Feature", "properties": { "cve": "2867081", "nombre": "IRIS 66", "solicitante": "Varela Echaurren Juan Francisco", "region": "REGIÓN DEL MAULE", "provincia": "Provincia de Talca", "comuna": null, "superficie_ha": 300.0, "datum_original": "PSAD56", "huso": 18, "epsg_origen": 24878, "tipo_publicacion": "pedimento", "fuente_pdf": "http://www.diariooficial.interior.gob.cl/publicaciones/2026/09/09/44546/07/2867081.pdf", "archivo": "gm_pedimento_2867081.pdf", "fecha": "09-09-2026", "edicion": "44546" }, "geometry": { "type": "Polygon", "coordinates": [ [ [ -72.119614006796994, -35.653669722411777 ], [ -72.108580929965171, -35.653405147332499 ], [ -72.107605931231419, -35.68041961182626 ], [ -72.118642715888384, -35.680684448797287 ], [ -72.119614006796994, -35.653669722411777 ] ] ] } },
{ "type": "Feature", "properties": { "cve": "2867082", "nombre": "IRIS 67", "solicitante": "Varela Echaurren Juan Francisco", "region": "REGIÓN DEL MAULE", "provincia": "Provincia de Talca", "comuna": null, "superficie_ha": 300.0, "datum_original": "PSAD56", "huso": 18, "epsg_origen": 24878, "tipo_publicacion": "pedimento", "fuente_pdf": "http://www.diariooficial.interior.gob.cl/publicaciones/2026/09/09/44546/07/2867082.pdf", "archivo": "gm_pedimento_2867082.pdf", "fecha": "09-09-2026", "edicion": "44546" }, "geometry": { "type": "Polygon", "coordinates": [ [ [ -72.108580929965171, -35.653405147332499 ], [ -72.075482566064423, -35.65260536865555 ], [ -72.075154004842346, -35.661609942486173 ], [ -72.108256074540975, -35.662409984990568 ], [ -72.108580929965171, -35.653405147332499 ] ] ] } },
{ "type": "Feature", "properties": { "cve": "2867083", "nombre": "IRIS 68", "solicitante": "Varela Echaurren Juan Francisco", "region": "REGIÓN DEL MAULE", "provincia": "Provincia de Talca", "comuna": null, "superficie_ha": 300.0, "datum_original": "PSAD56", "huso": 18, "epsg_origen": 24878, "tipo_publicacion": "pedimento", "fuente_pdf": "http://www.diariooficial.interior.gob.cl/publicaciones/2026/09/09/44546/07/2867083.pdf", "archivo": "gm_pedimento_2867083.pdf", "fecha": "09-09-2026", "edicion": "44546" }, "geometry": { "type": "Polygon", "coordinates": [ [ [ -72.108256074540975, -35.662409984990568 ], [ -72.075154004842346, -35.661609942486173 ], [ -72.07482529784815, -35.670614500099411 ], [ -72.107931074984506, -35.671414806489445 ], [ -72.108256074540975, -35.662409984990568 ] ] ] } },
{ "type": "Feature", "properties": { "cve": "2867084", "nombre": "IRIS 70", "solicitante": "Varela Echaurren Juan Francisco", "region": "REGIÓN DEL MAULE", "provincia": "Provincia de Talca", "comuna": null, "superficie_ha": 300.0, "datum_original": "PSAD56", "huso": 18, "epsg_origen": 24878, "tipo_publicacion": "pedimento", "fuente_pdf": "http://www.diariooficial.interior.gob.cl/publicaciones/2026/09/09/44546/07/2867084.pdf", "archivo": "gm_pedimento_2867084.pdf", "fecha": "09-09-2026", "edicion": "44546" }, "geometry": { "type": "Polygon", "coordinates": [ [ [ -72.240056711829581, -35.683530987985257 ], [ -72.229018376423227, -35.683277263023108 ], [ -72.228082930070485, -35.710294409866144 ], [ -72.239124980307039, -35.710548385915438 ], [ -72.240056711829581, -35.683530987985257 ] ] ] } },
{ "type": "Feature", "properties": { "cve": "2867085", "nombre": "IRIS 71", "solicitante": "Varela Echaurren Juan Francisco", "region": "REGIÓN DEL MAULE", "provincia": "Provincia de Talca", "comuna": null, "superficie_ha": 300.0, "datum_original": "PSAD56", "huso": 18, "epsg_origen": 24878, "tipo_publicacion": "pedimento", "fuente_pdf": "http://www.diariooficial.interior.gob.cl/publicaciones/2026/09/09/44546/07/2867085.pdf", "archivo": "gm_pedimento_2867085.pdf", "fecha": "09-09-2026", "edicion": "44546" }, "geometry": { "type": "Polygon", "coordinates": [ [ [ -72.261209493861912, -35.711053303690683 ], [ -72.228082930070485, -35.710294409866144 ], [ -72.227770837852191, -35.719300093553905 ], [ -72.260901119948016, -35.720059237577686 ], [ -72.261209493861912, -35.711053303690683 ] ] ] } },
{ "type": "Feature", "properties": { "cve": "2867086", "nombre": "IRIS 72", "solicitante": "Varela Echaurren Juan Francisco", "region": "REGIÓN DEL MAULE", "provincia": "Provincia de Talca", "comuna": null, "superficie_ha": 300.0, "datum_original": "PSAD56", "huso": 18, "epsg_origen": 24878, "tipo_publicacion": "pedimento", "fuente_pdf": "http://www.diariooficial.interior.gob.cl/publicaciones/2026/09/09/44546/07/2867086.pdf", "archivo": "gm_pedimento_2867086.pdf", "fecha": "09-09-2026", "edicion": "44546" }, "geometry": { "type": "Polygon", "coordinates": [ [ [ -72.260901119948016, -35.720059237577686 ], [ -72.227770837852191, -35.719300093553905 ], [ -72.227458607147071, -35.728305761273845 ], [ -72.260592609193367, -35.729065155552156 ], [ -72.260901119948016, -35.720059237577686 ] ] ] } },
{ "type": "Feature", "properties": { "cve": "2867087", "nombre": "IRIS 76", "solicitante": "Varela Echaurren Juan Francisco", "region": "REGIÓN DEL MAULE", "provincia": "Provincia de Talca", "comuna": null, "superficie_ha": 300.0, "datum_original": "PSAD56", "huso": 18, "epsg_origen": 24878, "tipo_publicacion": "pedimento", "fuente_pdf": "http://www.diariooficial.interior.gob.cl/publicaciones/2026/09/09/44546/07/2867087.pdf", "archivo": "gm_pedimento_2867087.pdf", "fecha": "09-09-2026", "edicion": "44546" }, "geometry": { "type": "Polygon", "coordinates": [ [ [ -72.228082930070485, -35.710294409866144 ], [ -72.19495761210527, -35.709526413559679 ], [ -72.19464180213977, -35.718531844051981 ], [ -72.227770837852191, -35.719300093553905 ], [ -72.228082930070485, -35.710294409866144 ] ] ] } },
{ "type": "Feature", "properties": { "cve": "2867088", "nombre": "IRIS 77", "solicitante": "Varela Echaurren Juan Francisco", "region": "REGIÓN DEL MAULE", "provincia": "Provincia de Talca", "comuna": null, "superficie_ha": 300.0, "datum_original": "PSAD56", "huso": 18, "epsg_origen": 24878, "tipo_publicacion": "pedimento", "fuente_pdf": "http://www.diariooficial.interior.gob.cl/publicaciones/2026/09/09/44546/07/2867088.pdf", "archivo": "gm_pedimento_2867088.pdf", "fecha": "09-09-2026", "edicion": "44546" }, "geometry": { "type": "Polygon", "coordinates": [ [ [ -72.195904201832832, -35.682510025967595 ], [ -72.162791286184429, -35.681733696518918 ], [ -72.162472183988882, -35.69073891904457 ], [ -72.195588811889237, -35.69151550451474 ], [ -72.195904201832832, -35.682510025967595 ] ] ] } },
{ "type": "Feature", "properties": { "cve": "2867089", "nombre": "IRIS 78", "solicitante": "Varela Echaurren Juan Francisco", "region": "REGIÓN DEL MAULE", "provincia": "Provincia de Talca", "comuna": null, "superficie_ha": 300.0, "datum_original": "PSAD56", "huso": 18, "epsg_origen": 24878, "tipo_publicacion": "pedimento", "fuente_pdf": "http://www.diariooficial.interior.gob.cl/publicaciones/2026/09/09/44546/07/2867089.pdf", "archivo": "gm_pedimento_2867089.pdf", "fecha": "09-09-2026", "edicion": "44546" }, "geometry": { "type": "Polygon", "coordinates": [ [ [ -72.195588811889237, -35.69151550451474 ], [ -72.162472183988882, -35.69073891904457 ], [ -72.162152940205473, -35.699744125498185 ], [ -72.195273282000898, -35.700520967046373 ], [ -72.195588811889237, -35.69151550451474 ] ] ] } },
{ "type": "Feature", "properties": { "cve": "2867090", "nombre": "IRIS 79", "solicitante": "Varela Echaurren Juan Francisco", "region": "REGIÓN DEL MAULE", "provincia": "Provincia de Talca", "comuna": null, "superficie_ha": 300.0, "datum_original": "PSAD56", "huso": 18, "epsg_origen": 24878, "tipo_publicacion": "pedimento", "fuente_pdf": "http://www.diariooficial.interior.gob.cl/publicaciones/2026/09/09/44546/07/2867090.pdf", "archivo": "gm_pedimento_2867090.pdf", "fecha": "09-09-2026", "edicion": "44546" }, "geometry": { "type": "Polygon", "coordinates": [ [ [ -72.195273282000898, -35.700520967046373 ], [ -72.162152940205473, -35.699744125498185 ], [ -72.161833554770936, -35.70874931587695 ], [ -72.19495761210527, -35.709526413559679 ], [ -72.195273282000898, -35.700520967046373 ] ] ] } },
{ "type": "Feature", "properties": { "cve": "2867091", "nombre": "IRIS 80", "solicitante": "Varela Echaurren Juan Francisco", "region": "REGIÓN DEL MAULE", "provincia": "Provincia de Talca", "comuna": null, "superficie_ha": 300.0, "datum_original": "PSAD56", "huso": 18, "epsg_origen": 24878, "tipo_publicacion": "pedimento", "fuente_pdf": "http://www.diariooficial.interior.gob.cl/publicaciones/2026/09/09/44546/07/2867091.pdf", "archivo": "gm_pedimento_2867091.pdf", "fecha": "09-09-2026", "edicion": "44546" }, "geometry": { "type": "Polygon", "coordinates": [ [ [ -72.19495761210527, -35.709526413559679 ], [ -72.161833554770936, -35.70874931587695 ], [ -72.161514027621934, -35.71775449017813 ], [ -72.19464180213977, -35.718531844051981 ], [ -72.19495761210527, -35.709526413559679 ] ] ] } },
{ "type": "Feature", "properties": { "cve": "2867093", "nombre": "IRIS 81", "solicitante": "Varela Echaurren Juan Francisco", "region": "REGIÓN DEL MAULE", "provincia": "Provincia de Talca", "comuna": null, "superficie_ha": 300.0, "datum_original": "PSAD56", "huso": 18, "epsg_origen": 24878, "tipo_publicacion": "pedimento", "fuente_pdf": "http://www.diariooficial.interior.gob.cl/publicaciones/2026/09/09/44546/07/2867093.pdf", "archivo": "gm_pedimento_2867093.pdf", "fecha": "09-09-2026", "edicion": "44546" }, "geometry": { "type": "Polygon", "coordinates": [ [ [ -72.163110246855354, -35.672728457923995 ], [ -72.152074127369488, -35.672467747088689 ], [ -72.151113108845863, -35.699483156645854 ], [ -72.162152940205473, -35.699744125498185 ], [ -72.163110246855354, -35.672728457923995 ] ] ] } },
{ "type": "Feature", "properties": { "cve": "2867095", "nombre": "IRIS 83", "solicitante": "Varela Echaurren Juan Francisco", "region": "REGIÓN DEL MAULE", "provincia": "Provincia de Talca", "comuna": null, "superficie_ha": 300.0, "datum_original": "PSAD56", "huso": 18, "epsg_origen": 24878, "tipo_publicacion": "pedimento", "fuente_pdf": "http://www.diariooficial.interior.gob.cl/publicaciones/2026/09/09/44546/07/2867095.pdf", "archivo": "gm_pedimento_2867095.pdf", "fecha": "09-09-2026", "edicion": "44546" }, "geometry": { "type": "Polygon", "coordinates": [ [ [ -72.151753929954751, -35.681472899696921 ], [ -72.140716715797311, -35.68121109277471 ], [ -72.139751557541217, -35.708226194986906 ], [ -72.150792485024667, -35.708488260980971 ], [ -72.151753929954751, -35.681472899696921 ] ] ] } },
{ "type": "Feature", "properties": { "cve": "2867096", "nombre": "IRIS 85", "solicitante": "Varela Echaurren Juan Francisco", "region": "REGIÓN DEL MAULE", "provincia": "Provincia de Talca", "comuna": null, "superficie_ha": 300.0, "datum_original": "PSAD56", "huso": 18, "epsg_origen": 24878, "tipo_publicacion": "pedimento", "fuente_pdf": "http://www.diariooficial.interior.gob.cl/publicaciones/2026/09/09/44546/07/2867096.pdf", "archivo": "gm_pedimento_2867096.pdf", "fecha": "09-09-2026", "edicion": "44546" }, "geometry": { "type": "Polygon", "coordinates": [ [ [ -72.12967964425944, -35.680948275794165 ], [ -72.096569290835717, -35.680153764923425 ], [ -72.096242765850278, -35.689158466427138 ], [ -72.12935683038107, -35.689953239305154 ], [ -72.12967964425944, -35.680948275794165 ] ] ] } },
{ "type": "Feature", "properties": { "cve": "2867097", "nombre": "IRIS 87", "solicitante": "Varela Echaurren Juan Francisco", "region": "REGIÓN DEL MAULE", "provincia": "Provincia de Talca", "comuna": null, "superficie_ha": 300.0, "datum_original": "PSAD56", "huso": 18, "epsg_origen": 24878, "tipo_publicacion": "pedimento", "fuente_pdf": "http://www.diariooficial.interior.gob.cl/publicaciones/2026/09/09/44546/07/2867097.pdf", "archivo": "gm_pedimento_2867097.pdf", "fecha": "09-09-2026", "edicion": "44546" }, "geometry": { "type": "Polygon", "coordinates": [ [ [ -72.129033873272149, -35.698958186686944 ], [ -72.09591609599191, -35.698163151743827 ], [ -72.095589281195942, -35.707167820870616 ], [ -72.128710772868629, -35.707963117936679 ], [ -72.129033873272149, -35.698958186686944 ] ] ] } },
{ "type": "Feature", "properties": { "cve": "2867098", "nombre": "IRIS 88", "solicitante": "Varela Echaurren Juan Francisco", "region": "REGIÓN DEL MAULE", "provincia": "Provincia de Talca", "comuna": null, "superficie_ha": 300.0, "datum_original": "PSAD56", "huso": 18, "epsg_origen": 24878, "tipo_publicacion": "pedimento", "fuente_pdf": "http://www.diariooficial.interior.gob.cl/publicaciones/2026/09/09/44546/07/2867098.pdf", "archivo": "gm_pedimento_2867098.pdf", "fecha": "09-09-2026", "edicion": "44546" }, "geometry": { "type": "Polygon", "coordinates": [ [ [ -72.128710772868629, -35.707963117936679 ], [ -72.095589281195942, -35.707167820870616 ], [ -72.095262321397527, -35.716172473804683 ], [ -72.128387529106476, -35.7169680330516 ], [ -72.128710772868629, -35.707963117936679 ] ] ] } },
{ "type": "Feature", "properties": { "cve": "2867099", "nombre": "IRIS 90", "solicitante": "Varela Echaurren Juan Francisco", "region": "REGIÓN DEL MAULE", "provincia": "Provincia de Talca", "comuna": null, "superficie_ha": 300.0, "datum_original": "PSAD56", "huso": 18, "epsg_origen": 24878, "tipo_publicacion": "pedimento", "fuente_pdf": "http://www.diariooficial.interior.gob.cl/publicaciones/2026/09/09/44546/07/2867099.pdf", "archivo": "gm_pedimento_2867099.pdf", "fecha": "09-09-2026", "edicion": "44546" }, "geometry": { "type": "Polygon", "coordinates": [ [ [ -72.096242765850278, -35.689158466427138 ], [ -72.063130005177271, -35.688354601554124 ], [ -72.062799623152188, -35.697359021812993 ], [ -72.09591609599191, -35.698163151743827 ], [ -72.096242765850278, -35.689158466427138 ] ] ] } },
{ "type": "Feature", "properties": { "cve": "2867100", "nombre": "IRIS 91", "solicitante": "Varela Echaurren Juan Francisco", "region": "REGIÓN DEL MAULE", "provincia": "Provincia de Talca", "comuna": null, "superficie_ha": 300.0, "datum_original": "PSAD56", "huso": 18, "epsg_origen": 24878, "tipo_publicacion": "pedimento", "fuente_pdf": "http://www.diariooficial.interior.gob.cl/publicaciones/2026/09/09/44546/07/2867100.pdf", "archivo": "gm_pedimento_2867100.pdf", "fecha": "09-09-2026", "edicion": "44546" }, "geometry": { "type": "Polygon", "coordinates": [ [ [ -72.09591609599191, -35.698163151743827 ], [ -72.062799623152188, -35.697359021812993 ], [ -72.062469094546827, -35.706363425823461 ], [ -72.095589281195942, -35.707167820870616 ], [ -72.09591609599191, -35.698163151743827 ] ] ] } },
{ "type": "Feature", "properties": { "cve": "2867105", "nombre": "IRIS 102", "solicitante": "Varela Echaurren Juan Francisco", "region": "REGIÓN DEL MAULE", "provincia": "Provincia de Cauquenes", "comuna": null, "superficie_ha": 300.0, "datum_original": "PSAD56", "huso": 18, "epsg_origen": 24878, "tipo_publicacion": "pedimento", "fuente_pdf": "http://www.diariooficial.interior.gob.cl/publicaciones/2026/09/09/44546/07/2867105.pdf", "archivo": "gm_pedimento_2867105.pdf", "fecha": "09-09-2026", "edicion": "44546" }, "geometry": { "type": "Polygon", "coordinates": [ [ [ -72.29342291785126, -35.738821589632835 ], [ -72.260283961536757, -35.738071057611435 ], [ -72.25997517691691, -35.74707694375283 ], [ -72.293117857028008, -35.74782772314073 ], [ -72.29342291785126, -35.738821589632835 ] ] ] } },
{ "type": "Feature", "properties": { "cve": "2867106", "nombre": "IRIS 103", "solicitante": "Varela Echaurren Juan Francisco", "region": "REGIÓN DEL MAULE", "provincia": "Provincia de Cauquenes", "comuna": null, "superficie_ha": 200.0, "datum_original": "PSAD56", "huso": 18, "epsg_origen": 24878, "tipo_publicacion": "pedimento", "fuente_pdf": "http://www.diariooficial.interior.gob.cl/publicaciones/2026/09/09/44546/07/2867106.pdf", "archivo": "gm_pedimento_2867106.pdf", "fecha": "09-09-2026", "edicion": "44546" }, "geometry": { "type": "Polygon", "coordinates": [ [ [ -72.260592609193367, -35.729065155552156 ], [ -72.249547804210437, -35.728813036246621 ], [ -72.248927890196725, -35.74682465822184 ], [ -72.25997517691691, -35.74707694375283 ], [ -72.260592609193367, -35.729065155552156 ] ] ] } },
{ "type": "Feature", "properties": { "cve": "2867107", "nombre": "IRIS 104", "solicitante": "Varela Echaurren Juan Francisco", "region": "REGIÓN DEL MAULE", "provincia": "Provincia de Cauquenes", "comuna": null, "superficie_ha": 200.0, "datum_original": "PSAD56", "huso": 18, "epsg_origen": 24878, "tipo_publicacion": "pedimento", "fuente_pdf": "http://www.diariooficial.interior.gob.cl/publicaciones/2026/09/09/44546/07/2867107.pdf", "archivo": "gm_pedimento_2867107.pdf", "fecha": "09-09-2026", "edicion": "44546" }, "geometry": { "type": "Polygon", "coordinates": [ [ [ -72.249547804210437, -35.728813036246621 ], [ -72.238503136678702, -35.728559904807007 ], [ -72.237880741050773, -35.746571359890538 ], [ -72.248927890196725, -35.74682465822184 ], [ -72.249547804210437, -35.728813036246621 ] ] ] } },
{ "type": "Feature", "properties": { "cve": "2867108", "nombre": "IRIS 105", "solicitante": "Varela Echaurren Juan Francisco", "region": "REGIÓN DEL MAULE", "provincia": "Provincia de Cauquenes", "comuna": null, "superficie_ha": 200.0, "datum_original": "PSAD56", "huso": 18, "epsg_origen": 24878, "tipo_publicacion": "pedimento", "fuente_pdf": "http://www.diariooficial.interior.gob.cl/publicaciones/2026/09/09/44546/07/2867108.pdf", "archivo": "gm_pedimento_2867108.pdf", "fecha": "09-09-2026", "edicion": "44546" }, "geometry": { "type": "Polygon", "coordinates": [ [ [ -72.238503136678702, -35.728559904807007 ], [ -72.227458607147071, -35.728305761273845 ], [ -72.226833730028488, -35.746317048799426 ], [ -72.237880741050773, -35.746571359890538 ], [ -72.238503136678702, -35.728559904807007 ] ] ] } },
{ "type": "Feature", "properties": { "cve": "2867109", "nombre": "IRIS 106", "solicitante": "Varela Echaurren Juan Francisco", "region": "REGIÓN DEL MAULE", "provincia": "Provincia de Cauquenes", "comuna": null, "superficie_ha": 300.0, "datum_original": "PSAD56", "huso": 18, "epsg_origen": 24878, "tipo_publicacion": "pedimento", "fuente_pdf": "http://www.diariooficial.interior.gob.cl/publicaciones/2026/09/09/44546/07/2867109.pdf", "archivo": "gm_pedimento_2867109.pdf", "fecha": "09-09-2026", "edicion": "44546" }, "geometry": { "type": "Polygon", "coordinates": [ [ [ -72.293117857028008, -35.74782772314073 ], [ -72.2820701608821, -35.747578476252414 ], [ -72.2811504386368, -35.774596535094638 ], [ -72.292201862060551, -35.774846028458853 ], [ -72.293117857028008, -35.74782772314073 ] ] ] } },
{ "type": "Feature", "properties": { "cve": "2867110", "nombre": "IRIS 112", "solicitante": "Varela Echaurren Juan Francisco", "region": "REGIÓN DEL MAULE", "provincia": "Provincia de Cauquenes", "comuna": null, "superficie_ha": 300.0, "datum_original": "PSAD56", "huso": 18, "epsg_origen": 24878, "tipo_publicacion": "pedimento", "fuente_pdf": "http://www.diariooficial.interior.gob.cl/publicaciones/2026/09/09/44546/07/2867110.pdf", "archivo": "gm_pedimento_2867110.pdf", "fecha": "09-09-2026", "edicion": "44546" }, "geometry": { "type": "Polygon", "coordinates": [ [ [ -72.28084359241997, -35.783602522928312 ], [ -72.247686410788262, -35.782847710883431 ], [ -72.247375696538839, -35.791853434181313 ], [ -72.280536610033991, -35.792608494867373 ], [ -72.28084359241997, -35.783602522928312 ] ] ] } },
{ "type": "Feature", "properties": { "cve": "2867111", "nombre": "IRIS 113", "solicitante": "Varela Echaurren Juan Francisco", "region": "REGIÓN DEL MAULE", "provincia": "Provincia de Cauquenes", "comuna": null, "superficie_ha": 300.0, "datum_original": "PSAD56", "huso": 18, "epsg_origen": 24878, "tipo_publicacion": "pedimento", "fuente_pdf": "http://www.diariooficial.interior.gob.cl/publicaciones/2026/09/09/44546/07/2867111.pdf", "archivo": "gm_pedimento_2867111.pdf", "fecha": "09-09-2026", "edicion": "44546" }, "geometry": { "type": "Polygon", "coordinates": [ [ [ -72.280536610033991, -35.792608494867373 ], [ -72.247375696538839, -35.791853434181313 ], [ -72.247064844407035, -35.8008591415268 ], [ -72.280229491417842, -35.801614450909163 ], [ -72.280536610033991, -35.792608494867373 ] ] ] } },
{ "type": "Feature", "properties": { "cve": "2867112", "nombre": "IRIS 114", "solicitante": "Varela Echaurren Juan Francisco", "region": "REGIÓN DEL MAULE", "provincia": "Provincia de Cauquenes", "comuna": null, "superficie_ha": 200.0, "datum_original": "PSAD56", "huso": 18, "epsg_origen": 24878, "tipo_publicacion": "pedimento", "fuente_pdf": "http://www.diariooficial.interior.gob.cl/publicaciones/2026/09/09/44546/07/2867112.pdf", "archivo": "gm_pedimento_2867112.pdf", "fecha": "09-09-2026", "edicion": "44546" }, "geometry": { "type": "Polygon", "coordinates": [ [ [ -72.248927890196725, -35.74682465822184 ], [ -72.226833730028488, -35.746317048799426 ], [ -72.226521083490979, -35.755322668599661 ], [ -72.248617726859635, -35.755830445302379 ], [ -72.248927890196725, -35.74682465822184 ] ] ] } },
{ "type": "Feature", "properties": { "cve": "2867113", "nombre": "IRIS 115", "solicitante": "Varela Echaurren Juan Francisco", "region": "REGIÓN DEL MAULE", "provincia": "Provincia de Cauquenes", "comuna": null, "superficie_ha": 200.0, "datum_original": "PSAD56", "huso": 18, "epsg_origen": 24878, "tipo_publicacion": "pedimento", "fuente_pdf": "http://www.diariooficial.interior.gob.cl/publicaciones/2026/09/09/44546/07/2867113.pdf", "archivo": "gm_pedimento_2867113.pdf", "fecha": "09-09-2026", "edicion": "44546" }, "geometry": { "type": "Polygon", "coordinates": [ [ [ -72.248617726859635, -35.755830445302379 ], [ -72.226521083490979, -35.755322668599661 ], [ -72.22620829821858, -35.764328272421245 ], [ -72.248307425886964, -35.764836216441282 ], [ -72.248617726859635, -35.755830445302379 ] ] ] } },
{ "type": "Feature", "properties": { "cve": "2867114", "nombre": "IRIS 116", "solicitante": "Varela Echaurren Juan Francisco", "region": "REGIÓN DEL MAULE", "provincia": "Provincia de Cauquenes", "comuna": null, "superficie_ha": 300.0, "datum_original": "PSAD56", "huso": 18, "epsg_origen": 24878, "tipo_publicacion": "pedimento", "fuente_pdf": "http://www.diariooficial.interior.gob.cl/publicaciones/2026/09/09/44546/07/2867114.pdf", "archivo": "gm_pedimento_2867114.pdf", "fecha": "09-09-2026", "edicion": "44546" }, "geometry": { "type": "Polygon", "coordinates": [ [ [ -72.248307425886964, -35.764836216441282 ], [ -72.215158942305322, -35.764072780312496 ], [ -72.214844775629274, -35.773078283975501 ], [ -72.247996987217064, -35.773841971635854 ], [ -72.248307425886964, -35.764836216441282 ] ] ] } },
{ "type": "Feature", "properties": { "cve": "2867115", "nombre": "IRIS 122", "solicitante": "Varela Echaurren Juan Francisco", "region": "REGIÓN DEL MAULE", "provincia": "Provincia de Cauquenes", "comuna": null, "superficie_ha": 300.0, "datum_original": "PSAD56", "huso": 18, "epsg_origen": 24878, "tipo_publicacion": "pedimento", "fuente_pdf": "http://www.diariooficial.interior.gob.cl/publicaciones/2026/09/09/44546/07/2867115.pdf", "archivo": "gm_pedimento_2867115.pdf", "fecha": "09-09-2026", "edicion": "44546" }, "geometry": { "type": "Polygon", "coordinates": [ [ [ -72.246442726249001, -35.81887050834991 ], [ -72.213271849860476, -35.81810556219547 ], [ -72.212956845791183, -35.827110969801467 ], [ -72.246131460099051, -35.82787616782214 ], [ -72.246442726249001, -35.81887050834991 ] ] ] } },
{ "type": "Feature", "properties": { "cve": "2867116", "nombre": "IRIS 123", "solicitante": "Varela Echaurren Juan Francisco", "region": "REGIÓN DEL MAULE", "provincia": "Provincia de Cauquenes", "comuna": null, "superficie_ha": 300.0, "datum_original": "PSAD56", "huso": 18, "epsg_origen": 24878, "tipo_publicacion": "pedimento", "fuente_pdf": "http://www.diariooficial.interior.gob.cl/publicaciones/2026/09/09/44546/07/2867116.pdf", "archivo": "gm_pedimento_2867116.pdf", "fecha": "09-09-2026", "edicion": "44546" }, "geometry": { "type": "Polygon", "coordinates": [ [ [ -72.246131460099051, -35.82787616782214 ], [ -72.212956845791183, -35.827110969801467 ], [ -72.212641701937258, -35.836116361388441 ], [ -72.245820055819237, -35.836881811331253 ], [ -72.246131460099051, -35.82787616782214 ] ] ] } },
{ "type": "Feature", "properties": { "cve": "2867117", "nombre": "IRIS 124", "solicitante": "Varela Echaurren Juan Francisco", "region": "REGIÓN DEL MAULE", "provincia": "Provincia de Cauquenes", "comuna": null, "superficie_ha": 300.0, "datum_original": "PSAD56", "huso": 18, "epsg_origen": 24878, "tipo_publicacion": "pedimento", "fuente_pdf": "http://www.diariooficial.interior.gob.cl/publicaciones/2026/09/09/44546/07/2867117.pdf", "archivo": "gm_pedimento_2867117.pdf", "fecha": "09-09-2026", "edicion": "44546" }, "geometry": { "type": "Polygon", "coordinates": [ [ [ -72.245820055819237, -35.836881811331253 ], [ -72.212641701937258, -35.836116361388441 ], [ -72.212326418235989, -35.845121736953693 ], [ -72.245508513347573, -35.845887438874584 ], [ -72.245820055819237, -35.836881811331253 ] ] ] } },
{ "type": "Feature", "properties": { "cve": "2867118", "nombre": "IRIS 125", "solicitante": "Varela Echaurren Juan Francisco", "region": "REGIÓN DEL MAULE", "provincia": "Provincia de Cauquenes", "comuna": null, "superficie_ha": 300.0, "datum_original": "PSAD56", "huso": 18, "epsg_origen": 24878, "tipo_publicacion": "pedimento", "fuente_pdf": "http://www.diariooficial.interior.gob.cl/publicaciones/2026/09/09/44546/07/2867118.pdf", "archivo": "gm_pedimento_2867118.pdf", "fecha": "09-09-2026", "edicion": "44546" }, "geometry": { "type": "Polygon", "coordinates": [ [ [ -72.245508513347573, -35.845887438874584 ], [ -72.212326418235989, -35.845121736953693 ], [ -72.212010994624592, -35.85412709649453 ], [ -72.245196832622057, -35.854893050449412 ], [ -72.245508513347573, -35.845887438874584 ] ] ] } },
{ "type": "Feature", "properties": { "cve": "2867119", "nombre": "IRIS 126", "solicitante": "Varela Echaurren Juan Francisco", "region": "REGIÓN DEL MAULE", "provincia": "Provincia de Cauquenes", "comuna": null, "superficie_ha": 200.0, "datum_original": "PSAD56", "huso": 18, "epsg_origen": 24878, "tipo_publicacion": "pedimento", "fuente_pdf": "http://www.diariooficial.interior.gob.cl/publicaciones/2026/09/09/44546/07/2867119.pdf", "archivo": "gm_pedimento_2867119.pdf", "fecha": "09-09-2026", "edicion": "44546" }, "geometry": { "type": "Polygon", "coordinates": [ [ [ -72.216414216164466, -35.728050605687784 ], [ -72.205369964279754, -35.727794438089667 ], [ -72.204740124552387, -35.74580538850087 ], [ -72.215786857679234, -35.746061724989254 ], [ -72.216414216164466, -35.728050605687784 ] ] ] } },
{ "type": "Feature", "properties": { "cve": "2867120", "nombre": "IRIS 132", "solicitante": "Varela Echaurren Juan Francisco", "region": "REGIÓN DEL MAULE", "provincia": "Provincia de Cauquenes", "comuna": null, "superficie_ha": 300.0, "datum_original": "PSAD56", "huso": 18, "epsg_origen": 24878, "tipo_publicacion": "pedimento", "fuente_pdf": "http://www.diariooficial.interior.gob.cl/publicaciones/2026/09/09/44546/07/2867120.pdf", "archivo": "gm_pedimento_2867120.pdf", "fecha": "09-09-2026", "edicion": "44546" }, "geometry": { "type": "Polygon", "coordinates": [ [ [ -72.213586714207793, -35.809100138573214 ], [ -72.202531279417755, -35.808843210379827 ], [ -72.201582529602717, -35.8358591793261 ], [ -72.212641701937258, -35.836116361388441 ], [ -72.213586714207793, -35.809100138573214 ] ] ] } },
{ "type": "Feature", "properties": { "cve": "2867152", "nombre": "IRIS 133", "solicitante": "Varela Echaurren Juan Francisco", "region": "REGIÓN DEL MAULE", "provincia": "Provincia de Cauquenes", "comuna": null, "superficie_ha": 300.0, "datum_original": "PSAD56", "huso": 18, "epsg_origen": 24878, "tipo_publicacion": "pedimento", "fuente_pdf": "http://www.diariooficial.interior.gob.cl/publicaciones/2026/09/09/44546/07/2867152.pdf", "archivo": "gm_pedimento_2867152.pdf", "fecha": "09-09-2026", "edicion": "44546" }, "geometry": { "type": "Polygon", "coordinates": [ [ [ -72.202531279417755, -35.808843210379827 ], [ -72.19147598483832, -35.808585267215584 ], [ -72.190523497667499, -35.835600981291627 ], [ -72.201582529602717, -35.8358591793261 ], [ -72.202531279417755, -35.808843210379827 ] ] ] } },
{ "type": "Feature", "properties": { "cve": "2867153", "nombre": "IRIS 134", "solicitante": "Varela Echaurren Juan Francisco", "region": "REGIÓN DEL MAULE", "provincia": "Provincia de Cauquenes", "comuna": null, "superficie_ha": 200.0, "datum_original": "PSAD56", "huso": 18, "epsg_origen": 24878, "tipo_publicacion": "pedimento", "fuente_pdf": "http://www.diariooficial.interior.gob.cl/publicaciones/2026/09/09/44546/07/2867153.pdf", "archivo": "gm_pedimento_2867153.pdf", "fecha": "09-09-2026", "edicion": "44546" }, "geometry": { "type": "Polygon", "coordinates": [ [ [ -72.212641701937258, -35.836116361388441 ], [ -72.201582529602717, -35.8358591793261 ], [ -72.20094932783536, -35.853869745092275 ], [ -72.212010994624592, -35.85412709649453 ], [ -72.212641701937258, -35.836116361388441 ] ] ] } },
{ "type": "Feature", "properties": { "cve": "2867121", "nombre": "IRIS 135", "solicitante": "Varela Echaurren Juan Francisco", "region": "REGIÓN DEL MAULE", "provincia": "Provincia de Cauquenes", "comuna": null, "superficie_ha": 200.0, "datum_original": "PSAD56", "huso": 18, "epsg_origen": 24878, "tipo_publicacion": "pedimento", "fuente_pdf": "http://www.diariooficial.interior.gob.cl/publicaciones/2026/09/09/44546/07/2867121.pdf", "archivo": "gm_pedimento_2867121.pdf", "fecha": "09-09-2026", "edicion": "44546" }, "geometry": { "type": "Polygon", "coordinates": [ [ [ -72.201582529602717, -35.8358591793261 ], [ -72.190523497667499, -35.835600981291627 ], [ -72.189887801571501, -35.853611377050029 ], [ -72.20094932783536, -35.853869745092275 ], [ -72.201582529602717, -35.8358591793261 ] ] ] } },
{ "type": "Feature", "properties": { "cve": "2867122", "nombre": "IRIS 136", "solicitante": "Varela Echaurren Juan Francisco", "region": "REGIÓN DEL MAULE", "provincia": "Provincia de Cauquenes", "comuna": null, "superficie_ha": 300.0, "datum_original": "PSAD56", "huso": 18, "epsg_origen": 24878, "tipo_publicacion": "pedimento", "fuente_pdf": "http://www.diariooficial.interior.gob.cl/publicaciones/2026/09/09/44546/07/2867122.pdf", "archivo": "gm_pedimento_2867122.pdf", "fecha": "09-09-2026", "edicion": "44546" }, "geometry": { "type": "Polygon", "coordinates": [ [ [ -72.1943258520417, -35.727537258520506 ], [ -72.161194358695084, -35.726759648398918 ], [ -72.160874547926994, -35.735764790536578 ], [ -72.194009761748433, -35.736542656962527 ], [ -72.1943258520417, -35.727537258520506 ] ] ] } },
{ "type": "Feature", "properties": { "cve": "2867154", "nombre": "IRIS 142", "solicitante": "Varela Echaurren Juan Francisco", "region": "REGIÓN DEL MAULE", "provincia": "Provincia de Cauquenes", "comuna": null, "superficie_ha": 300.0, "datum_original": "PSAD56", "huso": 18, "epsg_origen": 24878, "tipo_publicacion": "pedimento", "fuente_pdf": "http://www.diariooficial.interior.gob.cl/publicaciones/2026/09/09/44546/07/2867154.pdf", "archivo": "gm_pedimento_2867154.pdf", "fecha": "09-09-2026", "edicion": "44546" }, "geometry": { "type": "Polygon", "coordinates": [ [ [ -72.192427205156946, -35.781569408679111 ], [ -72.159273364245223, -35.780790259880547 ], [ -72.158952701095444, -35.789795305461091 ], [ -72.192110272373625, -35.790574710904529 ], [ -72.192427205156946, -35.781569408679111 ] ] ] } },
{ "type": "Feature", "properties": { "cve": "2867155", "nombre": "IRIS 143", "solicitante": "Varela Echaurren Juan Francisco", "region": "REGIÓN DEL MAULE", "provincia": "Provincia de Cauquenes", "comuna": null, "superficie_ha": 300.0, "datum_original": "PSAD56", "huso": 18, "epsg_origen": 24878, "tipo_publicacion": "pedimento", "fuente_pdf": "http://www.diariooficial.interior.gob.cl/publicaciones/2026/09/09/44546/07/2867155.pdf", "archivo": "gm_pedimento_2867155.pdf", "fecha": "09-09-2026", "edicion": "44546" }, "geometry": { "type": "Polygon", "coordinates": [ [ [ -72.192110272373625, -35.790574710904529 ], [ -72.158952701095444, -35.789795305461091 ], [ -72.158631895659298, -35.798800334939102 ], [ -72.191793198955096, -35.79957999708428 ], [ -72.192110272373625, -35.790574710904529 ] ] ] } },
{ "type": "Feature", "properties": { "cve": "2867156", "nombre": "IRIS 144", "solicitante": "Varela Echaurren Juan Francisco", "region": "REGIÓN DEL MAULE", "provincia": "Provincia de Cauquenes", "comuna": null, "superficie_ha": 300.0, "datum_original": "PSAD56", "huso": 18, "epsg_origen": 24878, "tipo_publicacion": "pedimento", "fuente_pdf": "http://www.diariooficial.interior.gob.cl/publicaciones/2026/09/09/44546/07/2867156.pdf", "archivo": "gm_pedimento_2867156.pdf", "fecha": "09-09-2026", "edicion": "44546" }, "geometry": { "type": "Polygon", "coordinates": [ [ [ -72.191793198955096, -35.79957999708428 ], [ -72.158631895659298, -35.798800334939102 ], [ -72.158310947873005, -35.80780534831176 ], [ -72.19147598483832, -35.808585267215584 ], [ -72.191793198955096, -35.79957999708428 ] ] ] } },
{ "type": "Feature", "properties": { "cve": "2867123", "nombre": "IRIS 145", "solicitante": "Varela Echaurren Juan Francisco", "region": "REGIÓN DEL MAULE", "provincia": "Provincia de Cauquenes", "comuna": null, "superficie_ha": 300.0, "datum_original": "PSAD56", "huso": 18, "epsg_origen": 24878, "tipo_publicacion": "pedimento", "fuente_pdf": "http://www.diariooficial.interior.gob.cl/publicaciones/2026/09/09/44546/07/2867123.pdf", "archivo": "gm_pedimento_2867123.pdf", "fecha": "09-09-2026", "edicion": "44546" }, "geometry": { "type": "Polygon", "coordinates": [ [ [ -72.19147598483832, -35.808585267215584 ], [ -72.158310947873005, -35.80780534831176 ], [ -72.157989857672732, -35.816810345576364 ], [ -72.191158629960213, -35.817590521295742 ], [ -72.19147598483832, -35.808585267215584 ] ] ] } },
{ "type": "Feature", "properties": { "cve": "2867124", "nombre": "IRIS 146", "solicitante": "Varela Echaurren Juan Francisco", "region": "REGIÓN DEL MAULE", "provincia": "Provincia de Cauquenes", "comuna": null, "superficie_ha": 300.0, "datum_original": "PSAD56", "huso": 18, "epsg_origen": 24878, "tipo_publicacion": "pedimento", "fuente_pdf": "http://www.diariooficial.interior.gob.cl/publicaciones/2026/09/09/44546/07/2867124.pdf", "archivo": "gm_pedimento_2867124.pdf", "fecha": "09-09-2026", "edicion": "44546" }, "geometry": { "type": "Polygon", "coordinates": [ [ [ -72.191158629960213, -35.817590521295742 ], [ -72.157989857672732, -35.816810345576364 ], [ -72.157668624994642, -35.825815326730087 ], [ -72.190841134257667, -35.826595759321997 ], [ -72.191158629960213, -35.817590521295742 ] ] ] } },
{ "type": "Feature", "properties": { "cve": "2867157", "nombre": "IRIS 152", "solicitante": "Varela Echaurren Juan Francisco", "region": "REGIÓN DEL MAULE", "provincia": "Provincia de Cauquenes", "comuna": null, "superficie_ha": 200.0, "datum_original": "PSAD56", "huso": 18, "epsg_origen": 24878, "tipo_publicacion": "pedimento", "fuente_pdf": "http://www.diariooficial.interior.gob.cl/publicaciones/2026/09/09/44546/07/2867157.pdf", "archivo": "gm_pedimento_2867157.pdf", "fecha": "09-09-2026", "edicion": "44546" }, "geometry": { "type": "Polygon", "coordinates": [ [ [ -72.150471718940921, -35.717493349219488 ], [ -72.128387529106476, -35.7169680330516 ], [ -72.12806414192157, -35.72597293202886 ], [ -72.150150810530988, -35.72649842135862 ], [ -72.150471718940921, -35.717493349219488 ] ] ] } },
{ "type": "Feature", "properties": { "cve": "2867158", "nombre": "IRIS 153", "solicitante": "Varela Echaurren Juan Francisco", "region": "REGIÓN DEL MAULE", "provincia": "Provincia de Cauquenes", "comuna": null, "superficie_ha": 300.0, "datum_original": "PSAD56", "huso": 18, "epsg_origen": 24878, "tipo_publicacion": "pedimento", "fuente_pdf": "http://www.diariooficial.interior.gob.cl/publicaciones/2026/09/09/44546/07/2867158.pdf", "archivo": "gm_pedimento_2867158.pdf", "fecha": "09-09-2026", "edicion": "44546" }, "geometry": { "type": "Polygon", "coordinates": [ [ [ -72.161194358695084, -35.726759648398918 ], [ -72.12806414192157, -35.72597293202886 ], [ -72.127740611249791, -35.734977814865694 ], [ -72.160874547926994, -35.735764790536578 ], [ -72.161194358695084, -35.726759648398918 ] ] ] } },
{ "type": "Feature", "properties": { "cve": "2867159", "nombre": "IRIS 154", "solicitante": "Varela Echaurren Juan Francisco", "region": "REGIÓN DEL MAULE", "provincia": "Provincia de Cauquenes", "comuna": null, "superficie_ha": 300.0, "datum_original": "PSAD56", "huso": 18, "epsg_origen": 24878, "tipo_publicacion": "pedimento", "fuente_pdf": "http://www.diariooficial.interior.gob.cl/publicaciones/2026/09/09/44546/07/2867159.pdf", "archivo": "gm_pedimento_2867159.pdf", "fecha": "09-09-2026", "edicion": "44546" }, "geometry": { "type": "Polygon", "coordinates": [ [ [ -72.160874547926994, -35.735764790536578 ], [ -72.127740611249791, -35.734977814865694 ], [ -72.127416937026922, -35.743982681559281 ], [ -72.160554595254212, -35.744769916588311 ], [ -72.160874547926994, -35.735764790536578 ] ] ] } },
{ "type": "Feature", "properties": { "cve": "2867125", "nombre": "IRIS 155", "solicitante": "Varela Echaurren Juan Francisco", "region": "REGIÓN DEL MAULE", "provincia": "Provincia de Cauquenes", "comuna": null, "superficie_ha": 300.0, "datum_original": "PSAD56", "huso": 18, "epsg_origen": 24878, "tipo_publicacion": "pedimento", "fuente_pdf": "http://www.diariooficial.interior.gob.cl/publicaciones/2026/09/09/44546/07/2867125.pdf", "archivo": "gm_pedimento_2867125.pdf", "fecha": "09-09-2026", "edicion": "44546" }, "geometry": { "type": "Polygon", "coordinates": [ [ [ -72.160554595254212, -35.744769916588311 ], [ -72.127416937026922, -35.743982681559281 ], [ -72.127093119188743, -35.752987532106808 ], [ -72.160234500613186, -35.753775026551345 ], [ -72.160554595254212, -35.744769916588311 ] ] ] } },
{ "type": "Feature", "properties": { "cve": "2867126", "nombre": "IRIS 156", "solicitante": "Varela Echaurren Juan Francisco", "region": "REGIÓN DEL MAULE", "provincia": "Provincia de Cauquenes", "comuna": null, "superficie_ha": 300.0, "datum_original": "PSAD56", "huso": 18, "epsg_origen": 24878, "tipo_publicacion": "pedimento", "fuente_pdf": "http://www.diariooficial.interior.gob.cl/publicaciones/2026/09/09/44546/07/2867126.pdf", "archivo": "gm_pedimento_2867126.pdf", "fecha": "09-09-2026", "edicion": "44546" }, "geometry": { "type": "Polygon", "coordinates": [ [ [ -72.160234500613186, -35.753775026551345 ], [ -72.127093119188743, -35.752987532106808 ], [ -72.126769157670964, -35.761992366505467 ], [ -72.159914263940422, -35.762780120422896 ], [ -72.160234500613186, -35.753775026551345 ] ] ] } },
{ "type": "Feature", "properties": { "cve": "2867160", "nombre": "IRIS 162", "solicitante": "Varela Echaurren Juan Francisco", "region": "REGIÓN DEL MAULE", "provincia": "Provincia de Cauquenes", "comuna": null, "superficie_ha": 300.0, "datum_original": "PSAD56", "huso": 18, "epsg_origen": 24878, "tipo_publicacion": "pedimento", "fuente_pdf": "http://www.diariooficial.interior.gob.cl/publicaciones/2026/09/09/44546/07/2867160.pdf", "archivo": "gm_pedimento_2867160.pdf", "fecha": "09-09-2026", "edicion": "44546" }, "geometry": { "type": "Polygon", "coordinates": [ [ [ -72.158310947873005, -35.80780534831176 ], [ -72.125147192635254, -35.807016296167767 ], [ -72.124822367687528, -35.816021033614405 ], [ -72.157989857672732, -35.816810345576364 ], [ -72.158310947873005, -35.80780534831176 ] ] ] } },
{ "type": "Feature", "properties": { "cve": "2867161", "nombre": "IRIS 163", "solicitante": "Varela Echaurren Juan Francisco", "region": "REGIÓN DEL MAULE", "provincia": "Provincia de Cauquenes", "comuna": null, "superficie_ha": 300.0, "datum_original": "PSAD56", "huso": 18, "epsg_origen": 24878, "tipo_publicacion": "pedimento", "fuente_pdf": "http://www.diariooficial.interior.gob.cl/publicaciones/2026/09/09/44546/07/2867161.pdf", "archivo": "gm_pedimento_2867161.pdf", "fecha": "09-09-2026", "edicion": "44546" }, "geometry": { "type": "Polygon", "coordinates": [ [ [ -72.157989857672732, -35.816810345576364 ], [ -72.124822367687528, -35.816021033614405 ], [ -72.124497398608995, -35.825025754892572 ], [ -72.157668624994642, -35.825815326730087 ], [ -72.157989857672732, -35.816810345576364 ] ] ] } },
{ "type": "Feature", "properties": { "cve": "2867162", "nombre": "IRIS 164", "solicitante": "Varela Echaurren Juan Francisco", "region": "REGIÓN DEL MAULE", "provincia": "Provincia de Cauquenes", "comuna": null, "superficie_ha": 300.0, "datum_original": "PSAD56", "huso": 18, "epsg_origen": 24878, "tipo_publicacion": "pedimento", "fuente_pdf": "http://www.diariooficial.interior.gob.cl/publicaciones/2026/09/09/44546/07/2867162.pdf", "archivo": "gm_pedimento_2867162.pdf", "fecha": "09-09-2026", "edicion": "44546" }, "geometry": { "type": "Polygon", "coordinates": [ [ [ -72.157668624994642, -35.825815326730087 ], [ -72.124497398608995, -35.825025754892572 ], [ -72.124172285335007, -35.834030459999461 ], [ -72.157347249774801, -35.834820291770193 ], [ -72.157668624994642, -35.825815326730087 ] ] ] } },
{ "type": "Feature", "properties": { "cve": "2867165", "nombre": "IRIS 165", "solicitante": "Varela Echaurren Juan Francisco", "region": "REGIÓN DEL MAULE", "provincia": "Provincia de Cauquenes", "comuna": null, "superficie_ha": 300.0, "datum_original": "PSAD56", "huso": 18, "epsg_origen": 24878, "tipo_publicacion": "pedimento", "fuente_pdf": "http://www.diariooficial.interior.gob.cl/publicaciones/2026/09/09/44546/07/2867165.pdf", "archivo": "gm_pedimento_2867165.pdf", "fecha": "09-09-2026", "edicion": "44546" }, "geometry": { "type": "Polygon", "coordinates": [ [ [ -72.157347249774801, -35.834820291770193 ], [ -72.124172285335007, -35.834030459999461 ], [ -72.123847027800892, -35.843035148932287 ], [ -72.157025731949318, -35.843825240693924 ], [ -72.157347249774801, -35.834820291770193 ] ] ] } },
{ "type": "Feature", "properties": { "cve": "2867127", "nombre": "IRIS 166", "solicitante": "Varela Echaurren Juan Francisco", "region": "REGIÓN DEL MAULE", "provincia": "Provincia de Cauquenes", "comuna": null, "superficie_ha": 300.0, "datum_original": "PSAD56", "huso": 18, "epsg_origen": 24878, "tipo_publicacion": "pedimento", "fuente_pdf": "http://www.diariooficial.interior.gob.cl/publicaciones/2026/09/09/44546/07/2867127.pdf", "archivo": "gm_pedimento_2867127.pdf", "fecha": "09-09-2026", "edicion": "44546" }, "geometry": { "type": "Polygon", "coordinates": [ [ [ -72.157025731949318, -35.843825240693924 ], [ -72.123847027800892, -35.843035148932287 ], [ -72.123521625941919, -35.852039821688223 ], [ -72.156704071454129, -35.852830173498475 ], [ -72.157025731949318, -35.843825240693924 ] ] ] } },
{ "type": "Feature", "properties": { "cve": "2867128", "nombre": "IRIS 167", "solicitante": "Varela Echaurren Juan Francisco", "region": "REGIÓN DEL MAULE", "provincia": "Provincia de Cauquenes", "comuna": null, "superficie_ha": 300.0, "datum_original": "PSAD56", "huso": 18, "epsg_origen": 24878, "tipo_publicacion": "pedimento", "fuente_pdf": "http://www.diariooficial.interior.gob.cl/publicaciones/2026/09/09/44546/07/2867128.pdf", "archivo": "gm_pedimento_2867128.pdf", "fecha": "09-09-2026", "edicion": "44546" }, "geometry": { "type": "Polygon", "coordinates": [ [ [ -72.128387529106476, -35.7169680330516 ], [ -72.095262321397527, -35.716172473804683 ], [ -72.09493521653188, -35.725177110543186 ], [ -72.12806414192157, -35.72597293202886 ], [ -72.128387529106476, -35.7169680330516 ] ] ] } },
{ "type": "Feature", "properties": { "cve": "2867166", "nombre": "IRIS 173", "solicitante": "Varela Echaurren Juan Francisco", "region": "REGIÓN DEL MAULE", "provincia": "Provincia de Cauquenes", "comuna": null, "superficie_ha": 300.0, "datum_original": "PSAD56", "huso": 18, "epsg_origen": 24878, "tipo_publicacion": "pedimento", "fuente_pdf": "http://www.diariooficial.interior.gob.cl/publicaciones/2026/09/09/44546/07/2867166.pdf", "archivo": "gm_pedimento_2867166.pdf", "fecha": "09-09-2026", "edicion": "44546" }, "geometry": { "type": "Polygon", "coordinates": [ [ [ -72.126445052409267, -35.770997184752467 ], [ -72.09329751392265, -35.770200051202984 ], [ -72.09296953728952, -35.779204590708538 ], [ -72.12612080333929, -35.780001986845001 ], [ -72.126445052409267, -35.770997184752467 ] ] ] } },
{ "type": "Feature", "properties": { "cve": "2867101", "nombre": "IRIS 93", "solicitante": "Varela Echaurren Juan Francisco", "region": "REGIÓN DEL MAULE", "provincia": "Provincia de Cauquenes", "comuna": null, "superficie_ha": 300.0, "datum_original": "PSAD56", "huso": 18, "epsg_origen": 24878, "tipo_publicacion": "pedimento", "fuente_pdf": "http://www.diariooficial.interior.gob.cl/publicaciones/2026/09/09/44546/07/2867101.pdf", "archivo": "gm_pedimento_2867101.pdf", "fecha": "09-09-2026", "edicion": "44546" }, "geometry": { "type": "Polygon", "coordinates": [ [ [ -72.33850957106678, -35.712788651293678 ], [ -72.327466299687259, -35.71254377953634 ], [ -72.326563092005287, -35.739563008006222 ], [ -72.337610084790356, -35.739808122023931 ], [ -72.33850957106678, -35.712788651293678 ] ] ] } },
{ "type": "Feature", "properties": { "cve": "2867103", "nombre": "IRIS 95", "solicitante": "Varela Echaurren Juan Francisco", "region": "REGIÓN DEL MAULE", "provincia": "Provincia de Cauquenes", "comuna": null, "superficie_ha": 300.0, "datum_original": "PSAD56", "huso": 18, "epsg_origen": 24878, "tipo_publicacion": "pedimento", "fuente_pdf": "http://www.diariooficial.interior.gob.cl/publicaciones/2026/09/09/44546/07/2867103.pdf", "archivo": "gm_pedimento_2867103.pdf", "fecha": "09-09-2026", "edicion": "44546" }, "geometry": { "type": "Polygon", "coordinates": [ [ [ -72.327466299687259, -35.71254377953634 ], [ -72.294337288671358, -35.711803093940631 ], [ -72.294032633612446, -35.720809275030128 ], [ -72.32716536402728, -35.72155020483109 ], [ -72.327466299687259, -35.71254377953634 ] ] ] } },
{ "type": "Feature", "properties": { "cve": "2867104", "nombre": "IRIS 96", "solicitante": "Varela Echaurren Juan Francisco", "region": "REGIÓN DEL MAULE", "provincia": "Provincia de Cauquenes", "comuna": null, "superficie_ha": 300.0, "datum_original": "PSAD56", "huso": 18, "epsg_origen": 24878, "tipo_publicacion": "pedimento", "fuente_pdf": "http://www.diariooficial.interior.gob.cl/publicaciones/2026/09/09/44546/07/2867104.pdf", "archivo": "gm_pedimento_2867104.pdf", "fecha": "09-09-2026", "edicion": "44546" }, "geometry": { "type": "Polygon", "coordinates": [ [ [ -72.32716536402728, -35.72155020483109 ], [ -72.294032633612446, -35.720809275030128 ], [ -72.293727843359235, -35.729815440261746 ], [ -72.32686429481987, -35.73055661432192 ], [ -72.32716536402728, -35.72155020483109 ] ] ] } }
]
}
