{
"type": "FeatureCollection",
"name": "boletin_mineria_20260623",
"crs": { "type": "name", "properties": { "name": "urn:ogc:def:crs:OGC:1.3:CRS84" } },
"features": [
{ "type": "Feature", "properties": { "cve": "2827533", "nombre": "RUCALEO II, 1 AL 40", "solicitante": "Durandin Lavanchy Patrick Miguel", "region": "REGIÓN METROPOLITANA DE SANTIAGO", "provincia": "Provincia de Maipo", "comuna": null, "superficie_ha": 200.0, "datum_original": "PSAD56", "huso": 19, "epsg_origen": 24879, "tipo_publicacion": "manifestacion", "fuente_pdf": "http://www.diariooficial.interior.gob.cl/publicaciones/2026/06/23/44482/07/2827533.pdf", "archivo": "gm_manifestacion_2827533.pdf", "fecha": "23-06-2026", "edicion": "44482" }, "geometry": { "type": "Polygon", "coordinates": [ [ [ -70.90943943688012, -33.836100825872307 ], [ -70.898637576759029, -33.836267668940039 ], [ -70.89903648727099, -33.854295900322882 ], [ -70.909840613548255, -33.854128944375681 ], [ -70.90943943688012, -33.836100825872307 ] ] ] } },
{ "type": "Feature", "properties": { "cve": "2827529", "nombre": "LA ÑIPA 1 1 AL 20", "solicitante": "SLM La Ñipa 1, 1 al 20 de Petorca", "region": "REGIÓN DE VALPARAÍSO", "provincia": "Provincia de Petorca", "comuna": null, "superficie_ha": 49.0, "datum_original": "PSAD56", "huso": 19, "epsg_origen": 24879, "tipo_publicacion": "mensura", "fuente_pdf": "http://www.diariooficial.interior.gob.cl/publicaciones/2026/06/23/44482/07/2827529.pdf", "archivo": "gm_mensura_2827529.pdf", "fecha": "23-06-2026", "edicion": "44482" }, "geometry": { "type": "Polygon", "coordinates": [ [ [ -70.981382112784772, -32.286794715615812 ], [ -70.973952446805299, -32.286911111862842 ], [ -70.974089235628895, -32.293222298600604 ], [ -70.981519415641628, -32.293105874113628 ], [ -70.981382112784772, -32.286794715615812 ] ] ] } },
{ "type": "Feature", "properties": { "cve": "2827750", "nombre": "LOS ROBLES 1 AL 20", "solicitante": "Carvajal Ortega Christian Eduardo", "region": "REGIÓN DE VALPARAÍSO", "provincia": "Provincia de Marga Marga", "comuna": null, "superficie_ha": 20.0, "datum_original": "PSAD56", "huso": 19, "epsg_origen": 24879, "tipo_publicacion": "mensura", "fuente_pdf": "http://www.diariooficial.interior.gob.cl/publicaciones/2026/06/23/44482/07/2827750.pdf", "archivo": "gm_mensura_2827750.pdf", "fecha": "23-06-2026", "edicion": "44482" }, "geometry": { "type": "Polygon", "coordinates": [ [ [ -71.174812977439487, -33.151819471427551 ], [ -71.176342358065355, -33.14863663356622 ], [ -71.173127849728758, -33.148692778110508 ], [ -71.173216782131476, -33.152298216351106 ], [ -71.174288329666865, -33.152279508153448 ], [ -71.174310576185988, -33.153180866712276 ], [ -71.173239017707957, -33.153199575549166 ], [ -71.173283491832152, -33.15500229351079 ], [ -71.17649822995304, -33.154946135536434 ], [ -71.174812977439487, -33.151819471427551 ] ] ] } },
{ "type": "Feature", "properties": { "cve": "2827776", "nombre": "SW-1", "solicitante": "Inversiones VerdeRoca SpA", "region": "REGIÓN DE LOS RÍOS", "provincia": "Provincia de Valdivia", "comuna": null, "superficie_ha": 200.0, "datum_original": "PSAD56", "huso": 18, "epsg_origen": 24878, "tipo_publicacion": "pedimento", "fuente_pdf": "http://www.diariooficial.interior.gob.cl/publicaciones/2026/06/23/44482/07/2827776.pdf", "archivo": "gm_pedimento_2827776.pdf", "fecha": "23-06-2026", "edicion": "44482" }, "geometry": { "type": "Polygon", "coordinates": [ [ [ -72.965166504342889, -39.460672638901492 ], [ -72.941933134264048, -39.460263678410826 ], [ -72.941667790520569, -39.469268451414841 ], [ -72.964904150977304, -39.469677542064723 ], [ -72.965166504342889, -39.460672638901492 ] ] ] } },
{ "type": "Feature", "properties": { "cve": "2827777", "nombre": "SW-2", "solicitante": "Inversiones VerdeRoca SpA", "region": "REGIÓN DE LOS RÍOS", "provincia": "Provincia de Valdivia", "comuna": null, "superficie_ha": 200.0, "datum_original": "PSAD56", "huso": 18, "epsg_origen": 24878, "tipo_publicacion": "pedimento", "fuente_pdf": "http://www.diariooficial.interior.gob.cl/publicaciones/2026/06/23/44482/07/2827777.pdf", "archivo": "gm_pedimento_2827777.pdf", "fecha": "23-06-2026", "edicion": "44482" }, "geometry": { "type": "Polygon", "coordinates": [ [ [ -72.956678425250956, -39.469533254400773 ], [ -72.933442232791052, -39.469122521587344 ], [ -72.933175710961464, -39.478127232572376 ], [ -72.956414895056014, -39.478538096100195 ], [ -72.956678425250956, -39.469533254400773 ] ] ] } },
{ "type": "Feature", "properties": { "cve": "2827778", "nombre": "SW-3", "solicitante": "Inversiones VerdeRoca SpA", "region": "REGIÓN DE LOS RÍOS", "provincia": "Provincia de Valdivia", "comuna": null, "superficie_ha": 300.0, "datum_original": "PSAD56", "huso": 18, "epsg_origen": 24878, "tipo_publicacion": "pedimento", "fuente_pdf": "http://www.diariooficial.interior.gob.cl/publicaciones/2026/06/23/44482/07/2827778.pdf", "archivo": "gm_pedimento_2827778.pdf", "fecha": "23-06-2026", "edicion": "44482" }, "geometry": { "type": "Polygon", "coordinates": [ [ [ -72.946491705262304, -39.478363225048696 ], [ -72.934872155277247, -39.478157382615592 ], [ -72.934072527635038, -39.505171450808923 ], [ -72.945696569032549, -39.505377489805099 ], [ -72.946491705262304, -39.478363225048696 ] ] ] } }
]
}
