{
"type": "FeatureCollection",
"name": "boletin_mineria_20260729",
"crs": { "type": "name", "properties": { "name": "urn:ogc:def:crs:OGC:1.3:CRS84" } },
"features": [
{ "type": "Feature", "properties": { "cve": "2844736", "nombre": "JULIETITA 1 AL 10", "solicitante": "Contreras Gómez Luis Arturo y otro", "region": "REGIÓN DE TARAPACÁ", "provincia": "Provincia del Tamarugal", "comuna": "Pozo Almonte", "superficie_ha": 60.0, "datum_original": "PSAD56", "huso": 19, "epsg_origen": 24879, "tipo_publicacion": "manifestacion", "fuente_pdf": "http://www.diariooficial.interior.gob.cl/publicaciones/2026/07/29/44511/07/2844736.pdf", "archivo": "gm_manifestacion_2844736.pdf", "fecha": "29-07-2026", "edicion": "44511" }, "geometry": { "type": "Polygon", "coordinates": [ [ [ -69.599884308222116, -21.38679500290975 ], [ -69.590237836666205, -21.386829215728373 ], [ -69.590259580152349, -21.392250037914845 ], [ -69.599906407018466, -21.392215815591392 ], [ -69.599884308222116, -21.38679500290975 ] ] ] } },
{ "type": "Feature", "properties": { "cve": "2844405", "nombre": "ARCO DE ORO I 1 A 100", "solicitante": "Noriega Iribarren Guillermo", "region": "REGIÓN DE ATACAMA", "provincia": "Provincia de Copiapó", "comuna": "Tierra Amarilla", "superficie_ha": 100.0, "datum_original": "PSAD56", "huso": 19, "epsg_origen": 24879, "tipo_publicacion": "manifestacion", "fuente_pdf": "http://www.diariooficial.interior.gob.cl/publicaciones/2026/07/29/44511/07/2844405.pdf", "archivo": "gm_manifestacion_2844405.pdf", "fecha": "29-07-2026", "edicion": "44511" }, "geometry": { "type": "Polygon", "coordinates": [ [ [ -70.005373061471659, -27.621126686155943 ], [ -69.995239224962759, -27.621199746367825 ], [ -69.995320852355221, -27.630226167816151 ], [ -70.005455519680169, -27.63015307970786 ], [ -70.005373061471659, -27.621126686155943 ] ] ] } },
{ "type": "Feature", "properties": { "cve": "2844518", "nombre": "CASUALIDAD 1 AL 15", "solicitante": "Pérez Vargas Miguel Ángel", "region": "REGIÓN DE ATACAMA", "provincia": "Provincia de Copiapó", "comuna": null, "superficie_ha": 15.0, "datum_original": "PSAD56", "huso": 19, "epsg_origen": 24879, "tipo_publicacion": "manifestacion", "fuente_pdf": "http://www.diariooficial.interior.gob.cl/publicaciones/2026/07/29/44511/07/2844518.pdf", "archivo": "gm_manifestacion_2844518.pdf", "fecha": "29-07-2026", "edicion": "44511" }, "geometry": { "type": "Polygon", "coordinates": [ [ [ -70.171507501857349, -27.531704087111212 ], [ -70.166444973788018, -27.531746649216277 ], [ -70.166473560523514, -27.534454458791817 ], [ -70.171536212594106, -27.534411891801103 ], [ -70.171507501857349, -27.531704087111212 ] ] ] } },
{ "type": "Feature", "properties": { "cve": "2844519", "nombre": "MANTO ANTIGUO 1 AL 4", "solicitante": "Pérez Vargas Miguel Ángel", "region": "REGIÓN DE ATACAMA", "provincia": "Provincia de Copiapó", "comuna": null, "superficie_ha": 16.0, "datum_original": "PSAD56", "huso": 19, "epsg_origen": 24879, "tipo_publicacion": "manifestacion", "fuente_pdf": "http://www.diariooficial.interior.gob.cl/publicaciones/2026/07/29/44511/07/2844519.pdf", "archivo": "gm_manifestacion_2844519.pdf", "fecha": "29-07-2026", "edicion": "44511" }, "geometry": { "type": "Polygon", "coordinates": [ [ [ -70.039702980192828, -27.867377130026615 ], [ -70.035640368927744, -27.867407693273371 ], [ -70.035674696234793, -27.871018088421422 ], [ -70.039737442100076, -27.870987520534911 ], [ -70.039702980192828, -27.867377130026615 ] ] ] } },
{ "type": "Feature", "properties": { "cve": "2844520", "nombre": "OLVIDADA 1 AL 15", "solicitante": "Pérez Vargas Miguel Ángel", "region": "REGIÓN DE ATACAMA", "provincia": "Provincia de Copiapó", "comuna": null, "superficie_ha": 15.0, "datum_original": "PSAD56", "huso": 19, "epsg_origen": 24879, "tipo_publicacion": "manifestacion", "fuente_pdf": "http://www.diariooficial.interior.gob.cl/publicaciones/2026/07/29/44511/07/2844520.pdf", "archivo": "gm_manifestacion_2844520.pdf", "fecha": "29-07-2026", "edicion": "44511" }, "geometry": { "type": "Polygon", "coordinates": [ [ [ -70.166459266656659, -27.533100554140407 ], [ -70.161396665497392, -27.533142934437368 ], [ -70.161425130218305, -27.535850748332088 ], [ -70.166487855388667, -27.535808363170514 ], [ -70.166459266656659, -27.533100554140407 ] ] ] } },
{ "type": "Feature", "properties": { "cve": "2844521", "nombre": "RECUPERADA II 1 AL 5", "solicitante": "Pérez Vargas Miguel Ángel", "region": "REGIÓN DE ATACAMA", "provincia": "Provincia de Copiapó", "comuna": null, "superficie_ha": 20.0, "datum_original": "PSAD56", "huso": 19, "epsg_origen": 24879, "tipo_publicacion": "manifestacion", "fuente_pdf": "http://www.diariooficial.interior.gob.cl/publicaciones/2026/07/29/44511/07/2844521.pdf", "archivo": "gm_manifestacion_2844521.pdf", "fecha": "29-07-2026", "edicion": "44511" }, "geometry": { "type": "Polygon", "coordinates": [ [ [ -70.046138854668357, -27.871209912179481 ], [ -70.041060421313148, -27.871248339309599 ], [ -70.041094933845372, -27.87485872621491 ], [ -70.046173535482723, -27.874820293251787 ], [ -70.046138854668357, -27.871209912179481 ] ] ] } },
{ "type": "Feature", "properties": { "cve": "2844324", "nombre": "RUMBO NORTE 1 AL 8", "solicitante": "Morales Calderón Cosme", "region": "REGIÓN DE ATACAMA", "provincia": "Provincia de Copiapó", "comuna": "Caldera", "superficie_ha": 48.0, "datum_original": "WGS84", "huso": 19, "epsg_origen": 32719, "tipo_publicacion": "manifestacion", "fuente_pdf": "http://www.diariooficial.interior.gob.cl/publicaciones/2026/07/29/44511/07/2844324.pdf", "archivo": "gm_manifestacion_2844324.pdf", "fecha": "29-07-2026", "edicion": "44511" }, "geometry": { "type": "Polygon", "coordinates": [ [ [ -70.874080447728261, -27.783518893421761 ], [ -70.867993467741115, -27.783601329216609 ], [ -70.86811687506669, -27.790819536299161 ], [ -70.874204256611833, -27.79073707543446 ], [ -70.874080447728261, -27.783518893421761 ] ] ] } },
{ "type": "Feature", "properties": { "cve": "2844383", "nombre": "GUARDAESPALDA 3 1 AL 5", "solicitante": "Compañía Minera del Pacífico S.A.", "region": "REGIÓN DE ATACAMA", "provincia": "Provincia de Huasco", "comuna": null, "superficie_ha": 50.0, "datum_original": "WGS84", "huso": 19, "epsg_origen": 32719, "tipo_publicacion": "manifestacion", "fuente_pdf": "http://www.diariooficial.interior.gob.cl/publicaciones/2026/07/29/44511/07/2844383.pdf", "archivo": "gm_manifestacion_2844383.pdf", "fecha": "29-07-2026", "edicion": "44511" }, "geometry": { "type": "Polygon", "coordinates": [ [ [ -71.120175224608062, -29.265363749520329 ], [ -71.109888908184999, -29.265526587158813 ], [ -71.109981548343626, -29.270036319657891 ], [ -71.120268315591233, -29.269873452110708 ], [ -71.120175224608062, -29.265363749520329 ] ] ] } },
{ "type": "Feature", "properties": { "cve": "2844534", "nombre": "AGUA HELADA 1/20", "solicitante": "Retamales Zúñiga Fabricio Alexander Daysuke", "region": "REGIÓN DE COQUIMBO", "provincia": "Provincia de Elqui", "comuna": "Vicuña", "superficie_ha": 100.0, "datum_original": "PSAD56", "huso": 19, "epsg_origen": 24879, "tipo_publicacion": "manifestacion", "fuente_pdf": "http://www.diariooficial.interior.gob.cl/publicaciones/2026/07/29/44511/07/2844534.pdf", "archivo": "gm_manifestacion_2844534.pdf", "fecha": "29-07-2026", "edicion": "44511" }, "geometry": { "type": "Polygon", "coordinates": [ [ [ -70.590501574286336, -30.133761424682852 ], [ -70.580123317107976, -30.13388674696569 ], [ -70.580267056905328, -30.1429076987746 ], [ -70.590646257200234, -30.142782331269977 ], [ -70.590501574286336, -30.133761424682852 ] ] ] } },
{ "type": "Feature", "properties": { "cve": "2844476", "nombre": "LAS PERDICES 1 AL 80", "solicitante": "Miranda Trujillo Robinson Alejandro", "region": "REGIÓN DE COQUIMBO", "provincia": "Provincia de Elqui", "comuna": null, "superficie_ha": 80.0, "datum_original": "PSAD56", "huso": 19, "epsg_origen": 24879, "tipo_publicacion": "manifestacion", "fuente_pdf": "http://www.diariooficial.interior.gob.cl/publicaciones/2026/07/29/44511/07/2844476.pdf", "archivo": "gm_manifestacion_2844476.pdf", "fecha": "29-07-2026", "edicion": "44511" }, "geometry": { "type": "Polygon", "coordinates": [ [ [ -71.144650926554093, -30.041980023069168 ], [ -71.134285518255041, -30.042148670521843 ], [ -71.13444024411686, -30.049363262944198 ], [ -71.144806402459267, -30.049194566732393 ], [ -71.144650926554093, -30.041980023069168 ] ] ] } },
{ "type": "Feature", "properties": { "cve": "2844316", "nombre": "Raffaela del 1 al 3", "solicitante": "Anacona Leiva Eduardo Antonio", "region": "REGIÓN DE COQUIMBO", "provincia": "Provincia de Limarí", "comuna": null, "superficie_ha": 12.0, "datum_original": "PSAD56", "huso": 19, "epsg_origen": 24879, "tipo_publicacion": "manifestacion", "fuente_pdf": "http://www.diariooficial.interior.gob.cl/publicaciones/2026/07/29/44511/07/2844316.pdf", "archivo": "gm_manifestacion_2844316.pdf", "fecha": "29-07-2026", "edicion": "44511" }, "geometry": { "type": "Polygon", "coordinates": [ [ [ -71.240987736224312, -31.003834611995018 ], [ -71.238894280871818, -31.003870939371943 ], [ -71.239020759817407, -31.00928070112521 ], [ -71.241114333191547, -31.009244366019363 ], [ -71.240987736224312, -31.003834611995018 ] ] ] } },
{ "type": "Feature", "properties": { "cve": "2844463", "nombre": "CAMAN 28 D, 1 AL 200", "solicitante": "AR Caman SpA", "region": "REGIÓN DE LOS RÍOS", "provincia": "Provincia de Valdivia", "comuna": null, "superficie_ha": 200.0, "datum_original": "PSAD56", "huso": 18, "epsg_origen": 24878, "tipo_publicacion": "manifestacion", "fuente_pdf": "http://www.diariooficial.interior.gob.cl/publicaciones/2026/07/29/44511/07/2844463.pdf", "archivo": "gm_manifestacion_2844463.pdf", "fecha": "29-07-2026", "edicion": "44511" }, "geometry": { "type": "Polygon", "coordinates": [ [ [ -73.012193223412226, -39.947866713882533 ], [ -72.988795222270539, -39.947463051552994 ], [ -72.988531399599879, -39.956467324094866 ], [ -73.011932465050791, -39.956871114477082 ], [ -73.012193223412226, -39.947866713882533 ] ] ] } },
{ "type": "Feature", "properties": { "cve": "2844344", "nombre": "RAMONA 1/20", "solicitante": "Ghiglino Saltori Sergio", "region": "REGIÓN DE ATACAMA", "provincia": "Provincia de Copiapó", "comuna": null, "superficie_ha": 100.0, "datum_original": "PSAD56", "huso": 19, "epsg_origen": 24879, "tipo_publicacion": "mensura", "fuente_pdf": "http://www.diariooficial.interior.gob.cl/publicaciones/2026/07/29/44511/07/2844344.pdf", "archivo": "gm_mensura_2844344.pdf", "fecha": "29-07-2026", "edicion": "44511" }, "geometry": { "type": "Polygon", "coordinates": [ [ [ -70.561914855847817, -27.500788592089357 ], [ -70.551794263626235, -27.500901838636363 ], [ -70.551920880380365, -27.509926460434826 ], [ -70.562042297563536, -27.509813170527899 ], [ -70.561914855847817, -27.500788592089357 ] ] ] } },
{ "type": "Feature", "properties": { "cve": "2844759", "nombre": "CERRO PEINETA 12", "solicitante": "Verai Chile SpA", "region": "REGIÓN DE ANTOFAGASTA", "provincia": "Provincia de Antofagasta", "comuna": "Taltal", "superficie_ha": 300.0, "datum_original": "PSAD56", "huso": 19, "epsg_origen": 24879, "tipo_publicacion": "pedimento", "fuente_pdf": "http://www.diariooficial.interior.gob.cl/publicaciones/2026/07/29/44511/07/2844759.pdf", "archivo": "gm_pedimento_2844759.pdf", "fecha": "29-07-2026", "edicion": "44511" }, "geometry": { "type": "Polygon", "coordinates": [ [ [ -69.95652431611083, -25.434194014428275 ], [ -69.946580703644173, -25.434258413509749 ], [ -69.946792507239053, -25.461346070698422 ], [ -69.956738343830921, -25.46128159341113 ], [ -69.95652431611083, -25.434194014428275 ] ] ] } },
{ "type": "Feature", "properties": { "cve": "2844760", "nombre": "CERRO PEINETA 13", "solicitante": "Verai Chile SpA", "region": "REGIÓN DE ANTOFAGASTA", "provincia": "Provincia de Antofagasta", "comuna": "Taltal", "superficie_ha": 300.0, "datum_original": "PSAD56", "huso": 19, "epsg_origen": 24879, "tipo_publicacion": "pedimento", "fuente_pdf": "http://www.diariooficial.interior.gob.cl/publicaciones/2026/07/29/44511/07/2844760.pdf", "archivo": "gm_pedimento_2844760.pdf", "fecha": "29-07-2026", "edicion": "44511" }, "geometry": { "type": "Polygon", "coordinates": [ [ [ -69.946651270930133, -25.443287643948331 ], [ -69.936706883536061, -25.443351396067886 ], [ -69.93691656366326, -25.470439096523744 ], [ -69.946863176284069, -25.470375267004066 ], [ -69.946651270930133, -25.443287643948331 ] ] ] } },
{ "type": "Feature", "properties": { "cve": "2844761", "nombre": "CERRO PEINETA 14", "solicitante": "Verai Chile SpA", "region": "REGIÓN DE ANTOFAGASTA", "provincia": "Provincia de Antofagasta", "comuna": "Taltal", "superficie_ha": 300.0, "datum_original": "PSAD56", "huso": 19, "epsg_origen": 24879, "tipo_publicacion": "pedimento", "fuente_pdf": "http://www.diariooficial.interior.gob.cl/publicaciones/2026/07/29/44511/07/2844761.pdf", "archivo": "gm_pedimento_2844761.pdf", "fecha": "29-07-2026", "edicion": "44511" }, "geometry": { "type": "Polygon", "coordinates": [ [ [ -69.936706883536061, -25.443351396067886 ], [ -69.926762462589608, -25.443414475151812 ], [ -69.926969917457299, -25.470502252190787 ], [ -69.93691656366326, -25.470439096523744 ], [ -69.936706883536061, -25.443351396067886 ] ] ] } },
{ "type": "Feature", "properties": { "cve": "2844762", "nombre": "CERRO PEINETA 15", "solicitante": "Verai Chile SpA", "region": "REGIÓN DE ANTOFAGASTA", "provincia": "Provincia de Antofagasta", "comuna": "Taltal", "superficie_ha": 300.0, "datum_original": "PSAD56", "huso": 19, "epsg_origen": 24879, "tipo_publicacion": "pedimento", "fuente_pdf": "http://www.diariooficial.interior.gob.cl/publicaciones/2026/07/29/44511/07/2844762.pdf", "archivo": "gm_pedimento_2844762.pdf", "fecha": "29-07-2026", "edicion": "44511" }, "geometry": { "type": "Polygon", "coordinates": [ [ [ -69.926762462589608, -25.443414475151812 ], [ -69.91681800844681, -25.443476881191341 ], [ -69.917023238022551, -25.470564733996362 ], [ -69.926969917457299, -25.470502252190787 ], [ -69.926762462589608, -25.443414475151812 ] ] ] } },
{ "type": "Feature", "properties": { "cve": "2844763", "nombre": "CERRO PEINETA 16", "solicitante": "Verai Chile SpA", "region": "REGIÓN DE ANTOFAGASTA", "provincia": "Provincia de Antofagasta", "comuna": "Taltal", "superficie_ha": 300.0, "datum_original": "PSAD56", "huso": 19, "epsg_origen": 24879, "tipo_publicacion": "pedimento", "fuente_pdf": "http://www.diariooficial.interior.gob.cl/publicaciones/2026/07/29/44511/07/2844763.pdf", "archivo": "gm_pedimento_2844763.pdf", "fecha": "29-07-2026", "edicion": "44511" }, "geometry": { "type": "Polygon", "coordinates": [ [ [ -69.91681800844681, -25.443476881191341 ], [ -69.906873521463652, -25.443538614177765 ], [ -69.907076525715382, -25.470626541931765 ], [ -69.917023238022551, -25.470564733996362 ], [ -69.91681800844681, -25.443476881191341 ] ] ] } },
{ "type": "Feature", "properties": { "cve": "2844764", "nombre": "CERRO PEINETA 17", "solicitante": "Verai Chile SpA", "region": "REGIÓN DE ANTOFAGASTA", "provincia": "Provincia de Antofagasta", "comuna": "Taltal", "superficie_ha": 300.0, "datum_original": "PSAD56", "huso": 19, "epsg_origen": 24879, "tipo_publicacion": "pedimento", "fuente_pdf": "http://www.diariooficial.interior.gob.cl/publicaciones/2026/07/29/44511/07/2844764.pdf", "archivo": "gm_pedimento_2844764.pdf", "fecha": "29-07-2026", "edicion": "44511" }, "geometry": { "type": "Polygon", "coordinates": [ [ [ -69.906873521463652, -25.443538614177765 ], [ -69.896929001996241, -25.443599674102483 ], [ -69.8971297808922, -25.470687675988373 ], [ -69.907076525715382, -25.470626541931765 ], [ -69.906873521463652, -25.443538614177765 ] ] ] } },
{ "type": "Feature", "properties": { "cve": "2844765", "nombre": "CERRO PEINETA 18", "solicitante": "Verai Chile SpA", "region": "REGIÓN DE ANTOFAGASTA", "provincia": "Provincia de Antofagasta", "comuna": "Taltal", "superficie_ha": 300.0, "datum_original": "PSAD56", "huso": 19, "epsg_origen": 24879, "tipo_publicacion": "pedimento", "fuente_pdf": "http://www.diariooficial.interior.gob.cl/publicaciones/2026/07/29/44511/07/2844765.pdf", "archivo": "gm_pedimento_2844765.pdf", "fecha": "29-07-2026", "edicion": "44511" }, "geometry": { "type": "Polygon", "coordinates": [ [ [ -69.896929001996241, -25.443599674102483 ], [ -69.886984450400575, -25.443660060956972 ], [ -69.887183003909385, -25.470748136157674 ], [ -69.8971297808922, -25.470687675988373 ], [ -69.896929001996241, -25.443599674102483 ] ] ] } },
{ "type": "Feature", "properties": { "cve": "2844766", "nombre": "CERRO PEINETA 19", "solicitante": "Verai Chile SpA", "region": "REGIÓN DE ANTOFAGASTA", "provincia": "Provincia de Antofagasta", "comuna": "Taltal", "superficie_ha": 300.0, "datum_original": "PSAD56", "huso": 19, "epsg_origen": 24879, "tipo_publicacion": "pedimento", "fuente_pdf": "http://www.diariooficial.interior.gob.cl/publicaciones/2026/07/29/44511/07/2844766.pdf", "archivo": "gm_pedimento_2844766.pdf", "fecha": "29-07-2026", "edicion": "44511" }, "geometry": { "type": "Polygon", "coordinates": [ [ [ -69.886984450400575, -25.443660060956972 ], [ -69.877039867032735, -25.443719774732845 ], [ -69.877236195123331, -25.470807922431241 ], [ -69.887183003909385, -25.470748136157674 ], [ -69.886984450400575, -25.443660060956972 ] ] ] } },
{ "type": "Feature", "properties": { "cve": "2844767", "nombre": "CERRO PEINETA 20", "solicitante": "Verai Chile SpA", "region": "REGIÓN DE ANTOFAGASTA", "provincia": "Provincia de Antofagasta", "comuna": "Taltal", "superficie_ha": 300.0, "datum_original": "PSAD56", "huso": 19, "epsg_origen": 24879, "tipo_publicacion": "pedimento", "fuente_pdf": "http://www.diariooficial.interior.gob.cl/publicaciones/2026/07/29/44511/07/2844767.pdf", "archivo": "gm_pedimento_2844767.pdf", "fecha": "29-07-2026", "edicion": "44511" }, "geometry": { "type": "Polygon", "coordinates": [ [ [ -69.87717072099305, -25.46177855121935 ], [ -69.847332333927511, -25.461953795709029 ], [ -69.847395581509886, -25.47098323779467 ], [ -69.877236195123331, -25.470807922431241 ], [ -69.87717072099305, -25.46177855121935 ] ] ] } },
{ "type": "Feature", "properties": { "cve": "2844768", "nombre": "CERRO PEINETA 21", "solicitante": "Verai Chile SpA", "region": "REGIÓN DE ANTOFAGASTA", "provincia": "Provincia de Antofagasta", "comuna": "Taltal", "superficie_ha": 300.0, "datum_original": "PSAD56", "huso": 19, "epsg_origen": 24879, "tipo_publicacion": "pedimento", "fuente_pdf": "http://www.diariooficial.interior.gob.cl/publicaciones/2026/07/29/44511/07/2844768.pdf", "archivo": "gm_pedimento_2844768.pdf", "fecha": "29-07-2026", "edicion": "44511" }, "geometry": { "type": "Polygon", "coordinates": [ [ [ -69.847332333927511, -25.461953795709029 ], [ -69.817493673552903, -25.462122977294523 ], [ -69.817554694498369, -25.471152487802087 ], [ -69.847395581509886, -25.47098323779467 ], [ -69.847332333927511, -25.461953795709029 ] ] ] } },
{ "type": "Feature", "properties": { "cve": "2844769", "nombre": "CERRO PEINETA 22", "solicitante": "Verai Chile SpA", "region": "REGIÓN DE ANTOFAGASTA", "provincia": "Provincia de Antofagasta", "comuna": "Taltal", "superficie_ha": 300.0, "datum_original": "PSAD56", "huso": 19, "epsg_origen": 24879, "tipo_publicacion": "pedimento", "fuente_pdf": "http://www.diariooficial.interior.gob.cl/publicaciones/2026/07/29/44511/07/2844769.pdf", "archivo": "gm_pedimento_2844769.pdf", "fecha": "29-07-2026", "edicion": "44511" }, "geometry": { "type": "Polygon", "coordinates": [ [ [ -69.956738343830921, -25.46128159341113 ], [ -69.946792507239053, -25.461346070698422 ], [ -69.947004616210492, -25.488433625461933 ], [ -69.956952680133767, -25.488369069934784 ], [ -69.956738343830921, -25.46128159341113 ] ] ] } },
{ "type": "Feature", "properties": { "cve": "2844770", "nombre": "CERRO PEINETA 23", "solicitante": "Verai Chile SpA", "region": "REGIÓN DE ANTOFAGASTA", "provincia": "Provincia de Antofagasta", "comuna": "Taltal", "superficie_ha": 300.0, "datum_original": "PSAD56", "huso": 19, "epsg_origen": 24879, "tipo_publicacion": "pedimento", "fuente_pdf": "http://www.diariooficial.interior.gob.cl/publicaciones/2026/07/29/44511/07/2844770.pdf", "archivo": "gm_pedimento_2844770.pdf", "fecha": "29-07-2026", "edicion": "44511" }, "geometry": { "type": "Polygon", "coordinates": [ [ [ -69.946863176284069, -25.470375267004066 ], [ -69.93691656366326, -25.470439096523744 ], [ -69.937126546059204, -25.497526694561845 ], [ -69.947075387114012, -25.49746278760831 ], [ -69.946863176284069, -25.470375267004066 ] ] ] } },
{ "type": "Feature", "properties": { "cve": "2844771", "nombre": "CERRO PEINETA 24", "solicitante": "Verai Chile SpA", "region": "REGIÓN DE ANTOFAGASTA", "provincia": "Provincia de Antofagasta", "comuna": "Taltal", "superficie_ha": 300.0, "datum_original": "PSAD56", "huso": 19, "epsg_origen": 24879, "tipo_publicacion": "pedimento", "fuente_pdf": "http://www.diariooficial.interior.gob.cl/publicaciones/2026/07/29/44511/07/2844771.pdf", "archivo": "gm_pedimento_2844771.pdf", "fecha": "29-07-2026", "edicion": "44511" }, "geometry": { "type": "Polygon", "coordinates": [ [ [ -69.93691656366326, -25.470439096523744 ], [ -69.926969917457299, -25.470502252190787 ], [ -69.927177671386389, -25.497589926845336 ], [ -69.937126546059204, -25.497526694561845 ], [ -69.93691656366326, -25.470439096523744 ] ] ] } },
{ "type": "Feature", "properties": { "cve": "2844772", "nombre": "CERRO PEINETA 25", "solicitante": "Verai Chile SpA", "region": "REGIÓN DE ANTOFAGASTA", "provincia": "Provincia de Antofagasta", "comuna": "Taltal", "superficie_ha": 300.0, "datum_original": "PSAD56", "huso": 19, "epsg_origen": 24879, "tipo_publicacion": "pedimento", "fuente_pdf": "http://www.diariooficial.interior.gob.cl/publicaciones/2026/07/29/44511/07/2844772.pdf", "archivo": "gm_pedimento_2844772.pdf", "fecha": "29-07-2026", "edicion": "44511" }, "geometry": { "type": "Polygon", "coordinates": [ [ [ -69.926969917457299, -25.470502252190787 ], [ -69.917023238022551, -25.470564733996362 ], [ -69.917228763452286, -25.497652484449944 ], [ -69.927177671386389, -25.497589926845336 ], [ -69.926969917457299, -25.470502252190787 ] ] ] } },
{ "type": "Feature", "properties": { "cve": "2844773", "nombre": "CERRO PEINETA 26", "solicitante": "Verai Chile SpA", "region": "REGIÓN DE ANTOFAGASTA", "provincia": "Provincia de Antofagasta", "comuna": "Taltal", "superficie_ha": 300.0, "datum_original": "PSAD56", "huso": 19, "epsg_origen": 24879, "tipo_publicacion": "pedimento", "fuente_pdf": "http://www.diariooficial.interior.gob.cl/publicaciones/2026/07/29/44511/07/2844773.pdf", "archivo": "gm_pedimento_2844773.pdf", "fecha": "29-07-2026", "edicion": "44511" }, "geometry": { "type": "Polygon", "coordinates": [ [ [ -69.917023238022551, -25.470564733996362 ], [ -69.907076525715382, -25.470626541931765 ], [ -69.907279822613617, -25.49771436736696 ], [ -69.917228763452286, -25.497652484449944 ], [ -69.917023238022551, -25.470564733996362 ] ] ] } },
{ "type": "Feature", "properties": { "cve": "2844774", "nombre": "CERRO PEINETA 27", "solicitante": "Verai Chile SpA", "region": "REGIÓN DE ANTOFAGASTA", "provincia": "Provincia de Antofagasta", "comuna": "Taltal", "superficie_ha": 300.0, "datum_original": "PSAD56", "huso": 19, "epsg_origen": 24879, "tipo_publicacion": "pedimento", "fuente_pdf": "http://www.diariooficial.interior.gob.cl/publicaciones/2026/07/29/44511/07/2844774.pdf", "archivo": "gm_pedimento_2844774.pdf", "fecha": "29-07-2026", "edicion": "44511" }, "geometry": { "type": "Polygon", "coordinates": [ [ [ -69.907076525715382, -25.470626541931765 ], [ -69.8971297808922, -25.470687675988373 ], [ -69.897330849227131, -25.497775575587756 ], [ -69.907279822613617, -25.49771436736696 ], [ -69.907076525715382, -25.470626541931765 ] ] ] } },
{ "type": "Feature", "properties": { "cve": "2844775", "nombre": "CERRO PEINETA 28", "solicitante": "Verai Chile SpA", "region": "REGIÓN DE ANTOFAGASTA", "provincia": "Provincia de Antofagasta", "comuna": "Taltal", "superficie_ha": 300.0, "datum_original": "PSAD56", "huso": 19, "epsg_origen": 24879, "tipo_publicacion": "pedimento", "fuente_pdf": "http://www.diariooficial.interior.gob.cl/publicaciones/2026/07/29/44511/07/2844775.pdf", "archivo": "gm_pedimento_2844775.pdf", "fecha": "29-07-2026", "edicion": "44511" }, "geometry": { "type": "Polygon", "coordinates": [ [ [ -69.8971297808922, -25.470687675988373 ], [ -69.887183003909385, -25.470748136157674 ], [ -69.887381843649578, -25.497836109103797 ], [ -69.897330849227131, -25.497775575587756 ], [ -69.8971297808922, -25.470687675988373 ] ] ] } },
{ "type": "Feature", "properties": { "cve": "2844776", "nombre": "CERRO PEINETA 29", "solicitante": "Verai Chile SpA", "region": "REGIÓN DE ANTOFAGASTA", "provincia": "Provincia de Antofagasta", "comuna": "Taltal", "superficie_ha": 300.0, "datum_original": "PSAD56", "huso": 19, "epsg_origen": 24879, "tipo_publicacion": "pedimento", "fuente_pdf": "http://www.diariooficial.interior.gob.cl/publicaciones/2026/07/29/44511/07/2844776.pdf", "archivo": "gm_pedimento_2844776.pdf", "fecha": "29-07-2026", "edicion": "44511" }, "geometry": { "type": "Polygon", "coordinates": [ [ [ -69.887183003909385, -25.470748136157674 ], [ -69.877236195123331, -25.470807922431241 ], [ -69.877432806237678, -25.497895967906643 ], [ -69.887381843649578, -25.497836109103797 ], [ -69.887183003909385, -25.470748136157674 ] ] ] } },
{ "type": "Feature", "properties": { "cve": "2844777", "nombre": "CERRO PEINETA 30", "solicitante": "Verai Chile SpA", "region": "REGIÓN DE ANTOFAGASTA", "provincia": "Provincia de Antofagasta", "comuna": "Taltal", "superficie_ha": 300.0, "datum_original": "PSAD56", "huso": 19, "epsg_origen": 24879, "tipo_publicacion": "pedimento", "fuente_pdf": "http://www.diariooficial.interior.gob.cl/publicaciones/2026/07/29/44511/07/2844777.pdf", "archivo": "gm_pedimento_2844777.pdf", "fecha": "29-07-2026", "edicion": "44511" }, "geometry": { "type": "Polygon", "coordinates": [ [ [ -69.877236195123331, -25.470807922431241 ], [ -69.847395581509886, -25.47098323779467 ], [ -69.847458859470095, -25.480012668532485 ], [ -69.877301700700713, -25.47983728228504 ], [ -69.877236195123331, -25.470807922431241 ] ] ] } },
{ "type": "Feature", "properties": { "cve": "2844778", "nombre": "CERRO PEINETA 31", "solicitante": "Verai Chile SpA", "region": "REGIÓN DE ANTOFAGASTA", "provincia": "Provincia de Antofagasta", "comuna": "Taltal", "superficie_ha": 300.0, "datum_original": "PSAD56", "huso": 19, "epsg_origen": 24879, "tipo_publicacion": "pedimento", "fuente_pdf": "http://www.diariooficial.interior.gob.cl/publicaciones/2026/07/29/44511/07/2844778.pdf", "archivo": "gm_pedimento_2844778.pdf", "fecha": "29-07-2026", "edicion": "44511" }, "geometry": { "type": "Polygon", "coordinates": [ [ [ -69.847395581509886, -25.47098323779467 ], [ -69.817554694498369, -25.471152487802087 ], [ -69.817615744752317, -25.480181986971736 ], [ -69.847458859470095, -25.480012668532485 ], [ -69.847395581509886, -25.47098323779467 ] ] ] } },
{ "type": "Feature", "properties": { "cve": "2844779", "nombre": "CERRO PEINETA 32", "solicitante": "Verai Chile SpA", "region": "REGIÓN DE ANTOFAGASTA", "provincia": "Provincia de Antofagasta", "comuna": "Taltal", "superficie_ha": 300.0, "datum_original": "PSAD56", "huso": 19, "epsg_origen": 24879, "tipo_publicacion": "pedimento", "fuente_pdf": "http://www.diariooficial.interior.gob.cl/publicaciones/2026/07/29/44511/07/2844779.pdf", "archivo": "gm_pedimento_2844779.pdf", "fecha": "29-07-2026", "edicion": "44511" }, "geometry": { "type": "Polygon", "coordinates": [ [ [ -69.877301700700713, -25.47983728228504 ], [ -69.867354117938859, -25.479896418555004 ], [ -69.867548593729396, -25.506984501660821 ], [ -69.877498406217782, -25.506925293668644 ], [ -69.877301700700713, -25.47983728228504 ] ] ] } },
{ "type": "Feature", "properties": { "cve": "2844780", "nombre": "CERRO PEINETA 33", "solicitante": "Verai Chile SpA", "region": "REGIÓN DE ANTOFAGASTA", "provincia": "Provincia de Antofagasta", "comuna": "Taltal", "superficie_ha": 300.0, "datum_original": "PSAD56", "huso": 19, "epsg_origen": 24879, "tipo_publicacion": "pedimento", "fuente_pdf": "http://www.diariooficial.interior.gob.cl/publicaciones/2026/07/29/44511/07/2844780.pdf", "archivo": "gm_pedimento_2844780.pdf", "fecha": "29-07-2026", "edicion": "44511" }, "geometry": { "type": "Polygon", "coordinates": [ [ [ -69.867354117938859, -25.479896418555004 ], [ -69.857406504076465, -25.4799548806402 ], [ -69.857598750110057, -25.507043034650632 ], [ -69.867548593729396, -25.506984501660821 ], [ -69.867354117938859, -25.479896418555004 ] ] ] } },
{ "type": "Feature", "properties": { "cve": "2844781", "nombre": "CERRO PEINETA 34", "solicitante": "Verai Chile SpA", "region": "REGIÓN DE ANTOFAGASTA", "provincia": "Provincia de Antofagasta", "comuna": "Taltal", "superficie_ha": 300.0, "datum_original": "PSAD56", "huso": 19, "epsg_origen": 24879, "tipo_publicacion": "pedimento", "fuente_pdf": "http://www.diariooficial.interior.gob.cl/publicaciones/2026/07/29/44511/07/2844781.pdf", "archivo": "gm_pedimento_2844781.pdf", "fecha": "29-07-2026", "edicion": "44511" }, "geometry": { "type": "Polygon", "coordinates": [ [ [ -69.877498406217782, -25.506925293668644 ], [ -69.867548593729396, -25.506984501660821 ], [ -69.867743349700945, -25.534072482470172 ], [ -69.877695395127773, -25.534013202724484 ], [ -69.877498406217782, -25.506925293668644 ] ] ] } },
{ "type": "Feature", "properties": { "cve": "2844432", "nombre": "SALAR INCA 1", "solicitante": "Miranda Arcos Francisco Nicolás", "region": "REGIÓN DE ANTOFAGASTA", "provincia": "Provincia de El Loa", "comuna": null, "superficie_ha": 300.0, "datum_original": "PSAD56", "huso": 19, "epsg_origen": 24879, "tipo_publicacion": "pedimento", "fuente_pdf": "http://www.diariooficial.interior.gob.cl/publicaciones/2026/07/29/44511/07/2844432.pdf", "archivo": "gm_pedimento_2844432.pdf", "fecha": "29-07-2026", "edicion": "44511" }, "geometry": { "type": "Polygon", "coordinates": [ [ [ -67.625596689127747, -24.126105036930262 ], [ -67.615758253442053, -24.126016182417342 ], [ -67.615466556511365, -24.153104383035043 ], [ -67.625307063822845, -24.153193349772092 ], [ -67.625596689127747, -24.126105036930262 ] ] ] } },
{ "type": "Feature", "properties": { "cve": "2844433", "nombre": "SALAR INCA 3", "solicitante": "Miranda Arcos Francisco Nicolás", "region": "REGIÓN DE ANTOFAGASTA", "provincia": "Provincia de El Loa", "comuna": null, "superficie_ha": 300.0, "datum_original": "PSAD56", "huso": 19, "epsg_origen": 24879, "tipo_publicacion": "pedimento", "fuente_pdf": "http://www.diariooficial.interior.gob.cl/publicaciones/2026/07/29/44511/07/2844433.pdf", "archivo": "gm_pedimento_2844433.pdf", "fecha": "29-07-2026", "edicion": "44511" }, "geometry": { "type": "Polygon", "coordinates": [ [ [ -67.606017692064142, -24.116897309745575 ], [ -67.596180042212865, -24.116807226479146 ], [ -67.595884347739045, -24.143895233686855 ], [ -67.605724068107847, -24.143985430761429 ], [ -67.606017692064142, -24.116897309745575 ] ] ] } },
{ "type": "Feature", "properties": { "cve": "2844434", "nombre": "SALAR INCA 4", "solicitante": "Miranda Arcos Francisco Nicolás", "region": "REGIÓN DE ANTOFAGASTA", "provincia": "Provincia de El Loa", "comuna": null, "superficie_ha": 300.0, "datum_original": "PSAD56", "huso": 19, "epsg_origen": 24879, "tipo_publicacion": "pedimento", "fuente_pdf": "http://www.diariooficial.interior.gob.cl/publicaciones/2026/07/29/44511/07/2844434.pdf", "archivo": "gm_pedimento_2844434.pdf", "fecha": "29-07-2026", "edicion": "44511" }, "geometry": { "type": "Polygon", "coordinates": [ [ [ -67.59622435872987, -24.11274401674887 ], [ -67.586387067680988, -24.112653317612416 ], [ -67.586089368687084, -24.139741225263155 ], [ -67.595928729749971, -24.139832039000357 ], [ -67.59622435872987, -24.11274401674887 ] ] ] } },
{ "type": "Feature", "properties": { "cve": "2844435", "nombre": "SALAR INCA 5", "solicitante": "Miranda Arcos Francisco Nicolás", "region": "REGIÓN DE ANTOFAGASTA", "provincia": "Provincia de El Loa", "comuna": null, "superficie_ha": 300.0, "datum_original": "PSAD56", "huso": 19, "epsg_origen": 24879, "tipo_publicacion": "pedimento", "fuente_pdf": "http://www.diariooficial.interior.gob.cl/publicaciones/2026/07/29/44511/07/2844435.pdf", "archivo": "gm_pedimento_2844435.pdf", "fecha": "29-07-2026", "edicion": "44511" }, "geometry": { "type": "Polygon", "coordinates": [ [ [ -67.586392025606656, -24.112201851634989 ], [ -67.576554817859076, -24.112110521496696 ], [ -67.576255056274974, -24.13919831542011 ], [ -67.586094333940224, -24.139289760957919 ], [ -67.586392025606656, -24.112201851634989 ] ] ] } },
{ "type": "Feature", "properties": { "cve": "2844436", "nombre": "SALAR INCA 6", "solicitante": "Miranda Arcos Francisco Nicolás", "region": "REGIÓN DE ANTOFAGASTA", "provincia": "Provincia de El Loa", "comuna": null, "superficie_ha": 300.0, "datum_original": "PSAD56", "huso": 19, "epsg_origen": 24879, "tipo_publicacion": "pedimento", "fuente_pdf": "http://www.diariooficial.interior.gob.cl/publicaciones/2026/07/29/44511/07/2844436.pdf", "archivo": "gm_pedimento_2844436.pdf", "fecha": "29-07-2026", "edicion": "44511" }, "geometry": { "type": "Polygon", "coordinates": [ [ [ -67.576629689099178, -24.10533855733517 ], [ -67.566793047508625, -24.105246623340332 ], [ -67.566491327478701, -24.132334326168337 ], [ -67.576330038177403, -24.132426376350359 ], [ -67.576629689099178, -24.10533855733517 ] ] ] } },
{ "type": "Feature", "properties": { "cve": "2844437", "nombre": "SALAR INCA 7", "solicitante": "Miranda Arcos Francisco Nicolás", "region": "REGIÓN DE ANTOFAGASTA", "provincia": "Provincia de El Loa", "comuna": null, "superficie_ha": 200.0, "datum_original": "PSAD56", "huso": 19, "epsg_origen": 24879, "tipo_publicacion": "pedimento", "fuente_pdf": "http://www.diariooficial.interior.gob.cl/publicaciones/2026/07/29/44511/07/2844437.pdf", "archivo": "gm_pedimento_2844437.pdf", "fecha": "29-07-2026", "edicion": "44511" }, "geometry": { "type": "Polygon", "coordinates": [ [ [ -67.566742791781891, -24.109761247450148 ], [ -67.556905855053984, -24.109668661274412 ], [ -67.556703328999063, -24.127727051836665 ], [ -67.566541645101665, -24.127819716003483 ], [ -67.566742791781891, -24.109761247450148 ] ] ] } },
{ "type": "Feature", "properties": { "cve": "2844438", "nombre": "SALAR INCA 8", "solicitante": "Miranda Arcos Francisco Nicolás", "region": "REGIÓN DE ANTOFAGASTA", "provincia": "Provincia de El Loa", "comuna": null, "superficie_ha": 300.0, "datum_original": "PSAD56", "huso": 19, "epsg_origen": 24879, "tipo_publicacion": "pedimento", "fuente_pdf": "http://www.diariooficial.interior.gob.cl/publicaciones/2026/07/29/44511/07/2844438.pdf", "archivo": "gm_pedimento_2844438.pdf", "fecha": "29-07-2026", "edicion": "44511" }, "geometry": { "type": "Polygon", "coordinates": [ [ [ -67.596327725754279, -24.103263185274216 ], [ -67.566818170731779, -24.10298931023998 ], [ -67.566717659277856, -24.112018558459511 ], [ -67.596229282181213, -24.112292548861834 ], [ -67.596327725754279, -24.103263185274216 ] ] ] } },
{ "type": "Feature", "properties": { "cve": "2844439", "nombre": "SALAR INCA 9", "solicitante": "Miranda Arcos Francisco Nicolás", "region": "REGIÓN DE ANTOFAGASTA", "provincia": "Provincia de El Loa", "comuna": null, "superficie_ha": 100.0, "datum_original": "PSAD56", "huso": 19, "epsg_origen": 24879, "tipo_publicacion": "pedimento", "fuente_pdf": "http://www.diariooficial.interior.gob.cl/publicaciones/2026/07/29/44511/07/2844439.pdf", "archivo": "gm_pedimento_2844439.pdf", "fecha": "29-07-2026", "edicion": "44511" }, "geometry": { "type": "Polygon", "coordinates": [ [ [ -67.593967146724779, -24.094211214624902 ], [ -67.584131280595855, -24.094120435676221 ], [ -67.584032024285648, -24.103149762626373 ], [ -67.593868579380285, -24.103240579826053 ], [ -67.593967146724779, -24.094211214624902 ] ] ] } },
{ "type": "Feature", "properties": { "cve": "2844482", "nombre": "MANKE AA", "solicitante": "Sáez Sáez Ana Carolina", "region": "REGIÓN DE ATACAMA", "provincia": "Provincia de Huasco", "comuna": null, "superficie_ha": 300.0, "datum_original": "PSAD56", "huso": 19, "epsg_origen": 24879, "tipo_publicacion": "pedimento", "fuente_pdf": "http://www.diariooficial.interior.gob.cl/publicaciones/2026/07/29/44511/07/2844482.pdf", "archivo": "gm_pedimento_2844482.pdf", "fecha": "29-07-2026", "edicion": "44511" }, "geometry": { "type": "Polygon", "coordinates": [ [ [ -71.180014114468861, -28.833601824067124 ], [ -71.14928438661228, -28.834095028861519 ], [ -71.149469809093276, -28.843114828220742 ], [ -71.180202182973204, -28.842621440504587 ], [ -71.180014114468861, -28.833601824067124 ] ] ] } },
{ "type": "Feature", "properties": { "cve": "2844483", "nombre": "MANKE BB", "solicitante": "Sáez Sáez Ana Carolina", "region": "REGIÓN DE ATACAMA", "provincia": "Provincia de Huasco", "comuna": null, "superficie_ha": 100.0, "datum_original": "PSAD56", "huso": 19, "epsg_origen": 24879, "tipo_publicacion": "pedimento", "fuente_pdf": "http://www.diariooficial.interior.gob.cl/publicaciones/2026/07/29/44511/07/2844483.pdf", "archivo": "gm_pedimento_2844483.pdf", "fecha": "29-07-2026", "edicion": "44511" }, "geometry": { "type": "Polygon", "coordinates": [ [ [ -71.154428017459352, -28.843035701450631 ], [ -71.144183763366186, -28.843198986030682 ], [ -71.14436881550624, -28.852218803341948 ], [ -71.154613952058398, -28.852055458214238 ], [ -71.154428017459352, -28.843035701450631 ] ] ] } },
{ "type": "Feature", "properties": { "cve": "2844484", "nombre": "MANKE CC", "solicitante": "Sáez Sáez Ana Carolina", "region": "REGIÓN DE ATACAMA", "provincia": "Provincia de Huasco", "comuna": null, "superficie_ha": 200.0, "datum_original": "PSAD56", "huso": 19, "epsg_origen": 24879, "tipo_publicacion": "pedimento", "fuente_pdf": "http://www.diariooficial.interior.gob.cl/publicaciones/2026/07/29/44511/07/2844484.pdf", "archivo": "gm_pedimento_2844484.pdf", "fecha": "29-07-2026", "edicion": "44511" }, "geometry": { "type": "Polygon", "coordinates": [ [ [ -71.1851602668808, -28.84254118549995 ], [ -71.164672186345456, -28.842871639819645 ], [ -71.164859003372399, -28.851891335747641 ], [ -71.185348848669562, -28.851560758892941 ], [ -71.1851602668808, -28.84254118549995 ] ] ] } },
{ "type": "Feature", "properties": { "cve": "2844485", "nombre": "MANKE DD", "solicitante": "Sáez Sáez Ana Carolina", "region": "REGIÓN DE ATACAMA", "provincia": "Provincia de Huasco", "comuna": null, "superficie_ha": 100.0, "datum_original": "PSAD56", "huso": 19, "epsg_origen": 24879, "tipo_publicacion": "pedimento", "fuente_pdf": "http://www.diariooficial.interior.gob.cl/publicaciones/2026/07/29/44511/07/2844485.pdf", "archivo": "gm_pedimento_2844485.pdf", "fecha": "29-07-2026", "edicion": "44511" }, "geometry": { "type": "Polygon", "coordinates": [ [ [ -71.07787583536367, -28.85326001834466 ], [ -71.067630073228102, -28.853417540460136 ], [ -71.067808596582452, -28.8624377889392 ], [ -71.078055241809679, -28.862280208423357 ], [ -71.07787583536367, -28.85326001834466 ] ] ] } },
{ "type": "Feature", "properties": { "cve": "2844486", "nombre": "MANKE EE", "solicitante": "Sáez Sáez Ana Carolina", "region": "REGIÓN DE ATACAMA", "provincia": "Provincia de Huasco", "comuna": null, "superficie_ha": 100.0, "datum_original": "PSAD56", "huso": 19, "epsg_origen": 24879, "tipo_publicacion": "pedimento", "fuente_pdf": "http://www.diariooficial.interior.gob.cl/publicaciones/2026/07/29/44511/07/2844486.pdf", "archivo": "gm_pedimento_2844486.pdf", "fecha": "29-07-2026", "edicion": "44511" }, "geometry": { "type": "Polygon", "coordinates": [ [ [ -71.222353904912552, -28.849088179777553 ], [ -71.212109522461645, -28.849256654406318 ], [ -71.212300481759044, -28.858276055222134 ], [ -71.222545746780696, -28.858107518132535 ], [ -71.222353904912552, -28.849088179777553 ] ] ] } },
{ "type": "Feature", "properties": { "cve": "2844487", "nombre": "MANKE FF", "solicitante": "Sáez Sáez Ana Carolina", "region": "REGIÓN DE ATACAMA", "provincia": "Provincia de Huasco", "comuna": null, "superficie_ha": 100.0, "datum_original": "PSAD56", "huso": 19, "epsg_origen": 24879, "tipo_publicacion": "pedimento", "fuente_pdf": "http://www.diariooficial.interior.gob.cl/publicaciones/2026/07/29/44511/07/2844487.pdf", "archivo": "gm_pedimento_2844487.pdf", "fecha": "29-07-2026", "edicion": "44511" }, "geometry": { "type": "Polygon", "coordinates": [ [ [ -71.201866382744171, -28.849487488177822 ], [ -71.191621819518829, -28.849654408926586 ], [ -71.191811014185959, -28.858673933707227 ], [ -71.202056460048652, -28.858506951073398 ], [ -71.201866382744171, -28.849487488177822 ] ] ] } },
{ "type": "Feature", "properties": { "cve": "2844488", "nombre": "MANKE GG", "solicitante": "Sáez Sáez Ana Carolina", "region": "REGIÓN DE ATACAMA", "provincia": "Provincia de Huasco", "comuna": null, "superficie_ha": 100.0, "datum_original": "PSAD56", "huso": 19, "epsg_origen": 24879, "tipo_publicacion": "pedimento", "fuente_pdf": "http://www.diariooficial.interior.gob.cl/publicaciones/2026/07/29/44511/07/2844488.pdf", "archivo": "gm_pedimento_2844488.pdf", "fecha": "29-07-2026", "edicion": "44511" }, "geometry": { "type": "Polygon", "coordinates": [ [ [ -71.191621819518829, -28.849654408926586 ], [ -71.181377169600538, -28.849820552480477 ], [ -71.181565481598653, -28.858840138858238 ], [ -71.191811014185959, -28.858673933707227 ], [ -71.191621819518829, -28.849654408926586 ] ] ] } },
{ "type": "Feature", "properties": { "cve": "2844489", "nombre": "MANKE HH", "solicitante": "Sáez Sáez Ana Carolina", "region": "REGIÓN DE ATACAMA", "provincia": "Provincia de Huasco", "comuna": null, "superficie_ha": 100.0, "datum_original": "PSAD56", "huso": 19, "epsg_origen": 24879, "tipo_publicacion": "pedimento", "fuente_pdf": "http://www.diariooficial.interior.gob.cl/publicaciones/2026/07/29/44511/07/2844489.pdf", "archivo": "gm_pedimento_2844489.pdf", "fecha": "29-07-2026", "edicion": "44511" }, "geometry": { "type": "Polygon", "coordinates": [ [ [ -71.164978701405204, -28.850743531976978 ], [ -71.15473376337809, -28.850907657598938 ], [ -71.15491978474769, -28.859927401934687 ], [ -71.165165605555018, -28.859763215464167 ], [ -71.164978701405204, -28.850743531976978 ] ] ] } },
{ "type": "Feature", "properties": { "cve": "2844490", "nombre": "MANKE KK", "solicitante": "Sáez Sáez Ana Carolina", "region": "REGIÓN DE ATACAMA", "provincia": "Provincia de Huasco", "comuna": null, "superficie_ha": 200.0, "datum_original": "PSAD56", "huso": 19, "epsg_origen": 24879, "tipo_publicacion": "pedimento", "fuente_pdf": "http://www.diariooficial.interior.gob.cl/publicaciones/2026/07/29/44511/07/2844490.pdf", "archivo": "gm_pedimento_2844490.pdf", "fecha": "29-07-2026", "edicion": "44511" }, "geometry": { "type": "Polygon", "coordinates": [ [ [ -71.144160267813959, -28.842053468283911 ], [ -71.123671729720982, -28.842377690928849 ], [ -71.123855006181159, -28.85139763015178 ], [ -71.144345309182256, -28.851073287277991 ], [ -71.144160267813959, -28.842053468283911 ] ] ] } },
{ "type": "Feature", "properties": { "cve": "2844491", "nombre": "MANKE LL", "solicitante": "Sáez Sáez Ana Carolina", "region": "REGIÓN DE ATACAMA", "provincia": "Provincia de Huasco", "comuna": null, "superficie_ha": 200.0, "datum_original": "PSAD56", "huso": 19, "epsg_origen": 24879, "tipo_publicacion": "pedimento", "fuente_pdf": "http://www.diariooficial.interior.gob.cl/publicaciones/2026/07/29/44511/07/2844491.pdf", "archivo": "gm_pedimento_2844491.pdf", "fecha": "29-07-2026", "edicion": "44511" }, "geometry": { "type": "Polygon", "coordinates": [ [ [ -71.141631176925117, -28.81863440765121 ], [ -71.131389225631168, -28.818796595619276 ], [ -71.131756836464973, -28.836836433745518 ], [ -71.142000550952261, -28.836674125418345 ], [ -71.141631176925117, -28.81863440765121 ] ] ] } },
{ "type": "Feature", "properties": { "cve": "2844492", "nombre": "MANKE MM", "solicitante": "Sáez Sáez Ana Carolina", "region": "REGIÓN DE ATACAMA", "provincia": "Provincia de Huasco", "comuna": null, "superficie_ha": 100.0, "datum_original": "PSAD56", "huso": 19, "epsg_origen": 24879, "tipo_publicacion": "pedimento", "fuente_pdf": "http://www.diariooficial.interior.gob.cl/publicaciones/2026/07/29/44511/07/2844492.pdf", "archivo": "gm_pedimento_2844492.pdf", "fecha": "29-07-2026", "edicion": "44511" }, "geometry": { "type": "Polygon", "coordinates": [ [ [ -71.165264138512782, -28.864516583320508 ], [ -71.155017852317613, -28.864680801862356 ], [ -71.155204003908977, -28.873700525940883 ], [ -71.165451173501651, -28.873536246534808 ], [ -71.165264138512782, -28.864516583320508 ] ] ] } },
{ "type": "Feature", "properties": { "cve": "2844493", "nombre": "MANKE NN", "solicitante": "Sáez Sáez Ana Carolina", "region": "REGIÓN DE ATACAMA", "provincia": "Provincia de Huasco", "comuna": null, "superficie_ha": 100.0, "datum_original": "PSAD56", "huso": 19, "epsg_origen": 24879, "tipo_publicacion": "pedimento", "fuente_pdf": "http://www.diariooficial.interior.gob.cl/publicaciones/2026/07/29/44511/07/2844493.pdf", "archivo": "gm_pedimento_2844493.pdf", "fecha": "29-07-2026", "edicion": "44511" }, "geometry": { "type": "Polygon", "coordinates": [ [ [ -71.156608448308432, -28.865765152453289 ], [ -71.14636198120931, -28.865928719705121 ], [ -71.146547394988957, -28.874948493479359 ], [ -71.156794745561754, -28.874784865606024 ], [ -71.156608448308432, -28.865765152453289 ] ] ] } },
{ "type": "Feature", "properties": { "cve": "2844494", "nombre": "MANKE PP", "solicitante": "Sáez Sáez Ana Carolina", "region": "REGIÓN DE ATACAMA", "provincia": "Provincia de Huasco", "comuna": null, "superficie_ha": 100.0, "datum_original": "PSAD56", "huso": 19, "epsg_origen": 24879, "tipo_publicacion": "pedimento", "fuente_pdf": "http://www.diariooficial.interior.gob.cl/publicaciones/2026/07/29/44511/07/2844494.pdf", "archivo": "gm_pedimento_2844494.pdf", "fecha": "29-07-2026", "edicion": "44511" }, "geometry": { "type": "Polygon", "coordinates": [ [ [ -71.219553581267363, -28.86970561881655 ], [ -71.209307158248535, -28.869873990088923 ], [ -71.209498037977383, -28.878893380209202 ], [ -71.219745344498662, -28.87872494654302 ], [ -71.219553581267363, -28.86970561881655 ] ] ] } },
{ "type": "Feature", "properties": { "cve": "2844495", "nombre": "MANKE RR", "solicitante": "Sáez Sáez Ana Carolina", "region": "REGIÓN DE ATACAMA", "provincia": "Provincia de Huasco", "comuna": null, "superficie_ha": 100.0, "datum_original": "PSAD56", "huso": 19, "epsg_origen": 24879, "tipo_publicacion": "pedimento", "fuente_pdf": "http://www.diariooficial.interior.gob.cl/publicaciones/2026/07/29/44511/07/2844495.pdf", "archivo": "gm_pedimento_2844495.pdf", "fecha": "29-07-2026", "edicion": "44511" }, "geometry": { "type": "Polygon", "coordinates": [ [ [ -71.112822318440379, -28.863300679873316 ], [ -71.102575800849664, -28.863460907315769 ], [ -71.102757415368373, -28.87248094115024 ], [ -71.113004816422645, -28.87232065431914 ], [ -71.112822318440379, -28.863300679873316 ] ] ] } },
{ "type": "Feature", "properties": { "cve": "2844496", "nombre": "SATURNO NC", "solicitante": "Sociedad Minera Cerro del León SpA", "region": "REGIÓN DE ATACAMA", "provincia": "Provincia de Huasco", "comuna": null, "superficie_ha": 100.0, "datum_original": "PSAD56", "huso": 19, "epsg_origen": 24879, "tipo_publicacion": "pedimento", "fuente_pdf": "http://www.diariooficial.interior.gob.cl/publicaciones/2026/07/29/44511/07/2844496.pdf", "archivo": "gm_pedimento_2844496.pdf", "fecha": "29-07-2026", "edicion": "44511" }, "geometry": { "type": "Polygon", "coordinates": [ [ [ -71.112822318440379, -28.863300679873316 ], [ -71.102575800849664, -28.863460907315769 ], [ -71.102757415368373, -28.87248094115024 ], [ -71.113004816422645, -28.87232065431914 ], [ -71.112822318440379, -28.863300679873316 ] ] ] } },
{ "type": "Feature", "properties": { "cve": "2844345", "nombre": "CUPRITA 01", "solicitante": "Fürst Gwinner Paul Javier", "region": "REGIÓN DEL LIBERTADOR GENERAL BERNARDO O’HIGGINS", "provincia": "Provincia de Cachapoal", "comuna": null, "superficie_ha": 300.0, "datum_original": "PSAD56", "huso": 19, "epsg_origen": 24879, "tipo_publicacion": "pedimento", "fuente_pdf": "http://www.diariooficial.interior.gob.cl/publicaciones/2026/07/29/44511/07/2844345.pdf", "archivo": "gm_pedimento_2844345.pdf", "fecha": "29-07-2026", "edicion": "44511" }, "geometry": { "type": "Polygon", "coordinates": [ [ [ -70.558878786480392, -34.460977619084105 ], [ -70.547995084959908, -34.461115941282578 ], [ -70.548494657129041, -34.488160486552182 ], [ -70.559381867603349, -34.488022025179646 ], [ -70.558878786480392, -34.460977619084105 ] ] ] } },
{ "type": "Feature", "properties": { "cve": "2844346", "nombre": "CUPRITA 04", "solicitante": "Fürst Gwinner Paul Javier", "region": "REGIÓN DEL LIBERTADOR GENERAL BERNARDO O’HIGGINS", "provincia": "Provincia de Cachapoal", "comuna": null, "superficie_ha": 300.0, "datum_original": "PSAD56", "huso": 19, "epsg_origen": 24879, "tipo_publicacion": "pedimento", "fuente_pdf": "http://www.diariooficial.interior.gob.cl/publicaciones/2026/07/29/44511/07/2844346.pdf", "archivo": "gm_pedimento_2844346.pdf", "fecha": "29-07-2026", "edicion": "44511" }, "geometry": { "type": "Polygon", "coordinates": [ [ [ -70.614512037470433, -34.523373240595248 ], [ -70.581837254366761, -34.523800829293755 ], [ -70.582007741060337, -34.532815452617506 ], [ -70.614686042083378, -34.532387720668119 ], [ -70.614512037470433, -34.523373240595248 ] ] ] } },
{ "type": "Feature", "properties": { "cve": "2844347", "nombre": "CUPRITA 05", "solicitante": "Fürst Gwinner Paul Javier", "region": "REGIÓN DEL LIBERTADOR GENERAL BERNARDO O’HIGGINS", "provincia": "Provincia de Cachapoal", "comuna": null, "superficie_ha": 200.0, "datum_original": "PSAD56", "huso": 19, "epsg_origen": 24879, "tipo_publicacion": "pedimento", "fuente_pdf": "http://www.diariooficial.interior.gob.cl/publicaciones/2026/07/29/44511/07/2844347.pdf", "archivo": "gm_pedimento_2844347.pdf", "fecha": "29-07-2026", "edicion": "44511" }, "geometry": { "type": "Polygon", "coordinates": [ [ [ -70.625403477982914, -34.52322876990614 ], [ -70.614512037470433, -34.523373240595248 ], [ -70.614860124004664, -34.541402186545014 ], [ -70.625753910184017, -34.541257619045084 ], [ -70.625403477982914, -34.52322876990614 ] ] ] } },
{ "type": "Feature", "properties": { "cve": "2844348", "nombre": "CUPRITA 06", "solicitante": "Fürst Gwinner Paul Javier", "region": "REGIÓN DEL LIBERTADOR GENERAL BERNARDO O’HIGGINS", "provincia": "Provincia de Cachapoal", "comuna": null, "superficie_ha": 300.0, "datum_original": "PSAD56", "huso": 19, "epsg_origen": 24879, "tipo_publicacion": "pedimento", "fuente_pdf": "http://www.diariooficial.interior.gob.cl/publicaciones/2026/07/29/44511/07/2844348.pdf", "archivo": "gm_pedimento_2844348.pdf", "fecha": "29-07-2026", "edicion": "44511" }, "geometry": { "type": "Polygon", "coordinates": [ [ [ -70.625753910184017, -34.541257619045084 ], [ -70.614860124004664, -34.541402186545014 ], [ -70.615382833953461, -34.568445498979955 ], [ -70.626280142539528, -34.568300786186931 ], [ -70.625753910184017, -34.541257619045084 ] ] ] } },
{ "type": "Feature", "properties": { "cve": "2844349", "nombre": "CUPRITA 20", "solicitante": "Fürst Gwinner Paul Javier", "region": "REGIÓN DEL LIBERTADOR GENERAL BERNARDO O’HIGGINS", "provincia": "Provincia de Cachapoal", "comuna": null, "superficie_ha": 300.0, "datum_original": "PSAD56", "huso": 19, "epsg_origen": 24879, "tipo_publicacion": "pedimento", "fuente_pdf": "http://www.diariooficial.interior.gob.cl/publicaciones/2026/07/29/44511/07/2844349.pdf", "archivo": "gm_pedimento_2844349.pdf", "fecha": "29-07-2026", "edicion": "44511" }, "geometry": { "type": "Polygon", "coordinates": [ [ [ -70.559381867603349, -34.488022025179646 ], [ -70.548494657129041, -34.488160486552182 ], [ -70.548994895515364, -34.515204904686904 ], [ -70.559885619619592, -34.515066304052091 ], [ -70.559381867603349, -34.488022025179646 ] ] ] } },
{ "type": "Feature", "properties": { "cve": "2844350", "nombre": "CUPRITA 30", "solicitante": "Fürst Gwinner Paul Javier", "region": "REGIÓN DEL LIBERTADOR GENERAL BERNARDO O’HIGGINS", "provincia": "Provincia de Cachapoal", "comuna": null, "superficie_ha": 300.0, "datum_original": "PSAD56", "huso": 19, "epsg_origen": 24879, "tipo_publicacion": "pedimento", "fuente_pdf": "http://www.diariooficial.interior.gob.cl/publicaciones/2026/07/29/44511/07/2844350.pdf", "archivo": "gm_pedimento_2844350.pdf", "fecha": "29-07-2026", "edicion": "44511" }, "geometry": { "type": "Polygon", "coordinates": [ [ [ -70.570438016944095, -34.496897321475892 ], [ -70.559549710355398, -34.497036798942332 ], [ -70.560053686196312, -34.524081035395206 ], [ -70.570945507878079, -34.523941417662336 ], [ -70.570438016944095, -34.496897321475892 ] ] ] } },
{ "type": "Feature", "properties": { "cve": "2844351", "nombre": "CUPRITA 35", "solicitante": "Fürst Gwinner Paul Javier", "region": "REGIÓN DEL LIBERTADOR GENERAL BERNARDO O’HIGGINS", "provincia": "Provincia de Cachapoal", "comuna": null, "superficie_ha": 200.0, "datum_original": "PSAD56", "huso": 19, "epsg_origen": 24879, "tipo_publicacion": "pedimento", "fuente_pdf": "http://www.diariooficial.interior.gob.cl/publicaciones/2026/07/29/44511/07/2844351.pdf", "archivo": "gm_pedimento_2844351.pdf", "fecha": "29-07-2026", "edicion": "44511" }, "geometry": { "type": "Polygon", "coordinates": [ [ [ -70.604139246098825, -34.550560282623032 ], [ -70.59324413207581, -34.550702955477888 ], [ -70.59358798497621, -34.568732008027119 ], [ -70.6044854479252, -34.568589239600882 ], [ -70.604139246098825, -34.550560282623032 ] ] ] } },
{ "type": "Feature", "properties": { "cve": "2844590", "nombre": "Valentina 1", "solicitante": "Piro Vergara Alejandra Carolina", "region": "REGIÓN DEL BIOBÍO", "provincia": "Provincia de Concepción", "comuna": null, "superficie_ha": 200.0, "datum_original": "PSAD56", "huso": 18, "epsg_origen": 24878, "tipo_publicacion": "pedimento", "fuente_pdf": "http://www.diariooficial.interior.gob.cl/publicaciones/2026/07/29/44511/07/2844590.pdf", "archivo": "gm_pedimento_2844590.pdf", "fecha": "29-07-2026", "edicion": "44511" }, "geometry": { "type": "Polygon", "coordinates": [ [ [ -72.869927772179707, -36.625247038101314 ], [ -72.847574849241141, -36.624845186460178 ], [ -72.847324219802175, -36.633853794586585 ], [ -72.869679740702054, -36.63425577739838 ], [ -72.869927772179707, -36.625247038101314 ] ] ] } },
{ "type": "Feature", "properties": { "cve": "2844599", "nombre": "Valentina 10", "solicitante": "Piro Vergara Alejandra Carolina", "region": "REGIÓN DEL BIOBÍO", "provincia": "Provincia de Concepción", "comuna": null, "superficie_ha": 200.0, "datum_original": "PSAD56", "huso": 18, "epsg_origen": 24878, "tipo_publicacion": "pedimento", "fuente_pdf": "http://www.diariooficial.interior.gob.cl/publicaciones/2026/07/29/44511/07/2844599.pdf", "archivo": "gm_pedimento_2844599.pdf", "fecha": "29-07-2026", "edicion": "44511" }, "geometry": { "type": "Polygon", "coordinates": [ [ [ -72.815263763152117, -36.660309153551104 ], [ -72.79290151984813, -36.659896710347915 ], [ -72.792644199275131, -36.668904936879571 ], [ -72.815009044659263, -36.669317514654928 ], [ -72.815263763152117, -36.660309153551104 ] ] ] } },
{ "type": "Feature", "properties": { "cve": "2844600", "nombre": "Valentina 11", "solicitante": "Piro Vergara Alejandra Carolina", "region": "REGIÓN DEL BIOBÍO", "provincia": "Provincia de Concepción", "comuna": null, "superficie_ha": 300.0, "datum_original": "PSAD56", "huso": 18, "epsg_origen": 24878, "tipo_publicacion": "pedimento", "fuente_pdf": "http://www.diariooficial.interior.gob.cl/publicaciones/2026/07/29/44511/07/2844600.pdf", "archivo": "gm_pedimento_2844600.pdf", "fecha": "29-07-2026", "edicion": "44511" }, "geometry": { "type": "Polygon", "coordinates": [ [ [ -72.848557160240006, -36.669928514411247 ], [ -72.815009044659263, -36.669317514654928 ], [ -72.814754212973568, -36.67832586048128 ], [ -72.848306233795682, -36.678937059578189 ], [ -72.848557160240006, -36.669928514411247 ] ] ] } },
{ "type": "Feature", "properties": { "cve": "2844601", "nombre": "Valentina 12", "solicitante": "Piro Vergara Alejandra Carolina", "region": "REGIÓN DEL BIOBÍO", "provincia": "Provincia de Concepción", "comuna": null, "superficie_ha": 200.0, "datum_original": "PSAD56", "huso": 18, "epsg_origen": 24878, "tipo_publicacion": "pedimento", "fuente_pdf": "http://www.diariooficial.interior.gob.cl/publicaciones/2026/07/29/44511/07/2844601.pdf", "archivo": "gm_pedimento_2844601.pdf", "fecha": "29-07-2026", "edicion": "44511" }, "geometry": { "type": "Polygon", "coordinates": [ [ [ -72.815009044659263, -36.669317514654928 ], [ -72.792644199275131, -36.668904936879571 ], [ -72.792386764354831, -36.677913148102888 ], [ -72.814754212973568, -36.67832586048128 ], [ -72.815009044659263, -36.669317514654928 ] ] ] } },
{ "type": "Feature", "properties": { "cve": "2844602", "nombre": "Valentina 13", "solicitante": "Piro Vergara Alejandra Carolina", "region": "REGIÓN DEL BIOBÍO", "provincia": "Provincia de Concepción", "comuna": null, "superficie_ha": 300.0, "datum_original": "PSAD56", "huso": 18, "epsg_origen": 24878, "tipo_publicacion": "pedimento", "fuente_pdf": "http://www.diariooficial.interior.gob.cl/publicaciones/2026/07/29/44511/07/2844602.pdf", "archivo": "gm_pedimento_2844602.pdf", "fecha": "29-07-2026", "edicion": "44511" }, "geometry": { "type": "Polygon", "coordinates": [ [ [ -72.848306233795682, -36.678937059578189 ], [ -72.814754212973568, -36.67832586048128 ], [ -72.814499268043065, -36.687334191028064 ], [ -72.848055195839407, -36.687945589511287 ], [ -72.848306233795682, -36.678937059578189 ] ] ] } },
{ "type": "Feature", "properties": { "cve": "2844603", "nombre": "Valentina 14", "solicitante": "Piro Vergara Alejandra Carolina", "region": "REGIÓN DEL BIOBÍO", "provincia": "Provincia de Concepción", "comuna": null, "superficie_ha": 300.0, "datum_original": "PSAD56", "huso": 18, "epsg_origen": 24878, "tipo_publicacion": "pedimento", "fuente_pdf": "http://www.diariooficial.interior.gob.cl/publicaciones/2026/07/29/44511/07/2844603.pdf", "archivo": "gm_pedimento_2844603.pdf", "fecha": "29-07-2026", "edicion": "44511" }, "geometry": { "type": "Polygon", "coordinates": [ [ [ -72.814754212973568, -36.67832586048128 ], [ -72.781203211356868, -36.677705218120138 ], [ -72.780944359920539, -36.68671334620322 ], [ -72.814499268043065, -36.687334191028064 ], [ -72.814754212973568, -36.67832586048128 ] ] ] } },
{ "type": "Feature", "properties": { "cve": "2844604", "nombre": "Valentina 15", "solicitante": "Piro Vergara Alejandra Carolina", "region": "REGIÓN DEL BIOBÍO", "provincia": "Provincia de Concepción", "comuna": null, "superficie_ha": 300.0, "datum_original": "PSAD56", "huso": 18, "epsg_origen": 24878, "tipo_publicacion": "pedimento", "fuente_pdf": "http://www.diariooficial.interior.gob.cl/publicaciones/2026/07/29/44511/07/2844604.pdf", "archivo": "gm_pedimento_2844604.pdf", "fecha": "29-07-2026", "edicion": "44511" }, "geometry": { "type": "Polygon", "coordinates": [ [ [ -72.781203211356868, -36.677705218120138 ], [ -72.747653244538284, -36.677075133404514 ], [ -72.747390487071698, -36.686083055946938 ], [ -72.780944359920539, -36.68671334620322 ], [ -72.781203211356868, -36.677705218120138 ] ] ] } },
{ "type": "Feature", "properties": { "cve": "2844605", "nombre": "Valentina 16", "solicitante": "Piro Vergara Alejandra Carolina", "region": "REGIÓN DEL BIOBÍO", "provincia": "Provincia de Concepción", "comuna": null, "superficie_ha": 300.0, "datum_original": "PSAD56", "huso": 18, "epsg_origen": 24878, "tipo_publicacion": "pedimento", "fuente_pdf": "http://www.diariooficial.interior.gob.cl/publicaciones/2026/07/29/44511/07/2844605.pdf", "archivo": "gm_pedimento_2844605.pdf", "fecha": "29-07-2026", "edicion": "44511" }, "geometry": { "type": "Polygon", "coordinates": [ [ [ -72.747653244538284, -36.677075133404514 ], [ -72.714104328107553, -36.676435607257929 ], [ -72.713837665093379, -36.685443321183207 ], [ -72.747390487071698, -36.686083055946938 ], [ -72.747653244538284, -36.677075133404514 ] ] ] } },
{ "type": "Feature", "properties": { "cve": "2844606", "nombre": "Valentina 17", "solicitante": "Piro Vergara Alejandra Carolina", "region": "REGIÓN DEL BIOBÍO", "provincia": "Provincia de Concepción", "comuna": null, "superficie_ha": 300.0, "datum_original": "PSAD56", "huso": 18, "epsg_origen": 24878, "tipo_publicacion": "pedimento", "fuente_pdf": "http://www.diariooficial.interior.gob.cl/publicaciones/2026/07/29/44511/07/2844606.pdf", "archivo": "gm_pedimento_2844606.pdf", "fecha": "29-07-2026", "edicion": "44511" }, "geometry": { "type": "Polygon", "coordinates": [ [ [ -72.848055195839407, -36.687945589511287 ], [ -72.814499268043065, -36.687334191028064 ], [ -72.814244209815683, -36.696342506293163 ], [ -72.847804046319894, -36.69695410420843 ], [ -72.848055195839407, -36.687945589511287 ] ] ] } },
{ "type": "Feature", "properties": { "cve": "2844607", "nombre": "Valentina 18", "solicitante": "Piro Vergara Alejandra Carolina", "region": "REGIÓN DEL BIOBÍO", "provincia": "Provincia de Concepción", "comuna": null, "superficie_ha": 300.0, "datum_original": "PSAD56", "huso": 18, "epsg_origen": 24878, "tipo_publicacion": "pedimento", "fuente_pdf": "http://www.diariooficial.interior.gob.cl/publicaciones/2026/07/29/44511/07/2844607.pdf", "archivo": "gm_pedimento_2844607.pdf", "fecha": "29-07-2026", "edicion": "44511" }, "geometry": { "type": "Polygon", "coordinates": [ [ [ -72.814499268043065, -36.687334191028064 ], [ -72.780944359920539, -36.68671334620322 ], [ -72.780685393454036, -36.695721458958182 ], [ -72.814244209815683, -36.696342506293163 ], [ -72.814499268043065, -36.687334191028064 ] ] ] } },
{ "type": "Feature", "properties": { "cve": "2844608", "nombre": "Valentina 19", "solicitante": "Piro Vergara Alejandra Carolina", "region": "REGIÓN DEL BIOBÍO", "provincia": "Provincia de Concepción", "comuna": null, "superficie_ha": 300.0, "datum_original": "PSAD56", "huso": 18, "epsg_origen": 24878, "tipo_publicacion": "pedimento", "fuente_pdf": "http://www.diariooficial.interior.gob.cl/publicaciones/2026/07/29/44511/07/2844608.pdf", "archivo": "gm_pedimento_2844608.pdf", "fecha": "29-07-2026", "edicion": "44511" }, "geometry": { "type": "Polygon", "coordinates": [ [ [ -72.780944359920539, -36.68671334620322 ], [ -72.747390487071698, -36.686083055946938 ], [ -72.747127612841908, -36.695090963114097 ], [ -72.780685393454036, -36.695721458958182 ], [ -72.780944359920539, -36.68671334620322 ] ] ] } },
{ "type": "Feature", "properties": { "cve": "2844591", "nombre": "Valentina 2", "solicitante": "Piro Vergara Alejandra Carolina", "region": "REGIÓN DEL BIOBÍO", "provincia": "Provincia de Concepción", "comuna": null, "superficie_ha": 300.0, "datum_original": "PSAD56", "huso": 18, "epsg_origen": 24878, "tipo_publicacion": "pedimento", "fuente_pdf": "http://www.diariooficial.interior.gob.cl/publicaciones/2026/07/29/44511/07/2844591.pdf", "archivo": "gm_pedimento_2844591.pdf", "fecha": "29-07-2026", "edicion": "44511" }, "geometry": { "type": "Polygon", "coordinates": [ [ [ -72.830810449001916, -36.624541048567167 ], [ -72.79728240771459, -36.623925703990196 ], [ -72.797025933613156, -36.632934011988176 ], [ -72.830557871226006, -36.633549557419101 ], [ -72.830810449001916, -36.624541048567167 ] ] ] } },
{ "type": "Feature", "properties": { "cve": "2844609", "nombre": "Valentina 20", "solicitante": "Piro Vergara Alejandra Carolina", "region": "REGIÓN DEL BIOBÍO", "provincia": "Provincia de Concepción", "comuna": null, "superficie_ha": 300.0, "datum_original": "PSAD56", "huso": 18, "epsg_origen": 24878, "tipo_publicacion": "pedimento", "fuente_pdf": "http://www.diariooficial.interior.gob.cl/publicaciones/2026/07/29/44511/07/2844609.pdf", "archivo": "gm_pedimento_2844609.pdf", "fecha": "29-07-2026", "edicion": "44511" }, "geometry": { "type": "Polygon", "coordinates": [ [ [ -72.747390487071698, -36.686083055946938 ], [ -72.713837665093379, -36.685443321183207 ], [ -72.713570883583401, -36.694451019685367 ], [ -72.747127612841908, -36.695090963114097 ], [ -72.747390487071698, -36.686083055946938 ] ] ] } },
{ "type": "Feature", "properties": { "cve": "2844610", "nombre": "Valentina 21", "solicitante": "Piro Vergara Alejandra Carolina", "region": "REGIÓN DEL BIOBÍO", "provincia": "Provincia de Concepción", "comuna": null, "superficie_ha": 300.0, "datum_original": "PSAD56", "huso": 18, "epsg_origen": 24878, "tipo_publicacion": "pedimento", "fuente_pdf": "http://www.diariooficial.interior.gob.cl/publicaciones/2026/07/29/44511/07/2844610.pdf", "archivo": "gm_pedimento_2844610.pdf", "fecha": "29-07-2026", "edicion": "44511" }, "geometry": { "type": "Polygon", "coordinates": [ [ [ -72.847804046319894, -36.69695410420843 ], [ -72.814244209815683, -36.696342506293163 ], [ -72.813989038239356, -36.705350806274474 ], [ -72.847552785185883, -36.705962603667544 ], [ -72.847804046319894, -36.69695410420843 ] ] ] } },
{ "type": "Feature", "properties": { "cve": "2844611", "nombre": "Valentina 22", "solicitante": "Piro Vergara Alejandra Carolina", "region": "REGIÓN DEL BIOBÍO", "provincia": "Provincia de Concepción", "comuna": null, "superficie_ha": 300.0, "datum_original": "PSAD56", "huso": 18, "epsg_origen": 24878, "tipo_publicacion": "pedimento", "fuente_pdf": "http://www.diariooficial.interior.gob.cl/publicaciones/2026/07/29/44511/07/2844611.pdf", "archivo": "gm_pedimento_2844611.pdf", "fecha": "29-07-2026", "edicion": "44511" }, "geometry": { "type": "Polygon", "coordinates": [ [ [ -72.814244209815683, -36.696342506293163 ], [ -72.780685393454036, -36.695721458958182 ], [ -72.780426311904449, -36.704729556382887 ], [ -72.813989038239356, -36.705350806274474 ], [ -72.814244209815683, -36.696342506293163 ] ] ] } },
{ "type": "Feature", "properties": { "cve": "2844612", "nombre": "Valentina 23", "solicitante": "Piro Vergara Alejandra Carolina", "region": "REGIÓN DEL BIOBÍO", "provincia": "Provincia de Concepción", "comuna": null, "superficie_ha": 300.0, "datum_original": "PSAD56", "huso": 18, "epsg_origen": 24878, "tipo_publicacion": "pedimento", "fuente_pdf": "http://www.diariooficial.interior.gob.cl/publicaciones/2026/07/29/44511/07/2844612.pdf", "archivo": "gm_pedimento_2844612.pdf", "fecha": "29-07-2026", "edicion": "44511" }, "geometry": { "type": "Polygon", "coordinates": [ [ [ -72.780685393454036, -36.695721458958182 ], [ -72.747127612841908, -36.695090963114097 ], [ -72.746864621795325, -36.704098854903826 ], [ -72.780426311904449, -36.704729556382887 ], [ -72.780685393454036, -36.695721458958182 ] ] ] } },
{ "type": "Feature", "properties": { "cve": "2844613", "nombre": "Valentina 24", "solicitante": "Piro Vergara Alejandra Carolina", "region": "REGIÓN DEL BIOBÍO", "provincia": "Provincia de Concepción", "comuna": null, "superficie_ha": 300.0, "datum_original": "PSAD56", "huso": 18, "epsg_origen": 24878, "tipo_publicacion": "pedimento", "fuente_pdf": "http://www.diariooficial.interior.gob.cl/publicaciones/2026/07/29/44511/07/2844613.pdf", "archivo": "gm_pedimento_2844613.pdf", "fecha": "29-07-2026", "edicion": "44511" }, "geometry": { "type": "Polygon", "coordinates": [ [ [ -72.747127612841908, -36.695090963114097 ], [ -72.713570883583401, -36.694451019685367 ], [ -72.713303983523119, -36.703458702762219 ], [ -72.746864621795325, -36.704098854903826 ], [ -72.747127612841908, -36.695090963114097 ] ] ] } },
{ "type": "Feature", "properties": { "cve": "2844614", "nombre": "Valentina 25", "solicitante": "Piro Vergara Alejandra Carolina", "region": "REGIÓN DEL BIOBÍO", "provincia": "Provincia de Concepción", "comuna": null, "superficie_ha": 300.0, "datum_original": "PSAD56", "huso": 18, "epsg_origen": 24878, "tipo_publicacion": "pedimento", "fuente_pdf": "http://www.diariooficial.interior.gob.cl/publicaciones/2026/07/29/44511/07/2844614.pdf", "archivo": "gm_pedimento_2844614.pdf", "fecha": "29-07-2026", "edicion": "44511" }, "geometry": { "type": "Polygon", "coordinates": [ [ [ -72.847552785185883, -36.705962603667544 ], [ -72.813989038239356, -36.705350806274474 ], [ -72.813733753261957, -36.714359090969879 ], [ -72.847301412386031, -36.714971087886553 ], [ -72.847552785185883, -36.705962603667544 ] ] ] } },
{ "type": "Feature", "properties": { "cve": "2844615", "nombre": "Valentina 26", "solicitante": "Piro Vergara Alejandra Carolina", "region": "REGIÓN DEL BIOBÍO", "provincia": "Provincia de Concepción", "comuna": null, "superficie_ha": 300.0, "datum_original": "PSAD56", "huso": 18, "epsg_origen": 24878, "tipo_publicacion": "pedimento", "fuente_pdf": "http://www.diariooficial.interior.gob.cl/publicaciones/2026/07/29/44511/07/2844615.pdf", "archivo": "gm_pedimento_2844615.pdf", "fecha": "29-07-2026", "edicion": "44511" }, "geometry": { "type": "Polygon", "coordinates": [ [ [ -72.813989038239356, -36.705350806274474 ], [ -72.780426311904449, -36.704729556382887 ], [ -72.780167115218873, -36.713737638475173 ], [ -72.813733753261957, -36.714359090969879 ], [ -72.813989038239356, -36.705350806274474 ] ] ] } },
{ "type": "Feature", "properties": { "cve": "2844616", "nombre": "Valentina 27", "solicitante": "Piro Vergara Alejandra Carolina", "region": "REGIÓN DEL BIOBÍO", "provincia": "Provincia de Concepción", "comuna": null, "superficie_ha": 300.0, "datum_original": "PSAD56", "huso": 18, "epsg_origen": 24878, "tipo_publicacion": "pedimento", "fuente_pdf": "http://www.diariooficial.interior.gob.cl/publicaciones/2026/07/29/44511/07/2844616.pdf", "archivo": "gm_pedimento_2844616.pdf", "fecha": "29-07-2026", "edicion": "44511" }, "geometry": { "type": "Polygon", "coordinates": [ [ [ -72.780426311904449, -36.704729556382887 ], [ -72.746864621795325, -36.704098854903826 ], [ -72.746601513878133, -36.713106731313978 ], [ -72.780167115218873, -36.713737638475173 ], [ -72.780426311904449, -36.704729556382887 ] ] ] } },
{ "type": "Feature", "properties": { "cve": "2844617", "nombre": "Valentina 28", "solicitante": "Piro Vergara Alejandra Carolina", "region": "REGIÓN DEL BIOBÍO", "provincia": "Provincia de Concepción", "comuna": null, "superficie_ha": 300.0, "datum_original": "PSAD56", "huso": 18, "epsg_origen": 24878, "tipo_publicacion": "pedimento", "fuente_pdf": "http://www.diariooficial.interior.gob.cl/publicaciones/2026/07/29/44511/07/2844617.pdf", "archivo": "gm_pedimento_2844617.pdf", "fecha": "29-07-2026", "edicion": "44511" }, "geometry": { "type": "Polygon", "coordinates": [ [ [ -72.746864621795325, -36.704098854903826 ], [ -72.713303983523119, -36.703458702762219 ], [ -72.713036964858063, -36.712466370411576 ], [ -72.746601513878133, -36.713106731313978 ], [ -72.746864621795325, -36.704098854903826 ] ] ] } },
{ "type": "Feature", "properties": { "cve": "2844618", "nombre": "Valentina 29", "solicitante": "Piro Vergara Alejandra Carolina", "region": "REGIÓN DEL BIOBÍO", "provincia": "Provincia de Concepción", "comuna": null, "superficie_ha": 300.0, "datum_original": "PSAD56", "huso": 18, "epsg_origen": 24878, "tipo_publicacion": "pedimento", "fuente_pdf": "http://www.diariooficial.interior.gob.cl/publicaciones/2026/07/29/44511/07/2844618.pdf", "archivo": "gm_pedimento_2844618.pdf", "fecha": "29-07-2026", "edicion": "44511" }, "geometry": { "type": "Polygon", "coordinates": [ [ [ -72.847301412386031, -36.714971087886553 ], [ -72.813733753261957, -36.714359090969879 ], [ -72.813478354831304, -36.723367360377289 ], [ -72.847049927869008, -36.723979556863362 ], [ -72.847301412386031, -36.714971087886553 ] ] ] } },
{ "type": "Feature", "properties": { "cve": "2844592", "nombre": "Valentina 3", "solicitante": "Piro Vergara Alejandra Carolina", "region": "REGIÓN DEL BIOBÍO", "provincia": "Provincia de Concepción", "comuna": null, "superficie_ha": 300.0, "datum_original": "PSAD56", "huso": 18, "epsg_origen": 24878, "tipo_publicacion": "pedimento", "fuente_pdf": "http://www.diariooficial.interior.gob.cl/publicaciones/2026/07/29/44511/07/2844592.pdf", "archivo": "gm_pedimento_2844592.pdf", "fecha": "29-07-2026", "edicion": "44511" }, "geometry": { "type": "Polygon", "coordinates": [ [ [ -72.869679740702054, -36.63425577739838 ], [ -72.836146626121717, -36.633651231710381 ], [ -72.835894585830786, -36.642659758497601 ], [ -72.869431599005623, -36.643264501499061 ], [ -72.869679740702054, -36.63425577739838 ] ] ] } },
{ "type": "Feature", "properties": { "cve": "2844619", "nombre": "Valentina 30", "solicitante": "Piro Vergara Alejandra Carolina", "region": "REGIÓN DEL BIOBÍO", "provincia": "Provincia de Concepción", "comuna": null, "superficie_ha": 300.0, "datum_original": "PSAD56", "huso": 18, "epsg_origen": 24878, "tipo_publicacion": "pedimento", "fuente_pdf": "http://www.diariooficial.interior.gob.cl/publicaciones/2026/07/29/44511/07/2844619.pdf", "archivo": "gm_pedimento_2844619.pdf", "fecha": "29-07-2026", "edicion": "44511" }, "geometry": { "type": "Polygon", "coordinates": [ [ [ -72.813733753261957, -36.714359090969879 ], [ -72.780167115218873, -36.713737638475173 ], [ -72.779907803344358, -36.722745705232938 ], [ -72.813478354831304, -36.723367360377289 ], [ -72.813733753261957, -36.714359090969879 ] ] ] } },
{ "type": "Feature", "properties": { "cve": "2844620", "nombre": "Valentina 31", "solicitante": "Piro Vergara Alejandra Carolina", "region": "REGIÓN DEL BIOBÍO", "provincia": "Provincia de Concepción", "comuna": null, "superficie_ha": 300.0, "datum_original": "PSAD56", "huso": 18, "epsg_origen": 24878, "tipo_publicacion": "pedimento", "fuente_pdf": "http://www.diariooficial.interior.gob.cl/publicaciones/2026/07/29/44511/07/2844620.pdf", "archivo": "gm_pedimento_2844620.pdf", "fecha": "29-07-2026", "edicion": "44511" }, "geometry": { "type": "Polygon", "coordinates": [ [ [ -72.780167115218873, -36.713737638475173 ], [ -72.746601513878133, -36.713106731313978 ], [ -72.746338289036657, -36.722114592342336 ], [ -72.779907803344358, -36.722745705232938 ], [ -72.780167115218873, -36.713737638475173 ] ] ] } },
{ "type": "Feature", "properties": { "cve": "2844621", "nombre": "Valentina 32", "solicitante": "Piro Vergara Alejandra Carolina", "region": "REGIÓN DEL BIOBÍO", "provincia": "Provincia de Concepción", "comuna": null, "superficie_ha": 200.0, "datum_original": "PSAD56", "huso": 18, "epsg_origen": 24878, "tipo_publicacion": "pedimento", "fuente_pdf": "http://www.diariooficial.interior.gob.cl/publicaciones/2026/07/29/44511/07/2844621.pdf", "archivo": "gm_pedimento_2844621.pdf", "fecha": "29-07-2026", "edicion": "44511" }, "geometry": { "type": "Polygon", "coordinates": [ [ [ -72.746601513878133, -36.713106731313978 ], [ -72.724225029976267, -36.712680874403709 ], [ -72.723959196758628, -36.721688596568399 ], [ -72.746338289036657, -36.722114592342336 ], [ -72.746601513878133, -36.713106731313978 ] ] ] } },
{ "type": "Feature", "properties": { "cve": "2844622", "nombre": "Valentina 33", "solicitante": "Piro Vergara Alejandra Carolina", "region": "REGIÓN DEL BIOBÍO", "provincia": "Provincia de Concepción", "comuna": null, "superficie_ha": 300.0, "datum_original": "PSAD56", "huso": 18, "epsg_origen": 24878, "tipo_publicacion": "pedimento", "fuente_pdf": "http://www.diariooficial.interior.gob.cl/publicaciones/2026/07/29/44511/07/2844622.pdf", "archivo": "gm_pedimento_2844622.pdf", "fecha": "29-07-2026", "edicion": "44511" }, "geometry": { "type": "Polygon", "coordinates": [ [ [ -72.847049927869008, -36.723979556863362 ], [ -72.813478354831304, -36.723367360377289 ], [ -72.813222842895257, -36.732375614494536 ], [ -72.846798331583372, -36.732988010595882 ], [ -72.847049927869008, -36.723979556863362 ] ] ] } },
{ "type": "Feature", "properties": { "cve": "2844623", "nombre": "Valentina 34", "solicitante": "Piro Vergara Alejandra Carolina", "region": "REGIÓN DEL BIOBÍO", "provincia": "Provincia de Concepción", "comuna": null, "superficie_ha": 300.0, "datum_original": "PSAD56", "huso": 18, "epsg_origen": 24878, "tipo_publicacion": "pedimento", "fuente_pdf": "http://www.diariooficial.interior.gob.cl/publicaciones/2026/07/29/44511/07/2844623.pdf", "archivo": "gm_pedimento_2844623.pdf", "fecha": "29-07-2026", "edicion": "44511" }, "geometry": { "type": "Polygon", "coordinates": [ [ [ -72.813478354831304, -36.723367360377289 ], [ -72.779907803344358, -36.722745705232938 ], [ -72.779648376227954, -36.731753756654037 ], [ -72.813222842895257, -36.732375614494536 ], [ -72.813478354831304, -36.723367360377289 ] ] ] } },
{ "type": "Feature", "properties": { "cve": "2844624", "nombre": "Valentina 35", "solicitante": "Piro Vergara Alejandra Carolina", "region": "REGIÓN DEL BIOBÍO", "provincia": "Provincia de Concepción", "comuna": null, "superficie_ha": 300.0, "datum_original": "PSAD56", "huso": 18, "epsg_origen": 24878, "tipo_publicacion": "pedimento", "fuente_pdf": "http://www.diariooficial.interior.gob.cl/publicaciones/2026/07/29/44511/07/2844624.pdf", "archivo": "gm_pedimento_2844624.pdf", "fecha": "29-07-2026", "edicion": "44511" }, "geometry": { "type": "Polygon", "coordinates": [ [ [ -72.779907803344358, -36.722745705232938 ], [ -72.746338289036657, -36.722114592342336 ], [ -72.74607494721711, -36.731122437986805 ], [ -72.779648376227954, -36.731753756654037 ], [ -72.779907803344358, -36.722745705232938 ] ] ] } },
{ "type": "Feature", "properties": { "cve": "2844625", "nombre": "Valentina 36", "solicitante": "Piro Vergara Alejandra Carolina", "region": "REGIÓN DEL BIOBÍO", "provincia": "Provincia de Concepción", "comuna": null, "superficie_ha": 200.0, "datum_original": "PSAD56", "huso": 18, "epsg_origen": 24878, "tipo_publicacion": "pedimento", "fuente_pdf": "http://www.diariooficial.interior.gob.cl/publicaciones/2026/07/29/44511/07/2844625.pdf", "archivo": "gm_pedimento_2844625.pdf", "fecha": "29-07-2026", "edicion": "44511" }, "geometry": { "type": "Polygon", "coordinates": [ [ [ -72.746338289036657, -36.722114592342336 ], [ -72.723959196758628, -36.721688596568399 ], [ -72.723693245405642, -36.730696303317281 ], [ -72.74607494721711, -36.731122437986805 ], [ -72.746338289036657, -36.722114592342336 ] ] ] } },
{ "type": "Feature", "properties": { "cve": "2844593", "nombre": "Valentina 4", "solicitante": "Piro Vergara Alejandra Carolina", "region": "REGIÓN DEL BIOBÍO", "provincia": "Provincia de Concepción", "comuna": null, "superficie_ha": 300.0, "datum_original": "PSAD56", "huso": 18, "epsg_origen": 24878, "tipo_publicacion": "pedimento", "fuente_pdf": "http://www.diariooficial.interior.gob.cl/publicaciones/2026/07/29/44511/07/2844593.pdf", "archivo": "gm_pedimento_2844593.pdf", "fecha": "29-07-2026", "edicion": "44511" }, "geometry": { "type": "Polygon", "coordinates": [ [ [ -72.836146626121717, -36.633651231710381 ], [ -72.802614519074012, -36.633037257596669 ], [ -72.802358580651074, -36.642045583996286 ], [ -72.835894585830786, -36.642659758497601 ], [ -72.836146626121717, -36.633651231710381 ] ] ] } },
{ "type": "Feature", "properties": { "cve": "2844594", "nombre": "Valentina 5", "solicitante": "Piro Vergara Alejandra Carolina", "region": "REGIÓN DEL BIOBÍO", "provincia": "Provincia de Concepción", "comuna": null, "superficie_ha": 300.0, "datum_original": "PSAD56", "huso": 18, "epsg_origen": 24878, "tipo_publicacion": "pedimento", "fuente_pdf": "http://www.diariooficial.interior.gob.cl/publicaciones/2026/07/29/44511/07/2844594.pdf", "archivo": "gm_pedimento_2844594.pdf", "fecha": "29-07-2026", "edicion": "44511" }, "geometry": { "type": "Polygon", "coordinates": [ [ [ -72.869431599005623, -36.643264501499061 ], [ -72.835894585830786, -36.642659758497601 ], [ -72.835642433540627, -36.651668270041156 ], [ -72.869183347039836, -36.652273210401262 ], [ -72.869431599005623, -36.643264501499061 ] ] ] } },
{ "type": "Feature", "properties": { "cve": "2844595", "nombre": "Valentina 6", "solicitante": "Piro Vergara Alejandra Carolina", "region": "REGIÓN DEL BIOBÍO", "provincia": "Provincia de Concepción", "comuna": null, "superficie_ha": 300.0, "datum_original": "PSAD56", "huso": 18, "epsg_origen": 24878, "tipo_publicacion": "pedimento", "fuente_pdf": "http://www.diariooficial.interior.gob.cl/publicaciones/2026/07/29/44511/07/2844595.pdf", "archivo": "gm_pedimento_2844595.pdf", "fecha": "29-07-2026", "edicion": "44511" }, "geometry": { "type": "Polygon", "coordinates": [ [ [ -72.835894585830786, -36.642659758497601 ], [ -72.802358580651074, -36.642045583996286 ], [ -72.802102528499319, -36.651053895106358 ], [ -72.835642433540627, -36.651668270041156 ], [ -72.835894585830786, -36.642659758497601 ] ] ] } },
{ "type": "Feature", "properties": { "cve": "2844596", "nombre": "Valentina 7", "solicitante": "Piro Vergara Alejandra Carolina", "region": "REGIÓN DEL BIOBÍO", "provincia": "Provincia de Concepción", "comuna": null, "superficie_ha": 300.0, "datum_original": "PSAD56", "huso": 18, "epsg_origen": 24878, "tipo_publicacion": "pedimento", "fuente_pdf": "http://www.diariooficial.interior.gob.cl/publicaciones/2026/07/29/44511/07/2844596.pdf", "archivo": "gm_pedimento_2844596.pdf", "fecha": "29-07-2026", "edicion": "44511" }, "geometry": { "type": "Polygon", "coordinates": [ [ [ -72.869183347039836, -36.652273210401262 ], [ -72.835642433540627, -36.651668270041156 ], [ -72.835390169199783, -36.660676766338931 ], [ -72.868934984754063, -36.6612819041029 ], [ -72.869183347039836, -36.652273210401262 ] ] ] } },
{ "type": "Feature", "properties": { "cve": "2844597", "nombre": "Valentina 8", "solicitante": "Piro Vergara Alejandra Carolina", "region": "REGIÓN DEL BIOBÍO", "provincia": "Provincia de Concepción", "comuna": null, "superficie_ha": 300.0, "datum_original": "PSAD56", "huso": 18, "epsg_origen": 24878, "tipo_publicacion": "pedimento", "fuente_pdf": "http://www.diariooficial.interior.gob.cl/publicaciones/2026/07/29/44511/07/2844597.pdf", "archivo": "gm_pedimento_2844597.pdf", "fecha": "29-07-2026", "edicion": "44511" }, "geometry": { "type": "Polygon", "coordinates": [ [ [ -72.835642433540627, -36.651668270041156 ], [ -72.802102528499319, -36.651053895106358 ], [ -72.801846362566565, -36.660062190924712 ], [ -72.835390169199783, -36.660676766338931 ], [ -72.835642433540627, -36.651668270041156 ] ] ] } },
{ "type": "Feature", "properties": { "cve": "2844598", "nombre": "Valentina 9", "solicitante": "Piro Vergara Alejandra Carolina", "region": "REGIÓN DEL BIOBÍO", "provincia": "Provincia de Concepción", "comuna": null, "superficie_ha": 300.0, "datum_original": "PSAD56", "huso": 18, "epsg_origen": 24878, "tipo_publicacion": "pedimento", "fuente_pdf": "http://www.diariooficial.interior.gob.cl/publicaciones/2026/07/29/44511/07/2844598.pdf", "archivo": "gm_pedimento_2844598.pdf", "fecha": "29-07-2026", "edicion": "44511" }, "geometry": { "type": "Polygon", "coordinates": [ [ [ -72.848807975223579, -36.660919954012513 ], [ -72.815263763152117, -36.660309153551104 ], [ -72.815009044659263, -36.669317514654928 ], [ -72.848557160240006, -36.669928514411247 ], [ -72.848807975223579, -36.660919954012513 ] ] ] } }
]
}
