{
"type": "FeatureCollection",
"name": "boletin_mineria_20260813",
"crs": { "type": "name", "properties": { "name": "urn:ogc:def:crs:OGC:1.3:CRS84" } },
"features": [
{ "type": "Feature", "properties": { "cve": "2852669", "nombre": "SOL NACIENTE 1 AL 3", "solicitante": "Toledo Córdova José Iván y otros", "region": "REGIÓN DE ARICA Y PARINACOTA", "provincia": "Provincia de Arica", "comuna": "Arica", "superficie_ha": 21.0, "datum_original": "PSAD56", "huso": 19, "epsg_origen": 24879, "tipo_publicacion": "manifestacion", "fuente_pdf": "http://www.diariooficial.interior.gob.cl/publicaciones/2026/08/13/44524/07/2852669.pdf", "archivo": "gm_manifestacion_2852669.pdf", "fecha": "13-08-2026", "edicion": "44524" }, "geometry": { "type": "Polygon", "coordinates": [ [ [ -70.376076979173646, -18.351396425271236 ], [ -70.369453415302587, -18.351444137128571 ], [ -70.369474779098653, -18.354154803310262 ], [ -70.376098446219601, -18.354107083916183 ], [ -70.376076979173646, -18.351396425271236 ] ] ] } },
{ "type": "Feature", "properties": { "cve": "2852915", "nombre": "JACQUELINE IV 1 AL 5", "solicitante": "SLM Río Blanco Primera de la Comuna de Taltal", "region": "REGIÓN DE ANTOFAGASTA", "provincia": "Provincia de Antofagasta", "comuna": null, "superficie_ha": 25.0, "datum_original": "PSAD56", "huso": 19, "epsg_origen": 24879, "tipo_publicacion": "manifestacion", "fuente_pdf": "http://www.diariooficial.interior.gob.cl/publicaciones/2026/08/13/44524/07/2852915.pdf", "archivo": "gm_manifestacion_2852915.pdf", "fecha": "13-08-2026", "edicion": "44524" }, "geometry": { "type": "Polygon", "coordinates": [ [ [ -70.459225567103545, -24.217009281086671 ], [ -70.454303027944988, -24.217056367947198 ], [ -70.454354290192526, -24.22157088326944 ], [ -70.459277002714202, -24.221523786527371 ], [ -70.459225567103545, -24.217009281086671 ] ] ] } },
{ "type": "Feature", "properties": { "cve": "2852916", "nombre": "JACQUELINE VI 1 AL 20", "solicitante": "SLM Río Blanco Primera de la Comuna de Taltal", "region": "REGIÓN DE ANTOFAGASTA", "provincia": "Provincia de Antofagasta", "comuna": null, "superficie_ha": 100.0, "datum_original": "PSAD56", "huso": 19, "epsg_origen": 24879, "tipo_publicacion": "manifestacion", "fuente_pdf": "http://www.diariooficial.interior.gob.cl/publicaciones/2026/08/13/44524/07/2852916.pdf", "archivo": "gm_manifestacion_2852916.pdf", "fecha": "13-08-2026", "edicion": "44524" }, "geometry": { "type": "Polygon", "coordinates": [ [ [ -70.508806974867881, -24.323493203946089 ], [ -70.498953898608178, -24.323590823176147 ], [ -70.499060108386672, -24.332619541257838 ], [ -70.508913882151745, -24.332521881190893 ], [ -70.508806974867881, -24.323493203946089 ] ] ] } },
{ "type": "Feature", "properties": { "cve": "2852582", "nombre": "ALMA MINING I 1 AL 3", "solicitante": "Maldonado Rojas César Alberto y otro", "region": "REGIÓN DE ATACAMA", "provincia": "Provincia de Copiapó", "comuna": null, "superficie_ha": 15.0, "datum_original": "WGS84", "huso": 19, "epsg_origen": 32719, "tipo_publicacion": "manifestacion", "fuente_pdf": "http://www.diariooficial.interior.gob.cl/publicaciones/2026/08/13/44524/07/2852582.pdf", "archivo": "gm_manifestacion_2852582.pdf", "fecha": "13-08-2026", "edicion": "44524" }, "geometry": { "type": "Polygon", "coordinates": [ [ [ -70.146325690840484, -27.25665862500934 ], [ -70.141275631632823, -27.25669989341964 ], [ -70.141303278708349, -27.25940783291982 ], [ -70.146353460187086, -27.259366559739938 ], [ -70.146325690840484, -27.25665862500934 ] ] ] } },
{ "type": "Feature", "properties": { "cve": "2852987", "nombre": "AQUINO 3, 1 AL 60", "solicitante": "SLM Aquino 3 del Cerro Plaza", "region": "REGIÓN DE ATACAMA", "provincia": "Provincia de Copiapó", "comuna": null, "superficie_ha": 300.0, "datum_original": "PSAD56", "huso": 19, "epsg_origen": 24879, "tipo_publicacion": "manifestacion", "fuente_pdf": "http://www.diariooficial.interior.gob.cl/publicaciones/2026/08/13/44524/07/2852987.pdf", "archivo": "gm_manifestacion_2852987.pdf", "fecha": "13-08-2026", "edicion": "44524" }, "geometry": { "type": "Polygon", "coordinates": [ [ [ -69.510127829721327, -27.941938142755156 ], [ -69.499963059621706, -27.941975424020495 ], [ -69.500087819392732, -27.969056452249095 ], [ -69.51025512572302, -27.969019128598649 ], [ -69.510127829721327, -27.941938142755156 ] ] ] } },
{ "type": "Feature", "properties": { "cve": "2852988", "nombre": "AQUINO 5, 1 AL 60", "solicitante": "SLM Aquino 5 del Cerro Plaza", "region": "REGIÓN DE ATACAMA", "provincia": "Provincia de Copiapó", "comuna": null, "superficie_ha": 300.0, "datum_original": "PSAD56", "huso": 19, "epsg_origen": 24879, "tipo_publicacion": "manifestacion", "fuente_pdf": "http://www.diariooficial.interior.gob.cl/publicaciones/2026/08/13/44524/07/2852988.pdf", "archivo": "gm_manifestacion_2852988.pdf", "fecha": "13-08-2026", "edicion": "44524" }, "geometry": { "type": "Polygon", "coordinates": [ [ [ -69.48979827026794, -27.94201195500888 ], [ -69.479633462051467, -27.94204773571505 ], [ -69.479753149300038, -27.96912884615497 ], [ -69.489920493787793, -27.969093024769613 ], [ -69.48979827026794, -27.94201195500888 ] ] ] } },
{ "type": "Feature", "properties": { "cve": "2852583", "nombre": "CAPITAN MORONI 1 AL 10", "solicitante": "Maldonado Rojas César Alberto y otro", "region": "REGIÓN DE ATACAMA", "provincia": "Provincia de Copiapó", "comuna": null, "superficie_ha": 100.0, "datum_original": "WGS84", "huso": 19, "epsg_origen": 32719, "tipo_publicacion": "manifestacion", "fuente_pdf": "http://www.diariooficial.interior.gob.cl/publicaciones/2026/08/13/44524/07/2852583.pdf", "archivo": "gm_manifestacion_2852583.pdf", "fecha": "13-08-2026", "edicion": "44524" }, "geometry": { "type": "Polygon", "coordinates": [ [ [ -70.140544647222001, -27.262275644134622 ], [ -70.130443990231271, -27.262357597228387 ], [ -70.13053530966576, -27.271384084733427 ], [ -70.140636782177666, -27.271302100069928 ], [ -70.140544647222001, -27.262275644134622 ] ] ] } },
{ "type": "Feature", "properties": { "cve": "2852998", "nombre": "DOÑA HERMINDA MARILY 1 AL 8", "solicitante": "Alfaro Godoy Cynthia Alejandra", "region": "REGIÓN DE ATACAMA", "provincia": "Provincia de Copiapó", "comuna": null, "superficie_ha": 56.0, "datum_original": "WGS84", "huso": 19, "epsg_origen": 32719, "tipo_publicacion": "manifestacion", "fuente_pdf": "http://www.diariooficial.interior.gob.cl/publicaciones/2026/08/13/44524/07/2852998.pdf", "archivo": "gm_manifestacion_2852998.pdf", "fecha": "13-08-2026", "edicion": "44524" }, "geometry": { "type": "Polygon", "coordinates": [ [ [ -70.71755292777398, -27.409822283752398 ], [ -70.710474884268976, -27.409909302179511 ], [ -70.710586109460834, -27.417128520408315 ], [ -70.717664612671584, -27.417041475270718 ], [ -70.71755292777398, -27.409822283752398 ] ] ] } },
{ "type": "Feature", "properties": { "cve": "2852960", "nombre": "FARO 1 AL 9", "solicitante": "Pacheco Pacheco Luis Alberto", "region": "REGIÓN DE ATACAMA", "provincia": "Provincia de Copiapó", "comuna": null, "superficie_ha": 54.0, "datum_original": "WGS84", "huso": 19, "epsg_origen": 32719, "tipo_publicacion": "manifestacion", "fuente_pdf": "http://www.diariooficial.interior.gob.cl/publicaciones/2026/08/13/44524/07/2852960.pdf", "archivo": "gm_manifestacion_2852960.pdf", "fecha": "13-08-2026", "edicion": "44524" }, "geometry": { "type": "Polygon", "coordinates": [ [ [ -70.101427069194202, -27.596139391952619 ], [ -70.095348340135899, -27.596187491847108 ], [ -70.095429116071912, -27.604311039042042 ], [ -70.10150829318286, -27.604262922609685 ], [ -70.101427069194202, -27.596139391952619 ] ] ] } },
{ "type": "Feature", "properties": { "cve": "2852733", "nombre": "La Guanaca III 1 al 50", "solicitante": "Páez Soza Franko Esteban y otro", "region": "REGIÓN DE ATACAMA", "provincia": "Provincia de Copiapó", "comuna": null, "superficie_ha": 50.0, "datum_original": "WGS84", "huso": 19, "epsg_origen": 32719, "tipo_publicacion": "manifestacion", "fuente_pdf": "http://www.diariooficial.interior.gob.cl/publicaciones/2026/08/13/44524/07/2852733.pdf", "archivo": "gm_manifestacion_2852733.pdf", "fecha": "13-08-2026", "edicion": "44524" }, "geometry": { "type": "Polygon", "coordinates": [ [ [ -70.515041644934044, -27.447995069076029 ], [ -70.509983658019237, -27.448049989884545 ], [ -70.51010660256803, -27.457074853553383 ], [ -70.515165000926373, -27.457019911689908 ], [ -70.515041644934044, -27.447995069076029 ] ] ] } },
{ "type": "Feature", "properties": { "cve": "2852584", "nombre": "LA VICTORIA I 1 AL 5", "solicitante": "Maldonado Rojas César Alberto y otro", "region": "REGIÓN DE ATACAMA", "provincia": "Provincia de Copiapó", "comuna": null, "superficie_ha": 20.0, "datum_original": "WGS84", "huso": 19, "epsg_origen": 32719, "tipo_publicacion": "manifestacion", "fuente_pdf": "http://www.diariooficial.interior.gob.cl/publicaciones/2026/08/13/44524/07/2852584.pdf", "archivo": "gm_manifestacion_2852584.pdf", "fecha": "13-08-2026", "edicion": "44524" }, "geometry": { "type": "Polygon", "coordinates": [ [ [ -69.871348594779874, -27.341847937284001 ], [ -69.867305120902429, -27.341873102357614 ], [ -69.86734026835461, -27.346386659204772 ], [ -69.871383906043022, -27.346361489293635 ], [ -69.871348594779874, -27.341847937284001 ] ] ] } },
{ "type": "Feature", "properties": { "cve": "2852974", "nombre": "VANESA III 1 AL 36", "solicitante": "Díaz Luoni Edgardo Daniel", "region": "REGIÓN DE ATACAMA", "provincia": "Provincia de Copiapó", "comuna": "Copiapó", "superficie_ha": 36.0, "datum_original": "PSAD56", "huso": 19, "epsg_origen": 24879, "tipo_publicacion": "manifestacion", "fuente_pdf": "http://www.diariooficial.interior.gob.cl/publicaciones/2026/08/13/44524/07/2852974.pdf", "archivo": "gm_manifestacion_2852974.pdf", "fecha": "13-08-2026", "edicion": "44524" }, "geometry": { "type": "Polygon", "coordinates": [ [ [ -70.635502760056426, -28.023422785774716 ], [ -70.629401560610106, -28.023495272248056 ], [ -70.629483104334298, -28.028909429799207 ], [ -70.635584608785166, -28.02883692688528 ], [ -70.635502760056426, -28.023422785774716 ] ] ] } },
{ "type": "Feature", "properties": { "cve": "2852893", "nombre": "VICTORIA 1 1 AL 10", "solicitante": "Bonilla López Edmundo Valerio", "region": "REGIÓN DE ATACAMA", "provincia": "Provincia de Chañaral", "comuna": null, "superficie_ha": 100.0, "datum_original": "PSAD56", "huso": 19, "epsg_origen": 24879, "tipo_publicacion": "manifestacion", "fuente_pdf": "http://www.diariooficial.interior.gob.cl/publicaciones/2026/08/13/44524/07/2852893.pdf", "archivo": "gm_manifestacion_2852893.pdf", "fecha": "13-08-2026", "edicion": "44524" }, "geometry": { "type": "Polygon", "coordinates": [ [ [ -69.636067184656739, -26.830997354156437 ], [ -69.626003683606797, -26.831042230879223 ], [ -69.626053318970804, -26.840070505676607 ], [ -69.636117617818115, -26.840025611470853 ], [ -69.636067184656739, -26.830997354156437 ] ] ] } },
{ "type": "Feature", "properties": { "cve": "2852894", "nombre": "VICTORIA 2 1 AL 10", "solicitante": "Bonilla López Edmundo Valerio", "region": "REGIÓN DE ATACAMA", "provincia": "Provincia de Chañaral", "comuna": null, "superficie_ha": 100.0, "datum_original": "PSAD56", "huso": 19, "epsg_origen": 24879, "tipo_publicacion": "manifestacion", "fuente_pdf": "http://www.diariooficial.interior.gob.cl/publicaciones/2026/08/13/44524/07/2852894.pdf", "archivo": "gm_manifestacion_2852894.pdf", "fecha": "13-08-2026", "edicion": "44524" }, "geometry": { "type": "Polygon", "coordinates": [ [ [ -69.646122979438132, -26.829597524916156 ], [ -69.636059621727128, -26.829643114549729 ], [ -69.636110051332508, -26.838671373619945 ], [ -69.646174206776536, -26.838625766225061 ], [ -69.646122979438132, -26.829597524916156 ] ] ] } },
{ "type": "Feature", "properties": { "cve": "2852516", "nombre": "COBRIZA 1 AL 20", "solicitante": "Campillay Espinoza Mauricio Domingo", "region": "REGIÓN DE COQUIMBO", "provincia": "Provincia de Elqui", "comuna": null, "superficie_ha": 100.0, "datum_original": "PSAD56", "huso": 19, "epsg_origen": 24879, "tipo_publicacion": "manifestacion", "fuente_pdf": "http://www.diariooficial.interior.gob.cl/publicaciones/2026/08/13/44524/07/2852516.pdf", "archivo": "gm_manifestacion_2852516.pdf", "fecha": "13-08-2026", "edicion": "44524" }, "geometry": { "type": "Polygon", "coordinates": [ [ [ -71.150480748554145, -30.071835591091055 ], [ -71.140112269842632, -30.072004849346591 ], [ -71.140306446711463, -30.081023012887034 ], [ -71.15067586441323, -30.08085369349827 ], [ -71.150480748554145, -30.071835591091055 ] ] ] } },
{ "type": "Feature", "properties": { "cve": "2852870", "nombre": "AIFA IV 1 AL 10", "solicitante": "Gallegos Riff Ramón Selim", "region": "REGIÓN DE ATACAMA", "provincia": "Provincia de Copiapó", "comuna": null, "superficie_ha": 100.0, "datum_original": "PSAD56", "huso": 19, "epsg_origen": 24879, "tipo_publicacion": "mensura", "fuente_pdf": "http://www.diariooficial.interior.gob.cl/publicaciones/2026/08/13/44524/07/2852870.pdf", "archivo": "gm_mensura_2852870.pdf", "fecha": "13-08-2026", "edicion": "44524" }, "geometry": { "type": "Polygon", "coordinates": [ [ [ -70.020185277721566, -27.040903625888809 ], [ -70.010104101997399, -27.040976336941128 ], [ -70.010184919005468, -27.050003473054087 ], [ -70.020266900970995, -27.0499307338312 ], [ -70.020185277721566, -27.040903625888809 ] ] ] } },
{ "type": "Feature", "properties": { "cve": "2852871", "nombre": "AIFA V 1 AL 29", "solicitante": "Gallegos Riff Ramón Selim", "region": "REGIÓN DE ATACAMA", "provincia": "Provincia de Copiapó", "comuna": null, "superficie_ha": 282.0, "datum_original": "PSAD56", "huso": 19, "epsg_origen": 24879, "tipo_publicacion": "mensura", "fuente_pdf": "http://www.diariooficial.interior.gob.cl/publicaciones/2026/08/13/44524/07/2852871.pdf", "archivo": "gm_mensura_2852871.pdf", "fecha": "13-08-2026", "edicion": "44524" }, "geometry": { "type": "Polygon", "coordinates": [ [ [ -70.020266900970995, -27.0499307338312 ], [ -70.010184919005468, -27.050003473054087 ], [ -70.010411408197768, -27.075279390844077 ], [ -70.019487227221447, -27.075213887062404 ], [ -70.019503561747712, -27.077019301118685 ], [ -70.020512000326235, -27.077011986210298 ], [ -70.020266900970995, -27.0499307338312 ] ] ] } },
{ "type": "Feature", "properties": { "cve": "2852938", "nombre": "GRAN PUQUIOS II", "solicitante": "Gutiérrez Padilla Luis César Sergio", "region": "REGIÓN DE ATACAMA", "provincia": "Provincia de Copiapó", "comuna": null, "superficie_ha": null, "datum_original": "PSAD56", "huso": 19, "epsg_origen": 24879, "tipo_publicacion": "mensura", "fuente_pdf": "http://www.diariooficial.interior.gob.cl/publicaciones/2026/08/13/44524/07/2852938.pdf", "archivo": "gm_mensura_2852938.pdf", "fecha": "13-08-2026", "edicion": "44524" }, "geometry": { "type": "Polygon", "coordinates": [ [ [ -69.855417442744667, -27.116842832895205 ], [ -69.8544085995985, -27.116848972236198 ], [ -69.854415456602794, -27.117751716646602 ], [ -69.855424307842938, -27.117745577068227 ], [ -69.855417442744667, -27.116842832895205 ] ] ] } },
{ "type": "Feature", "properties": { "cve": "2852939", "nombre": "GRAN PUQUIOS IV 1 AL 14", "solicitante": "Gutiérrez Padilla Luis César Sergio", "region": "REGIÓN DE ATACAMA", "provincia": "Provincia de Copiapó", "comuna": null, "superficie_ha": 40.0, "datum_original": "PSAD56", "huso": 19, "epsg_origen": 24879, "tipo_publicacion": "mensura", "fuente_pdf": "http://www.diariooficial.interior.gob.cl/publicaciones/2026/08/13/44524/07/2852939.pdf", "archivo": "gm_mensura_2852939.pdf", "fecha": "13-08-2026", "edicion": "44524" }, "geometry": { "type": "Polygon", "coordinates": [ [ [ -69.859391438816672, -27.108783783213109 ], [ -69.854347586402682, -27.10881454175934 ], [ -69.854375004917998, -27.112425522911007 ], [ -69.857401414426519, -27.11240708665283 ], [ -69.857422054516007, -27.115115319132627 ], [ -69.858430881319251, -27.115109158515477 ], [ -69.858458438324121, -27.118720132541927 ], [ -69.859467297180075, -27.118713963728375 ], [ -69.859481093807872, -27.120519449552898 ], [ -69.85746334339359, -27.120531780890023 ], [ -69.857470226000899, -27.121434524101133 ], [ -69.860496875424573, -27.121416015513791 ], [ -69.860441629327198, -27.114194072228244 ], [ -69.859432811262266, -27.114200247091343 ], [ -69.859391438816672, -27.108783783213109 ] ] ] } },
{ "type": "Feature", "properties": { "cve": "2852853", "nombre": "ITALIANA 1 AL 7", "solicitante": "Pérez Vargas Miguel Ángel", "region": "REGIÓN DE ATACAMA", "provincia": "Provincia de Copiapó", "comuna": null, "superficie_ha": 21.0, "datum_original": "PSAD56", "huso": 19, "epsg_origen": 24879, "tipo_publicacion": "mensura", "fuente_pdf": "http://www.diariooficial.interior.gob.cl/publicaciones/2026/08/13/44524/07/2852853.pdf", "archivo": "gm_mensura_2852853.pdf", "fecha": "13-08-2026", "edicion": "44524" }, "geometry": { "type": "Polygon", "coordinates": [ [ [ -70.02678651688484, -27.376678013338267 ], [ -70.023753098003851, -27.376700295702719 ], [ -70.023811261444166, -27.383018960199067 ], [ -70.026844852591921, -27.38299667184295 ], [ -70.02678651688484, -27.376678013338267 ] ] ] } },
{ "type": "Feature", "properties": { "cve": "2852854", "nombre": "LA JOSE 1 AL 8", "solicitante": "Pérez Varga Miguel Ángel", "region": "REGIÓN DE ATACAMA", "provincia": "Provincia de Copiapó", "comuna": null, "superficie_ha": 16.0, "datum_original": "PSAD56", "huso": 19, "epsg_origen": 24879, "tipo_publicacion": "mensura", "fuente_pdf": "http://www.diariooficial.interior.gob.cl/publicaciones/2026/08/13/44524/07/2852854.pdf", "archivo": "gm_mensura_2852854.pdf", "fecha": "13-08-2026", "edicion": "44524" }, "geometry": { "type": "Polygon", "coordinates": [ [ [ -69.954045382661292, -27.759222896637805 ], [ -69.949986687516912, -27.759250837520785 ], [ -69.950018032469728, -27.762861383601571 ], [ -69.954076861481937, -27.762833438465698 ], [ -69.954045382661292, -27.759222896637805 ] ] ] } },
{ "type": "Feature", "properties": { "cve": "2852940", "nombre": "ORO I 1 AL 8", "solicitante": "Gutiérrez Padilla Luis César Sergio", "region": "REGIÓN DE ATACAMA", "provincia": "Provincia de Copiapó", "comuna": null, "superficie_ha": 24.0, "datum_original": "PSAD56", "huso": 19, "epsg_origen": 24879, "tipo_publicacion": "mensura", "fuente_pdf": "http://www.diariooficial.interior.gob.cl/publicaciones/2026/08/13/44524/07/2852940.pdf", "archivo": "gm_mensura_2852940.pdf", "fecha": "13-08-2026", "edicion": "44524" }, "geometry": { "type": "Polygon", "coordinates": [ [ [ -69.707930632439641, -27.08705833413314 ], [ -69.704904796260493, -27.087073537803718 ], [ -69.704950003667506, -27.09429577816352 ], [ -69.707976033862096, -27.094280569785912 ], [ -69.707930632439641, -27.08705833413314 ] ] ] } },
{ "type": "Feature", "properties": { "cve": "2852941", "nombre": "ORO II 1 AL 5", "solicitante": "Gutiérrez Padilla Luis César Sergio", "region": "REGIÓN DE ATACAMA", "provincia": "Provincia de Copiapó", "comuna": null, "superficie_ha": 25.0, "datum_original": "PSAD56", "huso": 19, "epsg_origen": 24879, "tipo_publicacion": "mensura", "fuente_pdf": "http://www.diariooficial.interior.gob.cl/publicaciones/2026/08/13/44524/07/2852941.pdf", "archivo": "gm_mensura_2852941.pdf", "fecha": "13-08-2026", "edicion": "44524" }, "geometry": { "type": "Polygon", "coordinates": [ [ [ -69.713019412197596, -27.094255077753044 ], [ -69.707976033862096, -27.094280569785912 ], [ -69.708004418391241, -27.098794463233006 ], [ -69.713047998886779, -27.098768966268469 ], [ -69.713019412197596, -27.094255077753044 ] ] ] } },
{ "type": "Feature", "properties": { "cve": "2852942", "nombre": "ORO III 1 AL 12", "solicitante": "Gutiérrez Padilla Luis César Sergio", "region": "REGIÓN DE ATACAMA", "provincia": "Provincia de Copiapó", "comuna": null, "superficie_ha": 31.0, "datum_original": "PSAD56", "huso": 19, "epsg_origen": 24879, "tipo_publicacion": "mensura", "fuente_pdf": "http://www.diariooficial.interior.gob.cl/publicaciones/2026/08/13/44524/07/2852942.pdf", "archivo": "gm_mensura_2852942.pdf", "fecha": "13-08-2026", "edicion": "44524" }, "geometry": { "type": "Polygon", "coordinates": [ [ [ -69.697701958869828, -27.064087783532525 ], [ -69.69568514170922, -27.064097771990284 ], [ -69.69571856920237, -27.069514481513863 ], [ -69.696727026357607, -27.069509489739268 ], [ -69.696760511707026, -27.07492619385815 ], [ -69.699786026975787, -27.074911171670184 ], [ -69.699758000717068, -27.070397254773333 ], [ -69.698749536271961, -27.070402268429696 ], [ -69.698732747892748, -27.067693916294061 ], [ -69.69772430741034, -27.067698922139481 ], [ -69.697701958869828, -27.064087783532525 ] ] ] } },
{ "type": "Feature", "properties": { "cve": "2852714", "nombre": "QUIQUE 1D 1 AL 30", "solicitante": "Báez Gajardo Manuel Rodolfo", "region": "REGIÓN DE ATACAMA", "provincia": "Provincia de Copiapó", "comuna": null, "superficie_ha": 300.0, "datum_original": "PSAD56", "huso": 19, "epsg_origen": 24879, "tipo_publicacion": "mensura", "fuente_pdf": "http://www.diariooficial.interior.gob.cl/publicaciones/2026/08/13/44524/07/2852714.pdf", "archivo": "gm_mensura_2852714.pdf", "fecha": "13-08-2026", "edicion": "44524" }, "geometry": { "type": "Polygon", "coordinates": [ [ [ -70.749455593320604, -27.900182033335241 ], [ -70.73929905461641, -27.900310605142408 ], [ -70.739732254188198, -27.927380302854058 ], [ -70.74989131939968, -27.927251584789158 ], [ -70.749455593320604, -27.900182033335241 ] ] ] } },
{ "type": "Feature", "properties": { "cve": "2852715", "nombre": "QUIQUE 2D 1 AL 30", "solicitante": "Báez Gajardo Manuel Rodolfo", "region": "REGIÓN DE ATACAMA", "provincia": "Provincia de Copiapó", "comuna": null, "superficie_ha": 300.0, "datum_original": "PSAD56", "huso": 19, "epsg_origen": 24879, "tipo_publicacion": "mensura", "fuente_pdf": "http://www.diariooficial.interior.gob.cl/publicaciones/2026/08/13/44524/07/2852715.pdf", "archivo": "gm_mensura_2852715.pdf", "fecha": "13-08-2026", "edicion": "44524" }, "geometry": { "type": "Polygon", "coordinates": [ [ [ -70.73929905461641, -27.900310605142408 ], [ -70.729142449050912, -27.900438429109379 ], [ -70.729573122044272, -27.927508272228383 ], [ -70.739732254188198, -27.927380302854058 ], [ -70.73929905461641, -27.900310605142408 ] ] ] } },
{ "type": "Feature", "properties": { "cve": "2852716", "nombre": "QUIQUE 4D 1 AL 30", "solicitante": "Báez Gajardo Manuel Rodolfo", "region": "REGIÓN DE ATACAMA", "provincia": "Provincia de Copiapó", "comuna": null, "superficie_ha": 300.0, "datum_original": "PSAD56", "huso": 19, "epsg_origen": 24879, "tipo_publicacion": "mensura", "fuente_pdf": "http://www.diariooficial.interior.gob.cl/publicaciones/2026/08/13/44524/07/2852716.pdf", "archivo": "gm_mensura_2852716.pdf", "fecha": "13-08-2026", "edicion": "44524" }, "geometry": { "type": "Polygon", "coordinates": [ [ [ -70.749310485828559, -27.891158824297165 ], [ -70.718843193761188, -27.891542150819454 ], [ -70.718985777013756, -27.900565505217866 ], [ -70.749455593320604, -27.900182033335241 ], [ -70.749310485828559, -27.891158824297165 ] ] ] } },
{ "type": "Feature", "properties": { "cve": "2852717", "nombre": "QUIQUE 5D 1 AL 30", "solicitante": "Báez Gajardo Manuel Rodolfo", "region": "REGIÓN DE ATACAMA", "provincia": "Provincia de Copiapó", "comuna": null, "superficie_ha": 300.0, "datum_original": "PSAD56", "huso": 19, "epsg_origen": 24879, "tipo_publicacion": "mensura", "fuente_pdf": "http://www.diariooficial.interior.gob.cl/publicaciones/2026/08/13/44524/07/2852717.pdf", "archivo": "gm_mensura_2852717.pdf", "fecha": "13-08-2026", "edicion": "44524" }, "geometry": { "type": "Polygon", "coordinates": [ [ [ -70.74989131939968, -27.927251584789158 ], [ -70.719413923358061, -27.92763549289381 ], [ -70.71955677107978, -27.936658796936438 ], [ -70.750036696039814, -27.936274743377403 ], [ -70.74989131939968, -27.927251584789158 ] ] ] } },
{ "type": "Feature", "properties": { "cve": "2852718", "nombre": "QUIQUE 6D 1 AL 30", "solicitante": "Báez Gajardo Manuel Rodolfo", "region": "REGIÓN DE ATACAMA", "provincia": "Provincia de Copiapó", "comuna": null, "superficie_ha": 300.0, "datum_original": "PSAD56", "huso": 19, "epsg_origen": 24879, "tipo_publicacion": "mensura", "fuente_pdf": "http://www.diariooficial.interior.gob.cl/publicaciones/2026/08/13/44524/07/2852718.pdf", "archivo": "gm_mensura_2852718.pdf", "fecha": "13-08-2026", "edicion": "44524" }, "geometry": { "type": "Polygon", "coordinates": [ [ [ -70.759612064773762, -27.900052713706277 ], [ -70.749455593320604, -27.900182033335241 ], [ -70.74989131939968, -27.927251584789158 ], [ -70.760050317288616, -27.927122118052132 ], [ -70.759612064773762, -27.900052713706277 ] ] ] } },
{ "type": "Feature", "properties": { "cve": "2852855", "nombre": "QUEMADA 1 AL 3", "solicitante": "Pérez Vargas Miguel Ángel", "region": "REGIÓN DE ATACAMA", "provincia": "Provincia de Chañaral", "comuna": null, "superficie_ha": 3.0, "datum_original": "PSAD56", "huso": 19, "epsg_origen": 24879, "tipo_publicacion": "mensura", "fuente_pdf": "http://www.diariooficial.interior.gob.cl/publicaciones/2026/08/13/44524/07/2852855.pdf", "archivo": "gm_mensura_2852855.pdf", "fecha": "13-08-2026", "edicion": "44524" }, "geometry": { "type": "Polygon", "coordinates": [ [ [ -70.147016915186825, -26.318144250097497 ], [ -70.144011698711566, -26.318168256534999 ], [ -70.144020566717359, -26.319071023458626 ], [ -70.147025806475639, -26.319047016073284 ], [ -70.147016915186825, -26.318144250097497 ] ] ] } },
{ "type": "Feature", "properties": { "cve": "2852856", "nombre": "RESGUARDO 1 AL 8", "solicitante": "Pérez Vargas Miguel Ángel", "region": "REGIÓN DE ATACAMA", "provincia": "Provincia de Chañaral", "comuna": null, "superficie_ha": 40.0, "datum_original": "PSAD56", "huso": 19, "epsg_origen": 24879, "tipo_publicacion": "mensura", "fuente_pdf": "http://www.diariooficial.interior.gob.cl/publicaciones/2026/08/13/44524/07/2852856.pdf", "archivo": "gm_mensura_2852856.pdf", "fecha": "13-08-2026", "edicion": "44524" }, "geometry": { "type": "Polygon", "coordinates": [ [ [ -70.121816157023346, -26.354005780164748 ], [ -70.113799698544256, -26.354068327929127 ], [ -70.113842939865023, -26.358582185684789 ], [ -70.121859709410501, -26.358519625583916 ], [ -70.121816157023346, -26.354005780164748 ] ] ] } },
{ "type": "Feature", "properties": { "cve": "2852662", "nombre": "BLANCA E, 1 AL 60", "solicitante": "Inmobiliaria Socovesa Santiago S.A.", "region": "REGIÓN METROPOLITANA DE SANTIAGO", "provincia": "Provincia de Chacabuco", "comuna": null, "superficie_ha": 300.0, "datum_original": "PSAD56", "huso": 19, "epsg_origen": 24879, "tipo_publicacion": "mensura", "fuente_pdf": "http://www.diariooficial.interior.gob.cl/publicaciones/2026/08/13/44524/07/2852662.pdf", "archivo": "gm_mensura_2852662.pdf", "fecha": "13-08-2026", "edicion": "44524" }, "geometry": { "type": "Polygon", "coordinates": [ [ [ -70.874192986251899, -33.306857905170048 ], [ -70.890200117130689, -33.302106426744125 ], [ -70.857992785177402, -33.302592260368549 ], [ -70.858184028424034, -33.311607377493218 ], [ -70.89039467070738, -33.311121378209279 ], [ -70.874192986251899, -33.306857905170048 ] ] ] } }
]
}
