{
"type": "FeatureCollection",
"name": "boletin_mineria_20260701",
"crs": { "type": "name", "properties": { "name": "urn:ogc:def:crs:OGC:1.3:CRS84" } },
"features": [
{ "type": "Feature", "properties": { "cve": "2831437", "nombre": "ALEJANDRO 1 DEL 1 AL 11", "solicitante": "Domeyko Minería Integral Limitada", "region": "REGIÓN DE TARAPACÁ", "provincia": "Provincia de Iquique", "comuna": "Alto Hospicio", "superficie_ha": 110.0, "datum_original": "WGS84", "huso": 19, "epsg_origen": 32719, "tipo_publicacion": "manifestacion", "fuente_pdf": "http://www.diariooficial.interior.gob.cl/publicaciones/2026/07/01/44488/07/2831437.pdf", "archivo": "gm_manifestacion_2831437.pdf", "fecha": "01-07-2026", "edicion": "44488" }, "geometry": { "type": "Polygon", "coordinates": [ [ [ -70.018371325565226, -20.194216663216007 ], [ -70.007844277911019, -20.194277333911614 ], [ -70.007902411285144, -20.203312413608945 ], [ -70.018430065894549, -20.203251713464656 ], [ -70.018371325565226, -20.194216663216007 ] ] ] } },
{ "type": "Feature", "properties": { "cve": "2831443", "nombre": "ADEL II 11, 1 AL 20", "solicitante": "Antofagasta Minerals S.A.", "region": "REGIÓN DE ANTOFAGASTA", "provincia": "Provincia de Antofagasta", "comuna": null, "superficie_ha": 200.0, "datum_original": "PSAD56", "huso": 19, "epsg_origen": 24879, "tipo_publicacion": "manifestacion", "fuente_pdf": "http://www.diariooficial.interior.gob.cl/publicaciones/2026/07/01/44488/07/2831443.pdf", "archivo": "gm_manifestacion_2831443.pdf", "fecha": "01-07-2026", "edicion": "44488" }, "geometry": { "type": "Polygon", "coordinates": [ [ [ -69.40414062452308, -23.752405017145769 ], [ -69.384515064921828, -23.752455087473216 ], [ -69.38454159316727, -23.761487385619194 ], [ -69.40416850667637, -23.761437293956174 ], [ -69.40414062452308, -23.752405017145769 ] ] ] } },
{ "type": "Feature", "properties": { "cve": "2831444", "nombre": "ADEL II 13, 1 AL 20", "solicitante": "Antofagasta Minerals S.A.", "region": "REGIÓN DE ANTOFAGASTA", "provincia": "Provincia de Antofagasta", "comuna": null, "superficie_ha": 200.0, "datum_original": "PSAD56", "huso": 19, "epsg_origen": 24879, "tipo_publicacion": "manifestacion", "fuente_pdf": "http://www.diariooficial.interior.gob.cl/publicaciones/2026/07/01/44488/07/2831444.pdf", "archivo": "gm_manifestacion_2831444.pdf", "fecha": "01-07-2026", "edicion": "44488" }, "geometry": { "type": "Polygon", "coordinates": [ [ [ -69.414024808070707, -23.774959691878134 ], [ -69.404210355851816, -23.774985689147254 ], [ -69.404266203206234, -23.793050178673603 ], [ -69.41408201133666, -23.793024159263677 ], [ -69.414024808070707, -23.774959691878134 ] ] ] } },
{ "type": "Feature", "properties": { "cve": "2831442", "nombre": "ADEL II 4, 1 AL 30", "solicitante": "Antofagasta Minerals S.A.", "region": "REGIÓN DE ANTOFAGASTA", "provincia": "Provincia de Antofagasta", "comuna": null, "superficie_ha": 300.0, "datum_original": "PSAD56", "huso": 19, "epsg_origen": 24879, "tipo_publicacion": "manifestacion", "fuente_pdf": "http://www.diariooficial.interior.gob.cl/publicaciones/2026/07/01/44488/07/2831442.pdf", "archivo": "gm_manifestacion_2831442.pdf", "fecha": "01-07-2026", "edicion": "44488" }, "geometry": { "type": "Polygon", "coordinates": [ [ [ -69.511517268117345, -23.607569389572404 ], [ -69.482111764243328, -23.607663472607467 ], [ -69.482144798145995, -23.61669582411459 ], [ -69.511552316653052, -23.616601700800977 ], [ -69.511517268117345, -23.607569389572404 ] ] ] } },
{ "type": "Feature", "properties": { "cve": "2831448", "nombre": "ALE A 11, 1 AL 200", "solicitante": "Antofagasta Minerals S.A.", "region": "REGIÓN DE ANTOFAGASTA", "provincia": "Provincia de Antofagasta", "comuna": null, "superficie_ha": 200.0, "datum_original": "PSAD56", "huso": 19, "epsg_origen": 24879, "tipo_publicacion": "manifestacion", "fuente_pdf": "http://www.diariooficial.interior.gob.cl/publicaciones/2026/07/01/44488/07/2831448.pdf", "archivo": "gm_manifestacion_2831448.pdf", "fecha": "01-07-2026", "edicion": "44488" }, "geometry": { "type": "Polygon", "coordinates": [ [ [ -70.196031098685978, -23.432208487673179 ], [ -70.176456846941704, -23.432357194255786 ], [ -70.176536781560003, -23.441388158927683 ], [ -70.196112362514583, -23.441239388324565 ], [ -70.196031098685978, -23.432208487673179 ] ] ] } },
{ "type": "Feature", "properties": { "cve": "2831449", "nombre": "ALE A 12, 1 AL 200", "solicitante": "Antofagasta Minerals S.A.", "region": "REGIÓN DE ANTOFAGASTA", "provincia": "Provincia de Antofagasta", "comuna": null, "superficie_ha": 200.0, "datum_original": "PSAD56", "huso": 19, "epsg_origen": 24879, "tipo_publicacion": "manifestacion", "fuente_pdf": "http://www.diariooficial.interior.gob.cl/publicaciones/2026/07/01/44488/07/2831449.pdf", "archivo": "gm_manifestacion_2831449.pdf", "fecha": "01-07-2026", "edicion": "44488" }, "geometry": { "type": "Polygon", "coordinates": [ [ [ -70.198069911722115, -23.441224376315265 ], [ -70.178494346887589, -23.441373392281395 ], [ -70.178574454430731, -23.450404339804042 ], [ -70.198151349134619, -23.450255259703372 ], [ -70.198069911722115, -23.441224376315265 ] ] ] } },
{ "type": "Feature", "properties": { "cve": "2831440", "nombre": "ALE B 6, 1 AL 100", "solicitante": "Antofagasta Minerals S.A.", "region": "REGIÓN DE ANTOFAGASTA", "provincia": "Provincia de Antofagasta", "comuna": null, "superficie_ha": 100.0, "datum_original": "PSAD56", "huso": 19, "epsg_origen": 24879, "tipo_publicacion": "manifestacion", "fuente_pdf": "http://www.diariooficial.interior.gob.cl/publicaciones/2026/07/01/44488/07/2831440.pdf", "archivo": "gm_manifestacion_2831440.pdf", "fecha": "01-07-2026", "edicion": "44488" }, "geometry": { "type": "Polygon", "coordinates": [ [ [ -70.186647391882303, -23.477437703492011 ], [ -70.176856919506037, -23.477511909644505 ], [ -70.176937053921051, -23.486542820314959 ], [ -70.186728192569348, -23.486468582263139 ], [ -70.186647391882303, -23.477437703492011 ] ] ] } },
{ "type": "Feature", "properties": { "cve": "2831441", "nombre": "ALE B 7, 1 AL 300", "solicitante": "Antofagasta Minerals S.A.", "region": "REGIÓN DE ANTOFAGASTA", "provincia": "Provincia de Antofagasta", "comuna": null, "superficie_ha": 300.0, "datum_original": "PSAD56", "huso": 19, "epsg_origen": 24879, "tipo_publicacion": "manifestacion", "fuente_pdf": "http://www.diariooficial.interior.gob.cl/publicaciones/2026/07/01/44488/07/2831441.pdf", "archivo": "gm_manifestacion_2831441.pdf", "fecha": "01-07-2026", "edicion": "44488" }, "geometry": { "type": "Polygon", "coordinates": [ [ [ -70.186809033584424, -23.495499450220141 ], [ -70.177017228331607, -23.495573720175496 ], [ -70.177257991657513, -23.522666354865471 ], [ -70.187051798719608, -23.522591989174202 ], [ -70.186809033584424, -23.495499450220141 ] ] ] } },
{ "type": "Feature", "properties": { "cve": "2831445", "nombre": "ALE C 3, 1 AL 20", "solicitante": "Antofagasta Minerals S.A.", "region": "REGIÓN DE ANTOFAGASTA", "provincia": "Provincia de Antofagasta", "comuna": null, "superficie_ha": 200.0, "datum_original": "PSAD56", "huso": 19, "epsg_origen": 24879, "tipo_publicacion": "manifestacion", "fuente_pdf": "http://www.diariooficial.interior.gob.cl/publicaciones/2026/07/01/44488/07/2831445.pdf", "archivo": "gm_manifestacion_2831445.pdf", "fecha": "01-07-2026", "edicion": "44488" }, "geometry": { "type": "Polygon", "coordinates": [ [ [ -69.238091877481992, -24.172747592191996 ], [ -69.228247082749377, -24.172762641376366 ], [ -69.228279213121709, -24.190826494141138 ], [ -69.238125393676142, -24.19081143230116 ], [ -69.238091877481992, -24.172747592191996 ] ] ] } },
{ "type": "Feature", "properties": { "cve": "2831446", "nombre": "ALE C 4, 1 AL 20", "solicitante": "Antofagasta Minerals S.A.", "region": "REGIÓN DE ANTOFAGASTA", "provincia": "Provincia de Antofagasta", "comuna": null, "superficie_ha": 200.0, "datum_original": "PSAD56", "huso": 19, "epsg_origen": 24879, "tipo_publicacion": "manifestacion", "fuente_pdf": "http://www.diariooficial.interior.gob.cl/publicaciones/2026/07/01/44488/07/2831446.pdf", "archivo": "gm_manifestacion_2831446.pdf", "fecha": "01-07-2026", "edicion": "44488" }, "geometry": { "type": "Polygon", "coordinates": [ [ [ -69.228247082749377, -24.172762641376366 ], [ -69.218402280117459, -24.172777055171622 ], [ -69.218433024663057, -24.190840920057674 ], [ -69.228279213121709, -24.190826494141138 ], [ -69.228247082749377, -24.172762641376366 ] ] ] } },
{ "type": "Feature", "properties": { "cve": "2831447", "nombre": "ALE C 6, 1 AL 30", "solicitante": "Antofagasta Minerals S.A.", "region": "REGIÓN DE ANTOFAGASTA", "provincia": "Provincia de Antofagasta", "comuna": null, "superficie_ha": 300.0, "datum_original": "PSAD56", "huso": 19, "epsg_origen": 24879, "tipo_publicacion": "manifestacion", "fuente_pdf": "http://www.diariooficial.interior.gob.cl/publicaciones/2026/07/01/44488/07/2831447.pdf", "archivo": "gm_manifestacion_2831447.pdf", "fecha": "01-07-2026", "edicion": "44488" }, "geometry": { "type": "Polygon", "coordinates": [ [ [ -69.366240997435881, -24.231200762840704 ], [ -69.336693451692426, -24.231268969803249 ], [ -69.336717208710837, -24.240300746970885 ], [ -69.36626683921385, -24.24023251138382 ], [ -69.366240997435881, -24.231200762840704 ] ] ] } },
{ "type": "Feature", "properties": { "cve": "2831454", "nombre": "ALESA C 5, 1 AL 30", "solicitante": "Antofagasta Minerals S.A.", "region": "REGIÓN DE ANTOFAGASTA", "provincia": "Provincia de Antofagasta", "comuna": null, "superficie_ha": 300.0, "datum_original": "PSAD56", "huso": 19, "epsg_origen": 24879, "tipo_publicacion": "manifestacion", "fuente_pdf": "http://www.diariooficial.interior.gob.cl/publicaciones/2026/07/01/44488/07/2831454.pdf", "archivo": "gm_manifestacion_2831454.pdf", "fecha": "01-07-2026", "edicion": "44488" }, "geometry": { "type": "Polygon", "coordinates": [ [ [ -69.366215168352966, -24.222169003466949 ], [ -69.336669706344892, -24.222237181808886 ], [ -69.336693451692426, -24.231268969803249 ], [ -69.366240997435881, -24.231200762840704 ], [ -69.366215168352966, -24.222169003466949 ] ] ] } },
{ "type": "Feature", "properties": { "cve": "2831450", "nombre": "ARAS II 10, 1 AL 10", "solicitante": "Antofagasta Minerals S.A.", "region": "REGIÓN DE ANTOFAGASTA", "provincia": "Provincia de Antofagasta", "comuna": null, "superficie_ha": 100.0, "datum_original": "PSAD56", "huso": 19, "epsg_origen": 24879, "tipo_publicacion": "manifestacion", "fuente_pdf": "http://www.diariooficial.interior.gob.cl/publicaciones/2026/07/01/44488/07/2831450.pdf", "archivo": "gm_manifestacion_2831450.pdf", "fecha": "01-07-2026", "edicion": "44488" }, "geometry": { "type": "Polygon", "coordinates": [ [ [ -69.403530709363807, -23.553692231657227 ], [ -69.39373274446703, -23.553717341054377 ], [ -69.393759653685606, -23.562749862803084 ], [ -69.403558288169435, -23.562724742637048 ], [ -69.403530709363807, -23.553692231657227 ] ] ] } },
{ "type": "Feature", "properties": { "cve": "2831451", "nombre": "ARAS II 14, 1 AL 30", "solicitante": "Antofagasta Minerals S.A.", "region": "REGIÓN DE ANTOFAGASTA", "provincia": "Provincia de Antofagasta", "comuna": null, "superficie_ha": 300.0, "datum_original": "PSAD56", "huso": 19, "epsg_origen": 24879, "tipo_publicacion": "manifestacion", "fuente_pdf": "http://www.diariooficial.interior.gob.cl/publicaciones/2026/07/01/44488/07/2831451.pdf", "archivo": "gm_manifestacion_2831451.pdf", "fecha": "01-07-2026", "edicion": "44488" }, "geometry": { "type": "Polygon", "coordinates": [ [ [ -69.403585880719646, -23.571757243004981 ], [ -69.374187927595557, -23.571830782832876 ], [ -69.374213523118726, -23.580863304106899 ], [ -69.403613487018603, -23.580789732757967 ], [ -69.403585880719646, -23.571757243004981 ] ] ] } },
{ "type": "Feature", "properties": { "cve": "2831452", "nombre": "ARAS II 18, 1 AL 10", "solicitante": "Antofagasta Minerals S.A.", "region": "REGIÓN DE ANTOFAGASTA", "provincia": "Provincia de Antofagasta", "comuna": null, "superficie_ha": 100.0, "datum_original": "PSAD56", "huso": 19, "epsg_origen": 24879, "tipo_publicacion": "manifestacion", "fuente_pdf": "http://www.diariooficial.interior.gob.cl/publicaciones/2026/07/01/44488/07/2831452.pdf", "archivo": "gm_manifestacion_2831452.pdf", "fecha": "01-07-2026", "edicion": "44488" }, "geometry": { "type": "Polygon", "coordinates": [ [ [ -69.347909251446765, -23.824800636321005 ], [ -69.338090980169625, -23.824822475123888 ], [ -69.338114385474299, -23.833854734239921 ], [ -69.347933336416105, -23.833832886152912 ], [ -69.347909251446765, -23.824800636321005 ] ] ] } },
{ "type": "Feature", "properties": { "cve": "2831453", "nombre": "ARAS II 22, 1 AL 30", "solicitante": "Antofagasta Minerals S.A.", "region": "REGIÓN DE ANTOFAGASTA", "provincia": "Provincia de Antofagasta", "comuna": null, "superficie_ha": 300.0, "datum_original": "PSAD56", "huso": 19, "epsg_origen": 24879, "tipo_publicacion": "manifestacion", "fuente_pdf": "http://www.diariooficial.interior.gob.cl/publicaciones/2026/07/01/44488/07/2831453.pdf", "archivo": "gm_manifestacion_2831453.pdf", "fecha": "01-07-2026", "edicion": "44488" }, "geometry": { "type": "Polygon", "coordinates": [ [ [ -69.345622339088919, -23.888031695160116 ], [ -69.316153187997145, -23.888095055492091 ], [ -69.316175139992453, -23.897127259619474 ], [ -69.345646337170223, -23.897063872406349 ], [ -69.345622339088919, -23.888031695160116 ] ] ] } },
{ "type": "Feature", "properties": { "cve": "2831458", "nombre": "CALIPSO A 1, 1 AL 20", "solicitante": "Minera Centinela", "region": "REGIÓN DE ANTOFAGASTA", "provincia": "Provincia de Antofagasta", "comuna": null, "superficie_ha": 200.0, "datum_original": "PSAD56", "huso": 19, "epsg_origen": 24879, "tipo_publicacion": "manifestacion", "fuente_pdf": "http://www.diariooficial.interior.gob.cl/publicaciones/2026/07/01/44488/07/2831458.pdf", "archivo": "gm_manifestacion_2831458.pdf", "fecha": "01-07-2026", "edicion": "44488" }, "geometry": { "type": "Polygon", "coordinates": [ [ [ -69.314951785016817, -23.386791021169312 ], [ -69.305166039370576, -23.386810421327766 ], [ -69.305207431304538, -23.404876015363165 ], [ -69.314994504211413, -23.404856598470936 ], [ -69.314951785016817, -23.386791021169312 ] ] ] } },
{ "type": "Feature", "properties": { "cve": "2831457", "nombre": "CORTINA NORTE I 1, 1 AL 100", "solicitante": "Minera Centinela", "region": "REGIÓN DE ANTOFAGASTA", "provincia": "Provincia de Antofagasta", "comuna": null, "superficie_ha": 100.0, "datum_original": "PSAD56", "huso": 19, "epsg_origen": 24879, "tipo_publicacion": "manifestacion", "fuente_pdf": "http://www.diariooficial.interior.gob.cl/publicaciones/2026/07/01/44488/07/2831457.pdf", "archivo": "gm_manifestacion_2831457.pdf", "fecha": "01-07-2026", "edicion": "44488" }, "geometry": { "type": "Polygon", "coordinates": [ [ [ -69.343122409775219, -22.92152745101707 ], [ -69.333370418828352, -22.921548217911695 ], [ -69.333392520300379, -22.930581533213289 ], [ -69.343145157744914, -22.930560757221329 ], [ -69.343122409775219, -22.92152745101707 ] ] ] } },
{ "type": "Feature", "properties": { "cve": "2831130", "nombre": "ALEF 1 AL 7", "solicitante": "Núñez Rogers Elvira Alexandra", "region": "REGIÓN DE COQUIMBO", "provincia": "Provincia de Limarí", "comuna": "Combarbalá", "superficie_ha": 28.0, "datum_original": "PSAD56", "huso": 19, "epsg_origen": 24879, "tipo_publicacion": "manifestacion", "fuente_pdf": "http://www.diariooficial.interior.gob.cl/publicaciones/2026/07/01/44488/07/2831130.pdf", "archivo": "gm_manifestacion_2831130.pdf", "fecha": "01-07-2026", "edicion": "44488" }, "geometry": { "type": "Polygon", "coordinates": [ [ [ -70.97861147899836, -31.113591503803068 ], [ -70.97441904671058, -31.113655820855811 ], [ -70.974549749653534, -31.119968176448243 ], [ -70.978742459031693, -31.119903843461032 ], [ -70.97861147899836, -31.113591503803068 ] ] ] } },
{ "type": "Feature", "properties": { "cve": "2831229", "nombre": "LA FORTUNA 1 AL 7", "solicitante": "Jara Maldonado Ruperto Isaac", "region": "REGIÓN DE VALPARAÍSO", "provincia": "Provincia de Petorca", "comuna": null, "superficie_ha": 28.0, "datum_original": "WGS84", "huso": 19, "epsg_origen": 32719, "tipo_publicacion": "manifestacion", "fuente_pdf": "http://www.diariooficial.interior.gob.cl/publicaciones/2026/07/01/44488/07/2831229.pdf", "archivo": "gm_manifestacion_2831229.pdf", "fecha": "01-07-2026", "edicion": "44488" }, "geometry": { "type": "Polygon", "coordinates": [ [ [ -70.838253247596342, -32.235753328070636 ], [ -70.834009728706391, -32.235815002061848 ], [ -70.834136587009311, -32.242126786823455 ], [ -70.838380399020579, -32.242065097855175 ], [ -70.838253247596342, -32.235753328070636 ] ] ] } },
{ "type": "Feature", "properties": { "cve": "2831270", "nombre": "JCS XIV 1 AL 324", "solicitante": "SLM JCS Primera 1 al 20 de San Bernardo", "region": "REGIÓN METROPOLITANA DE SANTIAGO", "provincia": "Provincia de Talagante", "comuna": null, "superficie_ha": 324.0, "datum_original": "PSAD56", "huso": 19, "epsg_origen": 24879, "tipo_publicacion": "manifestacion", "fuente_pdf": "http://www.diariooficial.interior.gob.cl/publicaciones/2026/07/01/44488/07/2831270.pdf", "archivo": "gm_manifestacion_2831270.pdf", "fecha": "01-07-2026", "edicion": "44488" }, "geometry": { "type": "Polygon", "coordinates": [ [ [ -70.834344187617916, -33.709644787863276 ], [ -70.814928489030933, -33.709931643852713 ], [ -70.815270038401465, -33.726158160801305 ], [ -70.834689385837677, -33.725871129813576 ], [ -70.834344187617916, -33.709644787863276 ] ] ] } },
{ "type": "Feature", "properties": { "cve": "2831348", "nombre": "JARDIN DORADO", "solicitante": "Villegas Villalobos Karina Nicole", "region": "REGIÓN DEL MAULE", "provincia": "Provincia de Cauquenes", "comuna": null, "superficie_ha": 100.0, "datum_original": "PSAD56", "huso": 18, "epsg_origen": 24878, "tipo_publicacion": "manifestacion", "fuente_pdf": "http://www.diariooficial.interior.gob.cl/publicaciones/2026/07/01/44488/07/2831348.pdf", "archivo": "gm_manifestacion_2831348.pdf", "fecha": "01-07-2026", "edicion": "44488" }, "geometry": { "type": "Polygon", "coordinates": [ [ [ -72.518320065391976, -35.973563593483235 ], [ -72.507238882440362, -35.973333782440264 ], [ -72.506955472761447, -35.982341204066849 ], [ -72.51803791240647, -35.98257109065684 ], [ -72.518320065391976, -35.973563593483235 ] ] ] } },
{ "type": "Feature", "properties": { "cve": "2831339", "nombre": "NEVADA 1 AL 60", "solicitante": "Quijano Claro Juan José", "region": "REGIÓN DE LOS RÍOS", "provincia": "Provincia de Valdivia", "comuna": null, "superficie_ha": 300.0, "datum_original": "PSAD56", "huso": 18, "epsg_origen": 24878, "tipo_publicacion": "mensura", "fuente_pdf": "http://www.diariooficial.interior.gob.cl/publicaciones/2026/07/01/44488/07/2831339.pdf", "archivo": "gm_mensura_2831339.pdf", "fecha": "01-07-2026", "edicion": "44488" }, "geometry": { "type": "Polygon", "coordinates": [ [ [ -72.782680926849224, -39.641906407414382 ], [ -72.788933985254403, -39.628512045028394 ], [ -72.777290561450258, -39.628289761542192 ], [ -72.776425348476593, -39.655300336546567 ], [ -72.788073295574037, -39.655522832051922 ], [ -72.782680926849224, -39.641906407414382 ] ] ] } },
{ "type": "Feature", "properties": { "cve": "2831340", "nombre": "NEVADA 61 AL 120", "solicitante": "Quijano Claro Juan José", "region": "REGIÓN DE LOS RÍOS", "provincia": "Provincia de Valdivia", "comuna": null, "superficie_ha": 300.0, "datum_original": "PSAD56", "huso": 18, "epsg_origen": 24878, "tipo_publicacion": "mensura", "fuente_pdf": "http://www.diariooficial.interior.gob.cl/publicaciones/2026/07/01/44488/07/2831340.pdf", "archivo": "gm_mensura_2831340.pdf", "fecha": "01-07-2026", "edicion": "44488" }, "geometry": { "type": "Polygon", "coordinates": [ [ [ -72.771035306823549, -39.641683434738788 ], [ -72.777290561450258, -39.628289761542192 ], [ -72.765647267048109, -39.628066312220511 ], [ -72.764777530974399, -39.655076674095085 ], [ -72.776425348476593, -39.655300336546567 ], [ -72.771035306823549, -39.641683434738788 ] ] ] } },
{ "type": "Feature", "properties": { "cve": "2823520", "nombre": "CATILLO 1", "solicitante": "Aguilera Bustamante Sergio Ricardo", "region": "REGIÓN DE ANTOFAGASTA", "provincia": "Provincia de El Loa", "comuna": null, "superficie_ha": 400.0, "datum_original": "PSAD56", "huso": 19, "epsg_origen": 24879, "tipo_publicacion": "sentencia_exploracion", "fuente_pdf": "http://www.diariooficial.interior.gob.cl/publicaciones/2026/07/01/44488/07/2823520.pdf", "archivo": "gm_sentencia_exploracion_2823520.pdf", "fecha": "01-07-2026", "edicion": "44488" }, "geometry": { "type": "Polygon", "coordinates": [ [ [ -68.817071883004274, -22.497209590020418 ], [ -68.77818349812587, -22.497160760108883 ], [ -68.778169094757629, -22.506194644435588 ], [ -68.817060004765125, -22.506243496056165 ], [ -68.817071883004274, -22.497209590020418 ] ] ] } },
{ "type": "Feature", "properties": { "cve": "2823522", "nombre": "CATILLO 3", "solicitante": "Aguilera Bustamante Sergio Ricardo", "region": "REGIÓN DE ANTOFAGASTA", "provincia": "Provincia de El Loa", "comuna": null, "superficie_ha": 100.0, "datum_original": "PSAD56", "huso": 19, "epsg_origen": 24879, "tipo_publicacion": "sentencia_exploracion", "fuente_pdf": "http://www.diariooficial.interior.gob.cl/publicaciones/2026/07/01/44488/07/2823522.pdf", "archivo": "gm_sentencia_exploracion_2823522.pdf", "fecha": "01-07-2026", "edicion": "44488" }, "geometry": { "type": "Polygon", "coordinates": [ [ [ -68.812198635283764, -22.50623790297378 ], [ -68.802475901031357, -22.506226276776413 ], [ -68.80246306931636, -22.515260164936027 ], [ -68.812186435175349, -22.515271796300581 ], [ -68.812198635283764, -22.50623790297378 ] ] ] } },
{ "type": "Feature", "properties": { "cve": "2831438", "nombre": "PUERTO A", "solicitante": "Compañía Minera Doña Inés de Collahuasi SCM", "region": "REGIÓN DE TARAPACÁ", "provincia": "Provincia de Iquique", "comuna": null, "superficie_ha": 200.0, "datum_original": "WGS84", "huso": 19, "epsg_origen": 32719, "tipo_publicacion": "pedimento", "fuente_pdf": "http://www.diariooficial.interior.gob.cl/publicaciones/2026/07/01/44488/07/2831438.pdf", "archivo": "gm_pedimento_2831438.pdf", "fecha": "01-07-2026", "edicion": "44488" }, "geometry": { "type": "Polygon", "coordinates": [ [ [ -70.191460433883549, -20.797549677200742 ], [ -70.181853429852438, -20.797616120708049 ], [ -70.181994250377485, -20.815683961878889 ], [ -70.191602398447472, -20.815617455427766 ], [ -70.191460433883549, -20.797549677200742 ] ] ] } },
{ "type": "Feature", "properties": { "cve": "2831426", "nombre": "ALBA 1", "solicitante": "Pizarro Núñez José Luis Alberto", "region": "REGIÓN DE TARAPACÁ", "provincia": "Provincia del Tamarugal", "comuna": null, "superficie_ha": 300.0, "datum_original": "PSAD56", "huso": 19, "epsg_origen": 24879, "tipo_publicacion": "pedimento", "fuente_pdf": "http://www.diariooficial.interior.gob.cl/publicaciones/2026/07/01/44488/07/2831426.pdf", "archivo": "gm_pedimento_2831426.pdf", "fecha": "01-07-2026", "edicion": "44488" }, "geometry": { "type": "Polygon", "coordinates": [ [ [ -69.222016729419053, -20.270000102980184 ], [ -69.212440650629603, -20.270011970155974 ], [ -69.212477577186007, -20.297120868833652 ], [ -69.222055320462388, -20.297108984424813 ], [ -69.222016729419053, -20.270000102980184 ] ] ] } },
{ "type": "Feature", "properties": { "cve": "2831427", "nombre": "ALBA 2", "solicitante": "Pizarro Núñez José Luis Alberto", "region": "REGIÓN DE TARAPACÁ", "provincia": "Provincia del Tamarugal", "comuna": null, "superficie_ha": 300.0, "datum_original": "PSAD56", "huso": 19, "epsg_origen": 24879, "tipo_publicacion": "pedimento", "fuente_pdf": "http://www.diariooficial.interior.gob.cl/publicaciones/2026/07/01/44488/07/2831427.pdf", "archivo": "gm_pedimento_2831427.pdf", "fecha": "01-07-2026", "edicion": "44488" }, "geometry": { "type": "Polygon", "coordinates": [ [ [ -69.212440650629603, -20.270011970155974 ], [ -69.20286456516331, -20.270023314200849 ], [ -69.202899827227498, -20.297132229351899 ], [ -69.212477577186007, -20.297120868833652 ], [ -69.212440650629603, -20.270011970155974 ] ] ] } },
{ "type": "Feature", "properties": { "cve": "2831428", "nombre": "ALBA 3", "solicitante": "Pizarro Núñez José Luis Alberto", "region": "REGIÓN DE TARAPACÁ", "provincia": "Provincia del Tamarugal", "comuna": null, "superficie_ha": 200.0, "datum_original": "PSAD56", "huso": 19, "epsg_origen": 24879, "tipo_publicacion": "pedimento", "fuente_pdf": "http://www.diariooficial.interior.gob.cl/publicaciones/2026/07/01/44488/07/2831428.pdf", "archivo": "gm_pedimento_2831428.pdf", "fecha": "01-07-2026", "edicion": "44488" }, "geometry": { "type": "Polygon", "coordinates": [ [ [ -69.222003879696558, -20.260963790345407 ], [ -69.202852823896421, -20.260986990333116 ], [ -69.20286456516331, -20.270023314200849 ], [ -69.222016729419053, -20.270000102980184 ], [ -69.222003879696558, -20.260963790345407 ] ] ] } },
{ "type": "Feature", "properties": { "cve": "2831432", "nombre": "ALMA 15", "solicitante": "Navas Meza John Eduardo", "region": "REGIÓN DE TARAPACÁ", "provincia": "Provincia del Tamarugal", "comuna": null, "superficie_ha": 300.0, "datum_original": "PSAD56", "huso": 19, "epsg_origen": 24879, "tipo_publicacion": "pedimento", "fuente_pdf": "http://www.diariooficial.interior.gob.cl/publicaciones/2026/07/01/44488/07/2831432.pdf", "archivo": "gm_pedimento_2831432.pdf", "fecha": "01-07-2026", "edicion": "44488" }, "geometry": { "type": "Polygon", "coordinates": [ [ [ -68.94407547847679, -20.911690349304692 ], [ -68.915226657720666, -20.91167847181368 ], [ -68.915221578841553, -20.92071415707867 ], [ -68.944072127964603, -20.920726040171839 ], [ -68.94407547847679, -20.911690349304692 ] ] ] } },
{ "type": "Feature", "properties": { "cve": "2831433", "nombre": "ALMA 16", "solicitante": "Navas Meza John Eduardo", "region": "REGIÓN DE TARAPACÁ", "provincia": "Provincia del Tamarugal", "comuna": null, "superficie_ha": 200.0, "datum_original": "PSAD56", "huso": 19, "epsg_origen": 24879, "tipo_publicacion": "pedimento", "fuente_pdf": "http://www.diariooficial.interior.gob.cl/publicaciones/2026/07/01/44488/07/2831433.pdf", "archivo": "gm_pedimento_2831433.pdf", "fecha": "01-07-2026", "edicion": "44488" }, "geometry": { "type": "Polygon", "coordinates": [ [ [ -68.944072127964603, -20.920726040171839 ], [ -68.934455276063076, -20.92072262059116 ], [ -68.934447416518367, -20.9387939701638 ], [ -68.944065421586288, -20.938797392969285 ], [ -68.944072127964603, -20.920726040171839 ] ] ] } },
{ "type": "Feature", "properties": { "cve": "2831436", "nombre": "CALA 1", "solicitante": "Fritz Ortiz José Dagoberto", "region": "REGIÓN DE TARAPACÁ", "provincia": "Provincia del Tamarugal", "comuna": null, "superficie_ha": 300.0, "datum_original": "PSAD56", "huso": 19, "epsg_origen": 24879, "tipo_publicacion": "pedimento", "fuente_pdf": "http://www.diariooficial.interior.gob.cl/publicaciones/2026/07/01/44488/07/2831436.pdf", "archivo": "gm_pedimento_2831436.pdf", "fecha": "01-07-2026", "edicion": "44488" }, "geometry": { "type": "Polygon", "coordinates": [ [ [ -69.316513624074588, -19.637293228076949 ], [ -69.306975700622644, -19.637309749442142 ], [ -69.307027255241437, -19.664420394406765 ], [ -69.316566780462821, -19.664403848402628 ], [ -69.316513624074588, -19.637293228076949 ] ] ] } },
{ "type": "Feature", "properties": { "cve": "2831410", "nombre": "SOLAR ELENA I", "solicitante": "Solar Elena SpA", "region": "REGIÓN DE ANTOFAGASTA", "provincia": "Provincia de Tocopilla", "comuna": null, "superficie_ha": 100.0, "datum_original": "PSAD56", "huso": 19, "epsg_origen": 24879, "tipo_publicacion": "pedimento", "fuente_pdf": "http://www.diariooficial.interior.gob.cl/publicaciones/2026/07/01/44488/07/2831410.pdf", "archivo": "gm_pedimento_2831410.pdf", "fecha": "01-07-2026", "edicion": "44488" }, "geometry": { "type": "Polygon", "coordinates": [ [ [ -69.515731943931314, -22.138194833832994 ], [ -69.506034999008719, -22.138225185478394 ], [ -69.506067277100144, -22.147259187084821 ], [ -69.515764840488586, -22.147228821771872 ], [ -69.515731943931314, -22.138194833832994 ] ] ] } },
{ "type": "Feature", "properties": { "cve": "2831411", "nombre": "SOLAR ELENA II", "solicitante": "Solar Elena SpA", "region": "REGIÓN DE ANTOFAGASTA", "provincia": "Provincia de Tocopilla", "comuna": null, "superficie_ha": 100.0, "datum_original": "PSAD56", "huso": 19, "epsg_origen": 24879, "tipo_publicacion": "pedimento", "fuente_pdf": "http://www.diariooficial.interior.gob.cl/publicaciones/2026/07/01/44488/07/2831411.pdf", "archivo": "gm_pedimento_2831411.pdf", "fecha": "01-07-2026", "edicion": "44488" }, "geometry": { "type": "Polygon", "coordinates": [ [ [ -69.467247056263957, -22.13834083158153 ], [ -69.457550031406782, -22.138368302968157 ], [ -69.457579217099266, -22.1474023690214 ], [ -69.467276860445196, -22.147374885264195 ], [ -69.467247056263957, -22.13834083158153 ] ] ] } },
{ "type": "Feature", "properties": { "cve": "2831412", "nombre": "SOLAR ELENA III", "solicitante": "Solar Elena SpA", "region": "REGIÓN DE ANTOFAGASTA", "provincia": "Provincia de Tocopilla", "comuna": null, "superficie_ha": 300.0, "datum_original": "PSAD56", "huso": 19, "epsg_origen": 24879, "tipo_publicacion": "pedimento", "fuente_pdf": "http://www.diariooficial.interior.gob.cl/publicaciones/2026/07/01/44488/07/2831412.pdf", "archivo": "gm_pedimento_2831412.pdf", "fecha": "01-07-2026", "edicion": "44488" }, "geometry": { "type": "Polygon", "coordinates": [ [ [ -69.515764840488586, -22.147228821771872 ], [ -69.506067277100144, -22.147259187084821 ], [ -69.50616421116726, -22.174361131086314 ], [ -69.515863631865329, -22.174330724760591 ], [ -69.515764840488586, -22.147228821771872 ] ] ] } },
{ "type": "Feature", "properties": { "cve": "2831413", "nombre": "SOLAR ELENA IV", "solicitante": "Solar Elena SpA", "region": "REGIÓN DE ANTOFAGASTA", "provincia": "Provincia de Tocopilla", "comuna": null, "superficie_ha": 200.0, "datum_original": "PSAD56", "huso": 19, "epsg_origen": 24879, "tipo_publicacion": "pedimento", "fuente_pdf": "http://www.diariooficial.interior.gob.cl/publicaciones/2026/07/01/44488/07/2831413.pdf", "archivo": "gm_pedimento_2831413.pdf", "fecha": "01-07-2026", "edicion": "44488" }, "geometry": { "type": "Polygon", "coordinates": [ [ [ -69.506067277100144, -22.147259187084821 ], [ -69.486672100755655, -22.147318188796923 ], [ -69.486703157892876, -22.156352206829396 ], [ -69.506099571820513, -22.156293178557117 ], [ -69.506067277100144, -22.147259187084821 ] ] ] } },
{ "type": "Feature", "properties": { "cve": "2831414", "nombre": "SOLAR ELENA IX", "solicitante": "Solar Elena SpA", "region": "REGIÓN DE ANTOFAGASTA", "provincia": "Provincia de Tocopilla", "comuna": null, "superficie_ha": 300.0, "datum_original": "PSAD56", "huso": 19, "epsg_origen": 24879, "tipo_publicacion": "pedimento", "fuente_pdf": "http://www.diariooficial.interior.gob.cl/publicaciones/2026/07/01/44488/07/2831414.pdf", "archivo": "gm_pedimento_2831414.pdf", "fecha": "01-07-2026", "edicion": "44488" }, "geometry": { "type": "Polygon", "coordinates": [ [ [ -69.486827546450925, -22.192488177585993 ], [ -69.457725371186214, -22.192572547330268 ], [ -69.45775464715868, -22.201606552577932 ], [ -69.486858683615651, -22.201522144915611 ], [ -69.486827546450925, -22.192488177585993 ] ] ] } },
{ "type": "Feature", "properties": { "cve": "2831415", "nombre": "SOLAR ELENA V", "solicitante": "Solar Elena SpA", "region": "REGIÓN DE ANTOFAGASTA", "provincia": "Provincia de Tocopilla", "comuna": null, "superficie_ha": 300.0, "datum_original": "PSAD56", "huso": 19, "epsg_origen": 24879, "tipo_publicacion": "pedimento", "fuente_pdf": "http://www.diariooficial.interior.gob.cl/publicaciones/2026/07/01/44488/07/2831415.pdf", "archivo": "gm_pedimento_2831415.pdf", "fecha": "01-07-2026", "edicion": "44488" }, "geometry": { "type": "Polygon", "coordinates": [ [ [ -69.486672100755655, -22.147318188796923 ], [ -69.457579217099266, -22.1474023690214 ], [ -69.457608417827643, -22.156436424948463 ], [ -69.486703157892876, -22.156352206829396 ], [ -69.486672100755655, -22.147318188796923 ] ] ] } },
{ "type": "Feature", "properties": { "cve": "2831416", "nombre": "SOLAR ELENA VI", "solicitante": "Solar Elena SpA", "region": "REGIÓN DE ANTOFAGASTA", "provincia": "Provincia de Tocopilla", "comuna": null, "superficie_ha": 300.0, "datum_original": "PSAD56", "huso": 19, "epsg_origen": 24879, "tipo_publicacion": "pedimento", "fuente_pdf": "http://www.diariooficial.interior.gob.cl/publicaciones/2026/07/01/44488/07/2831416.pdf", "archivo": "gm_pedimento_2831416.pdf", "fecha": "01-07-2026", "edicion": "44488" }, "geometry": { "type": "Polygon", "coordinates": [ [ [ -69.457579217099266, -22.1474023690214 ], [ -69.447881558717711, -22.147429276456016 ], [ -69.447967348636439, -22.17453145018823 ], [ -69.45766686440929, -22.174504506411132 ], [ -69.457579217099266, -22.1474023690214 ] ] ] } },
{ "type": "Feature", "properties": { "cve": "2831417", "nombre": "SOLAR ELENA VII", "solicitante": "Solar Elena SpA", "region": "REGIÓN DE ANTOFAGASTA", "provincia": "Provincia de Tocopilla", "comuna": null, "superficie_ha": 300.0, "datum_original": "PSAD56", "huso": 19, "epsg_origen": 24879, "tipo_publicacion": "pedimento", "fuente_pdf": "http://www.diariooficial.interior.gob.cl/publicaciones/2026/07/01/44488/07/2831417.pdf", "archivo": "gm_pedimento_2831417.pdf", "fecha": "01-07-2026", "edicion": "44488" }, "geometry": { "type": "Polygon", "coordinates": [ [ [ -69.515863631865329, -22.174330724760591 ], [ -69.50616421116726, -22.174361131086314 ], [ -69.506261295023819, -22.201462983793039 ], [ -69.515962575901455, -22.201432536439324 ], [ -69.515863631865329, -22.174330724760591 ] ] ] } },
{ "type": "Feature", "properties": { "cve": "2831418", "nombre": "SOLAR ELENA VIII", "solicitante": "Solar Elena SpA", "region": "REGIÓN DE ANTOFAGASTA", "provincia": "Provincia de Tocopilla", "comuna": null, "superficie_ha": 200.0, "datum_original": "PSAD56", "huso": 19, "epsg_origen": 24879, "tipo_publicacion": "pedimento", "fuente_pdf": "http://www.diariooficial.interior.gob.cl/publicaciones/2026/07/01/44488/07/2831418.pdf", "archivo": "gm_pedimento_2831418.pdf", "fecha": "01-07-2026", "edicion": "44488" }, "geometry": { "type": "Polygon", "coordinates": [ [ [ -69.506228917087057, -22.192429043040068 ], [ -69.486827546450925, -22.192488177585993 ], [ -69.486858683615651, -22.201522144915611 ], [ -69.506261295023819, -22.201462983793039 ], [ -69.506228917087057, -22.192429043040068 ] ] ] } },
{ "type": "Feature", "properties": { "cve": "2831419", "nombre": "SOLAR ELENA X", "solicitante": "Solar Elena SpA", "region": "REGIÓN DE ANTOFAGASTA", "provincia": "Provincia de Tocopilla", "comuna": null, "superficie_ha": 300.0, "datum_original": "PSAD56", "huso": 19, "epsg_origen": 24879, "tipo_publicacion": "pedimento", "fuente_pdf": "http://www.diariooficial.interior.gob.cl/publicaciones/2026/07/01/44488/07/2831419.pdf", "archivo": "gm_pedimento_2831419.pdf", "fecha": "01-07-2026", "edicion": "44488" }, "geometry": { "type": "Polygon", "coordinates": [ [ [ -69.45766686440929, -22.174504506411132 ], [ -69.447967348636439, -22.17453145018823 ], [ -69.448053271124451, -22.201633532711011 ], [ -69.45775464715868, -22.201606552577932 ], [ -69.45766686440929, -22.174504506411132 ] ] ] } },
{ "type": "Feature", "properties": { "cve": "2831399", "nombre": "IDAHUE", "solicitante": "Ruiz de Gamboa Nora", "region": "REGIÓN DEL MAULE", "provincia": "Provincia de Curicó", "comuna": null, "superficie_ha": 300.0, "datum_original": "PSAD56", "huso": 19, "epsg_origen": 24879, "tipo_publicacion": "pedimento", "fuente_pdf": "http://www.diariooficial.interior.gob.cl/publicaciones/2026/07/01/44488/07/2831399.pdf", "archivo": "gm_pedimento_2831399.pdf", "fecha": "01-07-2026", "edicion": "44488" }, "geometry": { "type": "Polygon", "coordinates": [ [ [ -71.902699118915621, -34.963750531546495 ], [ -71.891759358825965, -34.964011697698098 ], [ -71.892709945795431, -34.991029334328012 ], [ -71.90365328973563, -34.990767907407218 ], [ -71.902699118915621, -34.963750531546495 ] ] ] } }
]
}
