{
"type": "FeatureCollection",
"name": "boletin_mineria_20260714",
"crs": { "type": "name", "properties": { "name": "urn:ogc:def:crs:OGC:1.3:CRS84" } },
"features": [
{ "type": "Feature", "properties": { "cve": "2837495", "nombre": "ANA PATRICIA 2, 1 AL 4", "solicitante": "Campillay Hurtado José Eduardo", "region": "REGIÓN DE ATACAMA", "provincia": "Provincia de Copiapó", "comuna": null, "superficie_ha": 12.0, "datum_original": "PSAD56", "huso": 19, "epsg_origen": 24879, "tipo_publicacion": "manifestacion", "fuente_pdf": "http://www.diariooficial.interior.gob.cl/publicaciones/2026/07/14/44499/07/2837495.pdf", "archivo": "gm_manifestacion_2837495.pdf", "fecha": "14-07-2026", "edicion": "44499" }, "geometry": { "type": "Polygon", "coordinates": [ [ [ -70.094094480210387, -27.791403888298628 ], [ -70.090034768360567, -27.791435973084397 ], [ -70.090061778476993, -27.794143751785441 ], [ -70.094121590874153, -27.794111663340001 ], [ -70.094094480210387, -27.791403888298628 ] ] ] } },
{ "type": "Feature", "properties": { "cve": "2837496", "nombre": "DON ISAAC 2 DEL 1-12", "solicitante": "Molina Donoso Arturo", "region": "REGIÓN DE ATACAMA", "provincia": "Provincia de Copiapó", "comuna": null, "superficie_ha": 96.0, "datum_original": "WGS84", "huso": 19, "epsg_origen": 32719, "tipo_publicacion": "manifestacion", "fuente_pdf": "http://www.diariooficial.interior.gob.cl/publicaciones/2026/07/14/44499/07/2837496.pdf", "archivo": "gm_manifestacion_2837496.pdf", "fecha": "14-07-2026", "edicion": "44499" }, "geometry": { "type": "Polygon", "coordinates": [ [ [ -70.17182631720047, -27.959033563342619 ], [ -70.159628726050059, -27.959136889894729 ], [ -70.159705913562519, -27.966357281829971 ], [ -70.171904316161644, -27.966253923977419 ], [ -70.17182631720047, -27.959033563342619 ] ] ] } },
{ "type": "Feature", "properties": { "cve": "2837497", "nombre": "REINA SOFIA 1 DEL 1-90", "solicitante": "Molina Donoso Arturo", "region": "REGIÓN DE ATACAMA", "provincia": "Provincia de Copiapó", "comuna": null, "superficie_ha": 90.0, "datum_original": "WGS84", "huso": 19, "epsg_origen": 32719, "tipo_publicacion": "manifestacion", "fuente_pdf": "http://www.diariooficial.interior.gob.cl/publicaciones/2026/07/14/44499/07/2837497.pdf", "archivo": "gm_manifestacion_2837497.pdf", "fecha": "14-07-2026", "edicion": "44499" }, "geometry": { "type": "Polygon", "coordinates": [ [ [ -70.409024683464054, -27.449216121468726 ], [ -70.390814806122606, -27.449399129167613 ], [ -70.390871424607298, -27.453911800297238 ], [ -70.409082042658071, -27.453728757519322 ], [ -70.409024683464054, -27.449216121468726 ] ] ] } },
{ "type": "Feature", "properties": { "cve": "2837498", "nombre": "REINA SOFIA 2 DEL 1-15", "solicitante": "Molina Donoso Arturo", "region": "REGIÓN DE ATACAMA", "provincia": "Provincia de Copiapó", "comuna": null, "superficie_ha": 90.0, "datum_original": "WGS84", "huso": 19, "epsg_origen": 32719, "tipo_publicacion": "manifestacion", "fuente_pdf": "http://www.diariooficial.interior.gob.cl/publicaciones/2026/07/14/44499/07/2837498.pdf", "archivo": "gm_manifestacion_2837498.pdf", "fecha": "14-07-2026", "edicion": "44499" }, "geometry": { "type": "Polygon", "coordinates": [ [ [ -70.405102427977198, -27.455077795151791 ], [ -70.389926714373999, -27.45523006937805 ], [ -70.389994631636, -27.460645271882413 ], [ -70.405171086192439, -27.460492962635314 ], [ -70.405102427977198, -27.455077795151791 ] ] ] } },
{ "type": "Feature", "properties": { "cve": "2837192", "nombre": "VENUS 1/10", "solicitante": "Cepeda Alfaro Diego Alonso", "region": "REGIÓN DE ATACAMA", "provincia": "Provincia de Copiapó", "comuna": "Copiapó", "superficie_ha": 100.0, "datum_original": "PSAD56", "huso": 19, "epsg_origen": 24879, "tipo_publicacion": "manifestacion", "fuente_pdf": "http://www.diariooficial.interior.gob.cl/publicaciones/2026/07/14/44499/07/2837192.pdf", "archivo": "gm_manifestacion_2837192.pdf", "fecha": "14-07-2026", "edicion": "44499" }, "geometry": { "type": "Polygon", "coordinates": [ [ [ -70.914087734864324, -27.924200858234858 ], [ -70.90392988658985, -27.924341671129699 ], [ -70.904088036516143, -27.933364056620746 ], [ -70.914246727299556, -27.933223190376086 ], [ -70.914087734864324, -27.924200858234858 ] ] ] } },
{ "type": "Feature", "properties": { "cve": "2837208", "nombre": "LORENZO 1 AL 23", "solicitante": "JJ Mining Limitada", "region": "REGIÓN DE COQUIMBO", "provincia": "Provincia de Elqui", "comuna": "VICUÑA", "superficie_ha": 92.0, "datum_original": "WGS84", "huso": 19, "epsg_origen": 32719, "tipo_publicacion": "manifestacion", "fuente_pdf": "http://www.diariooficial.interior.gob.cl/publicaciones/2026/07/14/44499/07/2837208.pdf", "archivo": "gm_manifestacion_2837208.pdf", "fecha": "14-07-2026", "edicion": "44499" }, "geometry": { "type": "Polygon", "coordinates": [ [ [ -70.639662661995118, -29.906911409038038 ], [ -70.627755053718587, -29.907058936498366 ], [ -70.627872443229791, -29.914275798497609 ], [ -70.639780909317849, -29.914128228255056 ], [ -70.639662661995118, -29.906911409038038 ] ] ] } },
{ "type": "Feature", "properties": { "cve": "2837207", "nombre": "LUISA 1 AL 10", "solicitante": "JJ Mining Limitada", "region": "REGIÓN DE COQUIMBO", "provincia": "Provincia de Elqui", "comuna": "VICUÑA", "superficie_ha": 70.0, "datum_original": "WGS84", "huso": 19, "epsg_origen": 32719, "tipo_publicacion": "manifestacion", "fuente_pdf": "http://www.diariooficial.interior.gob.cl/publicaciones/2026/07/14/44499/07/2837207.pdf", "archivo": "gm_manifestacion_2837207.pdf", "fecha": "14-07-2026", "edicion": "44499" }, "geometry": { "type": "Polygon", "coordinates": [ [ [ -70.633729852156534, -29.924128499075525 ], [ -70.626480484816355, -29.924218146863264 ], [ -70.626627214982591, -29.933239205298225 ], [ -70.633877235604459, -29.933149525024625 ], [ -70.633729852156534, -29.924128499075525 ] ] ] } },
{ "type": "Feature", "properties": { "cve": "2837417", "nombre": "EL ALTO 1/4", "solicitante": "Ramos Torres Heriberto Alejandro", "region": "REGIÓN DE COQUIMBO", "provincia": "Provincia de Limarí", "comuna": null, "superficie_ha": 12.0, "datum_original": "WGS84", "huso": 19, "epsg_origen": 32719, "tipo_publicacion": "manifestacion", "fuente_pdf": "http://www.diariooficial.interior.gob.cl/publicaciones/2026/07/14/44499/07/2837417.pdf", "archivo": "gm_manifestacion_2837417.pdf", "fecha": "14-07-2026", "edicion": "44499" }, "geometry": { "type": "Polygon", "coordinates": [ [ [ -70.52423456453036, -30.881823476582717 ], [ -70.521097062094327, -30.88186039709278 ], [ -70.521154084472926, -30.885468475684444 ], [ -70.524291704415717, -30.885431549923617 ], [ -70.52423456453036, -30.881823476582717 ] ] ] } },
{ "type": "Feature", "properties": { "cve": "2837286", "nombre": "LA CAMPANA II 1 AL 50", "solicitante": "Smoje Ticó Sergio Óscar", "region": "REGIÓN DE ATACAMA", "provincia": "Provincia de Chañaral", "comuna": null, "superficie_ha": 50.0, "datum_original": "PSAD56", "huso": 19, "epsg_origen": 24879, "tipo_publicacion": "mensura", "fuente_pdf": "http://www.diariooficial.interior.gob.cl/publicaciones/2026/07/14/44499/07/2837286.pdf", "archivo": "gm_mensura_2837286.pdf", "fecha": "14-07-2026", "edicion": "44499" }, "geometry": { "type": "Polygon", "coordinates": [ [ [ -69.907267013345518, -26.788891672841419 ], [ -69.902237444627275, -26.788923796775482 ], [ -69.902308850470931, -26.797951542718728 ], [ -69.907338817111977, -26.797919406256955 ], [ -69.907267013345518, -26.788891672841419 ] ] ] } },
{ "type": "Feature", "properties": { "cve": "2837426", "nombre": "Loreto del 1 al 3", "solicitante": "SLM Tilde de Chancón del Uno al Quinientos", "region": "REGIÓN DEL LIBERTADOR GENERAL BERNARDO O’HIGGINS", "provincia": "Provincia de Cachapoal", "comuna": null, "superficie_ha": 3.0, "datum_original": "PSAD56", "huso": 19, "epsg_origen": 24879, "tipo_publicacion": "mensura", "fuente_pdf": "http://www.diariooficial.interior.gob.cl/publicaciones/2026/07/14/44499/07/2837426.pdf", "archivo": "gm_mensura_2837426.pdf", "fecha": "14-07-2026", "edicion": "44499" }, "geometry": { "type": "Polygon", "coordinates": [ [ [ -70.838007239999413, -34.082281896404155 ], [ -70.836923898196261, -34.082298099941127 ], [ -70.836982306706773, -34.085002324578703 ], [ -70.838065682909601, -34.084986119403375 ], [ -70.838007239999413, -34.082281896404155 ] ] ] } },
{ "type": "Feature", "properties": { "cve": "2837133", "nombre": "TRINIDAD 26C, 1 AL 60", "solicitante": "Ree Uno SpA", "region": "REGIÓN DEL BIOBÍO", "provincia": "Provincia de Concepción", "comuna": null, "superficie_ha": 300.0, "datum_original": "PSAD56", "huso": 18, "epsg_origen": 24878, "tipo_publicacion": "mensura", "fuente_pdf": "http://www.diariooficial.interior.gob.cl/publicaciones/2026/07/14/44499/07/2837133.pdf", "archivo": "gm_mensura_2837133.pdf", "fecha": "14-07-2026", "edicion": "44499" }, "geometry": { "type": "Polygon", "coordinates": [ [ [ -73.027131103888152, -37.209746516188872 ], [ -73.015867860396924, -37.209558335409554 ], [ -73.015159556371287, -37.236584305615558 ], [ -73.026426814284079, -37.236772669613515 ], [ -73.027131103888152, -37.209746516188872 ] ] ] } },
{ "type": "Feature", "properties": { "cve": "2837134", "nombre": "TRINIDAD 27C, 1 AL 60", "solicitante": "Ree Uno SpA", "region": "REGIÓN DEL BIOBÍO", "provincia": "Provincia de Concepción", "comuna": null, "superficie_ha": 300.0, "datum_original": "PSAD56", "huso": 18, "epsg_origen": 24878, "tipo_publicacion": "mensura", "fuente_pdf": "http://www.diariooficial.interior.gob.cl/publicaciones/2026/07/14/44499/07/2837134.pdf", "archivo": "gm_mensura_2837134.pdf", "fecha": "14-07-2026", "edicion": "44499" }, "geometry": { "type": "Polygon", "coordinates": [ [ [ -73.015867860396924, -37.209558335409554 ], [ -73.004604721861242, -37.209369084597043 ], [ -73.003892403560954, -37.236394870543499 ], [ -73.015159556371287, -37.236584305615558 ], [ -73.015867860396924, -37.209558335409554 ] ] ] } },
{ "type": "Feature", "properties": { "cve": "2837135", "nombre": "TRINIDAD 28C 1 AL 60", "solicitante": "Ree Uno SpA", "region": "REGIÓN DEL BIOBÍO", "provincia": "Provincia de Concepción", "comuna": null, "superficie_ha": 300.0, "datum_original": "PSAD56", "huso": 18, "epsg_origen": 24878, "tipo_publicacion": "mensura", "fuente_pdf": "http://www.diariooficial.interior.gob.cl/publicaciones/2026/07/14/44499/07/2837135.pdf", "archivo": "gm_mensura_2837135.pdf", "fecha": "14-07-2026", "edicion": "44499" }, "geometry": { "type": "Polygon", "coordinates": [ [ [ -73.004604721861242, -37.209369084597043 ], [ -72.993341688875134, -37.209178763782461 ], [ -72.992625356447945, -37.236204364428488 ], [ -73.003892403560954, -37.236394870543499 ], [ -73.004604721861242, -37.209369084597043 ] ] ] } },
{ "type": "Feature", "properties": { "cve": "2837136", "nombre": "TRINIDAD 36C, 1 AL 60", "solicitante": "Ree Uno SpA", "region": "REGIÓN DEL BIOBÍO", "provincia": "Provincia de Concepción", "comuna": null, "superficie_ha": 300.0, "datum_original": "PSAD56", "huso": 18, "epsg_origen": 24878, "tipo_publicacion": "mensura", "fuente_pdf": "http://www.diariooficial.interior.gob.cl/publicaciones/2026/07/14/44499/07/2837136.pdf", "archivo": "gm_mensura_2837136.pdf", "fecha": "14-07-2026", "edicion": "44499" }, "geometry": { "type": "Polygon", "coordinates": [ [ [ -73.048961643037387, -37.237146184263288 ], [ -73.037694176704434, -37.236959962506369 ], [ -73.036992966456793, -37.263986162306935 ], [ -73.048264452857651, -37.264172565327847 ], [ -73.048961643037387, -37.237146184263288 ] ] ] } },
{ "type": "Feature", "properties": { "cve": "2837137", "nombre": "TRINIDAD 37C, 1 AL 60", "solicitante": "Ree Uno SpA", "region": "REGIÓN DEL BIOBÍO", "provincia": "Provincia de Concepción", "comuna": null, "superficie_ha": 300.0, "datum_original": "PSAD56", "huso": 18, "epsg_origen": 24878, "tipo_publicacion": "mensura", "fuente_pdf": "http://www.diariooficial.interior.gob.cl/publicaciones/2026/07/14/44499/07/2837137.pdf", "archivo": "gm_mensura_2837137.pdf", "fecha": "14-07-2026", "edicion": "44499" }, "geometry": { "type": "Polygon", "coordinates": [ [ [ -73.037694176704434, -37.236959962506369 ], [ -73.026426814284079, -37.236772669613515 ], [ -73.025721584114109, -37.263798687108348 ], [ -73.036992966456793, -37.263986162306935 ], [ -73.037694176704434, -37.236959962506369 ] ] ] } },
{ "type": "Feature", "properties": { "cve": "2837138", "nombre": "TRINIDAD 38C, 1 AL 60", "solicitante": "Ree Uno SpA", "region": "REGIÓN DEL BIOBÍO", "provincia": "Provincia de Concepción", "comuna": null, "superficie_ha": 300.0, "datum_original": "PSAD56", "huso": 18, "epsg_origen": 24878, "tipo_publicacion": "mensura", "fuente_pdf": "http://www.diariooficial.interior.gob.cl/publicaciones/2026/07/14/44499/07/2837138.pdf", "archivo": "gm_mensura_2837138.pdf", "fecha": "14-07-2026", "edicion": "44499" }, "geometry": { "type": "Polygon", "coordinates": [ [ [ -73.026426814284079, -37.236772669613515 ], [ -73.015159556371287, -37.236584305615558 ], [ -73.014450306425388, -37.263610139762989 ], [ -73.025721584114109, -37.263798687108348 ], [ -73.026426814284079, -37.236772669613515 ] ] ] } },
{ "type": "Feature", "properties": { "cve": "2837139", "nombre": "TRINIDAD 39C, 1 AL 60", "solicitante": "Ree Uno SpA", "region": "REGIÓN DEL BIOBÍO", "provincia": "Provincia de Concepción", "comuna": null, "superficie_ha": 300.0, "datum_original": "PSAD56", "huso": 18, "epsg_origen": 24878, "tipo_publicacion": "mensura", "fuente_pdf": "http://www.diariooficial.interior.gob.cl/publicaciones/2026/07/14/44499/07/2837139.pdf", "archivo": "gm_mensura_2837139.pdf", "fecha": "14-07-2026", "edicion": "44499" }, "geometry": { "type": "Polygon", "coordinates": [ [ [ -73.015159556371287, -37.236584305615558 ], [ -73.003892403560954, -37.236394870543499 ], [ -73.003179133986407, -37.263420520301892 ], [ -73.014450306425388, -37.263610139762989 ], [ -73.015159556371287, -37.236584305615558 ] ] ] } },
{ "type": "Feature", "properties": { "cve": "2837140", "nombre": "TRINIDAD 40C, 1 AL 60", "solicitante": "Ree Uno SpA", "region": "REGIÓN DEL BIOBÍO", "provincia": "Provincia de Concepción", "comuna": null, "superficie_ha": 300.0, "datum_original": "PSAD56", "huso": 18, "epsg_origen": 24878, "tipo_publicacion": "mensura", "fuente_pdf": "http://www.diariooficial.interior.gob.cl/publicaciones/2026/07/14/44499/07/2837140.pdf", "archivo": "gm_mensura_2837140.pdf", "fecha": "14-07-2026", "edicion": "44499" }, "geometry": { "type": "Polygon", "coordinates": [ [ [ -73.003892403560954, -37.236394870543499 ], [ -72.992625356447945, -37.236204364428488 ], [ -72.99190806739287, -37.263229828756266 ], [ -73.003179133986407, -37.263420520301892 ], [ -73.003892403560954, -37.236394870543499 ] ] ] } },
{ "type": "Feature", "properties": { "cve": "2837141", "nombre": "TRINIDAD 47C, 1 AL 60", "solicitante": "Ree Uno SpA", "region": "REGIÓN DEL BIOBÍO", "provincia": "Provincia de Concepción", "comuna": null, "superficie_ha": 300.0, "datum_original": "PSAD56", "huso": 18, "epsg_origen": 24878, "tipo_publicacion": "mensura", "fuente_pdf": "http://www.diariooficial.interior.gob.cl/publicaciones/2026/07/14/44499/07/2837141.pdf", "archivo": "gm_mensura_2837141.pdf", "fecha": "14-07-2026", "edicion": "44499" }, "geometry": { "type": "Polygon", "coordinates": [ [ [ -73.059536042720893, -37.264357896140403 ], [ -73.048264452857651, -37.264172565327847 ], [ -73.047566331518652, -37.291198810667403 ], [ -73.058841946957287, -37.291384321828986 ], [ -73.059536042720893, -37.264357896140403 ] ] ] } },
{ "type": "Feature", "properties": { "cve": "2837142", "nombre": "TRINIDAD 48C, 1 AL 60", "solicitante": "Ree Uno SpA", "region": "REGIÓN DEL BIOBÍO", "provincia": "Provincia de Concepción", "comuna": null, "superficie_ha": 300.0, "datum_original": "PSAD56", "huso": 18, "epsg_origen": 24878, "tipo_publicacion": "mensura", "fuente_pdf": "http://www.diariooficial.interior.gob.cl/publicaciones/2026/07/14/44499/07/2837142.pdf", "archivo": "gm_mensura_2837142.pdf", "fecha": "14-07-2026", "edicion": "44499" }, "geometry": { "type": "Polygon", "coordinates": [ [ [ -73.048264452857651, -37.264172565327847 ], [ -73.036992966456793, -37.263986162306935 ], [ -73.036290819687451, -37.291012226254985 ], [ -73.047566331518652, -37.291198810667403 ], [ -73.048264452857651, -37.264172565327847 ] ] ] } },
{ "type": "Feature", "properties": { "cve": "2837143", "nombre": "TRINIDAD 49C 1 AL 60", "solicitante": "REE Uno SpA", "region": "REGIÓN DEL BIOBÍO", "provincia": "Provincia de Concepción", "comuna": null, "superficie_ha": 300.0, "datum_original": "PSAD56", "huso": 18, "epsg_origen": 24878, "tipo_publicacion": "mensura", "fuente_pdf": "http://www.diariooficial.interior.gob.cl/publicaciones/2026/07/14/44499/07/2837143.pdf", "archivo": "gm_mensura_2837143.pdf", "fecha": "14-07-2026", "edicion": "44499" }, "geometry": { "type": "Polygon", "coordinates": [ [ [ -73.036992966456793, -37.263986162306935 ], [ -73.025721584114109, -37.263798687108348 ], [ -73.025015412060327, -37.29082456862244 ], [ -73.036290819687451, -37.291012226254985 ], [ -73.036992966456793, -37.263986162306935 ] ] ] } },
{ "type": "Feature", "properties": { "cve": "2837144", "nombre": "TRINIDAD 50C, 1 AL 60", "solicitante": "Ree Uno SpA", "region": "REGIÓN DEL BIOBÍO", "provincia": "Provincia de Concepción", "comuna": null, "superficie_ha": 300.0, "datum_original": "PSAD56", "huso": 18, "epsg_origen": 24878, "tipo_publicacion": "mensura", "fuente_pdf": "http://www.diariooficial.interior.gob.cl/publicaciones/2026/07/14/44499/07/2837144.pdf", "archivo": "gm_mensura_2837144.pdf", "fecha": "14-07-2026", "edicion": "44499" }, "geometry": { "type": "Polygon", "coordinates": [ [ [ -73.025721584114109, -37.263798687108348 ], [ -73.014450306425388, -37.263610139762989 ], [ -73.013740109233936, -37.290635837800707 ], [ -73.025015412060327, -37.29082456862244 ], [ -73.025721584114109, -37.263798687108348 ] ] ] } },
{ "type": "Feature", "properties": { "cve": "2837145", "nombre": "TRINIDAD 51C, 1 AL 60", "solicitante": "Ree Uno SpA", "region": "REGIÓN DEL BIOBÍO", "provincia": "Provincia de Concepción", "comuna": null, "superficie_ha": 300.0, "datum_original": "PSAD56", "huso": 18, "epsg_origen": 24878, "tipo_publicacion": "mensura", "fuente_pdf": "http://www.diariooficial.interior.gob.cl/publicaciones/2026/07/14/44499/07/2837145.pdf", "archivo": "gm_mensura_2837145.pdf", "fecha": "14-07-2026", "edicion": "44499" }, "geometry": { "type": "Polygon", "coordinates": [ [ [ -73.014450306425388, -37.263610139762989 ], [ -73.003179133986407, -37.263420520301892 ], [ -73.002464911804836, -37.290446033820857 ], [ -73.013740109233936, -37.290635837800707 ], [ -73.014450306425388, -37.263610139762989 ] ] ] } },
{ "type": "Feature", "properties": { "cve": "2837146", "nombre": "TRINIDAD 52C, 1 AL 60", "solicitante": "Ree Uno SpA", "region": "REGIÓN DEL BIOBÍO", "provincia": "Provincia de Concepción", "comuna": null, "superficie_ha": 300.0, "datum_original": "PSAD56", "huso": 18, "epsg_origen": 24878, "tipo_publicacion": "mensura", "fuente_pdf": "http://www.diariooficial.interior.gob.cl/publicaciones/2026/07/14/44499/07/2837146.pdf", "archivo": "gm_mensura_2837146.pdf", "fecha": "14-07-2026", "edicion": "44499" }, "geometry": { "type": "Polygon", "coordinates": [ [ [ -73.003179133986407, -37.263420520301892 ], [ -72.99190806739287, -37.263229828756266 ], [ -72.991189820369584, -37.290255156714181 ], [ -73.002464911804836, -37.290446033820857 ], [ -73.003179133986407, -37.263420520301892 ] ] ] } },
{ "type": "Feature", "properties": { "cve": "2837147", "nombre": "TRINIDAD 59C, 1 AL 60", "solicitante": "Ree Uno SpA", "region": "REGIÓN DEL BIOBÍO", "provincia": "Provincia de Concepción", "comuna": null, "superficie_ha": 300.0, "datum_original": "PSAD56", "huso": 18, "epsg_origen": 24878, "tipo_publicacion": "mensura", "fuente_pdf": "http://www.diariooficial.interior.gob.cl/publicaciones/2026/07/14/44499/07/2837147.pdf", "archivo": "gm_mensura_2837147.pdf", "fecha": "14-07-2026", "edicion": "44499" }, "geometry": { "type": "Polygon", "coordinates": [ [ [ -73.058841946957287, -37.291384321828986 ], [ -73.047566331518652, -37.291198810667403 ], [ -73.046867277714725, -37.318224920231536 ], [ -73.058146924099006, -37.318410611869119 ], [ -73.058841946957287, -37.291384321828986 ] ] ] } },
{ "type": "Feature", "properties": { "cve": "2837148", "nombre": "TRINIDAD 60C, 1 AL 60", "solicitante": "Ree Uno SpA", "region": "REGIÓN DEL BIOBÍO", "provincia": "Provincia de Concepción", "comuna": null, "superficie_ha": 300.0, "datum_original": "PSAD56", "huso": 18, "epsg_origen": 24878, "tipo_publicacion": "mensura", "fuente_pdf": "http://www.diariooficial.interior.gob.cl/publicaciones/2026/07/14/44499/07/2837148.pdf", "archivo": "gm_mensura_2837148.pdf", "fecha": "14-07-2026", "edicion": "44499" }, "geometry": { "type": "Polygon", "coordinates": [ [ [ -73.047566331518652, -37.291198810667403 ], [ -73.036290819687451, -37.291012226254985 ], [ -73.035587735083283, -37.318038154299877 ], [ -73.046867277714725, -37.318224920231536 ], [ -73.047566331518652, -37.291198810667403 ] ] ] } },
{ "type": "Feature", "properties": { "cve": "2837376", "nombre": "CASILLA 1", "solicitante": "Olcay Montti Luis Gonzalo", "region": "REGIÓN DE ATACAMA", "provincia": "Provincia de Huasco", "comuna": null, "superficie_ha": 200.0, "datum_original": "PSAD56", "huso": 19, "epsg_origen": 24879, "tipo_publicacion": "pedimento", "fuente_pdf": "http://www.diariooficial.interior.gob.cl/publicaciones/2026/07/14/44499/07/2837376.pdf", "archivo": "gm_pedimento_2837376.pdf", "fecha": "14-07-2026", "edicion": "44499" }, "geometry": { "type": "Polygon", "coordinates": [ [ [ -69.759150886273005, -28.658393817106759 ], [ -69.74891830038888, -28.658450779265866 ], [ -69.749046641998575, -28.676502041111942 ], [ -69.75928098102608, -28.67644503650196 ], [ -69.759150886273005, -28.658393817106759 ] ] ] } },
{ "type": "Feature", "properties": { "cve": "2837383", "nombre": "CASILLA 12", "solicitante": "Olcay Montti Luis Gonzalo", "region": "REGIÓN DE ATACAMA", "provincia": "Provincia de Huasco", "comuna": null, "superficie_ha": 200.0, "datum_original": "PSAD56", "huso": 19, "epsg_origen": 24879, "tipo_publicacion": "pedimento", "fuente_pdf": "http://www.diariooficial.interior.gob.cl/publicaciones/2026/07/14/44499/07/2837383.pdf", "archivo": "gm_pedimento_2837383.pdf", "fecha": "14-07-2026", "edicion": "44499" }, "geometry": { "type": "Polygon", "coordinates": [ [ [ -69.707805881850206, -28.63159366855448 ], [ -69.697575779465978, -28.631646707008752 ], [ -69.69769519029623, -28.649698245924917 ], [ -69.707927043512754, -28.649645167919275 ], [ -69.707805881850206, -28.63159366855448 ] ] ] } },
{ "type": "Feature", "properties": { "cve": "2837384", "nombre": "CASILLA 13", "solicitante": "Olcay Montti Luis Gonzalo", "region": "REGIÓN DE ATACAMA", "provincia": "Provincia de Huasco", "comuna": null, "superficie_ha": 200.0, "datum_original": "PSAD56", "huso": 19, "epsg_origen": 24879, "tipo_publicacion": "pedimento", "fuente_pdf": "http://www.diariooficial.interior.gob.cl/publicaciones/2026/07/14/44499/07/2837384.pdf", "archivo": "gm_pedimento_2837384.pdf", "fecha": "14-07-2026", "edicion": "44499" }, "geometry": { "type": "Polygon", "coordinates": [ [ [ -69.820405276073558, -28.639984812849896 ], [ -69.799943945850146, -28.640107147103219 ], [ -69.800012420687196, -28.649132699715494 ], [ -69.820475501918253, -28.649010319862867 ], [ -69.820405276073558, -28.639984812849896 ] ] ] } },
{ "type": "Feature", "properties": { "cve": "2837385", "nombre": "CASILLA 14", "solicitante": "Olcay Montti Luis Gonzalo", "region": "REGIÓN DE ATACAMA", "provincia": "Provincia de Huasco", "comuna": null, "superficie_ha": 200.0, "datum_original": "PSAD56", "huso": 19, "epsg_origen": 24879, "tipo_publicacion": "pedimento", "fuente_pdf": "http://www.diariooficial.interior.gob.cl/publicaciones/2026/07/14/44499/07/2837385.pdf", "archivo": "gm_pedimento_2837385.pdf", "fecha": "14-07-2026", "edicion": "44499" }, "geometry": { "type": "Polygon", "coordinates": [ [ [ -69.799943945850146, -28.640107147103219 ], [ -69.779482489764177, -28.640226392394453 ], [ -69.779549213547867, -28.649251989454719 ], [ -69.800012420687196, -28.649132699715494 ], [ -69.799943945850146, -28.640107147103219 ] ] ] } },
{ "type": "Feature", "properties": { "cve": "2837386", "nombre": "CASILLA 15", "solicitante": "Olcay Montti Luis Gonzalo", "region": "REGIÓN DE ATACAMA", "provincia": "Provincia de Huasco", "comuna": null, "superficie_ha": 300.0, "datum_original": "PSAD56", "huso": 19, "epsg_origen": 24879, "tipo_publicacion": "pedimento", "fuente_pdf": "http://www.diariooficial.interior.gob.cl/publicaciones/2026/07/14/44499/07/2837386.pdf", "archivo": "gm_pedimento_2837386.pdf", "fecha": "14-07-2026", "edicion": "44499" }, "geometry": { "type": "Polygon", "coordinates": [ [ [ -69.748790076682695, -28.640399468377023 ], [ -69.718097398513095, -28.640565593814983 ], [ -69.71815886887417, -28.649591317311184 ], [ -69.748854173803196, -28.64942512995054 ], [ -69.748790076682695, -28.640399468377023 ] ] ] } },
{ "type": "Feature", "properties": { "cve": "2837387", "nombre": "CASILLA 16", "solicitante": "Olcay Montti Luis Gonzalo", "region": "REGIÓN DE ATACAMA", "provincia": "Provincia de Huasco", "comuna": null, "superficie_ha": 200.0, "datum_original": "PSAD56", "huso": 19, "epsg_origen": 24879, "tipo_publicacion": "pedimento", "fuente_pdf": "http://www.diariooficial.interior.gob.cl/publicaciones/2026/07/14/44499/07/2837387.pdf", "archivo": "gm_pedimento_2837387.pdf", "fecha": "14-07-2026", "edicion": "44499" }, "geometry": { "type": "Polygon", "coordinates": [ [ [ -69.718097398513095, -28.640565593814983 ], [ -69.707866448758864, -28.640619424357894 ], [ -69.707987666121966, -28.658670899236146 ], [ -69.718220367493046, -28.658617028559519 ], [ -69.718097398513095, -28.640565593814983 ] ] ] } },
{ "type": "Feature", "properties": { "cve": "2837388", "nombre": "CASILLA 17", "solicitante": "Olcay Montti Luis Gonzalo", "region": "REGIÓN DE ATACAMA", "provincia": "Provincia de Huasco", "comuna": null, "superficie_ha": 300.0, "datum_original": "PSAD56", "huso": 19, "epsg_origen": 24879, "tipo_publicacion": "pedimento", "fuente_pdf": "http://www.diariooficial.interior.gob.cl/publicaciones/2026/07/14/44499/07/2837388.pdf", "archivo": "gm_pedimento_2837388.pdf", "fecha": "14-07-2026", "edicion": "44499" }, "geometry": { "type": "Polygon", "coordinates": [ [ [ -69.820475501918253, -28.649010319862867 ], [ -69.789780832654841, -28.649192730853635 ], [ -69.789848463045757, -28.658218293561145 ], [ -69.820545760045036, -28.658035814591823 ], [ -69.820475501918253, -28.649010319862867 ] ] ] } },
{ "type": "Feature", "properties": { "cve": "2837389", "nombre": "CASILLA 18", "solicitante": "Olcay Montti Luis Gonzalo", "region": "REGIÓN DE ATACAMA", "provincia": "Provincia de Huasco", "comuna": null, "superficie_ha": 300.0, "datum_original": "PSAD56", "huso": 19, "epsg_origen": 24879, "tipo_publicacion": "pedimento", "fuente_pdf": "http://www.diariooficial.interior.gob.cl/publicaciones/2026/07/14/44499/07/2837389.pdf", "archivo": "gm_pedimento_2837389.pdf", "fecha": "14-07-2026", "edicion": "44499" }, "geometry": { "type": "Polygon", "coordinates": [ [ [ -69.789780832654841, -28.649192730853635 ], [ -69.759085883719607, -28.649368189011568 ], [ -69.759150886273005, -28.658393817106759 ], [ -69.789848463045757, -28.658218293561145 ], [ -69.789780832654841, -28.649192730853635 ] ] ] } },
{ "type": "Feature", "properties": { "cve": "2837390", "nombre": "CASILLA 19", "solicitante": "Olcay Montti Luis Gonzalo", "region": "REGIÓN DE ATACAMA", "provincia": "Provincia de Huasco", "comuna": null, "superficie_ha": 300.0, "datum_original": "PSAD56", "huso": 19, "epsg_origen": 24879, "tipo_publicacion": "pedimento", "fuente_pdf": "http://www.diariooficial.interior.gob.cl/publicaciones/2026/07/14/44499/07/2837390.pdf", "archivo": "gm_pedimento_2837390.pdf", "fecha": "14-07-2026", "edicion": "44499" }, "geometry": { "type": "Polygon", "coordinates": [ [ [ -69.759085883719607, -28.649368189011568 ], [ -69.728390665978026, -28.649536694108409 ], [ -69.728453040596293, -28.658562385000309 ], [ -69.759150886273005, -28.658393817106759 ], [ -69.759085883719607, -28.649368189011568 ] ] ] } },
{ "type": "Feature", "properties": { "cve": "2837377", "nombre": "CASILLA 2", "solicitante": "Olcay Montti Luis Gonzalo", "region": "REGIÓN DE ATACAMA", "provincia": "Provincia de Huasco", "comuna": null, "superficie_ha": 300.0, "datum_original": "PSAD56", "huso": 19, "epsg_origen": 24879, "tipo_publicacion": "pedimento", "fuente_pdf": "http://www.diariooficial.interior.gob.cl/publicaciones/2026/07/14/44499/07/2837377.pdf", "archivo": "gm_pedimento_2837377.pdf", "fecha": "14-07-2026", "edicion": "44499" }, "geometry": { "type": "Polygon", "coordinates": [ [ [ -69.75928098102608, -28.67644503650196 ], [ -69.728577875855322, -28.676613730020382 ], [ -69.728640336516904, -28.685639384143595 ], [ -69.759346073247471, -28.685470627796963 ], [ -69.75928098102608, -28.67644503650196 ] ] ] } },
{ "type": "Feature", "properties": { "cve": "2837391", "nombre": "CASILLA 20", "solicitante": "Olcay Montti Luis Gonzalo", "region": "REGIÓN DE ATACAMA", "provincia": "Provincia de Huasco", "comuna": null, "superficie_ha": 300.0, "datum_original": "PSAD56", "huso": 19, "epsg_origen": 24879, "tipo_publicacion": "pedimento", "fuente_pdf": "http://www.diariooficial.interior.gob.cl/publicaciones/2026/07/14/44499/07/2837391.pdf", "archivo": "gm_pedimento_2837391.pdf", "fecha": "14-07-2026", "edicion": "44499" }, "geometry": { "type": "Polygon", "coordinates": [ [ [ -69.728390665978026, -28.649536694108409 ], [ -69.71815886887417, -28.649591317311184 ], [ -69.718343449545301, -28.676668414302689 ], [ -69.728577875855322, -28.676613730020382 ], [ -69.728390665978026, -28.649536694108409 ] ] ] } },
{ "type": "Feature", "properties": { "cve": "2837392", "nombre": "CASILLA 21", "solicitante": "Olcay Montti Luis Gonzalo", "region": "REGIÓN DE ATACAMA", "provincia": "Provincia de Huasco", "comuna": null, "superficie_ha": 300.0, "datum_original": "PSAD56", "huso": 19, "epsg_origen": 24879, "tipo_publicacion": "pedimento", "fuente_pdf": "http://www.diariooficial.interior.gob.cl/publicaciones/2026/07/14/44499/07/2837392.pdf", "archivo": "gm_pedimento_2837392.pdf", "fecha": "14-07-2026", "edicion": "44499" }, "geometry": { "type": "Polygon", "coordinates": [ [ [ -69.800080927001531, -28.658158240051353 ], [ -69.789848463045757, -28.658218293561145 ], [ -69.790051540780738, -28.685294908022701 ], [ -69.800286634922799, -28.685234787375528 ], [ -69.800080927001531, -28.658158240051353 ] ] ] } },
{ "type": "Feature", "properties": { "cve": "2837393", "nombre": "CASILLA 22", "solicitante": "Olcay Montti Luis Gonzalo", "region": "REGIÓN DE ATACAMA", "provincia": "Provincia de Huasco", "comuna": null, "superficie_ha": 300.0, "datum_original": "PSAD56", "huso": 19, "epsg_origen": 24879, "tipo_publicacion": "pedimento", "fuente_pdf": "http://www.diariooficial.interior.gob.cl/publicaciones/2026/07/14/44499/07/2837393.pdf", "archivo": "gm_pedimento_2837393.pdf", "fecha": "14-07-2026", "edicion": "44499" }, "geometry": { "type": "Polygon", "coordinates": [ [ [ -69.789848463045757, -28.658218293561145 ], [ -69.779615968004023, -28.658277574246004 ], [ -69.779816415518823, -28.685354254981032 ], [ -69.790051540780738, -28.685294908022701 ], [ -69.789848463045757, -28.658218293561145 ] ] ] } },
{ "type": "Feature", "properties": { "cve": "2837394", "nombre": "CASILLA 23", "solicitante": "Olcay Montti Luis Gonzalo", "region": "REGIÓN DE ATACAMA", "provincia": "Provincia de Huasco", "comuna": null, "superficie_ha": 300.0, "datum_original": "PSAD56", "huso": 19, "epsg_origen": 24879, "tipo_publicacion": "pedimento", "fuente_pdf": "http://www.diariooficial.interior.gob.cl/publicaciones/2026/07/14/44499/07/2837394.pdf", "archivo": "gm_pedimento_2837394.pdf", "fecha": "14-07-2026", "edicion": "44499" }, "geometry": { "type": "Polygon", "coordinates": [ [ [ -69.779615968004023, -28.658277574246004 ], [ -69.769383442278922, -28.658336082097364 ], [ -69.769581259540061, -28.685412828241958 ], [ -69.779816415518823, -28.685354254981032 ], [ -69.779615968004023, -28.658277574246004 ] ] ] } },
{ "type": "Feature", "properties": { "cve": "2837395", "nombre": "CASILLA 24", "solicitante": "Olcay Montti Luis Gonzalo", "region": "REGIÓN DE ATACAMA", "provincia": "Provincia de Huasco", "comuna": null, "superficie_ha": 200.0, "datum_original": "PSAD56", "huso": 19, "epsg_origen": 24879, "tipo_publicacion": "pedimento", "fuente_pdf": "http://www.diariooficial.interior.gob.cl/publicaciones/2026/07/14/44499/07/2837395.pdf", "archivo": "gm_pedimento_2837395.pdf", "fecha": "14-07-2026", "edicion": "44499" }, "geometry": { "type": "Polygon", "coordinates": [ [ [ -69.74891830038888, -28.658450779265866 ], [ -69.738685685029111, -28.658506968566417 ], [ -69.738812273474039, -28.676558272287465 ], [ -69.749046641998575, -28.676502041111942 ], [ -69.74891830038888, -28.658450779265866 ] ] ] } },
{ "type": "Feature", "properties": { "cve": "2837396", "nombre": "CASILLA 25", "solicitante": "Olcay Montti Luis Gonzalo", "region": "REGIÓN DE ATACAMA", "provincia": "Provincia de Huasco", "comuna": null, "superficie_ha": 200.0, "datum_original": "PSAD56", "huso": 19, "epsg_origen": 24879, "tipo_publicacion": "pedimento", "fuente_pdf": "http://www.diariooficial.interior.gob.cl/publicaciones/2026/07/14/44499/07/2837396.pdf", "archivo": "gm_pedimento_2837396.pdf", "fecha": "14-07-2026", "edicion": "44499" }, "geometry": { "type": "Polygon", "coordinates": [ [ [ -69.738685685029111, -28.658506968566417 ], [ -69.728453040596293, -28.658562385000309 ], [ -69.728577875855322, -28.676613730020382 ], [ -69.738812273474039, -28.676558272287465 ], [ -69.738685685029111, -28.658506968566417 ] ] ] } },
{ "type": "Feature", "properties": { "cve": "2837397", "nombre": "CASILLA 26", "solicitante": "Olcay Montti Luis Gonzalo", "region": "REGIÓN DE ATACAMA", "provincia": "Provincia de Huasco", "comuna": null, "superficie_ha": 300.0, "datum_original": "PSAD56", "huso": 19, "epsg_origen": 24879, "tipo_publicacion": "pedimento", "fuente_pdf": "http://www.diariooficial.interior.gob.cl/publicaciones/2026/07/14/44499/07/2837397.pdf", "archivo": "gm_pedimento_2837397.pdf", "fecha": "14-07-2026", "edicion": "44499" }, "geometry": { "type": "Polygon", "coordinates": [ [ [ -69.769416392888772, -28.662848880790676 ], [ -69.75918339875345, -28.662906626555426 ], [ -69.759378630574119, -28.689983418842743 ], [ -69.769614255600374, -28.689925608526991 ], [ -69.769416392888772, -28.662848880790676 ] ] ] } },
{ "type": "Feature", "properties": { "cve": "2837398", "nombre": "CASILLA 27", "solicitante": "Olcay Montti Luis Gonzalo", "region": "REGIÓN DE ATACAMA", "provincia": "Provincia de Huasco", "comuna": null, "superficie_ha": 300.0, "datum_original": "PSAD56", "huso": 19, "epsg_origen": 24879, "tipo_publicacion": "pedimento", "fuente_pdf": "http://www.diariooficial.interior.gob.cl/publicaciones/2026/07/14/44499/07/2837398.pdf", "archivo": "gm_pedimento_2837398.pdf", "fecha": "14-07-2026", "edicion": "44499" }, "geometry": { "type": "Polygon", "coordinates": [ [ [ -69.810521697542029, -28.685173893048191 ], [ -69.779816415518823, -28.685354254981032 ], [ -69.77988329277639, -28.694379790671476 ], [ -69.810591207403135, -28.694199361578793 ], [ -69.810521697542029, -28.685173893048191 ] ] ] } },
{ "type": "Feature", "properties": { "cve": "2837399", "nombre": "CASILLA 28", "solicitante": "Olcay Montti Luis Gonzalo", "region": "REGIÓN DE ATACAMA", "provincia": "Provincia de Huasco", "comuna": null, "superficie_ha": 300.0, "datum_original": "PSAD56", "huso": 19, "epsg_origen": 24879, "tipo_publicacion": "pedimento", "fuente_pdf": "http://www.diariooficial.interior.gob.cl/publicaciones/2026/07/14/44499/07/2837399.pdf", "archivo": "gm_pedimento_2837399.pdf", "fecha": "14-07-2026", "edicion": "44499" }, "geometry": { "type": "Polygon", "coordinates": [ [ [ -69.779816415518823, -28.685354254981032 ], [ -69.769581259540061, -28.685412828241958 ], [ -69.769779349627939, -28.712489463908856 ], [ -69.78001713948747, -28.712430825205573 ], [ -69.779816415518823, -28.685354254981032 ] ] ] } },
{ "type": "Feature", "properties": { "cve": "2837400", "nombre": "CASILLA 29", "solicitante": "Olcay Montti Luis Gonzalo", "region": "REGIÓN DE ATACAMA", "provincia": "Provincia de Huasco", "comuna": null, "superficie_ha": 300.0, "datum_original": "PSAD56", "huso": 19, "epsg_origen": 24879, "tipo_publicacion": "pedimento", "fuente_pdf": "http://www.diariooficial.interior.gob.cl/publicaciones/2026/07/14/44499/07/2837400.pdf", "archivo": "gm_pedimento_2837400.pdf", "fecha": "14-07-2026", "edicion": "44499" }, "geometry": { "type": "Polygon", "coordinates": [ [ [ -69.810591207403135, -28.694199361578793 ], [ -69.77988329277639, -28.694379790671476 ], [ -69.779950200762201, -28.703405314080481 ], [ -69.810660749201915, -28.703224817816722 ], [ -69.810591207403135, -28.694199361578793 ] ] ] } },
{ "type": "Feature", "properties": { "cve": "2837378", "nombre": "CASILLA 3", "solicitante": "Olcay Montti Luis Gonzalo", "region": "REGIÓN DE ATACAMA", "provincia": "Provincia de Huasco", "comuna": null, "superficie_ha": 300.0, "datum_original": "PSAD56", "huso": 19, "epsg_origen": 24879, "tipo_publicacion": "pedimento", "fuente_pdf": "http://www.diariooficial.interior.gob.cl/publicaciones/2026/07/14/44499/07/2837378.pdf", "archivo": "gm_pedimento_2837378.pdf", "fecha": "14-07-2026", "edicion": "44499" }, "geometry": { "type": "Polygon", "coordinates": [ [ [ -69.759346073247471, -28.685470627796963 ], [ -69.728640336516904, -28.685639384143595 ], [ -69.728702825880447, -28.694665026005627 ], [ -69.759411195379897, -28.694496206820283 ], [ -69.759346073247471, -28.685470627796963 ] ] ] } },
{ "type": "Feature", "properties": { "cve": "2837401", "nombre": "CASILLA 30", "solicitante": "Olcay Montti Luis Gonzalo", "region": "REGIÓN DE ATACAMA", "provincia": "Provincia de Huasco", "comuna": null, "superficie_ha": 200.0, "datum_original": "PSAD56", "huso": 19, "epsg_origen": 24879, "tipo_publicacion": "pedimento", "fuente_pdf": "http://www.diariooficial.interior.gob.cl/publicaciones/2026/07/14/44499/07/2837401.pdf", "archivo": "gm_pedimento_2837401.pdf", "fecha": "14-07-2026", "edicion": "44499" }, "geometry": { "type": "Polygon", "coordinates": [ [ [ -69.759411195379897, -28.694496206820283 ], [ -69.749175101597544, -28.694553253895364 ], [ -69.749303679271534, -28.712604417596282 ], [ -69.759541529421469, -28.712547328041889 ], [ -69.759411195379897, -28.694496206820283 ] ] ] } },
{ "type": "Feature", "properties": { "cve": "2837402", "nombre": "CASILLA 31", "solicitante": "Olcay Montti Luis Gonzalo", "region": "REGIÓN DE ATACAMA", "provincia": "Provincia de Huasco", "comuna": null, "superficie_ha": 200.0, "datum_original": "PSAD56", "huso": 19, "epsg_origen": 24879, "tipo_publicacion": "pedimento", "fuente_pdf": "http://www.diariooficial.interior.gob.cl/publicaciones/2026/07/14/44499/07/2837402.pdf", "archivo": "gm_pedimento_2837402.pdf", "fecha": "14-07-2026", "edicion": "44499" }, "geometry": { "type": "Polygon", "coordinates": [ [ [ -69.749175101597544, -28.694553253895364 ], [ -69.738938978296659, -28.694609526959855 ], [ -69.73906579958161, -28.712660732563773 ], [ -69.749303679271534, -28.712604417596282 ], [ -69.749175101597544, -28.694553253895364 ] ] ] } },
{ "type": "Feature", "properties": { "cve": "2837403", "nombre": "CASILLA 32", "solicitante": "Olcay Montii Luis Gonzalo", "region": "REGIÓN DE ATACAMA", "provincia": "Provincia de Huasco", "comuna": null, "superficie_ha": 300.0, "datum_original": "PSAD56", "huso": 19, "epsg_origen": 24879, "tipo_publicacion": "pedimento", "fuente_pdf": "http://www.diariooficial.interior.gob.cl/publicaciones/2026/07/14/44499/07/2837403.pdf", "archivo": "gm_pedimento_2837403.pdf", "fecha": "14-07-2026", "edicion": "44499" }, "geometry": { "type": "Polygon", "coordinates": [ [ [ -69.769680270462061, -28.698951159889315 ], [ -69.75944376766617, -28.699008991729283 ], [ -69.759639358550118, -28.72608563672641 ], [ -69.769878497074941, -28.72602774029221 ], [ -69.769680270462061, -28.698951159889315 ] ] ] } },
{ "type": "Feature", "properties": { "cve": "2837404", "nombre": "CASILLA 33", "solicitante": "Olcay Montti Luis Gonzalo", "region": "REGIÓN DE ATACAMA", "provincia": "Provincia de Huasco", "comuna": null, "superficie_ha": 300.0, "datum_original": "PSAD56", "huso": 19, "epsg_origen": 24879, "tipo_publicacion": "pedimento", "fuente_pdf": "http://www.diariooficial.interior.gob.cl/publicaciones/2026/07/14/44499/07/2837404.pdf", "archivo": "gm_pedimento_2837404.pdf", "fecha": "14-07-2026", "edicion": "44499" }, "geometry": { "type": "Polygon", "coordinates": [ [ [ -69.810730322950022, -28.712250261759472 ], [ -69.800492626551957, -28.712311224122217 ], [ -69.800698902198675, -28.739387550224166 ], [ -69.810939236006448, -28.739326519791799 ], [ -69.810730322950022, -28.712250261759472 ] ] ] } },
{ "type": "Feature", "properties": { "cve": "2837405", "nombre": "CASILLA 34", "solicitante": "Olcay Montti Luis Gonzalo", "region": "REGIÓN DE ATACAMA", "provincia": "Provincia de Huasco", "comuna": null, "superficie_ha": 300.0, "datum_original": "PSAD56", "huso": 19, "epsg_origen": 24879, "tipo_publicacion": "pedimento", "fuente_pdf": "http://www.diariooficial.interior.gob.cl/publicaciones/2026/07/14/44499/07/2837405.pdf", "archivo": "gm_pedimento_2837405.pdf", "fecha": "14-07-2026", "edicion": "44499" }, "geometry": { "type": "Polygon", "coordinates": [ [ [ -69.800492626551957, -28.712311224122217 ], [ -69.790254898596629, -28.712371411940481 ], [ -69.79045853679915, -28.739447805247288 ], [ -69.800698902198675, -28.739387550224166 ], [ -69.800492626551957, -28.712311224122217 ] ] ] } },
{ "type": "Feature", "properties": { "cve": "2837406", "nombre": "CASILLA 35", "solicitante": "Olcay Montti Luis Gonzalo", "region": "REGIÓN DE ATACAMA", "provincia": "Provincia de Huasco", "comuna": null, "superficie_ha": 300.0, "datum_original": "PSAD56", "huso": 19, "epsg_origen": 24879, "tipo_publicacion": "pedimento", "fuente_pdf": "http://www.diariooficial.interior.gob.cl/publicaciones/2026/07/14/44499/07/2837406.pdf", "archivo": "gm_pedimento_2837406.pdf", "fecha": "14-07-2026", "edicion": "44499" }, "geometry": { "type": "Polygon", "coordinates": [ [ [ -69.790254898596629, -28.712371411940481 ], [ -69.78001713948747, -28.712430825205573 ], [ -69.780218140211758, -28.739507284852433 ], [ -69.79045853679915, -28.739447805247288 ], [ -69.790254898596629, -28.712371411940481 ] ] ] } },
{ "type": "Feature", "properties": { "cve": "2837407", "nombre": "CASILLA 36", "solicitante": "Olcay Montti Luis Gonzalo", "region": "REGIÓN DE ATACAMA", "provincia": "Provincia de Huasco", "comuna": null, "superficie_ha": 300.0, "datum_original": "PSAD56", "huso": 19, "epsg_origen": 24879, "tipo_publicacion": "pedimento", "fuente_pdf": "http://www.diariooficial.interior.gob.cl/publicaciones/2026/07/14/44499/07/2837407.pdf", "archivo": "gm_pedimento_2837407.pdf", "fecha": "14-07-2026", "edicion": "44499" }, "geometry": { "type": "Polygon", "coordinates": [ [ [ -69.78001713948747, -28.712430825205573 ], [ -69.769779349627939, -28.712489463908856 ], [ -69.769977712840387, -28.739565989030993 ], [ -69.780218140211758, -28.739507284852433 ], [ -69.78001713948747, -28.712430825205573 ] ] ] } },
{ "type": "Feature", "properties": { "cve": "2837408", "nombre": "CASILLA 37", "solicitante": "Olcay Montti Luis Gonzalo", "region": "REGIÓN DE ATACAMA", "provincia": "Provincia de Huasco", "comuna": null, "superficie_ha": 300.0, "datum_original": "PSAD56", "huso": 19, "epsg_origen": 24879, "tipo_publicacion": "pedimento", "fuente_pdf": "http://www.diariooficial.interior.gob.cl/publicaciones/2026/07/14/44499/07/2837408.pdf", "archivo": "gm_pedimento_2837408.pdf", "fecha": "14-07-2026", "edicion": "44499" }, "geometry": { "type": "Polygon", "coordinates": [ [ [ -69.759541529421469, -28.712547328041889 ], [ -69.749303679271534, -28.712604417596282 ], [ -69.749496767361293, -28.739681071074518 ], [ -69.759737255088936, -28.739623917774487 ], [ -69.759541529421469, -28.712547328041889 ] ] ] } },
{ "type": "Feature", "properties": { "cve": "2837409", "nombre": "CASILLA 38", "solicitante": "Olcay Montti Luis Gonzalo", "region": "REGIÓN DE ATACAMA", "provincia": "Provincia de Huasco", "comuna": null, "superficie_ha": 300.0, "datum_original": "PSAD56", "huso": 19, "epsg_origen": 24879, "tipo_publicacion": "pedimento", "fuente_pdf": "http://www.diariooficial.interior.gob.cl/publicaciones/2026/07/14/44499/07/2837409.pdf", "archivo": "gm_pedimento_2837409.pdf", "fecha": "14-07-2026", "edicion": "44499" }, "geometry": { "type": "Polygon", "coordinates": [ [ [ -69.749303679271534, -28.712604417596282 ], [ -69.73906579958161, -28.712660732563773 ], [ -69.739256250061345, -28.739737448922821 ], [ -69.749496767361293, -28.739681071074518 ], [ -69.749303679271534, -28.712604417596282 ] ] ] } },
{ "type": "Feature", "properties": { "cve": "2837410", "nombre": "CASILLA 39", "solicitante": "Olcay Montti Luis Gonzalo", "region": "REGIÓN DE ATACAMA", "provincia": "Provincia de Huasco", "comuna": null, "superficie_ha": 100.0, "datum_original": "PSAD56", "huso": 19, "epsg_origen": 24879, "tipo_publicacion": "pedimento", "fuente_pdf": "http://www.diariooficial.interior.gob.cl/publicaciones/2026/07/14/44499/07/2837410.pdf", "archivo": "gm_pedimento_2837410.pdf", "fecha": "14-07-2026", "edicion": "44499" }, "geometry": { "type": "Polygon", "coordinates": [ [ [ -69.769878497074941, -28.72602774029221 ], [ -69.759639358550118, -28.72608563672641 ], [ -69.759704615417036, -28.735111160496366 ], [ -69.769944633325338, -28.735053242523534 ], [ -69.769878497074941, -28.72602774029221 ] ] ] } },
{ "type": "Feature", "properties": { "cve": "2837379", "nombre": "CASILLA 4", "solicitante": "Olcay Montti Luis Gonzalo", "region": "REGIÓN DE ATACAMA", "provincia": "Provincia de Huasco", "comuna": null, "superficie_ha": 300.0, "datum_original": "PSAD56", "huso": 19, "epsg_origen": 24879, "tipo_publicacion": "pedimento", "fuente_pdf": "http://www.diariooficial.interior.gob.cl/publicaciones/2026/07/14/44499/07/2837379.pdf", "archivo": "gm_pedimento_2837379.pdf", "fecha": "14-07-2026", "edicion": "44499" }, "geometry": { "type": "Polygon", "coordinates": [ [ [ -69.810660749201915, -28.703224817816722 ], [ -69.779950200762201, -28.703405314080481 ], [ -69.78001713948747, -28.712430825205573 ], [ -69.810730322950022, -28.712250261759472 ], [ -69.810660749201915, -28.703224817816722 ] ] ] } },
{ "type": "Feature", "properties": { "cve": "2837411", "nombre": "CASILLA 40", "solicitante": "Olcay Montti Luis Gonzalo", "region": "REGIÓN DE ATACAMA", "provincia": "Provincia de Huasco", "comuna": null, "superficie_ha": 300.0, "datum_original": "PSAD56", "huso": 19, "epsg_origen": 24879, "tipo_publicacion": "pedimento", "fuente_pdf": "http://www.diariooficial.interior.gob.cl/publicaciones/2026/07/14/44499/07/2837411.pdf", "archivo": "gm_pedimento_2837411.pdf", "fecha": "14-07-2026", "edicion": "44499" }, "geometry": { "type": "Polygon", "coordinates": [ [ [ -69.810939236006448, -28.739326519791799 ], [ -69.800698902198675, -28.739387550224166 ], [ -69.800905462173304, -28.766463765614212 ], [ -69.811148437025636, -28.766402667077987 ], [ -69.810939236006448, -28.739326519791799 ] ] ] } },
{ "type": "Feature", "properties": { "cve": "2837412", "nombre": "CASILLA 41", "solicitante": "Olcay Montti Luis Gonzalo", "region": "REGIÓN DE ATACAMA", "provincia": "Provincia de Huasco", "comuna": null, "superficie_ha": 300.0, "datum_original": "PSAD56", "huso": 19, "epsg_origen": 24879, "tipo_publicacion": "pedimento", "fuente_pdf": "http://www.diariooficial.interior.gob.cl/publicaciones/2026/07/14/44499/07/2837412.pdf", "archivo": "gm_pedimento_2837412.pdf", "fecha": "14-07-2026", "edicion": "44499" }, "geometry": { "type": "Polygon", "coordinates": [ [ [ -69.800698902198675, -28.739387550224166 ], [ -69.79045853679915, -28.739447805247288 ], [ -69.790662455694687, -28.766524087875986 ], [ -69.800905462173304, -28.766463765614212 ], [ -69.800698902198675, -28.739387550224166 ] ] ] } },
{ "type": "Feature", "properties": { "cve": "2837413", "nombre": "CASILLA 42", "solicitante": "Olcay Montti Luis Gonzalo", "region": "REGIÓN DE ATACAMA", "provincia": "Provincia de Huasco", "comuna": null, "superficie_ha": 200.0, "datum_original": "PSAD56", "huso": 19, "epsg_origen": 24879, "tipo_publicacion": "pedimento", "fuente_pdf": "http://www.diariooficial.interior.gob.cl/publicaciones/2026/07/14/44499/07/2837413.pdf", "archivo": "gm_pedimento_2837413.pdf", "fecha": "14-07-2026", "edicion": "44499" }, "geometry": { "type": "Polygon", "coordinates": [ [ [ -69.759737255088936, -28.739623917774487 ], [ -69.739256250061345, -28.739737448922821 ], [ -69.739319791877662, -28.748762996486811 ], [ -69.759802556916384, -28.748649423115488 ], [ -69.759737255088936, -28.739623917774487 ] ] ] } },
{ "type": "Feature", "properties": { "cve": "2837380", "nombre": "CASILLA 5", "solicitante": "Olcay Montti Luis Gonzalo", "region": "REGIÓN DE ATACAMA", "provincia": "Provincia de Huasco", "comuna": null, "superficie_ha": 300.0, "datum_original": "PSAD56", "huso": 19, "epsg_origen": 24879, "tipo_publicacion": "pedimento", "fuente_pdf": "http://www.diariooficial.interior.gob.cl/publicaciones/2026/07/14/44499/07/2837380.pdf", "archivo": "gm_pedimento_2837380.pdf", "fecha": "14-07-2026", "edicion": "44499" }, "geometry": { "type": "Polygon", "coordinates": [ [ [ -69.79045853679915, -28.739447805247288 ], [ -69.759737255088936, -28.739623917774487 ], [ -69.759802556916384, -28.748649423115488 ], [ -69.790526478561063, -28.748473245091066 ], [ -69.79045853679915, -28.739447805247288 ] ] ] } },
{ "type": "Feature", "properties": { "cve": "2837381", "nombre": "CASILLA 6", "solicitante": "Olcay Montti Luis Gonzalo", "region": "REGIÓN DE ATACAMA", "provincia": "Provincia de Huasco", "comuna": null, "superficie_ha": 300.0, "datum_original": "PSAD56", "huso": 19, "epsg_origen": 24879, "tipo_publicacion": "pedimento", "fuente_pdf": "http://www.diariooficial.interior.gob.cl/publicaciones/2026/07/14/44499/07/2837381.pdf", "archivo": "gm_pedimento_2837381.pdf", "fecha": "14-07-2026", "edicion": "44499" }, "geometry": { "type": "Polygon", "coordinates": [ [ [ -69.811148437025636, -28.766402667077987 ], [ -69.780419417994082, -28.766583633854573 ], [ -69.780486572209014, -28.775609058922672 ], [ -69.811218234744842, -28.77542802488486 ], [ -69.811148437025636, -28.766402667077987 ] ] ] } },
{ "type": "Feature", "properties": { "cve": "2837382", "nombre": "CASILLA 7", "solicitante": "Olcay Montti Luis Gonzalo", "region": "REGIÓN DE ATACAMA", "provincia": "Provincia de Huasco", "comuna": null, "superficie_ha": 300.0, "datum_original": "PSAD56", "huso": 19, "epsg_origen": 24879, "tipo_publicacion": "pedimento", "fuente_pdf": "http://www.diariooficial.interior.gob.cl/publicaciones/2026/07/14/44499/07/2837382.pdf", "archivo": "gm_pedimento_2837382.pdf", "fecha": "14-07-2026", "edicion": "44499" }, "geometry": { "type": "Polygon", "coordinates": [ [ [ -69.811218234744842, -28.77542802488486 ], [ -69.780486572209014, -28.775609058922672 ], [ -69.78055375725306, -28.784634471686992 ], [ -69.811288064506556, -28.784453370376653 ], [ -69.811218234744842, -28.77542802488486 ] ] ] } },
{ "type": "Feature", "properties": { "cve": "2837452", "nombre": "JAZMIN 1", "solicitante": "Sáez Aguilera Gabriela Jazmín", "region": "REGIÓN DE COQUIMBO", "provincia": "Provincia de Elqui", "comuna": "Coquimbo", "superficie_ha": 300.0, "datum_original": "PSAD56", "huso": 19, "epsg_origen": 24879, "tipo_publicacion": "pedimento", "fuente_pdf": "http://www.diariooficial.interior.gob.cl/publicaciones/2026/07/14/44499/07/2837452.pdf", "archivo": "gm_pedimento_2837452.pdf", "fecha": "14-07-2026", "edicion": "44499" }, "geometry": { "type": "Polygon", "coordinates": [ [ [ -71.219822428621143, -30.06508952104863 ], [ -71.188720267261317, -30.065611145173847 ], [ -71.188918801300161, -30.074629027297991 ], [ -71.220023778259872, -30.074107214753074 ], [ -71.219822428621143, -30.06508952104863 ] ] ] } },
{ "type": "Feature", "properties": { "cve": "2837453", "nombre": "JAZMIN 2", "solicitante": "Sáez Aguilera Gabriela Jazmín", "region": "REGIÓN DE COQUIMBO", "provincia": "Provincia de Elqui", "comuna": "Coquimbo", "superficie_ha": 300.0, "datum_original": "PSAD56", "huso": 19, "epsg_origen": 24879, "tipo_publicacion": "pedimento", "fuente_pdf": "http://www.diariooficial.interior.gob.cl/publicaciones/2026/07/14/44499/07/2837453.pdf", "archivo": "gm_pedimento_2837453.pdf", "fecha": "14-07-2026", "edicion": "44499" }, "geometry": { "type": "Polygon", "coordinates": [ [ [ -71.188720267261317, -30.065611145173847 ], [ -71.157617296282993, -30.066125420618551 ], [ -71.157813014414657, -30.075143488509834 ], [ -71.188918801300161, -30.074629027297991 ], [ -71.188720267261317, -30.065611145173847 ] ] ] } },
{ "type": "Feature", "properties": { "cve": "2837454", "nombre": "JAZMIN 3", "solicitante": "Sáez Aguilera Gabriela Jazmín", "region": "REGIÓN DE COQUIMBO", "provincia": "Provincia de Elqui", "comuna": "Coquimbo", "superficie_ha": 300.0, "datum_original": "PSAD56", "huso": 19, "epsg_origen": 24879, "tipo_publicacion": "pedimento", "fuente_pdf": "http://www.diariooficial.interior.gob.cl/publicaciones/2026/07/14/44499/07/2837454.pdf", "archivo": "gm_pedimento_2837454.pdf", "fecha": "14-07-2026", "edicion": "44499" }, "geometry": { "type": "Polygon", "coordinates": [ [ [ -71.218986958864519, -30.074124726935437 ], [ -71.187881954722442, -30.074646294447 ], [ -71.188080484852179, -30.083664169140309 ], [ -71.219188305879172, -30.08314241326412 ], [ -71.218986958864519, -30.074124726935437 ] ] ] } },
{ "type": "Feature", "properties": { "cve": "2837455", "nombre": "JAZMIN 4", "solicitante": "Sáez Aguilera Gabriela Jazmín", "region": "REGIÓN DE COQUIMBO", "provincia": "Provincia de Elqui", "comuna": "Coquimbo", "superficie_ha": 200.0, "datum_original": "PSAD56", "huso": 19, "epsg_origen": 24879, "tipo_publicacion": "pedimento", "fuente_pdf": "http://www.diariooficial.interior.gob.cl/publicaciones/2026/07/14/44499/07/2837455.pdf", "archivo": "gm_pedimento_2837455.pdf", "fecha": "14-07-2026", "edicion": "44499" }, "geometry": { "type": "Polygon", "coordinates": [ [ [ -71.187881954722442, -30.074646294447 ], [ -71.167144834839831, -30.074989922076949 ], [ -71.167341486875245, -30.0840079208728 ], [ -71.188080484852179, -30.083664169140309 ], [ -71.187881954722442, -30.074646294447 ] ] ] } },
{ "type": "Feature", "properties": { "cve": "2837456", "nombre": "JAZMIN 6", "solicitante": "Sáez Aguilera Gabriela Jazmín", "region": "REGIÓN DE COQUIMBO", "provincia": "Provincia de Elqui", "comuna": "Coquimbo", "superficie_ha": 100.0, "datum_original": "PSAD56", "huso": 19, "epsg_origen": 24879, "tipo_publicacion": "pedimento", "fuente_pdf": "http://www.diariooficial.interior.gob.cl/publicaciones/2026/07/14/44499/07/2837456.pdf", "archivo": "gm_pedimento_2837456.pdf", "fecha": "14-07-2026", "edicion": "44499" }, "geometry": { "type": "Polygon", "coordinates": [ [ [ -71.189117425331048, -30.083646895755226 ], [ -71.178747980100937, -30.08381926190259 ], [ -71.178945754706135, -30.092837178929237 ], [ -71.189316139388126, -30.092664750542706 ], [ -71.189117425331048, -30.083646895755226 ] ] ] } },
{ "type": "Feature", "properties": { "cve": "2837457", "nombre": "JAZMIN 7", "solicitante": "Sáez Aguilera Gabriela Jazmín", "region": "REGIÓN DE COQUIMBO", "provincia": "Provincia de Elqui", "comuna": "Coquimbo", "superficie_ha": 200.0, "datum_original": "PSAD56", "huso": 19, "epsg_origen": 24879, "tipo_publicacion": "pedimento", "fuente_pdf": "http://www.diariooficial.interior.gob.cl/publicaciones/2026/07/14/44499/07/2837457.pdf", "archivo": "gm_pedimento_2837457.pdf", "fecha": "14-07-2026", "edicion": "44499" }, "geometry": { "type": "Polygon", "coordinates": [ [ [ -71.211093653566991, -30.092299990309819 ], [ -71.190353172910022, -30.092647462746388 ], [ -71.190552071013315, -30.101665297620013 ], [ -71.211294431314897, -30.101317699739429 ], [ -71.211093653566991, -30.092299990309819 ] ] ] } },
{ "type": "Feature", "properties": { "cve": "2837458", "nombre": "JAZMIN 8", "solicitante": "Sáez Aguilera Gabriela Jazmín", "region": "REGIÓN DE COQUIMBO", "provincia": "Provincia de Elqui", "comuna": "Coquimbo", "superficie_ha": 200.0, "datum_original": "PSAD56", "huso": 19, "epsg_origen": 24879, "tipo_publicacion": "pedimento", "fuente_pdf": "http://www.diariooficial.interior.gob.cl/publicaciones/2026/07/14/44499/07/2837458.pdf", "archivo": "gm_pedimento_2837458.pdf", "fecha": "14-07-2026", "edicion": "44499" }, "geometry": { "type": "Polygon", "coordinates": [ [ [ -71.212331539804552, -30.101300233990887 ], [ -71.191589197619692, -30.101647995405493 ], [ -71.191788279888186, -30.110665810357236 ], [ -71.212532502561572, -30.110317923417405 ], [ -71.212331539804552, -30.101300233990887 ] ] ] } },
{ "type": "Feature", "properties": { "cve": "2837515", "nombre": "Dulcinea 1", "solicitante": "Inversiones GMS Petorca SpA", "region": "REGIÓN DE VALPARAÍSO", "provincia": "Provincia de Petorca", "comuna": null, "superficie_ha": 140.0, "datum_original": "PSAD56", "huso": 19, "epsg_origen": 24879, "tipo_publicacion": "pedimento", "fuente_pdf": "http://www.diariooficial.interior.gob.cl/publicaciones/2026/07/14/44499/07/2837515.pdf", "archivo": "gm_pedimento_2837515.pdf", "fecha": "14-07-2026", "edicion": "44499" }, "geometry": { "type": "Polygon", "coordinates": [ [ [ -70.827320721455905, -32.130845111357523 ], [ -70.812485354522863, -32.131058421621148 ], [ -70.812663722488509, -32.140075467549238 ], [ -70.82750054740788, -32.139862083146753 ], [ -70.827320721455905, -32.130845111357523 ] ] ] } },
{ "type": "Feature", "properties": { "cve": "2837516", "nombre": "Dulcinea 2", "solicitante": "Inversiones GMS Petorca SpA", "region": "REGIÓN DE VALPARAÍSO", "provincia": "Provincia de Petorca", "comuna": null, "superficie_ha": 260.0, "datum_original": "PSAD56", "huso": 19, "epsg_origen": 24879, "tipo_publicacion": "pedimento", "fuente_pdf": "http://www.diariooficial.interior.gob.cl/publicaciones/2026/07/14/44499/07/2837516.pdf", "archivo": "gm_pedimento_2837516.pdf", "fecha": "14-07-2026", "edicion": "44499" }, "geometry": { "type": "Polygon", "coordinates": [ [ [ -70.820938664843851, -32.13452688407564 ], [ -70.810341527004326, -32.134678907105531 ], [ -70.810804966089918, -32.158123212045801 ], [ -70.821404813102887, -32.157971051625125 ], [ -70.820938664843851, -32.13452688407564 ] ] ] } },
{ "type": "Feature", "properties": { "cve": "2837517", "nombre": "DULCINEA 3", "solicitante": "Inversiones GMS Petorca SpA", "region": "REGIÓN DE VALPARAÍSO", "provincia": "Provincia de Petorca", "comuna": null, "superficie_ha": 300.0, "datum_original": "PSAD56", "huso": 19, "epsg_origen": 24879, "tipo_publicacion": "pedimento", "fuente_pdf": "http://www.diariooficial.interior.gob.cl/publicaciones/2026/07/14/44499/07/2837517.pdf", "archivo": "gm_pedimento_2837517.pdf", "fecha": "14-07-2026", "edicion": "44499" }, "geometry": { "type": "Polygon", "coordinates": [ [ [ -70.845050804641659, -32.124896568768989 ], [ -70.832335736418429, -32.125081262829184 ], [ -70.832786585393833, -32.147623623749077 ], [ -70.845504777865528, -32.14743876916868 ], [ -70.845050804641659, -32.124896568768989 ] ] ] } },
{ "type": "Feature", "properties": { "cve": "2837518", "nombre": "Dulcinea 4", "solicitante": "Inversiones GMS Petorca SpA", "region": "REGIÓN DE VALPARAÍSO", "provincia": "Provincia de Petorca", "comuna": null, "superficie_ha": 768.0, "datum_original": "PSAD56", "huso": 19, "epsg_origen": 24879, "tipo_publicacion": "pedimento", "fuente_pdf": "http://www.diariooficial.interior.gob.cl/publicaciones/2026/07/14/44499/07/2837518.pdf", "archivo": "gm_pedimento_2837518.pdf", "fecha": "14-07-2026", "edicion": "44499" }, "geometry": { "type": "Polygon", "coordinates": [ [ [ -70.866174090440353, -32.101442851033191 ], [ -70.849225175913602, -32.10169149335816 ], [ -70.85009844072917, -32.144972499412312 ], [ -70.86705534780927, -32.144723441923574 ], [ -70.866174090440353, -32.101442851033191 ] ] ] } },
{ "type": "Feature", "properties": { "cve": "2837519", "nombre": "Dulcinea 5", "solicitante": "Inversiones GMS Petorca SpA", "region": "REGIÓN DE VALPARAÍSO", "provincia": "Provincia de Petorca", "comuna": null, "superficie_ha": 516.0, "datum_original": "PSAD56", "huso": 19, "epsg_origen": 24879, "tipo_publicacion": "pedimento", "fuente_pdf": "http://www.diariooficial.interior.gob.cl/publicaciones/2026/07/14/44499/07/2837519.pdf", "archivo": "gm_pedimento_2837519.pdf", "fecha": "14-07-2026", "edicion": "44499" }, "geometry": { "type": "Polygon", "coordinates": [ [ [ -70.838961505992643, -32.096609597495089 ], [ -70.826250313924476, -32.09679353634349 ], [ -70.827022664712956, -32.135566650192601 ], [ -70.839739225185298, -32.135382436195997 ], [ -70.838961505992643, -32.096609597495089 ] ] ] } },
{ "type": "Feature", "properties": { "cve": "2837520", "nombre": "Dulcinea 6", "solicitante": "Inversiones GMS Petorca SpA", "region": "REGIÓN DE VALPARAÍSO", "provincia": "Provincia de Petorca", "comuna": null, "superficie_ha": 100.0, "datum_original": "PSAD56", "huso": 19, "epsg_origen": 24879, "tipo_publicacion": "pedimento", "fuente_pdf": "http://www.diariooficial.interior.gob.cl/publicaciones/2026/07/14/44499/07/2837520.pdf", "archivo": "gm_pedimento_2837520.pdf", "fecha": "14-07-2026", "edicion": "44499" }, "geometry": { "type": "Polygon", "coordinates": [ [ [ -70.845799525049472, -32.139443177659231 ], [ -70.835201965923801, -32.139597302497116 ], [ -70.835382628381055, -32.148614221919793 ], [ -70.845981229320358, -32.148460043522235 ], [ -70.845799525049472, -32.139443177659231 ] ] ] } },
{ "type": "Feature", "properties": { "cve": "2837521", "nombre": "DULCINEA 7", "solicitante": "Inversiones GMS Petorca SpA", "region": "REGIÓN DE VALPARAÍSO", "provincia": "Provincia de Petorca", "comuna": null, "superficie_ha": 190.0, "datum_original": "PSAD56", "huso": 19, "epsg_origen": 24879, "tipo_publicacion": "pedimento", "fuente_pdf": "http://www.diariooficial.interior.gob.cl/publicaciones/2026/07/14/44499/07/2837521.pdf", "archivo": "gm_pedimento_2837521.pdf", "fecha": "14-07-2026", "edicion": "44499" }, "geometry": { "type": "Polygon", "coordinates": [ [ [ -70.856550499274576, -32.145816028627401 ], [ -70.836413789139812, -32.146109869465676 ], [ -70.83659461641183, -32.155126773398862 ], [ -70.856733306598514, -32.154832830460094 ], [ -70.856550499274576, -32.145816028627401 ] ] ] } },
{ "type": "Feature", "properties": { "cve": "2837522", "nombre": "Dulcinea 8", "solicitante": "Inversiones GMS Petorca SpA", "region": "REGIÓN DE VALPARAÍSO", "provincia": "Provincia de Petorca", "comuna": null, "superficie_ha": 140.0, "datum_original": "PSAD56", "huso": 19, "epsg_origen": 24879, "tipo_publicacion": "pedimento", "fuente_pdf": "http://www.diariooficial.interior.gob.cl/publicaciones/2026/07/14/44499/07/2837522.pdf", "archivo": "gm_pedimento_2837522.pdf", "fecha": "14-07-2026", "edicion": "44499" }, "geometry": { "type": "Polygon", "coordinates": [ [ [ -70.807132292096085, -32.13696163440202 ], [ -70.792295769669494, -32.13717261473964 ], [ -70.792472193146992, -32.146189752224089 ], [ -70.807310174067283, -32.145978698564306 ], [ -70.807132292096085, -32.13696163440202 ] ] ] } },
{ "type": "Feature", "properties": { "cve": "2836958", "nombre": "LAGUNA CUATRO", "solicitante": "SCM del Norte", "region": "REGIÓN DEL LIBERTADOR GENERAL BERNARDO O’HIGGINS", "provincia": "Provincia de Colchagua", "comuna": null, "superficie_ha": 300.0, "datum_original": "PSAD56", "huso": 19, "epsg_origen": 24879, "tipo_publicacion": "pedimento", "fuente_pdf": "http://www.diariooficial.interior.gob.cl/publicaciones/2026/07/14/44499/07/2836958.pdf", "archivo": "gm_pedimento_2836958.pdf", "fecha": "14-07-2026", "edicion": "44499" }, "geometry": { "type": "Polygon", "coordinates": [ [ [ -70.619071550826789, -34.590036710319659 ], [ -70.608171366615792, -34.590180858348916 ], [ -70.608692860124407, -34.617224041881286 ], [ -70.619596575264893, -34.617079749076282 ], [ -70.619071550826789, -34.590036710319659 ] ] ] } },
{ "type": "Feature", "properties": { "cve": "2836962", "nombre": "LAGUNA DIEZ", "solicitante": "SCM del Norte", "region": "REGIÓN DEL LIBERTADOR GENERAL BERNARDO O’HIGGINS", "provincia": "Provincia de Colchagua", "comuna": null, "superficie_ha": 300.0, "datum_original": "PSAD56", "huso": 19, "epsg_origen": 24879, "tipo_publicacion": "pedimento", "fuente_pdf": "http://www.diariooficial.interior.gob.cl/publicaciones/2026/07/14/44499/07/2836962.pdf", "archivo": "gm_pedimento_2836962.pdf", "fecha": "14-07-2026", "edicion": "44499" }, "geometry": { "type": "Polygon", "coordinates": [ [ [ -70.674113973804324, -34.61634367666754 ], [ -70.641403771681183, -34.616788241720492 ], [ -70.64158129128559, -34.625802462004494 ], [ -70.674295027063792, -34.625357748206156 ], [ -70.674113973804324, -34.61634367666754 ] ] ] } },
{ "type": "Feature", "properties": { "cve": "2836964", "nombre": "LAGUNA DOCE", "solicitante": "SCM del Norte", "region": "REGIÓN DEL LIBERTADOR GENERAL BERNARDO O’HIGGINS", "provincia": "Provincia de Colchagua", "comuna": null, "superficie_ha": 300.0, "datum_original": "PSAD56", "huso": 19, "epsg_origen": 24879, "tipo_publicacion": "pedimento", "fuente_pdf": "http://www.diariooficial.interior.gob.cl/publicaciones/2026/07/14/44499/07/2836964.pdf", "archivo": "gm_pedimento_2836964.pdf", "fecha": "14-07-2026", "edicion": "44499" }, "geometry": { "type": "Polygon", "coordinates": [ [ [ -70.674476160752178, -34.634371805472703 ], [ -70.64175888975042, -34.634816668047982 ], [ -70.641936567109994, -34.643830859848919 ], [ -70.674657374904427, -34.64338584846508 ], [ -70.674476160752178, -34.634371805472703 ] ] ] } },
{ "type": "Feature", "properties": { "cve": "2836961", "nombre": "LAGUNA NUEVE", "solicitante": "SCM del Norte", "region": "REGIÓN DEL LIBERTADOR GENERAL BERNARDO O’HIGGINS", "provincia": "Provincia de Colchagua", "comuna": null, "superficie_ha": 300.0, "datum_original": "PSAD56", "huso": 19, "epsg_origen": 24879, "tipo_publicacion": "pedimento", "fuente_pdf": "http://www.diariooficial.interior.gob.cl/publicaciones/2026/07/14/44499/07/2836961.pdf", "archivo": "gm_pedimento_2836961.pdf", "fecha": "14-07-2026", "edicion": "44499" }, "geometry": { "type": "Polygon", "coordinates": [ [ [ -70.64175888975042, -34.634816668047982 ], [ -70.609040908698631, -34.635252759868315 ], [ -70.609215048956983, -34.64426709754548 ], [ -70.641936567109994, -34.643830859848919 ], [ -70.64175888975042, -34.634816668047982 ] ] ] } },
{ "type": "Feature", "properties": { "cve": "2836963", "nombre": "LAGUNA ONCE", "solicitante": "SCM del Norte", "region": "REGIÓN DEL LIBERTADOR GENERAL BERNARDO O’HIGGINS", "provincia": "Provincia de Colchagua", "comuna": null, "superficie_ha": 300.0, "datum_original": "PSAD56", "huso": 19, "epsg_origen": 24879, "tipo_publicacion": "pedimento", "fuente_pdf": "http://www.diariooficial.interior.gob.cl/publicaciones/2026/07/14/44499/07/2836963.pdf", "archivo": "gm_pedimento_2836963.pdf", "fecha": "14-07-2026", "edicion": "44499" }, "geometry": { "type": "Polygon", "coordinates": [ [ [ -70.674295027063792, -34.625357748206156 ], [ -70.64158129128559, -34.625802462004494 ], [ -70.64175888975042, -34.634816668047982 ], [ -70.674476160752178, -34.634371805472703 ], [ -70.674295027063792, -34.625357748206156 ] ] ] } },
{ "type": "Feature", "properties": { "cve": "2836959", "nombre": "LAGUNA SEIS", "solicitante": "SCM del Norte", "region": "REGIÓN DEL LIBERTADOR GENERAL BERNARDO O’HIGGINS", "provincia": "Provincia de Colchagua", "comuna": null, "superficie_ha": 300.0, "datum_original": "PSAD56", "huso": 19, "epsg_origen": 24879, "tipo_publicacion": "pedimento", "fuente_pdf": "http://www.diariooficial.interior.gob.cl/publicaciones/2026/07/14/44499/07/2836959.pdf", "archivo": "gm_pedimento_2836959.pdf", "fecha": "14-07-2026", "edicion": "44499" }, "geometry": { "type": "Polygon", "coordinates": [ [ [ -70.673752108432552, -34.598315490782078 ], [ -70.641048968916792, -34.598759758438916 ], [ -70.641226330902981, -34.607774007197975 ], [ -70.673933000938874, -34.607329590858832 ], [ -70.673752108432552, -34.598315490782078 ] ] ] } },
{ "type": "Feature", "properties": { "cve": "2836960", "nombre": "LAGUNA SIETE", "solicitante": "SCM del Norte", "region": "REGIÓN DEL LIBERTADOR GENERAL BERNARDO O’HIGGINS", "provincia": "Provincia de Colchagua", "comuna": null, "superficie_ha": 300.0, "datum_original": "PSAD56", "huso": 19, "epsg_origen": 24879, "tipo_publicacion": "pedimento", "fuente_pdf": "http://www.diariooficial.interior.gob.cl/publicaciones/2026/07/14/44499/07/2836960.pdf", "archivo": "gm_pedimento_2836960.pdf", "fecha": "14-07-2026", "edicion": "44499" }, "geometry": { "type": "Polygon", "coordinates": [ [ [ -70.673933000938874, -34.607329590858832 ], [ -70.641226330902981, -34.607774007197975 ], [ -70.641403771681183, -34.616788241720492 ], [ -70.674113973804324, -34.61634367666754 ], [ -70.673933000938874, -34.607329590858832 ] ] ] } },
{ "type": "Feature", "properties": { "cve": "2836957", "nombre": "LAGUNA UNO", "solicitante": "SCM del Norte", "region": "REGIÓN DEL LIBERTADOR GENERAL BERNARDO O’HIGGINS", "provincia": "Provincia de Colchagua", "comuna": null, "superficie_ha": 300.0, "datum_original": "PSAD56", "huso": 19, "epsg_origen": 24879, "tipo_publicacion": "pedimento", "fuente_pdf": "http://www.diariooficial.interior.gob.cl/publicaciones/2026/07/14/44499/07/2836957.pdf", "archivo": "gm_pedimento_2836957.pdf", "fecha": "14-07-2026", "edicion": "44499" }, "geometry": { "type": "Polygon", "coordinates": [ [ [ -70.673571296250486, -34.589301376439288 ], [ -70.640871685688424, -34.58974549544542 ], [ -70.641048968916792, -34.598759758438916 ], [ -70.673752108432552, -34.598315490782078 ], [ -70.673571296250486, -34.589301376439288 ] ] ] } },
{ "type": "Feature", "properties": { "cve": "2837468", "nombre": "EMA 1", "solicitante": "Varela Echaurren Juan Francisco", "region": "REGIÓN DEL MAULE", "provincia": "Provincia de Cauquenes", "comuna": null, "superficie_ha": 300.0, "datum_original": "PSAD56", "huso": 18, "epsg_origen": 24878, "tipo_publicacion": "pedimento", "fuente_pdf": "http://www.diariooficial.interior.gob.cl/publicaciones/2026/07/14/44499/07/2837468.pdf", "archivo": "gm_pedimento_2837468.pdf", "fecha": "14-07-2026", "edicion": "44499" }, "geometry": { "type": "Polygon", "coordinates": [ [ [ -72.439735559603847, -36.003457752503245 ], [ -72.406481878337317, -36.002742974157236 ], [ -72.406186702878784, -36.011749645674151 ], [ -72.439444158690264, -36.012464658895539 ], [ -72.439735559603847, -36.003457752503245 ] ] ] } },
{ "type": "Feature", "properties": { "cve": "2837469", "nombre": "EMA 2", "solicitante": "Varela Echaurren Juan Francisco", "region": "REGIÓN DEL MAULE", "provincia": "Provincia de Cauquenes", "comuna": null, "superficie_ha": 300.0, "datum_original": "PSAD56", "huso": 18, "epsg_origen": 24878, "tipo_publicacion": "pedimento", "fuente_pdf": "http://www.diariooficial.interior.gob.cl/publicaciones/2026/07/14/44499/07/2837469.pdf", "archivo": "gm_pedimento_2837469.pdf", "fecha": "14-07-2026", "edicion": "44499" }, "geometry": { "type": "Polygon", "coordinates": [ [ [ -72.439444158690264, -36.012464658895539 ], [ -72.406186702878784, -36.011749645674151 ], [ -72.405891396396214, -36.020756301445267 ], [ -72.439152628424665, -36.021471549594487 ], [ -72.439444158690264, -36.012464658895539 ] ] ] } },
{ "type": "Feature", "properties": { "cve": "2837470", "nombre": "EMA 3", "solicitante": "Varela Echaurren Juan Francisco", "region": "REGIÓN DEL MAULE", "provincia": "Provincia de Cauquenes", "comuna": null, "superficie_ha": 300.0, "datum_original": "PSAD56", "huso": 18, "epsg_origen": 24878, "tipo_publicacion": "pedimento", "fuente_pdf": "http://www.diariooficial.interior.gob.cl/publicaciones/2026/07/14/44499/07/2837470.pdf", "archivo": "gm_pedimento_2837470.pdf", "fecha": "14-07-2026", "edicion": "44499" }, "geometry": { "type": "Polygon", "coordinates": [ [ [ -72.439152628424665, -36.021471549594487 ], [ -72.405891396396214, -36.020756301445267 ], [ -72.405595958830517, -36.029762941468 ], [ -72.438860968748642, -36.030478424597597 ], [ -72.439152628424665, -36.021471549594487 ] ] ] } },
{ "type": "Feature", "properties": { "cve": "2837471", "nombre": "EMA 4", "solicitante": "Varela Echaurren Juan Francisco", "region": "REGIÓN DEL MAULE", "provincia": "Provincia de Cauquenes", "comuna": null, "superficie_ha": 300.0, "datum_original": "PSAD56", "huso": 18, "epsg_origen": 24878, "tipo_publicacion": "pedimento", "fuente_pdf": "http://www.diariooficial.interior.gob.cl/publicaciones/2026/07/14/44499/07/2837471.pdf", "archivo": "gm_pedimento_2837471.pdf", "fecha": "14-07-2026", "edicion": "44499" }, "geometry": { "type": "Polygon", "coordinates": [ [ [ -72.406481878337317, -36.002742974157236 ], [ -72.373229375757518, -36.002018990773784 ], [ -72.372930426285578, -36.011025424394887 ], [ -72.406186702878784, -36.011749645674151 ], [ -72.406481878337317, -36.002742974157236 ] ] ] } },
{ "type": "Feature", "properties": { "cve": "2837472", "nombre": "EMA 5", "solicitante": "Varela Echaurren Juan Francisco", "region": "REGIÓN DEL MAULE", "provincia": "Provincia de Cauquenes", "comuna": null, "superficie_ha": 300.0, "datum_original": "PSAD56", "huso": 18, "epsg_origen": 24878, "tipo_publicacion": "pedimento", "fuente_pdf": "http://www.diariooficial.interior.gob.cl/publicaciones/2026/07/14/44499/07/2837472.pdf", "archivo": "gm_pedimento_2837472.pdf", "fecha": "14-07-2026", "edicion": "44499" }, "geometry": { "type": "Polygon", "coordinates": [ [ [ -72.406186702878784, -36.011749645674151 ], [ -72.372930426285578, -36.011025424394887 ], [ -72.372631344117963, -36.02003184221698 ], [ -72.405891396396214, -36.020756301445267 ], [ -72.406186702878784, -36.011749645674151 ] ] ] } },
{ "type": "Feature", "properties": { "cve": "2837473", "nombre": "EMA 6", "solicitante": "Varela Echaurren Juan Francisco", "region": "REGIÓN DEL MAULE", "provincia": "Provincia de Cauquenes", "comuna": null, "superficie_ha": 300.0, "datum_original": "PSAD56", "huso": 18, "epsg_origen": 24878, "tipo_publicacion": "pedimento", "fuente_pdf": "http://www.diariooficial.interior.gob.cl/publicaciones/2026/07/14/44499/07/2837473.pdf", "archivo": "gm_pedimento_2837473.pdf", "fecha": "14-07-2026", "edicion": "44499" }, "geometry": { "type": "Polygon", "coordinates": [ [ [ -72.405891396396214, -36.020756301445267 ], [ -72.372631344117963, -36.02003184221698 ], [ -72.372332129194845, -36.029038244237505 ], [ -72.405595958830517, -36.029762941468 ], [ -72.405891396396214, -36.020756301445267 ] ] ] } }
]
}
