{
"type": "FeatureCollection",
"name": "boletin_mineria_20260930",
"crs": { "type": "name", "properties": { "name": "urn:ogc:def:crs:OGC:1.3:CRS84" } },
"features": [
{ "type": "Feature", "properties": { "cve": "2878247", "nombre": "DELIA 1 AL 8", "solicitante": "Cerda Contreras Wilfredo", "region": "REGIÓN DE ATACAMA", "provincia": "Provincia de Chañaral", "comuna": null, "superficie_ha": 80.0, "datum_original": "WGS84", "huso": 19, "epsg_origen": 32719, "tipo_publicacion": "manifestacion", "fuente_pdf": "http://www.diariooficial.interior.gob.cl/publicaciones/2026/09/30/44562/07/2878247.pdf", "archivo": "gm_manifestacion_2878247.pdf", "fecha": "30-09-2026", "edicion": "44562" }, "geometry": { "type": "Polygon", "coordinates": [ [ [ -69.65414331424121, -26.828430130132478 ], [ -69.644080087013421, -26.828476294158932 ], [ -69.644120940663228, -26.835698884005218 ], [ -69.654184806085951, -26.835652705591389 ], [ -69.65414331424121, -26.828430130132478 ] ] ] } },
{ "type": "Feature", "properties": { "cve": "2877852", "nombre": "ALMITA 1 AL 10", "solicitante": "Pefaur Páez Jean Marcel", "region": "REGIÓN DE ATACAMA", "provincia": "Provincia de Huasco", "comuna": null, "superficie_ha": 30.0, "datum_original": "PSAD56", "huso": 19, "epsg_origen": 24879, "tipo_publicacion": "manifestacion", "fuente_pdf": "http://www.diariooficial.interior.gob.cl/publicaciones/2026/09/30/44562/07/2877852.pdf", "archivo": "gm_manifestacion_2877852.pdf", "fecha": "30-09-2026", "edicion": "44562" }, "geometry": { "type": "Polygon", "coordinates": [ [ [ -70.575064894308866, -28.479443411316641 ], [ -70.5720012013863, -28.479478865759297 ], [ -70.572134857305571, -28.488502106012973 ], [ -70.575198810449564, -28.488466638309841 ], [ -70.575064894308866, -28.479443411316641 ] ] ] } },
{ "type": "Feature", "properties": { "cve": "2878155", "nombre": "CORAZON VALIENTE 1 1 AL 7", "solicitante": "Minera Polymet SpA", "region": "REGIÓN DE ATACAMA", "provincia": "Provincia de Huasco", "comuna": null, "superficie_ha": 28.0, "datum_original": "WGS84", "huso": 19, "epsg_origen": 32719, "tipo_publicacion": "manifestacion", "fuente_pdf": "http://www.diariooficial.interior.gob.cl/publicaciones/2026/09/30/44562/07/2878155.pdf", "archivo": "gm_manifestacion_2878155.pdf", "fecha": "30-09-2026", "edicion": "44562" }, "geometry": { "type": "Polygon", "coordinates": [ [ [ -70.640508186774809, -28.572747488045785 ], [ -70.636419791384327, -28.572796863874402 ], [ -70.636517567018203, -28.579112851630182 ], [ -70.640606206422419, -28.579063462903569 ], [ -70.640508186774809, -28.572747488045785 ] ] ] } },
{ "type": "Feature", "properties": { "cve": "2878156", "nombre": "CORAZON VALIENTE 2 1 AL 7", "solicitante": "Minera Polymet SpA", "region": "REGIÓN DE ATACAMA", "provincia": "Provincia de Huasco", "comuna": null, "superficie_ha": 35.0, "datum_original": "WGS84", "huso": 19, "epsg_origen": 32719, "tipo_publicacion": "manifestacion", "fuente_pdf": "http://www.diariooficial.interior.gob.cl/publicaciones/2026/09/30/44562/07/2878156.pdf", "archivo": "gm_manifestacion_2878156.pdf", "fecha": "30-09-2026", "edicion": "44562" }, "geometry": { "type": "Polygon", "coordinates": [ [ [ -70.635811027560905, -28.566487031643547 ], [ -70.628656735571695, -28.566573093733279 ], [ -70.628726222935711, -28.571084535820773 ], [ -70.635880819834867, -28.570998457670935 ], [ -70.635811027560905, -28.566487031643547 ] ] ] } },
{ "type": "Feature", "properties": { "cve": "2878375", "nombre": "LUNA 1 AL 8", "solicitante": "Aguilar Egaña Meliton Segundo", "region": "REGIÓN DE ATACAMA", "provincia": "Provincia de Huasco", "comuna": null, "superficie_ha": 8.0, "datum_original": "PSAD56", "huso": 19, "epsg_origen": 24879, "tipo_publicacion": "manifestacion", "fuente_pdf": "http://www.diariooficial.interior.gob.cl/publicaciones/2026/09/30/44562/07/2878375.pdf", "archivo": "gm_manifestacion_2878375.pdf", "fecha": "30-09-2026", "edicion": "44562" }, "geometry": { "type": "Polygon", "coordinates": [ [ [ -70.957350921831079, -28.334833522738442 ], [ -70.955311652957491, -28.334862770917457 ], [ -70.955377738309835, -28.338471399347213 ], [ -70.957417075999132, -28.338442146778945 ], [ -70.957350921831079, -28.334833522738442 ] ] ] } },
{ "type": "Feature", "properties": { "cve": "2877853", "nombre": "MANUELA 1 AL 75", "solicitante": "Pefaur Páez Jean Marcel", "region": "REGIÓN DE ATACAMA", "provincia": "Provincia de Huasco", "comuna": null, "superficie_ha": 75.0, "datum_original": "PSAD56", "huso": 19, "epsg_origen": 24879, "tipo_publicacion": "manifestacion", "fuente_pdf": "http://www.diariooficial.interior.gob.cl/publicaciones/2026/09/30/44562/07/2877853.pdf", "archivo": "gm_manifestacion_2877853.pdf", "fecha": "30-09-2026", "edicion": "44562" }, "geometry": { "type": "Polygon", "coordinates": [ [ [ -70.623917608008327, -28.468039129933775 ], [ -70.618812120141868, -28.46809999421226 ], [ -70.619018498517534, -28.481634563424883 ], [ -70.624124636573796, -28.481573664990609 ], [ -70.623917608008327, -28.468039129933775 ] ] ] } },
{ "type": "Feature", "properties": { "cve": "2878340", "nombre": "MARIA 1 AL 25", "solicitante": "Álvarez Guerrero Nicanor Alejandro", "region": "REGIÓN DE ATACAMA", "provincia": "Provincia de Huasco", "comuna": null, "superficie_ha": 25.0, "datum_original": "WGS84", "huso": 19, "epsg_origen": 32719, "tipo_publicacion": "manifestacion", "fuente_pdf": "http://www.diariooficial.interior.gob.cl/publicaciones/2026/09/30/44562/07/2878340.pdf", "archivo": "gm_manifestacion_2878340.pdf", "fecha": "30-09-2026", "edicion": "44562" }, "geometry": { "type": "Polygon", "coordinates": [ [ [ -71.209886019576402, -28.962476406821587 ], [ -71.204758218656934, -28.962560577627176 ], [ -71.204853827040765, -28.967070231479596 ], [ -71.209981849884358, -28.966986045111877 ], [ -71.209886019576402, -28.962476406821587 ] ] ] } },
{ "type": "Feature", "properties": { "cve": "2878220", "nombre": "PASO MALO XIX 1 AL 10", "solicitante": "Sociedad Minera Lagunas Bravas Limitada", "region": "REGIÓN DE ATACAMA", "provincia": "Provincia de Huasco", "comuna": null, "superficie_ha": 100.0, "datum_original": "PSAD56", "huso": 19, "epsg_origen": 24879, "tipo_publicacion": "manifestacion", "fuente_pdf": "http://www.diariooficial.interior.gob.cl/publicaciones/2026/09/30/44562/07/2878220.pdf", "archivo": "gm_manifestacion_2878220.pdf", "fecha": "30-09-2026", "edicion": "44562" }, "geometry": { "type": "Polygon", "coordinates": [ [ [ -69.739172546502601, -28.727841758476213 ], [ -69.728933159285774, -28.72789733361509 ], [ -69.728995783170831, -28.736922918037298 ], [ -69.739236049876908, -28.736867322224047 ], [ -69.739172546502601, -28.727841758476213 ] ] ] } },
{ "type": "Feature", "properties": { "cve": "2878376", "nombre": "Sol 1 al 2", "solicitante": "Aguilar Egaña Melitón Segundo", "region": "REGIÓN DE ATACAMA", "provincia": "Provincia de Huasco", "comuna": null, "superficie_ha": 2.0, "datum_original": "PSAD56", "huso": 19, "epsg_origen": 24879, "tipo_publicacion": "manifestacion", "fuente_pdf": "http://www.diariooficial.interior.gob.cl/publicaciones/2026/09/30/44562/07/2878376.pdf", "archivo": "gm_manifestacion_2878376.pdf", "fecha": "30-09-2026", "edicion": "44562" }, "geometry": { "type": "Polygon", "coordinates": [ [ [ -70.963587646783509, -28.332893980127444 ], [ -70.961548422558394, -28.332923319679335 ], [ -70.961564994086245, -28.33382547386752 ], [ -70.963604235512136, -28.333796133214882 ], [ -70.963587646783509, -28.332893980127444 ] ] ] } },
{ "type": "Feature", "properties": { "cve": "2878204", "nombre": "SAN AGUSTIN DOS 1 AL 20", "solicitante": "Muñoz Torres Héctor Arnoldo", "region": "REGIÓN DE COQUIMBO", "provincia": "Provincia de Elqui", "comuna": "La Serena", "superficie_ha": 80.0, "datum_original": "PSAD56", "huso": 19, "epsg_origen": 24879, "tipo_publicacion": "manifestacion", "fuente_pdf": "http://www.diariooficial.interior.gob.cl/publicaciones/2026/09/30/44562/07/2878204.pdf", "archivo": "gm_manifestacion_2878204.pdf", "fecha": "30-09-2026", "edicion": "44562" }, "geometry": { "type": "Polygon", "coordinates": [ [ [ -71.16517165789918, -29.648305185658877 ], [ -71.154846961987289, -29.648473434522668 ], [ -71.155000713820314, -29.655688363102577 ], [ -71.16532614501611, -29.655520065196264 ], [ -71.16517165789918, -29.648305185658877 ] ] ] } },
{ "type": "Feature", "properties": { "cve": "2878205", "nombre": "SAN AGUSTIN TRES 1 AL 24", "solicitante": "Muñoz Torres Héctor Arnoldo", "region": "REGIÓN DE COQUIMBO", "provincia": "Provincia de Elqui", "comuna": "La Serena", "superficie_ha": 96.0, "datum_original": "PSAD56", "huso": 19, "epsg_origen": 24879, "tipo_publicacion": "manifestacion", "fuente_pdf": "http://www.diariooficial.interior.gob.cl/publicaciones/2026/09/30/44562/07/2878205.pdf", "archivo": "gm_manifestacion_2878205.pdf", "fecha": "30-09-2026", "edicion": "44562" }, "geometry": { "type": "Polygon", "coordinates": [ [ [ -71.132642848120824, -29.623571301613318 ], [ -71.124384940030438, -29.623703838800409 ], [ -71.124612101359233, -29.634526484980231 ], [ -71.132870890842256, -29.634393889810127 ], [ -71.132642848120824, -29.623571301613318 ] ] ] } },
{ "type": "Feature", "properties": { "cve": "2878203", "nombre": "SAN AGUSTIN UNO 1 AL 20", "solicitante": "Muñoz Torres Héctor Arnoldo", "region": "REGIÓN DE COQUIMBO", "provincia": "Provincia de Elqui", "comuna": "La Serena", "superficie_ha": 100.0, "datum_original": "PSAD56", "huso": 19, "epsg_origen": 24879, "tipo_publicacion": "manifestacion", "fuente_pdf": "http://www.diariooficial.interior.gob.cl/publicaciones/2026/09/30/44562/07/2878203.pdf", "archivo": "gm_manifestacion_2878203.pdf", "fecha": "30-09-2026", "edicion": "44562" }, "geometry": { "type": "Polygon", "coordinates": [ [ [ -71.160868389967931, -29.640255809645279 ], [ -71.150544485933139, -29.640423682256657 ], [ -71.150736238287962, -29.649442378221394 ], [ -71.16106106110675, -29.649274444432333 ], [ -71.160868389967931, -29.640255809645279 ] ] ] } },
{ "type": "Feature", "properties": { "cve": "2878260", "nombre": "BETA 1 AL 30", "solicitante": "Inversiones Mineras CBM SpA", "region": "REGIÓN DE LA ARAUCANÍA", "provincia": "Provincia de Cautín", "comuna": "Cunco", "superficie_ha": 300.0, "datum_original": "PSAD56", "huso": 18, "epsg_origen": 24878, "tipo_publicacion": "manifestacion", "fuente_pdf": "http://www.diariooficial.interior.gob.cl/publicaciones/2026/09/30/44562/07/2878260.pdf", "archivo": "gm_manifestacion_2878260.pdf", "fecha": "30-09-2026", "edicion": "44562" }, "geometry": { "type": "Polygon", "coordinates": [ [ [ -72.239619910517717, -38.816133993706046 ], [ -72.222362201310929, -38.815724701122676 ], [ -72.221662179115668, -38.833726667292964 ], [ -72.23892422410708, -38.834136221563568 ], [ -72.239619910517717, -38.816133993706046 ] ] ] } },
{ "type": "Feature", "properties": { "cve": "2878183", "nombre": "SAN ALEJANDRO 1 AL 5", "solicitante": "Nallib Majmut Alejandro", "region": "REGIÓN DE ATACAMA", "provincia": "Provincia de Copiapó", "comuna": null, "superficie_ha": 25.0, "datum_original": "WGS84", "huso": 19, "epsg_origen": 32719, "tipo_publicacion": "mensura", "fuente_pdf": "http://www.diariooficial.interior.gob.cl/publicaciones/2026/09/30/44562/07/2878183.pdf", "archivo": "gm_mensura_2878183.pdf", "fecha": "30-09-2026", "edicion": "44562" }, "geometry": { "type": "Polygon", "coordinates": [ [ [ -70.428455361142198, -27.209083831716175 ], [ -70.423408007727716, -27.209135194987468 ], [ -70.423465360745752, -27.213647957975887 ], [ -70.428512917363662, -27.213596584799781 ], [ -70.428455361142198, -27.209083831716175 ] ] ] } },
{ "type": "Feature", "properties": { "cve": "2878011", "nombre": "BLANCA TRES DEL 1 AL 36", "solicitante": "Torres Olivares Alonso Ignacio", "region": "REGIÓN DE COQUIMBO", "provincia": "Provincia de Elqui", "comuna": null, "superficie_ha": 180.0, "datum_original": "PSAD56", "huso": 19, "epsg_origen": 24879, "tipo_publicacion": "mensura", "fuente_pdf": "http://www.diariooficial.interior.gob.cl/publicaciones/2026/09/30/44562/07/2878011.pdf", "archivo": "gm_mensura_2878011.pdf", "fecha": "30-09-2026", "edicion": "44562" }, "geometry": { "type": "Polygon", "coordinates": [ [ [ -70.98191028878604, -29.34476867301014 ], [ -70.971615135751463, -29.344921225651238 ], [ -70.971927859972595, -29.361157427539904 ], [ -70.982224643354868, -29.361004774176862 ], [ -70.98191028878604, -29.34476867301014 ] ] ] } },
{ "type": "Feature", "properties": { "cve": "2878261", "nombre": "COSTERA 1", "solicitante": "Pesenti Rojas Juan Pablo", "region": "REGIÓN DE ATACAMA", "provincia": "Provincia de Copiapó", "comuna": null, "superficie_ha": 300.0, "datum_original": "PSAD56", "huso": 19, "epsg_origen": 24879, "tipo_publicacion": "pedimento", "fuente_pdf": "http://www.diariooficial.interior.gob.cl/publicaciones/2026/09/30/44562/07/2878261.pdf", "archivo": "gm_pedimento_2878261.pdf", "fecha": "30-09-2026", "edicion": "44562" }, "geometry": { "type": "Polygon", "coordinates": [ [ [ -70.549583061193914, -27.415178559647497 ], [ -70.539470222365978, -27.415290588420511 ], [ -70.539845859615326, -27.44236491014934 ], [ -70.54996116361886, -27.442252752399749 ], [ -70.549583061193914, -27.415178559647497 ] ] ] } },
{ "type": "Feature", "properties": { "cve": "2878262", "nombre": "COSTERA 2", "solicitante": "Pesenti Rojas Juan Pablo", "region": "REGIÓN DE ATACAMA", "provincia": "Provincia de Copiapó", "comuna": null, "superficie_ha": 300.0, "datum_original": "PSAD56", "huso": 19, "epsg_origen": 24879, "tipo_publicacion": "pedimento", "fuente_pdf": "http://www.diariooficial.interior.gob.cl/publicaciones/2026/09/30/44562/07/2878262.pdf", "archivo": "gm_pedimento_2878262.pdf", "fecha": "30-09-2026", "edicion": "44562" }, "geometry": { "type": "Polygon", "coordinates": [ [ [ -70.539470222365978, -27.415290588420511 ], [ -70.529357325200976, -27.415401884269595 ], [ -70.529730497213677, -27.442476334131452 ], [ -70.539845859615326, -27.44236491014934 ], [ -70.539470222365978, -27.415290588420511 ] ] ] } },
{ "type": "Feature", "properties": { "cve": "2878263", "nombre": "COSTERA 3", "solicitante": "Pesenti Rojas Juan Pablo", "region": "REGIÓN DE ATACAMA", "provincia": "Provincia de Copiapó", "comuna": null, "superficie_ha": 300.0, "datum_original": "PSAD56", "huso": 19, "epsg_origen": 24879, "tipo_publicacion": "pedimento", "fuente_pdf": "http://www.diariooficial.interior.gob.cl/publicaciones/2026/09/30/44562/07/2878263.pdf", "archivo": "gm_pedimento_2878263.pdf", "fecha": "30-09-2026", "edicion": "44562" }, "geometry": { "type": "Polygon", "coordinates": [ [ [ -70.529357325200976, -27.415401884269595 ], [ -70.519244370081566, -27.41551244717893 ], [ -70.51961507679701, -27.442587024330219 ], [ -70.529730497213677, -27.442476334131452 ], [ -70.529357325200976, -27.415401884269595 ] ] ] } },
{ "type": "Feature", "properties": { "cve": "2878282", "nombre": "SAN ANTONIO 1", "solicitante": "Pérez Vargas Miguel Ángel", "region": "REGIÓN DE ATACAMA", "provincia": "Provincia de Copiapó", "comuna": "Tierra Amarilla", "superficie_ha": 300.0, "datum_original": "PSAD56", "huso": 19, "epsg_origen": 24879, "tipo_publicacion": "pedimento", "fuente_pdf": "http://www.diariooficial.interior.gob.cl/publicaciones/2026/09/30/44562/07/2878282.pdf", "archivo": "gm_pedimento_2878282.pdf", "fecha": "30-09-2026", "edicion": "44562" }, "geometry": { "type": "Polygon", "coordinates": [ [ [ -70.05527126443576, -27.87023767936083 ], [ -70.024800875094954, -27.870467448311981 ], [ -70.02488581802146, -27.879493459332284 ], [ -70.055358731843057, -27.879263603181169 ], [ -70.05527126443576, -27.87023767936083 ] ] ] } },
{ "type": "Feature", "properties": { "cve": "2878283", "nombre": "SAN ANTONIO 2", "solicitante": "Pérez Vargas Miguel Ángel", "region": "REGIÓN DE ATACAMA", "provincia": "Provincia de Copiapó", "comuna": "Tierra Amarilla", "superficie_ha": 300.0, "datum_original": "PSAD56", "huso": 19, "epsg_origen": 24879, "tipo_publicacion": "pedimento", "fuente_pdf": "http://www.diariooficial.interior.gob.cl/publicaciones/2026/09/30/44562/07/2878283.pdf", "archivo": "gm_pedimento_2878283.pdf", "fecha": "30-09-2026", "edicion": "44562" }, "geometry": { "type": "Polygon", "coordinates": [ [ [ -70.055183837573978, -27.861211743376142 ], [ -70.024715971543998, -27.861441425141415 ], [ -70.024800875094954, -27.870467448311981 ], [ -70.05527126443576, -27.87023767936083 ], [ -70.055183837573978, -27.861211743376142 ] ] ] } },
{ "type": "Feature", "properties": { "cve": "2878248", "nombre": "LIMACHINO", "solicitante": "Ruíz-Tagle Ramírez Óscar", "region": "REGIÓN DE VALPARAÍSO", "provincia": "Provincia de Quillota", "comuna": null, "superficie_ha": 100.0, "datum_original": "PSAD56", "huso": 19, "epsg_origen": 24879, "tipo_publicacion": "pedimento", "fuente_pdf": "http://www.diariooficial.interior.gob.cl/publicaciones/2026/09/30/44562/07/2878248.pdf", "archivo": "gm_pedimento_2878248.pdf", "fecha": "30-09-2026", "edicion": "44562" }, "geometry": { "type": "Polygon", "coordinates": [ [ [ -71.256478746881328, -32.991660489084872 ], [ -71.245783270553389, -32.991853400354998 ], [ -71.246011692241908, -33.000866777706023 ], [ -71.256708254175877, -33.000673800351976 ], [ -71.256478746881328, -32.991660489084872 ] ] ] } },
{ "type": "Feature", "properties": { "cve": "2878308", "nombre": "LUNA 73", "solicitante": "Varela Echaurren Juan Francisco", "region": "REGIÓN DEL BIOBÍO", "provincia": "Provincia de Biobío", "comuna": null, "superficie_ha": 300.0, "datum_original": "PSAD56", "huso": 18, "epsg_origen": 24878, "tipo_publicacion": "pedimento", "fuente_pdf": "http://www.diariooficial.interior.gob.cl/publicaciones/2026/09/30/44562/07/2878308.pdf", "archivo": "gm_pedimento_2878308.pdf", "fecha": "30-09-2026", "edicion": "44562" }, "geometry": { "type": "Polygon", "coordinates": [ [ [ -72.504758803301087, -36.887174978135697 ], [ -72.493547131186247, -36.886938898090392 ], [ -72.492662872674813, -36.913956663097139 ], [ -72.503878490151934, -36.91419297367468 ], [ -72.504758803301087, -36.887174978135697 ] ] ] } }
]
}
