{
"type": "FeatureCollection",
"name": "boletin_mineria_20260624",
"crs": { "type": "name", "properties": { "name": "urn:ogc:def:crs:OGC:1.3:CRS84" } },
"features": [
{ "type": "Feature", "properties": { "cve": "2828232", "nombre": "ALMIBAR II 1, 1 AL 30", "solicitante": "Antofagasta Minerals S.A.", "region": "REGIÓN DE ANTOFAGASTA", "provincia": "Provincia de Antofagasta", "comuna": null, "superficie_ha": 300.0, "datum_original": "PSAD56", "huso": 19, "epsg_origen": 24879, "tipo_publicacion": "manifestacion", "fuente_pdf": "http://www.diariooficial.interior.gob.cl/publicaciones/2026/06/24/44483/07/2828232.pdf", "archivo": "gm_manifestacion_2828232.pdf", "fecha": "24-06-2026", "edicion": "44483" }, "geometry": { "type": "Polygon", "coordinates": [ [ [ -69.452582189839418, -23.571622323557179 ], [ -69.423184447949581, -23.57170512816824 ], [ -69.423213394745034, -23.5807375955835 ], [ -69.452613147346568, -23.580654755480335 ], [ -69.452582189839418, -23.571622323557179 ] ] ] } },
{ "type": "Feature", "properties": { "cve": "2828241", "nombre": "ALMIBAR II 10, 1 AL 30", "solicitante": "Antofagasta Minerals S.A.", "region": "REGIÓN DE ANTOFAGASTA", "provincia": "Provincia de Antofagasta", "comuna": null, "superficie_ha": 300.0, "datum_original": "PSAD56", "huso": 19, "epsg_origen": 24879, "tipo_publicacion": "manifestacion", "fuente_pdf": "http://www.diariooficial.interior.gob.cl/publicaciones/2026/06/24/44483/07/2828241.pdf", "archivo": "gm_manifestacion_2828241.pdf", "fecha": "24-06-2026", "edicion": "44483" }, "geometry": { "type": "Polygon", "coordinates": [ [ [ -69.452830281985143, -23.643881481250872 ], [ -69.44302567844494, -23.643909797238869 ], [ -69.443116948157126, -23.67100684210941 ], [ -69.452923571421351, -23.670978489791661 ], [ -69.452830281985143, -23.643881481250872 ] ] ] } },
{ "type": "Feature", "properties": { "cve": "2828242", "nombre": "ALMIBAR II 11, 1 AL 30", "solicitante": "Antofagasta Minerals S.A.", "region": "REGIÓN DE ANTOFAGASTA", "provincia": "Provincia de Antofagasta", "comuna": null, "superficie_ha": 300.0, "datum_original": "PSAD56", "huso": 19, "epsg_origen": 24879, "tipo_publicacion": "manifestacion", "fuente_pdf": "http://www.diariooficial.interior.gob.cl/publicaciones/2026/06/24/44483/07/2828242.pdf", "archivo": "gm_manifestacion_2828242.pdf", "fecha": "24-06-2026", "edicion": "44483" }, "geometry": { "type": "Polygon", "coordinates": [ [ [ -69.44302567844494, -23.643909797238869 ], [ -69.433221059784401, -23.643937493466773 ], [ -69.433310309758767, -23.671034573871921 ], [ -69.443116948157126, -23.67100684210941 ], [ -69.44302567844494, -23.643909797238869 ] ] ] } },
{ "type": "Feature", "properties": { "cve": "2828243", "nombre": "ALMIBAR II 12, 1 AL 30", "solicitante": "Antofagasta Minerals S.A.", "region": "REGIÓN DE ANTOFAGASTA", "provincia": "Provincia de Antofagasta", "comuna": null, "superficie_ha": 300.0, "datum_original": "PSAD56", "huso": 19, "epsg_origen": 24879, "tipo_publicacion": "manifestacion", "fuente_pdf": "http://www.diariooficial.interior.gob.cl/publicaciones/2026/06/24/44483/07/2828243.pdf", "archivo": "gm_manifestacion_2828243.pdf", "fecha": "24-06-2026", "edicion": "44483" }, "geometry": { "type": "Polygon", "coordinates": [ [ [ -69.443177870296267, -23.68907148542095 ], [ -69.41375386651282, -23.689152888529758 ], [ -69.413782326524924, -23.69818522895368 ], [ -69.443208354078976, -23.698103791086897 ], [ -69.443177870296267, -23.68907148542095 ] ] ] } },
{ "type": "Feature", "properties": { "cve": "2828233", "nombre": "ALMIBAR II 2, 1 AL 30", "solicitante": "Antofagasta Minerals S.A.", "region": "REGIÓN DE ANTOFAGASTA", "provincia": "Provincia de Antofagasta", "comuna": null, "superficie_ha": 300.0, "datum_original": "PSAD56", "huso": 19, "epsg_origen": 24879, "tipo_publicacion": "manifestacion", "fuente_pdf": "http://www.diariooficial.interior.gob.cl/publicaciones/2026/06/24/44483/07/2828233.pdf", "archivo": "gm_manifestacion_2828233.pdf", "fecha": "24-06-2026", "edicion": "44483" }, "geometry": { "type": "Polygon", "coordinates": [ [ [ -69.423155515570443, -23.562672650135063 ], [ -69.413356908908952, -23.562699005079864 ], [ -69.413441738561247, -23.589796441226277 ], [ -69.423242355961179, -23.589770052377791 ], [ -69.423155515570443, -23.562672650135063 ] ] ] } },
{ "type": "Feature", "properties": { "cve": "2828234", "nombre": "ALMIBAR II 3, 1 AL 30", "solicitante": "Antofagasta Minerals S.A.", "region": "REGIÓN DE ANTOFAGASTA", "provincia": "Provincia de Antofagasta", "comuna": null, "superficie_ha": 300.0, "datum_original": "PSAD56", "huso": 19, "epsg_origen": 24879, "tipo_publicacion": "manifestacion", "fuente_pdf": "http://www.diariooficial.interior.gob.cl/publicaciones/2026/06/24/44483/07/2828234.pdf", "archivo": "gm_manifestacion_2828234.pdf", "fecha": "24-06-2026", "edicion": "44483" }, "geometry": { "type": "Polygon", "coordinates": [ [ [ -69.413356908908952, -23.562699005079864 ], [ -69.403558288169435, -23.562724742637048 ], [ -69.40364110707047, -23.589822211892944 ], [ -69.413441738561247, -23.589796441226277 ], [ -69.413356908908952, -23.562699005079864 ] ] ] } },
{ "type": "Feature", "properties": { "cve": "2828235", "nombre": "ALMIBAR II 4, 1 AL 30", "solicitante": "Antofagasta Minerals S.A.", "region": "REGIÓN DE ANTOFAGASTA", "provincia": "Provincia de Antofagasta", "comuna": null, "superficie_ha": 300.0, "datum_original": "PSAD56", "huso": 19, "epsg_origen": 24879, "tipo_publicacion": "manifestacion", "fuente_pdf": "http://www.diariooficial.interior.gob.cl/publicaciones/2026/06/24/44483/07/2828235.pdf", "archivo": "gm_manifestacion_2828235.pdf", "fecha": "24-06-2026", "edicion": "44483" }, "geometry": { "type": "Polygon", "coordinates": [ [ [ -69.467344950931718, -23.589643652658133 ], [ -69.457544401073662, -23.589672823278985 ], [ -69.457638419289978, -23.616770004938157 ], [ -69.46744098283088, -23.616740796824793 ], [ -69.467344950931718, -23.589643652658133 ] ] ] } },
{ "type": "Feature", "properties": { "cve": "2828236", "nombre": "ALMIBAR II 5, 1 AL 30", "solicitante": "Antofagasta Minerals S.A.", "region": "REGIÓN DE ANTOFAGASTA", "provincia": "Provincia de Antofagasta", "comuna": null, "superficie_ha": 300.0, "datum_original": "PSAD56", "huso": 19, "epsg_origen": 24879, "tipo_publicacion": "manifestacion", "fuente_pdf": "http://www.diariooficial.interior.gob.cl/publicaciones/2026/06/24/44483/07/2828236.pdf", "archivo": "gm_manifestacion_2828236.pdf", "fecha": "24-06-2026", "edicion": "44483" }, "geometry": { "type": "Polygon", "coordinates": [ [ [ -69.457544401073662, -23.589672823278985 ], [ -69.447743835621822, -23.589701375734911 ], [ -69.447835840141082, -23.616798594092085 ], [ -69.457638419289978, -23.616770004938157 ], [ -69.457544401073662, -23.589672823278985 ] ] ] } },
{ "type": "Feature", "properties": { "cve": "2828237", "nombre": "ALMIBAR II 6, 1 AL 30", "solicitante": "Antofagasta Minerals S.A.", "region": "REGIÓN DE ANTOFAGASTA", "provincia": "Provincia de Antofagasta", "comuna": null, "superficie_ha": 300.0, "datum_original": "PSAD56", "huso": 19, "epsg_origen": 24879, "tipo_publicacion": "manifestacion", "fuente_pdf": "http://www.diariooficial.interior.gob.cl/publicaciones/2026/06/24/44483/07/2828237.pdf", "archivo": "gm_manifestacion_2828237.pdf", "fecha": "24-06-2026", "edicion": "44483" }, "geometry": { "type": "Polygon", "coordinates": [ [ [ -69.437943254910167, -23.589729310022015 ], [ -69.428142659272723, -23.589756626136474 ], [ -69.42823063635646, -23.616853915506137 ], [ -69.438033245718472, -23.616826564282697 ], [ -69.437943254910167, -23.589729310022015 ] ] ] } },
{ "type": "Feature", "properties": { "cve": "2828238", "nombre": "ALMIBAR II 7, 1 AL 30", "solicitante": "Antofagasta Minerals S.A.", "region": "REGIÓN DE ANTOFAGASTA", "provincia": "Provincia de Antofagasta", "comuna": null, "superficie_ha": 300.0, "datum_original": "PSAD56", "huso": 19, "epsg_origen": 24879, "tipo_publicacion": "manifestacion", "fuente_pdf": "http://www.diariooficial.interior.gob.cl/publicaciones/2026/06/24/44483/07/2828238.pdf", "archivo": "gm_manifestacion_2828238.pdf", "fecha": "24-06-2026", "edicion": "44483" }, "geometry": { "type": "Polygon", "coordinates": [ [ [ -69.428142659272723, -23.589756626136474 ], [ -69.418342049043446, -23.589783324074538 ], [ -69.418428012389313, -23.616880647758663 ], [ -69.42823063635646, -23.616853915506137 ], [ -69.428142659272723, -23.589756626136474 ] ] ] } },
{ "type": "Feature", "properties": { "cve": "2828239", "nombre": "ALMIBAR II 8, 1 AL 30", "solicitante": "Antofagasta Minerals S.A.", "region": "REGIÓN DE ANTOFAGASTA", "provincia": "Provincia de Antofagasta", "comuna": null, "superficie_ha": 300.0, "datum_original": "PSAD56", "huso": 19, "epsg_origen": 24879, "tipo_publicacion": "manifestacion", "fuente_pdf": "http://www.diariooficial.interior.gob.cl/publicaciones/2026/06/24/44483/07/2828239.pdf", "archivo": "gm_manifestacion_2828239.pdf", "fecha": "24-06-2026", "edicion": "44483" }, "geometry": { "type": "Polygon", "coordinates": [ [ [ -69.472342258643863, -23.616725960659576 ], [ -69.462539703032334, -23.616755478251154 ], [ -69.462634870070403, -23.643852545506661 ], [ -69.472439442366124, -23.643822990010214 ], [ -69.472342258643863, -23.616725960659576 ] ] ] } },
{ "type": "Feature", "properties": { "cve": "2828240", "nombre": "ALMIBAR II 9, 1 AL 30", "solicitante": "Antofagasta Minerals S.A.", "region": "REGIÓN DE ANTOFAGASTA", "provincia": "Provincia de Antofagasta", "comuna": null, "superficie_ha": 300.0, "datum_original": "PSAD56", "huso": 19, "epsg_origen": 24879, "tipo_publicacion": "manifestacion", "fuente_pdf": "http://www.diariooficial.interior.gob.cl/publicaciones/2026/06/24/44483/07/2828240.pdf", "archivo": "gm_manifestacion_2828240.pdf", "fecha": "24-06-2026", "edicion": "44483" }, "geometry": { "type": "Polygon", "coordinates": [ [ [ -69.433131942883989, -23.616840317265549 ], [ -69.423329326177637, -23.616867359004001 ], [ -69.423416426338122, -23.643964569930802 ], [ -69.433221059784401, -23.643937493466773 ], [ -69.433131942883989, -23.616840317265549 ] ] ] } },
{ "type": "Feature", "properties": { "cve": "2828335", "nombre": "SOLEDAD 1 AL 5", "solicitante": "Bórquez Tabilo Ruperto", "region": "REGIÓN DE ATACAMA", "provincia": "Provincia de Copiapó", "comuna": null, "superficie_ha": 37.5, "datum_original": "PSAD56", "huso": 19, "epsg_origen": 24879, "tipo_publicacion": "manifestacion", "fuente_pdf": "http://www.diariooficial.interior.gob.cl/publicaciones/2026/06/24/44483/07/2828335.pdf", "archivo": "gm_manifestacion_2828335.pdf", "fecha": "24-06-2026", "edicion": "44483" }, "geometry": { "type": "Polygon", "coordinates": [ [ [ -70.083894148418651, -27.888520116415318 ], [ -70.078814969961783, -27.888559956234872 ], [ -70.078882081891493, -27.895329330079402 ], [ -70.083961576168207, -27.895289478925449 ], [ -70.083894148418651, -27.888520116415318 ] ] ] } },
{ "type": "Feature", "properties": { "cve": "2828291", "nombre": "DESPRECIADA 1", "solicitante": "Díaz Cortés Gustavo Patricio", "region": "REGIÓN DE ATACAMA", "provincia": "Provincia de Huasco", "comuna": null, "superficie_ha": 2.0, "datum_original": "WGS84", "huso": 19, "epsg_origen": 32719, "tipo_publicacion": "manifestacion", "fuente_pdf": "http://www.diariooficial.interior.gob.cl/publicaciones/2026/06/24/44483/07/2828291.pdf", "archivo": "gm_manifestacion_2828291.pdf", "fecha": "24-06-2026", "edicion": "44483" }, "geometry": { "type": "Polygon", "coordinates": [ [ [ -71.011627522307293, -28.559179857782848 ], [ -71.010605767304426, -28.559195001653144 ], [ -71.010640065394554, -28.560999197150174 ], [ -71.011661837798457, -28.56098405214955 ], [ -71.011627522307293, -28.559179857782848 ] ] ] } },
{ "type": "Feature", "properties": { "cve": "2828292", "nombre": "LA ENCONTRADA 1 AL 40", "solicitante": "Ardiles Bolados Manuel Segundo", "region": "REGIÓN DE ATACAMA", "provincia": "Provincia de Huasco", "comuna": null, "superficie_ha": 40.0, "datum_original": "WGS84", "huso": 19, "epsg_origen": 32719, "tipo_publicacion": "manifestacion", "fuente_pdf": "http://www.diariooficial.interior.gob.cl/publicaciones/2026/06/24/44483/07/2828292.pdf", "archivo": "gm_manifestacion_2828292.pdf", "fecha": "24-06-2026", "edicion": "44483" }, "geometry": { "type": "Polygon", "coordinates": [ [ [ -70.871876466019287, -28.068186910673536 ], [ -70.867807832231804, -28.068242347702849 ], [ -70.86796394402073, -28.077264733376847 ], [ -70.872032917381929, -28.077209275416937 ], [ -70.871876466019287, -28.068186910673536 ] ] ] } },
{ "type": "Feature", "properties": { "cve": "2828384", "nombre": "HUALLILLINGA 1 AL 5", "solicitante": "Inversiones Hermanos Zepeda SpA", "region": "REGIÓN DE COQUIMBO", "provincia": "Provincia de Limarí", "comuna": "Ovalle", "superficie_ha": 25.0, "datum_original": "PSAD56", "huso": 19, "epsg_origen": 24879, "tipo_publicacion": "manifestacion", "fuente_pdf": "http://www.diariooficial.interior.gob.cl/publicaciones/2026/06/24/44483/07/2828384.pdf", "archivo": "gm_manifestacion_2828384.pdf", "fecha": "24-06-2026", "edicion": "44483" }, "geometry": { "type": "Polygon", "coordinates": [ [ [ -71.136302621249172, -30.654642628706831 ], [ -71.131087517053302, -30.654728267059429 ], [ -71.131186463204685, -30.659236971953938 ], [ -71.136401809088795, -30.659151318314901 ], [ -71.136302621249172, -30.654642628706831 ] ] ] } },
{ "type": "Feature", "properties": { "cve": "2828407", "nombre": "MAN WARBOS 3 1/125", "solicitante": "FMR Chile Exploration SpA", "region": "REGIÓN DE COQUIMBO", "provincia": "Provincia de Limarí", "comuna": null, "superficie_ha": 125.0, "datum_original": "PSAD56", "huso": 19, "epsg_origen": 24879, "tipo_publicacion": "manifestacion", "fuente_pdf": "http://www.diariooficial.interior.gob.cl/publicaciones/2026/06/24/44483/07/2828407.pdf", "archivo": "gm_manifestacion_2828407.pdf", "fecha": "24-06-2026", "edicion": "44483" }, "geometry": { "type": "Polygon", "coordinates": [ [ [ -70.604003035274957, -30.65643949671642 ], [ -70.577918938785018, -30.656758822458713 ], [ -70.577992214844585, -30.661268940804362 ], [ -70.60407752138299, -30.660949558046919 ], [ -70.604003035274957, -30.65643949671642 ] ] ] } },
{ "type": "Feature", "properties": { "cve": "2828408", "nombre": "MAN WARBOS 6 1/4", "solicitante": "FMR Chile Exploration SpA", "region": "REGIÓN DE COQUIMBO", "provincia": "Provincia de Limarí", "comuna": null, "superficie_ha": 4.0, "datum_original": "PSAD56", "huso": 19, "epsg_origen": 24879, "tipo_publicacion": "manifestacion", "fuente_pdf": "http://www.diariooficial.interior.gob.cl/publicaciones/2026/06/24/44483/07/2828408.pdf", "archivo": "gm_manifestacion_2828408.pdf", "fecha": "24-06-2026", "edicion": "44483" }, "geometry": { "type": "Polygon", "coordinates": [ [ [ -70.560768515734097, -30.628546397088098 ], [ -70.558682358440777, -30.62857142114656 ], [ -70.558711277243646, -30.630375493413187 ], [ -70.560797473203934, -30.630350467566551 ], [ -70.560768515734097, -30.628546397088098 ] ] ] } },
{ "type": "Feature", "properties": { "cve": "2828409", "nombre": "MAN WARBOS 7 1/20", "solicitante": "FMR Chile Exploration SpA", "region": "REGIÓN DE COQUIMBO", "provincia": "Provincia de Limarí", "comuna": null, "superficie_ha": 20.0, "datum_original": "PSAD56", "huso": 19, "epsg_origen": 24879, "tipo_publicacion": "manifestacion", "fuente_pdf": "http://www.diariooficial.interior.gob.cl/publicaciones/2026/06/24/44483/07/2828409.pdf", "archivo": "gm_manifestacion_2828409.pdf", "fecha": "24-06-2026", "edicion": "44483" }, "geometry": { "type": "Polygon", "coordinates": [ [ [ -70.558682358440777, -30.62857142114656 ], [ -70.548251532882233, -30.628696039781932 ], [ -70.548280258347262, -30.630500120953506 ], [ -70.558711277243646, -30.630375493413187 ], [ -70.558682358440777, -30.62857142114656 ] ] ] } },
{ "type": "Feature", "properties": { "cve": "2828278", "nombre": "SOLEDAD 1 AL 20", "solicitante": "Farfán Cano Héctor Manuel y otros", "region": "REGIÓN METROPOLITANA DE SANTIAGO", "provincia": "Provincia de Melipilla", "comuna": null, "superficie_ha": 100.0, "datum_original": "PSAD56", "huso": 19, "epsg_origen": 24879, "tipo_publicacion": "manifestacion", "fuente_pdf": "http://www.diariooficial.interior.gob.cl/publicaciones/2026/06/24/44483/07/2828278.pdf", "archivo": "gm_manifestacion_2828278.pdf", "fecha": "24-06-2026", "edicion": "44483" }, "geometry": { "type": "Polygon", "coordinates": [ [ [ -71.163364280163194, -33.244267335702148 ], [ -71.15263747377783, -33.244453516618002 ], [ -71.152858542726364, -33.253467090196068 ], [ -71.163586448630454, -33.253280845750353 ], [ -71.163364280163194, -33.244267335702148 ] ] ] } },
{ "type": "Feature", "properties": { "cve": "2828275", "nombre": "ALICIA 1 AL 16", "solicitante": "Salomón Richards Carlos Emilio", "region": "REGIÓN DE ATACAMA", "provincia": "Provincia de Huasco", "comuna": null, "superficie_ha": 10.0, "datum_original": "WGS84", "huso": 19, "epsg_origen": 32719, "tipo_publicacion": "mensura", "fuente_pdf": "http://www.diariooficial.interior.gob.cl/publicaciones/2026/06/24/44483/07/2828275.pdf", "archivo": "gm_mensura_2828275.pdf", "fecha": "24-06-2026", "edicion": "44483" }, "geometry": { "type": "Polygon", "coordinates": [ [ [ -70.924972094660049, -28.107430165149612 ], [ -70.923954598738007, -28.107444447337489 ], [ -70.924019016845733, -28.111053264962806 ], [ -70.928089132130808, -28.110996082334864 ], [ -70.928072992468643, -28.110093880275894 ], [ -70.927055473269874, -28.110108186707663 ], [ -70.927039342857825, -28.109205983981873 ], [ -70.926021831417899, -28.109220282331787 ], [ -70.926005710255211, -28.10831807893949 ], [ -70.924988206574199, -28.108332369208114 ], [ -70.924972094660049, -28.107430165149612 ] ] ] } },
{ "type": "Feature", "properties": { "cve": "2828387", "nombre": "LLAMARA CENTRAL 26", "solicitante": "Minera Entre Tierras Limitada", "region": "REGIÓN DE TARAPACÁ", "provincia": "Provincia del Tamarugal", "comuna": "Pozo Almonte", "superficie_ha": 300.0, "datum_original": "PSAD56", "huso": 19, "epsg_origen": 24879, "tipo_publicacion": "pedimento", "fuente_pdf": "http://www.diariooficial.interior.gob.cl/publicaciones/2026/06/24/44483/07/2828387.pdf", "archivo": "gm_pedimento_2828387.pdf", "fecha": "24-06-2026", "edicion": "44483" }, "geometry": { "type": "Polygon", "coordinates": [ [ [ -69.686714291326908, -21.389172494090872 ], [ -69.657774834640549, -21.389288457349405 ], [ -69.657815229564505, -21.398323039767373 ], [ -69.686756463132397, -21.398207022819431 ], [ -69.686714291326908, -21.389172494090872 ] ] ] } },
{ "type": "Feature", "properties": { "cve": "2828388", "nombre": "LLAMARA CENTRAL 27", "solicitante": "Minera Entre Tierras Limitada", "region": "REGIÓN DE TARAPACÁ", "provincia": "Provincia del Tamarugal", "comuna": "Pozo Almonte", "superficie_ha": 300.0, "datum_original": "PSAD56", "huso": 19, "epsg_origen": 24879, "tipo_publicacion": "pedimento", "fuente_pdf": "http://www.diariooficial.interior.gob.cl/publicaciones/2026/06/24/44483/07/2828388.pdf", "archivo": "gm_pedimento_2828388.pdf", "fecha": "24-06-2026", "edicion": "44483" }, "geometry": { "type": "Polygon", "coordinates": [ [ [ -69.686756463132397, -21.398207022819431 ], [ -69.657815229564505, -21.398323039767373 ], [ -69.657855645713823, -21.407357612293982 ], [ -69.686798657096844, -21.407241541650226 ], [ -69.686756463132397, -21.398207022819431 ] ] ] } },
{ "type": "Feature", "properties": { "cve": "2828389", "nombre": "LLAMARA CENTRAL 28", "solicitante": "Minera Entre Tierras Limitada", "region": "REGIÓN DE TARAPACÁ", "provincia": "Provincia del Tamarugal", "comuna": "Pozo Almonte", "superficie_ha": 300.0, "datum_original": "PSAD56", "huso": 19, "epsg_origen": 24879, "tipo_publicacion": "pedimento", "fuente_pdf": "http://www.diariooficial.interior.gob.cl/publicaciones/2026/06/24/44483/07/2828389.pdf", "archivo": "gm_pedimento_2828389.pdf", "fecha": "24-06-2026", "edicion": "44483" }, "geometry": { "type": "Polygon", "coordinates": [ [ [ -69.686798657096844, -21.407241541650226 ], [ -69.657855645713823, -21.407357612293982 ], [ -69.657896083094371, -21.416392174925853 ], [ -69.686840873226359, -21.416276050579931 ], [ -69.686798657096844, -21.407241541650226 ] ] ] } },
{ "type": "Feature", "properties": { "cve": "2828390", "nombre": "LLAMARA CENTRAL 29", "solicitante": "Minera Entre Tierras Limitada", "region": "REGIÓN DE TARAPACÁ", "provincia": "Provincia del Tamarugal", "comuna": "Pozo Almonte", "superficie_ha": 300.0, "datum_original": "PSAD56", "huso": 19, "epsg_origen": 24879, "tipo_publicacion": "pedimento", "fuente_pdf": "http://www.diariooficial.interior.gob.cl/publicaciones/2026/06/24/44483/07/2828390.pdf", "archivo": "gm_pedimento_2828390.pdf", "fecha": "24-06-2026", "edicion": "44483" }, "geometry": { "type": "Polygon", "coordinates": [ [ [ -69.686840873226359, -21.416276050579931 ], [ -69.657896083094371, -21.416392174925853 ], [ -69.657936541712061, -21.425426727659687 ], [ -69.686883111527138, -21.425310549605182 ], [ -69.686840873226359, -21.416276050579931 ] ] ] } },
{ "type": "Feature", "properties": { "cve": "2828391", "nombre": "LLAMARA CENTRAL 30", "solicitante": "Minera Entre Tierras Limitada", "region": "REGIÓN DE TARAPACÁ", "provincia": "Provincia del Tamarugal", "comuna": "Pozo Almonte", "superficie_ha": 300.0, "datum_original": "PSAD56", "huso": 19, "epsg_origen": 24879, "tipo_publicacion": "pedimento", "fuente_pdf": "http://www.diariooficial.interior.gob.cl/publicaciones/2026/06/24/44483/07/2828391.pdf", "archivo": "gm_pedimento_2828391.pdf", "fecha": "24-06-2026", "edicion": "44483" }, "geometry": { "type": "Polygon", "coordinates": [ [ [ -69.686883111527138, -21.425310549605182 ], [ -69.657936541712061, -21.425426727659687 ], [ -69.65797702157279, -21.434461270492108 ], [ -69.686925372005305, -21.434345038722636 ], [ -69.686883111527138, -21.425310549605182 ] ] ] } },
{ "type": "Feature", "properties": { "cve": "2828392", "nombre": "LLAMARA CENTRAL 31", "solicitante": "Minera Entre Tierras Limitada", "region": "REGIÓN DE TARAPACÁ", "provincia": "Provincia del Tamarugal", "comuna": "Pozo Almonte", "superficie_ha": 300.0, "datum_original": "PSAD56", "huso": 19, "epsg_origen": 24879, "tipo_publicacion": "pedimento", "fuente_pdf": "http://www.diariooficial.interior.gob.cl/publicaciones/2026/06/24/44483/07/2828392.pdf", "archivo": "gm_pedimento_2828392.pdf", "fecha": "24-06-2026", "edicion": "44483" }, "geometry": { "type": "Polygon", "coordinates": [ [ [ -69.686925372005305, -21.434345038722636 ], [ -69.65797702157279, -21.434461270492108 ], [ -69.658017522682428, -21.44349580341979 ], [ -69.686967654667058, -21.443379517928935 ], [ -69.686925372005305, -21.434345038722636 ] ] ] } },
{ "type": "Feature", "properties": { "cve": "2828393", "nombre": "LLAMARA CENTRAL 32", "solicitante": "Minera Entre Tierras Limitada", "region": "REGIÓN DE TARAPACÁ", "provincia": "Provincia del Tamarugal", "comuna": "Pozo Almonte", "superficie_ha": 300.0, "datum_original": "PSAD56", "huso": 19, "epsg_origen": 24879, "tipo_publicacion": "pedimento", "fuente_pdf": "http://www.diariooficial.interior.gob.cl/publicaciones/2026/06/24/44483/07/2828393.pdf", "archivo": "gm_pedimento_2828393.pdf", "fecha": "24-06-2026", "edicion": "44483" }, "geometry": { "type": "Polygon", "coordinates": [ [ [ -69.686967654667058, -21.443379517928935 ], [ -69.658017522682428, -21.44349580341979 ], [ -69.6580580450469, -21.452530326439398 ], [ -69.687009959518491, -21.452413987220776 ], [ -69.686967654667058, -21.443379517928935 ] ] ] } },
{ "type": "Feature", "properties": { "cve": "2828394", "nombre": "LLAMARA CENTRAL 33", "solicitante": "Minera Entre Tierras Limitada", "region": "REGIÓN DE TARAPACÁ", "provincia": "Provincia del Tamarugal", "comuna": "Pozo Almonte", "superficie_ha": 300.0, "datum_original": "PSAD56", "huso": 19, "epsg_origen": 24879, "tipo_publicacion": "pedimento", "fuente_pdf": "http://www.diariooficial.interior.gob.cl/publicaciones/2026/06/24/44483/07/2828394.pdf", "archivo": "gm_pedimento_2828394.pdf", "fecha": "24-06-2026", "edicion": "44483" }, "geometry": { "type": "Polygon", "coordinates": [ [ [ -69.687009959518491, -21.452413987220776 ], [ -69.6580580450469, -21.452530326439398 ], [ -69.658098588672132, -21.461564839547581 ], [ -69.68705228656583, -21.461448446594769 ], [ -69.687009959518491, -21.452413987220776 ] ] ] } },
{ "type": "Feature", "properties": { "cve": "2828122", "nombre": "ERIDANUS I", "solicitante": "Andina Minergy SpA", "region": "REGIÓN DE ATACAMA", "provincia": "Provincia de Copiapó", "comuna": "Copiapó", "superficie_ha": 200.0, "datum_original": "WGS84", "huso": 19, "epsg_origen": 32719, "tipo_publicacion": "pedimento", "fuente_pdf": "http://www.diariooficial.interior.gob.cl/publicaciones/2026/06/24/44483/07/2828122.pdf", "archivo": "gm_pedimento_2828122.pdf", "fecha": "24-06-2026", "edicion": "44483" }, "geometry": { "type": "Polygon", "coordinates": [ [ [ -69.222230872659722, -27.248690274815711 ], [ -69.202028172767925, -27.24872088311249 ], [ -69.202044484476502, -27.257749096546569 ], [ -69.22224881549846, -27.257718476452652 ], [ -69.222230872659722, -27.248690274815711 ] ] ] } },
{ "type": "Feature", "properties": { "cve": "2828123", "nombre": "ERIDANUS II", "solicitante": "Andina Minergy SpA", "region": "REGIÓN DE ATACAMA", "provincia": "Provincia de Copiapó", "comuna": "Copiapó", "superficie_ha": 200.0, "datum_original": "WGS84", "huso": 19, "epsg_origen": 32719, "tipo_publicacion": "pedimento", "fuente_pdf": "http://www.diariooficial.interior.gob.cl/publicaciones/2026/06/24/44483/07/2828123.pdf", "archivo": "gm_pedimento_2828123.pdf", "fecha": "24-06-2026", "edicion": "44483" }, "geometry": { "type": "Polygon", "coordinates": [ [ [ -69.202028172767925, -27.24872088311249 ], [ -69.181825442386653, -27.248748576385893 ], [ -69.181840122954512, -27.257776800493595 ], [ -69.202044484476502, -27.257749096546569 ], [ -69.202028172767925, -27.24872088311249 ] ] ] } },
{ "type": "Feature", "properties": { "cve": "2828124", "nombre": "ERIDANUS III", "solicitante": "Andina Minergy SpA", "region": "REGIÓN DE ATACAMA", "provincia": "Provincia de Copiapó", "comuna": "Copiapó", "superficie_ha": 200.0, "datum_original": "WGS84", "huso": 19, "epsg_origen": 32719, "tipo_publicacion": "pedimento", "fuente_pdf": "http://www.diariooficial.interior.gob.cl/publicaciones/2026/06/24/44483/07/2828124.pdf", "archivo": "gm_pedimento_2828124.pdf", "fecha": "24-06-2026", "edicion": "44483" }, "geometry": { "type": "Polygon", "coordinates": [ [ [ -69.212146653990601, -27.257734151016923 ], [ -69.191942307337399, -27.257763313039465 ], [ -69.191957810720638, -27.266791520294337 ], [ -69.212163789271898, -27.266762347034646 ], [ -69.212146653990601, -27.257734151016923 ] ] ] } },
{ "type": "Feature", "properties": { "cve": "2828125", "nombre": "ERIDANUS IV", "solicitante": "Andina Minergy SpA", "region": "REGIÓN DE ATACAMA", "provincia": "Provincia de Copiapó", "comuna": "Copiapó", "superficie_ha": 200.0, "datum_original": "WGS84", "huso": 19, "epsg_origen": 32719, "tipo_publicacion": "pedimento", "fuente_pdf": "http://www.diariooficial.interior.gob.cl/publicaciones/2026/06/24/44483/07/2828125.pdf", "archivo": "gm_pedimento_2828125.pdf", "fecha": "24-06-2026", "edicion": "44483" }, "geometry": { "type": "Polygon", "coordinates": [ [ [ -69.212163789271898, -27.266762347034646 ], [ -69.191957810720638, -27.266791520294337 ], [ -69.191973321350162, -27.275819715890165 ], [ -69.212180932562191, -27.27579053139155 ], [ -69.212163789271898, -27.266762347034646 ] ] ] } },
{ "type": "Feature", "properties": { "cve": "2828250", "nombre": "SIERRA IX", "solicitante": "Inversiones Cisnes S.A.", "region": "REGIÓN DE ATACAMA", "provincia": "Provincia de Chañaral", "comuna": "DIEGO DE ALMAGRO", "superficie_ha": 300.0, "datum_original": "PSAD56", "huso": 19, "epsg_origen": 24879, "tipo_publicacion": "pedimento", "fuente_pdf": "http://www.diariooficial.interior.gob.cl/publicaciones/2026/06/24/44483/07/2828250.pdf", "archivo": "gm_pedimento_2828250.pdf", "fecha": "24-06-2026", "edicion": "44483" }, "geometry": { "type": "Polygon", "coordinates": [ [ [ -69.887711310176897, -26.861241032389611 ], [ -69.877645720481382, -26.861303869014332 ], [ -69.877854851911735, -26.888386973480745 ], [ -69.887922839341257, -26.888324063467515 ], [ -69.887711310176897, -26.861241032389611 ] ] ] } },
{ "type": "Feature", "properties": { "cve": "2828412", "nombre": "APUESTAS COBALTO 1", "solicitante": "Exploraciones Mineras Apuestas SpA", "region": "REGIÓN DE ATACAMA", "provincia": "Provincia de Huasco", "comuna": null, "superficie_ha": 300.0, "datum_original": "PSAD56", "huso": 19, "epsg_origen": 24879, "tipo_publicacion": "pedimento", "fuente_pdf": "http://www.diariooficial.interior.gob.cl/publicaciones/2026/06/24/44483/07/2828412.pdf", "archivo": "gm_pedimento_2828412.pdf", "fecha": "24-06-2026", "edicion": "44483" }, "geometry": { "type": "Polygon", "coordinates": [ [ [ -70.623380738834328, -28.298830808367875 ], [ -70.613185939172951, -28.298951646428314 ], [ -70.613594513237373, -28.326021509095359 ], [ -70.623791892194689, -28.325900534860089 ], [ -70.623380738834328, -28.298830808367875 ] ] ] } },
{ "type": "Feature", "properties": { "cve": "2828413", "nombre": "APUESTAS COBALTO 2", "solicitante": "Exploraciones Mineras Apuestas SpA", "region": "REGIÓN DE ATACAMA", "provincia": "Provincia de Huasco", "comuna": null, "superficie_ha": 300.0, "datum_original": "PSAD56", "huso": 19, "epsg_origen": 24879, "tipo_publicacion": "pedimento", "fuente_pdf": "http://www.diariooficial.interior.gob.cl/publicaciones/2026/06/24/44483/07/2828413.pdf", "archivo": "gm_pedimento_2828413.pdf", "fecha": "24-06-2026", "edicion": "44483" }, "geometry": { "type": "Polygon", "coordinates": [ [ [ -70.613185939172951, -28.298951646428314 ], [ -70.602991076740651, -28.299071723900372 ], [ -70.603397071441506, -28.326141721885428 ], [ -70.613594513237373, -28.326021509095359 ], [ -70.613185939172951, -28.298951646428314 ] ] ] } },
{ "type": "Feature", "properties": { "cve": "2828414", "nombre": "APUESTAS COBALTO 3", "solicitante": "Exploraciones Mineras Apuestas SpA", "region": "REGIÓN DE ATACAMA", "provincia": "Provincia de Huasco", "comuna": null, "superficie_ha": 300.0, "datum_original": "PSAD56", "huso": 19, "epsg_origen": 24879, "tipo_publicacion": "pedimento", "fuente_pdf": "http://www.diariooficial.interior.gob.cl/publicaciones/2026/06/24/44483/07/2828414.pdf", "archivo": "gm_pedimento_2828414.pdf", "fecha": "24-06-2026", "edicion": "44483" }, "geometry": { "type": "Polygon", "coordinates": [ [ [ -70.602991076740651, -28.299071723900372 ], [ -70.59279615193347, -28.299191040766793 ], [ -70.593199567203527, -28.326261173212991 ], [ -70.603397071441506, -28.326141721885428 ], [ -70.602991076740651, -28.299071723900372 ] ] ] } },
{ "type": "Feature", "properties": { "cve": "2828415", "nombre": "APUESTAS COBALTO 4", "solicitante": "Exploraciones Mineras Apuestas SpA", "region": "REGIÓN DE ATACAMA", "provincia": "Provincia de Huasco", "comuna": null, "superficie_ha": 300.0, "datum_original": "PSAD56", "huso": 19, "epsg_origen": 24879, "tipo_publicacion": "pedimento", "fuente_pdf": "http://www.diariooficial.interior.gob.cl/publicaciones/2026/06/24/44483/07/2828415.pdf", "archivo": "gm_pedimento_2828415.pdf", "fecha": "24-06-2026", "edicion": "44483" }, "geometry": { "type": "Polygon", "coordinates": [ [ [ -70.59279615193347, -28.299191040766793 ], [ -70.582601165147494, -28.299309597010403 ], [ -70.583002000919961, -28.326379863060883 ], [ -70.593199567203527, -28.326261173212991 ], [ -70.59279615193347, -28.299191040766793 ] ] ] } },
{ "type": "Feature", "properties": { "cve": "2828416", "nombre": "APUESTAS COBALTO 5", "solicitante": "Exploraciones Mineras Apuestas SpA", "region": "REGIÓN DE ATACAMA", "provincia": "Provincia de Huasco", "comuna": null, "superficie_ha": 200.0, "datum_original": "PSAD56", "huso": 19, "epsg_origen": 24879, "tipo_publicacion": "pedimento", "fuente_pdf": "http://www.diariooficial.interior.gob.cl/publicaciones/2026/06/24/44483/07/2828416.pdf", "archivo": "gm_pedimento_2828416.pdf", "fecha": "24-06-2026", "edicion": "44483" }, "geometry": { "type": "Polygon", "coordinates": [ [ [ -70.623791892194689, -28.325900534860089 ], [ -70.603397071441506, -28.326141721885428 ], [ -70.603532527863251, -28.335165029297702 ], [ -70.623929069755107, -28.334923751744981 ], [ -70.623791892194689, -28.325900534860089 ] ] ] } },
{ "type": "Feature", "properties": { "cve": "2828417", "nombre": "APUESTAS COBALTO 6", "solicitante": "Exploraciones Mineras Apuestas SpA", "region": "REGIÓN DE ATACAMA", "provincia": "Provincia de Huasco", "comuna": null, "superficie_ha": 200.0, "datum_original": "PSAD56", "huso": 19, "epsg_origen": 24879, "tipo_publicacion": "pedimento", "fuente_pdf": "http://www.diariooficial.interior.gob.cl/publicaciones/2026/06/24/44483/07/2828417.pdf", "archivo": "gm_pedimento_2828417.pdf", "fecha": "24-06-2026", "edicion": "44483" }, "geometry": { "type": "Polygon", "coordinates": [ [ [ -70.603397071441506, -28.326141721885428 ], [ -70.583002000919961, -28.326379863060883 ], [ -70.583135736113306, -28.335403259857731 ], [ -70.603532527863251, -28.335165029297702 ], [ -70.603397071441506, -28.326141721885428 ] ] ] } },
{ "type": "Feature", "properties": { "cve": "2828418", "nombre": "APUESTAS COBALTO 7", "solicitante": "Exploraciones Mineras Apuestas SpA", "region": "REGIÓN DE ATACAMA", "provincia": "Provincia de Huasco", "comuna": null, "superficie_ha": 200.0, "datum_original": "PSAD56", "huso": 19, "epsg_origen": 24879, "tipo_publicacion": "pedimento", "fuente_pdf": "http://www.diariooficial.interior.gob.cl/publicaciones/2026/06/24/44483/07/2828418.pdf", "archivo": "gm_pedimento_2828418.pdf", "fecha": "24-06-2026", "edicion": "44483" }, "geometry": { "type": "Polygon", "coordinates": [ [ [ -70.623929069755107, -28.334923751744981 ], [ -70.603532527863251, -28.335165029297702 ], [ -70.60366804674976, -28.344188324080637 ], [ -70.624066310573539, -28.343946955985597 ], [ -70.623929069755107, -28.334923751744981 ] ] ] } },
{ "type": "Feature", "properties": { "cve": "2828419", "nombre": "APUESTAS COBALTO 8", "solicitante": "Exploraciones Mineras Apuestas SpA", "region": "REGIÓN DE ATACAMA", "provincia": "Provincia de Huasco", "comuna": null, "superficie_ha": 200.0, "datum_original": "PSAD56", "huso": 19, "epsg_origen": 24879, "tipo_publicacion": "pedimento", "fuente_pdf": "http://www.diariooficial.interior.gob.cl/publicaciones/2026/06/24/44483/07/2828419.pdf", "archivo": "gm_pedimento_2828419.pdf", "fecha": "24-06-2026", "edicion": "44483" }, "geometry": { "type": "Polygon", "coordinates": [ [ [ -70.618966768223785, -28.344007583764505 ], [ -70.608767636262314, -28.344128267814202 ], [ -70.609039723097581, -28.362174774412978 ], [ -70.619240578181405, -28.362053999798594 ], [ -70.618966768223785, -28.344007583764505 ] ] ] } },
{ "type": "Feature", "properties": { "cve": "2828404", "nombre": "LOS WARBOS 12", "solicitante": "FMR Chile Exploration SpA", "region": "REGIÓN DE COQUIMBO", "provincia": "Provincia de Limarí", "comuna": null, "superficie_ha": 300.0, "datum_original": "PSAD56", "huso": 19, "epsg_origen": 24879, "tipo_publicacion": "pedimento", "fuente_pdf": "http://www.diariooficial.interior.gob.cl/publicaciones/2026/06/24/44483/07/2828404.pdf", "archivo": "gm_pedimento_2828404.pdf", "fecha": "24-06-2026", "edicion": "44483" }, "geometry": { "type": "Polygon", "coordinates": [ [ [ -70.473818077978734, -30.673769975538516 ], [ -70.463381990876272, -30.67388794380987 ], [ -70.463790248748595, -30.700949973933977 ], [ -70.474229244775174, -30.700831879290615 ], [ -70.473818077978734, -30.673769975538516 ] ] ] } },
{ "type": "Feature", "properties": { "cve": "2828405", "nombre": "LOS WARBOS 17", "solicitante": "FMR Chile Exploration SpA", "region": "REGIÓN DE COQUIMBO", "provincia": "Provincia de Limarí", "comuna": null, "superficie_ha": 300.0, "datum_original": "PSAD56", "huso": 19, "epsg_origen": 24879, "tipo_publicacion": "pedimento", "fuente_pdf": "http://www.diariooficial.interior.gob.cl/publicaciones/2026/06/24/44483/07/2828405.pdf", "archivo": "gm_pedimento_2828405.pdf", "fecha": "24-06-2026", "edicion": "44483" }, "geometry": { "type": "Polygon", "coordinates": [ [ [ -70.495107050745546, -30.700593174224323 ], [ -70.484668178920003, -30.700712946048181 ], [ -70.485082815444798, -30.727774603737359 ], [ -70.49552459998813, -30.727654703677445 ], [ -70.495107050745546, -30.700593174224323 ] ] ] } },
{ "type": "Feature", "properties": { "cve": "2828406", "nombre": "LOS WARBOS 18", "solicitante": "FMR Chile Exploration SpA", "region": "REGIÓN DE COQUIMBO", "provincia": "Provincia de Limarí", "comuna": null, "superficie_ha": 300.0, "datum_original": "PSAD56", "huso": 19, "epsg_origen": 24879, "tipo_publicacion": "pedimento", "fuente_pdf": "http://www.diariooficial.interior.gob.cl/publicaciones/2026/06/24/44483/07/2828406.pdf", "archivo": "gm_pedimento_2828406.pdf", "fecha": "24-06-2026", "edicion": "44483" }, "geometry": { "type": "Polygon", "coordinates": [ [ [ -70.484668178920003, -30.700712946048181 ], [ -70.474229244775174, -30.700831879290615 ], [ -70.474640968509689, -30.727893664318316 ], [ -70.485082815444798, -30.727774603737359 ], [ -70.484668178920003, -30.700712946048181 ] ] ] } },
{ "type": "Feature", "properties": { "cve": "2828400", "nombre": "LOS WARBOS 3", "solicitante": "FMR Chile Exploration SpA", "region": "REGIÓN DE COQUIMBO", "provincia": "Provincia de Limarí", "comuna": null, "superficie_ha": 300.0, "datum_original": "PSAD56", "huso": 19, "epsg_origen": 24879, "tipo_publicacion": "pedimento", "fuente_pdf": "http://www.diariooficial.interior.gob.cl/publicaciones/2026/06/24/44483/07/2828400.pdf", "archivo": "gm_pedimento_2828400.pdf", "fecha": "24-06-2026", "edicion": "44483" }, "geometry": { "type": "Polygon", "coordinates": [ [ [ -70.613428145802814, -30.627001444176688 ], [ -70.602997764422724, -30.627130447466524 ], [ -70.603444132786777, -30.654190902010484 ], [ -70.61387741553267, -30.654061760410816 ], [ -70.613428145802814, -30.627001444176688 ] ] ] } },
{ "type": "Feature", "properties": { "cve": "2828401", "nombre": "LOS WARBOS 6", "solicitante": "FMR Chile Exploration SpA", "region": "REGIÓN DE COQUIMBO", "provincia": "Provincia de Limarí", "comuna": null, "superficie_ha": 300.0, "datum_original": "PSAD56", "huso": 19, "epsg_origen": 24879, "tipo_publicacion": "pedimento", "fuente_pdf": "http://www.diariooficial.interior.gob.cl/publicaciones/2026/06/24/44483/07/2828401.pdf", "archivo": "gm_pedimento_2828401.pdf", "fecha": "24-06-2026", "edicion": "44483" }, "geometry": { "type": "Polygon", "coordinates": [ [ [ -70.582136800738226, -30.627385946086385 ], [ -70.571706219305881, -30.627512441378524 ], [ -70.572143883107358, -30.654573305476337 ], [ -70.582577366137585, -30.654446674562188 ], [ -70.582136800738226, -30.627385946086385 ] ] ] } },
{ "type": "Feature", "properties": { "cve": "2828402", "nombre": "LOS WARBOS 7", "solicitante": "FMR Chile Exploration SpA", "region": "REGIÓN DE COQUIMBO", "provincia": "Provincia de Limarí", "comuna": null, "superficie_ha": 300.0, "datum_original": "PSAD56", "huso": 19, "epsg_origen": 24879, "tipo_publicacion": "pedimento", "fuente_pdf": "http://www.diariooficial.interior.gob.cl/publicaciones/2026/06/24/44483/07/2828402.pdf", "archivo": "gm_pedimento_2828402.pdf", "fecha": "24-06-2026", "edicion": "44483" }, "geometry": { "type": "Polygon", "coordinates": [ [ [ -70.571706219305881, -30.627512441378524 ], [ -70.561275572061518, -30.627638100633813 ], [ -70.56171033418876, -30.654699099457567 ], [ -70.572143883107358, -30.654573305476337 ], [ -70.571706219305881, -30.627512441378524 ] ] ] } },
{ "type": "Feature", "properties": { "cve": "2829860", "nombre": "DESQUITE UNO", "solicitante": "Compañía Minera La Patagua S.A.", "region": "REGIÓN DE VALPARAÍSO", "provincia": "Provincia de Petorca", "comuna": null, "superficie_ha": 100.0, "datum_original": "PSAD56", "huso": 19, "epsg_origen": 24879, "tipo_publicacion": "pedimento", "fuente_pdf": "http://www.diariooficial.interior.gob.cl/publicaciones/2026/06/24/44483/07/2829860.pdf", "archivo": "gm_pedimento_2829860.pdf", "fecha": "24-06-2026", "edicion": "44483" }, "geometry": { "type": "Polygon", "coordinates": [ [ [ -71.168554208823863, -32.522029797485501 ], [ -71.157914086452493, -32.522212846770195 ], [ -71.158129661912554, -32.531227438542025 ], [ -71.168770845205174, -32.53104432606797 ], [ -71.168554208823863, -32.522029797485501 ] ] ] } },
{ "type": "Feature", "properties": { "cve": "2828296", "nombre": "STELLA NOVA", "solicitante": "Stella Nova II SpA", "region": "REGIÓN DE LA ARAUCANÍA", "provincia": "Provincia de Cautín", "comuna": null, "superficie_ha": 100.0, "datum_original": "WGS84", "huso": 18, "epsg_origen": 32718, "tipo_publicacion": "pedimento", "fuente_pdf": "http://www.diariooficial.interior.gob.cl/publicaciones/2026/06/24/44483/07/2828296.pdf", "archivo": "gm_pedimento_2828296.pdf", "fecha": "24-06-2026", "edicion": "44483" }, "geometry": { "type": "Polygon", "coordinates": [ [ [ -72.447989778058243, -38.652882754761698 ], [ -72.436508773368644, -38.652631560472784 ], [ -72.436187647289813, -38.661634405933583 ], [ -72.447670086378182, -38.661885680633894 ], [ -72.447989778058243, -38.652882754761698 ] ] ] } },
{ "type": "Feature", "properties": { "cve": "2828320", "nombre": "SE-1", "solicitante": "Inversiones VerdeRoca SpA", "region": "REGIÓN DE LOS RÍOS", "provincia": "Provincia de Valdivia", "comuna": null, "superficie_ha": 200.0, "datum_original": "PSAD56", "huso": 18, "epsg_origen": 24878, "tipo_publicacion": "pedimento", "fuente_pdf": "http://www.diariooficial.interior.gob.cl/publicaciones/2026/06/24/44483/07/2828320.pdf", "archivo": "gm_pedimento_2828320.pdf", "fecha": "24-06-2026", "edicion": "44483" }, "geometry": { "type": "Polygon", "coordinates": [ [ [ -72.931721911497775, -39.464803426348581 ], [ -72.90848765890577, -39.464387749049067 ], [ -72.908217965473682, -39.47339232471073 ], [ -72.931455208806653, -39.473808134300533 ], [ -72.931721911497775, -39.464803426348581 ] ] ] } },
{ "type": "Feature", "properties": { "cve": "2828321", "nombre": "SE-2", "solicitante": "Inversiones VerdeRoca SpA", "region": "REGIÓN DE LOS RÍOS", "provincia": "Provincia de Valdivia", "comuna": null, "superficie_ha": 200.0, "datum_original": "PSAD56", "huso": 18, "epsg_origen": 24878, "tipo_publicacion": "pedimento", "fuente_pdf": "http://www.diariooficial.interior.gob.cl/publicaciones/2026/06/24/44483/07/2828321.pdf", "archivo": "gm_pedimento_2828321.pdf", "fecha": "24-06-2026", "edicion": "44483" }, "geometry": { "type": "Polygon", "coordinates": [ [ [ -72.930699990842541, -39.473794693427983 ], [ -72.907462763158733, -39.47337873306121 ], [ -72.90719285146163, -39.48238328877116 ], [ -72.930433071218744, -39.482799381509786 ], [ -72.930699990842541, -39.473794693427983 ] ] ] } },
{ "type": "Feature", "properties": { "cve": "2828322", "nombre": "SE-3", "solicitante": "Inversiones VerdeRoca SpA", "region": "REGIÓN DE LOS RÍOS", "provincia": "Provincia de Valdivia", "comuna": null, "superficie_ha": 100.0, "datum_original": "PSAD56", "huso": 18, "epsg_origen": 24878, "tipo_publicacion": "pedimento", "fuente_pdf": "http://www.diariooficial.interior.gob.cl/publicaciones/2026/06/24/44483/07/2828322.pdf", "archivo": "gm_pedimento_2828322.pdf", "fecha": "24-06-2026", "edicion": "44483" }, "geometry": { "type": "Polygon", "coordinates": [ [ [ -72.907406901376291, -39.475242677375881 ], [ -72.895788159198631, -39.47503294368213 ], [ -72.895516726347012, -39.484037429414464 ], [ -72.907136964610231, -39.484247229850681 ], [ -72.907406901376291, -39.475242677375881 ] ] ] } },
{ "type": "Feature", "properties": { "cve": "2828323", "nombre": "SE-4", "solicitante": "Inversiones VerdeRoca SpA", "region": "REGIÓN DE LOS RÍOS", "provincia": "Provincia de Valdivia", "comuna": null, "superficie_ha": 200.0, "datum_original": "PSAD56", "huso": 18, "epsg_origen": 24878, "tipo_publicacion": "pedimento", "fuente_pdf": "http://www.diariooficial.interior.gob.cl/publicaciones/2026/06/24/44483/07/2828323.pdf", "archivo": "gm_pedimento_2828323.pdf", "fecha": "24-06-2026", "edicion": "44483" }, "geometry": { "type": "Polygon", "coordinates": [ [ [ -72.934732564555176, -39.482875849973787 ], [ -72.911492255749607, -39.482460615780973 ], [ -72.911222776686159, -39.491465180467863 ], [ -72.93446607894991, -39.49188054679329 ], [ -72.934732564555176, -39.482875849973787 ] ] ] } }
]
}
