{
"type": "FeatureCollection",
"name": "boletin_mineria_20260730",
"crs": { "type": "name", "properties": { "name": "urn:ogc:def:crs:OGC:1.3:CRS84" } },
"features": [
{ "type": "Feature", "properties": { "cve": "2845539", "nombre": "JUPO, 1 AL 20", "solicitante": "Tapia Tapia Juan Manuel", "region": "REGIÓN DE ARICA Y PARINACOTA", "provincia": "Provincia de Arica", "comuna": null, "superficie_ha": 100.0, "datum_original": "WGS84", "huso": 19, "epsg_origen": 32719, "tipo_publicacion": "manifestacion", "fuente_pdf": "http://www.diariooficial.interior.gob.cl/publicaciones/2026/07/30/44512/07/2845539.pdf", "archivo": "gm_manifestacion_2845539.pdf", "fecha": "30-07-2026", "edicion": "44512" }, "geometry": { "type": "Polygon", "coordinates": [ [ [ -70.263259564892806, -18.780381350462314 ], [ -70.253773046245669, -18.780445257262684 ], [ -70.253839907847464, -18.789480976363517 ], [ -70.263326932067912, -18.789417036578698 ], [ -70.263259564892806, -18.780381350462314 ] ] ] } },
{ "type": "Feature", "properties": { "cve": "2845377", "nombre": "LA CHILA 1 AL 20", "solicitante": "Tello Herrera Iván Ignacio", "region": "REGIÓN DE COQUIMBO", "provincia": "Provincia de Elqui", "comuna": null, "superficie_ha": 20.0, "datum_original": "PSAD56", "huso": 19, "epsg_origen": 24879, "tipo_publicacion": "manifestacion", "fuente_pdf": "http://www.diariooficial.interior.gob.cl/publicaciones/2026/07/30/44512/07/2845377.pdf", "archivo": "gm_manifestacion_2845377.pdf", "fecha": "30-07-2026", "edicion": "44512" }, "geometry": { "type": "Polygon", "coordinates": [ [ [ -71.100304625531123, -30.200434794691265 ], [ -71.096151729562905, -30.200501268365485 ], [ -71.096247305589969, -30.205010391327413 ], [ -71.100400390574379, -30.204943905680047 ], [ -71.100304625531123, -30.200434794691265 ] ] ] } },
{ "type": "Feature", "properties": { "cve": "2845532", "nombre": "LA BELÉN 1", "solicitante": "Rojas Fernandoy Gustavo Antonio", "region": "REGIÓN DE COQUIMBO", "provincia": "Provincia de Limarí", "comuna": null, "superficie_ha": 1.0, "datum_original": "PSAD56", "huso": 19, "epsg_origen": 24879, "tipo_publicacion": "manifestacion", "fuente_pdf": "http://www.diariooficial.interior.gob.cl/publicaciones/2026/07/30/44512/07/2845532.pdf", "archivo": "gm_manifestacion_2845532.pdf", "fecha": "30-07-2026", "edicion": "44512" }, "geometry": { "type": "Polygon", "coordinates": [ [ [ -71.160608109823968, -30.770506030224244 ], [ -71.159563860066044, -30.77052342844452 ], [ -71.159584004184239, -30.771425136639618 ], [ -71.160628263664293, -30.771407737799628 ], [ -71.160608109823968, -30.770506030224244 ] ] ] } },
{ "type": "Feature", "properties": { "cve": "2845548", "nombre": "SANTA MARTA 2 DEL 1 AL 300", "solicitante": "Consorcio Santa Marta S.A.", "region": "REGIÓN METROPOLITANA DE SANTIAGO", "provincia": "Provincia de Talagante", "comuna": null, "superficie_ha": 300.0, "datum_original": "PSAD56", "huso": 19, "epsg_origen": 24879, "tipo_publicacion": "manifestacion", "fuente_pdf": "http://www.diariooficial.interior.gob.cl/publicaciones/2026/07/30/44512/07/2845548.pdf", "archivo": "gm_manifestacion_2845548.pdf", "fecha": "30-07-2026", "edicion": "44512" }, "geometry": { "type": "Polygon", "coordinates": [ [ [ -70.808836056270763, -33.676656034033897 ], [ -70.798053558816363, -33.676813412808706 ], [ -70.798616962256034, -33.703857980454472 ], [ -70.809402833826752, -33.703700441562937 ], [ -70.808836056270763, -33.676656034033897 ] ] ] } },
{ "type": "Feature", "properties": { "cve": "2845324", "nombre": "COTI 14C 1 AL 3", "solicitante": "Quilleco SpA", "region": "REGIÓN DEL BIOBÍO", "provincia": "Provincia de Biobío", "comuna": null, "superficie_ha": 3.0, "datum_original": "PSAD56", "huso": 18, "epsg_origen": 24878, "tipo_publicacion": "manifestacion", "fuente_pdf": "http://www.diariooficial.interior.gob.cl/publicaciones/2026/07/30/44512/07/2845324.pdf", "archivo": "gm_manifestacion_2845324.pdf", "fecha": "30-07-2026", "edicion": "44512" }, "geometry": { "type": "Polygon", "coordinates": [ [ [ -72.037746924196128, -37.256257854143868 ], [ -72.034368388209174, -37.256173212394316 ], [ -72.034333070624484, -37.257073404553907 ], [ -72.037711646702704, -37.257158049046183 ], [ -72.037746924196128, -37.256257854143868 ] ] ] } },
{ "type": "Feature", "properties": { "cve": "2845325", "nombre": "COTI 17D 1 AL 54", "solicitante": "Quilleco SpA", "region": "REGIÓN DEL BIOBÍO", "provincia": "Provincia de Biobío", "comuna": null, "superficie_ha": 54.0, "datum_original": "PSAD56", "huso": 18, "epsg_origen": 24878, "tipo_publicacion": "manifestacion", "fuente_pdf": "http://www.diariooficial.interior.gob.cl/publicaciones/2026/07/30/44512/07/2845325.pdf", "archivo": "gm_manifestacion_2845325.pdf", "fecha": "30-07-2026", "edicion": "44512" }, "geometry": { "type": "Polygon", "coordinates": [ [ [ -72.090279969426732, -37.297209364676718 ], [ -72.083518931225157, -37.297042827459101 ], [ -72.083205818410136, -37.305144852539307 ], [ -72.08996757997447, -37.305311438312401 ], [ -72.090279969426732, -37.297209364676718 ] ] ] } },
{ "type": "Feature", "properties": { "cve": "2845326", "nombre": "COTI 18C 1 AL 189", "solicitante": "Quilleco SpA", "region": "REGIÓN DEL BIOBÍO", "provincia": "Provincia de Biobío", "comuna": null, "superficie_ha": 189.0, "datum_original": "PSAD56", "huso": 18, "epsg_origen": 24878, "tipo_publicacion": "manifestacion", "fuente_pdf": "http://www.diariooficial.interior.gob.cl/publicaciones/2026/07/30/44512/07/2845326.pdf", "archivo": "gm_manifestacion_2845326.pdf", "fecha": "30-07-2026", "edicion": "44512" }, "geometry": { "type": "Polygon", "coordinates": [ [ [ -72.057067455701045, -37.25223461852071 ], [ -72.033418843870024, -37.251644018367024 ], [ -72.033100879468478, -37.259745741070248 ], [ -72.056752017047927, -37.260336513489783 ], [ -72.057067455701045, -37.25223461852071 ] ] ] } },
{ "type": "Feature", "properties": { "cve": "2845327", "nombre": "COTI 20C 1 AL 90", "solicitante": "Quilleco SpA", "region": "REGIÓN DEL BIOBÍO", "provincia": "Provincia de Biobío", "comuna": null, "superficie_ha": 90.0, "datum_original": "PSAD56", "huso": 18, "epsg_origen": 24878, "tipo_publicacion": "manifestacion", "fuente_pdf": "http://www.diariooficial.interior.gob.cl/publicaciones/2026/07/30/44512/07/2845327.pdf", "archivo": "gm_manifestacion_2845327.pdf", "fecha": "30-07-2026", "edicion": "44512" }, "geometry": { "type": "Polygon", "coordinates": [ [ [ -72.068695390806568, -37.243061876558677 ], [ -72.058561309271781, -37.242810387373751 ], [ -72.058211111241718, -37.251812518607657 ], [ -72.068346395085513, -37.25206408930687 ], [ -72.068695390806568, -37.243061876558677 ] ] ] } },
{ "type": "Feature", "properties": { "cve": "2845328", "nombre": "COTI 23C 1 AL 190", "solicitante": "Quilleco SpA", "region": "REGIÓN DEL BIOBÍO", "provincia": "Provincia de Biobío", "comuna": null, "superficie_ha": 190.0, "datum_original": "PSAD56", "huso": 18, "epsg_origen": 24878, "tipo_publicacion": "manifestacion", "fuente_pdf": "http://www.diariooficial.interior.gob.cl/publicaciones/2026/07/30/44512/07/2845328.pdf", "archivo": "gm_manifestacion_2845328.pdf", "fecha": "30-07-2026", "edicion": "44512" }, "geometry": { "type": "Polygon", "coordinates": [ [ [ -72.064540713771038, -37.233948017293429 ], [ -72.043149344885222, -37.233415440666697 ], [ -72.04279743318726, -37.242417461207197 ], [ -72.064191339031993, -37.242950210470489 ], [ -72.064540713771038, -37.233948017293429 ] ] ] } },
{ "type": "Feature", "properties": { "cve": "2845329", "nombre": "COTI 24C 1 AL 90", "solicitante": "Quilleco SpA", "region": "REGIÓN DEL BIOBÍO", "provincia": "Provincia de Biobío", "comuna": null, "superficie_ha": 90.0, "datum_original": "PSAD56", "huso": 18, "epsg_origen": 24878, "tipo_publicacion": "manifestacion", "fuente_pdf": "http://www.diariooficial.interior.gob.cl/publicaciones/2026/07/30/44512/07/2845329.pdf", "archivo": "gm_manifestacion_2845329.pdf", "fecha": "30-07-2026", "edicion": "44512" }, "geometry": { "type": "Polygon", "coordinates": [ [ [ -72.050237863716873, -37.225032052596802 ], [ -72.038980648998859, -37.224750927523381 ], [ -72.03866358878804, -37.232852728158768 ], [ -72.049922004635263, -37.233133935252653 ], [ -72.050237863716873, -37.225032052596802 ] ] ] } },
{ "type": "Feature", "properties": { "cve": "2845321", "nombre": "COTI 7D 1 AL 14", "solicitante": "Quilleco SpA", "region": "REGIÓN DEL BIOBÍO", "provincia": "Provincia de Biobío", "comuna": null, "superficie_ha": 14.0, "datum_original": "PSAD56", "huso": 18, "epsg_origen": 24878, "tipo_publicacion": "manifestacion", "fuente_pdf": "http://www.diariooficial.interior.gob.cl/publicaciones/2026/07/30/44512/07/2845321.pdf", "archivo": "gm_manifestacion_2845321.pdf", "fecha": "30-07-2026", "edicion": "44512" }, "geometry": { "type": "Polygon", "coordinates": [ [ [ -72.109097205823971, -37.276495213937139 ], [ -72.101211363207085, -37.276302228056153 ], [ -72.10114226692113, -37.278102713911821 ], [ -72.109028296867677, -37.278295712298295 ], [ -72.109097205823971, -37.276495213937139 ] ] ] } },
{ "type": "Feature", "properties": { "cve": "2845322", "nombre": "COTI 8 D 1 AL 300", "solicitante": "Quilleco SpA", "region": "REGIÓN DEL BIOBÍO", "provincia": "Provincia de Biobío", "comuna": null, "superficie_ha": 300.0, "datum_original": "PSAD56", "huso": 18, "epsg_origen": 24878, "tipo_publicacion": "manifestacion", "fuente_pdf": "http://www.diariooficial.interior.gob.cl/publicaciones/2026/07/30/44512/07/2845322.pdf", "archivo": "gm_manifestacion_2845322.pdf", "fecha": "30-07-2026", "edicion": "44512" }, "geometry": { "type": "Polygon", "coordinates": [ [ [ -72.044767772610015, -37.278509860949711 ], [ -72.010972892627407, -37.277660684682367 ], [ -72.010616585134287, -37.286662374117121 ], [ -72.044415479257651, -37.287511825519672 ], [ -72.044767772610015, -37.278509860949711 ] ] ] } },
{ "type": "Feature", "properties": { "cve": "2845316", "nombre": "MAIRA 1 AL 45", "solicitante": "Aliaga Marillán Erwin Orlando", "region": "REGIÓN DE COQUIMBO", "provincia": "Provincia de Limarí", "comuna": null, "superficie_ha": 225.0, "datum_original": "PSAD56", "huso": 19, "epsg_origen": 24879, "tipo_publicacion": "mensura", "fuente_pdf": "http://www.diariooficial.interior.gob.cl/publicaciones/2026/07/30/44512/07/2845316.pdf", "archivo": "gm_mensura_2845316.pdf", "fecha": "30-07-2026", "edicion": "44512" }, "geometry": { "type": "Polygon", "coordinates": [ [ [ -70.689946065476121, -30.797441886377626 ], [ -70.674273537928514, -30.797645291349539 ], [ -70.674508146836757, -30.811174691948363 ], [ -70.690182867973164, -30.81097117831516 ], [ -70.689946065476121, -30.797441886377626 ] ] ] } },
{ "type": "Feature", "properties": { "cve": "2845544", "nombre": "SAN EUGENIA 1", "solicitante": "Sociedad Volcania Minerals SpA", "region": "REGIÓN METROPOLITANA DE SANTIAGO", "provincia": "Provincia de Melipilla", "comuna": null, "superficie_ha": 300.0, "datum_original": "PSAD56", "huso": 19, "epsg_origen": 24879, "tipo_publicacion": "pedimento", "fuente_pdf": "http://www.diariooficial.interior.gob.cl/publicaciones/2026/07/30/44512/07/2845544.pdf", "archivo": "gm_pedimento_2845544.pdf", "fecha": "30-07-2026", "edicion": "44512" }, "geometry": { "type": "Polygon", "coordinates": [ [ [ -71.059974859742212, -33.805273953666983 ], [ -71.027583565035812, -33.805810776634807 ], [ -71.027796269201062, -33.814824246790515 ], [ -71.060190956111384, -33.81428724217831 ], [ -71.059974859742212, -33.805273953666983 ] ] ] } },
{ "type": "Feature", "properties": { "cve": "2845417", "nombre": "CUPRITA 02", "solicitante": "Fürst Gwinner Paul Javier", "region": "REGIÓN DEL LIBERTADOR GENERAL BERNARDO O’HIGGINS", "provincia": "Provincia de Cachapoal", "comuna": null, "superficie_ha": 300.0, "datum_original": "PSAD56", "huso": 19, "epsg_origen": 24879, "tipo_publicacion": "pedimento", "fuente_pdf": "http://www.diariooficial.interior.gob.cl/publicaciones/2026/07/30/44512/07/2845417.pdf", "archivo": "gm_pedimento_2845417.pdf", "fecha": "30-07-2026", "edicion": "44512" }, "geometry": { "type": "Polygon", "coordinates": [ [ [ -70.547995084959908, -34.461115941282578 ], [ -70.537111309511488, -34.461253295075039 ], [ -70.537607372630845, -34.4882979785448 ], [ -70.548494657129041, -34.488160486552182 ], [ -70.547995084959908, -34.461115941282578 ] ] ] } },
{ "type": "Feature", "properties": { "cve": "2845418", "nombre": "CUPRITA 08", "solicitante": "Fürst Gwinner Paul Javier", "region": "REGIÓN DEL LIBERTADOR GENERAL BERNARDO O’HIGGINS", "provincia": "Provincia de Cachapoal", "comuna": null, "superficie_ha": 300.0, "datum_original": "PSAD56", "huso": 19, "epsg_origen": 24879, "tipo_publicacion": "pedimento", "fuente_pdf": "http://www.diariooficial.interior.gob.cl/publicaciones/2026/07/30/44512/07/2845418.pdf", "archivo": "gm_pedimento_2845418.pdf", "fecha": "30-07-2026", "edicion": "44512" }, "geometry": { "type": "Polygon", "coordinates": [ [ [ -70.626280142539528, -34.568300786186931 ], [ -70.615382833953461, -34.568445498979955 ], [ -70.615906240884357, -34.595488683579219 ], [ -70.626807076570245, -34.595343825400754 ], [ -70.626280142539528, -34.568300786186931 ] ] ] } },
{ "type": "Feature", "properties": { "cve": "2845419", "nombre": "CUPRITA 21", "solicitante": "Fürst Gwinner Paul Javier", "region": "REGIÓN DEL LIBERTADOR GENERAL BERNARDO O’HIGGINS", "provincia": "Provincia de Cachapoal", "comuna": null, "superficie_ha": 300.0, "datum_original": "PSAD56", "huso": 19, "epsg_origen": 24879, "tipo_publicacion": "pedimento", "fuente_pdf": "http://www.diariooficial.interior.gob.cl/publicaciones/2026/07/30/44512/07/2845419.pdf", "archivo": "gm_pedimento_2845419.pdf", "fecha": "30-07-2026", "edicion": "44512" }, "geometry": { "type": "Polygon", "coordinates": [ [ [ -70.548494657129041, -34.488160486552182 ], [ -70.537607372630845, -34.4882979785448 ], [ -70.538104097291097, -34.515342534967267 ], [ -70.548994895515364, -34.515204904686904 ], [ -70.548494657129041, -34.488160486552182 ] ] ] } },
{ "type": "Feature", "properties": { "cve": "2845420", "nombre": "CUPRITA 26", "solicitante": "Fürst Gwinner Paul Javier", "region": "REGIÓN DEL LIBERTADOR GENERAL BERNARDO O’HIGGINS", "provincia": "Provincia de Cachapoal", "comuna": null, "superficie_ha": 200.0, "datum_original": "PSAD56", "huso": 19, "epsg_origen": 24879, "tipo_publicacion": "pedimento", "fuente_pdf": "http://www.diariooficial.interior.gob.cl/publicaciones/2026/07/30/44512/07/2845420.pdf", "archivo": "gm_pedimento_2845420.pdf", "fecha": "30-07-2026", "edicion": "44512" }, "geometry": { "type": "Polygon", "coordinates": [ [ [ -70.60379335168966, -34.532531268886046 ], [ -70.592900584508442, -34.532673846209988 ], [ -70.59324413207581, -34.550702955477888 ], [ -70.604139246098825, -34.550560282623032 ], [ -70.60379335168966, -34.532531268886046 ] ] ] } },
{ "type": "Feature", "properties": { "cve": "2845254", "nombre": "Fernanda 1", "solicitante": "Piro Vergara Alejandra Carolina", "region": "REGIÓN DEL MAULE", "provincia": "Provincia de Cauquenes", "comuna": null, "superficie_ha": 300.0, "datum_original": "PSAD56", "huso": 18, "epsg_origen": 24878, "tipo_publicacion": "pedimento", "fuente_pdf": "http://www.diariooficial.interior.gob.cl/publicaciones/2026/07/30/44512/07/2845254.pdf", "archivo": "gm_pedimento_2845254.pdf", "fecha": "30-07-2026", "edicion": "44512" }, "geometry": { "type": "Polygon", "coordinates": [ [ [ -72.401697550885928, -35.917281965898979 ], [ -72.368481387523232, -35.916558149041911 ], [ -72.368182838393921, -35.925564565686194 ], [ -72.401402759766199, -35.926288620620404 ], [ -72.401697550885928, -35.917281965898979 ] ] ] } },
{ "type": "Feature", "properties": { "cve": "2845263", "nombre": "Fernanda 10", "solicitante": "Piro Vergara Alejandra Carolina", "region": "REGIÓN DEL MAULE", "provincia": "Provincia de Cauquenes", "comuna": null, "superficie_ha": 300.0, "datum_original": "PSAD56", "huso": 18, "epsg_origen": 24878, "tipo_publicacion": "pedimento", "fuente_pdf": "http://www.diariooficial.interior.gob.cl/publicaciones/2026/07/30/44512/07/2845263.pdf", "archivo": "gm_pedimento_2845263.pdf", "fecha": "30-07-2026", "edicion": "44512" }, "geometry": { "type": "Polygon", "coordinates": [ [ [ -72.432088338682618, -35.953988510955845 ], [ -72.398856012710084, -35.953272470115238 ], [ -72.398560509616331, -35.962279050049872 ], [ -72.43179660076521, -35.962995326314164 ], [ -72.432088338682618, -35.953988510955845 ] ] ] } },
{ "type": "Feature", "properties": { "cve": "2845264", "nombre": "Fernanda 11", "solicitante": "Piro Vergara Alejandra Carolina", "region": "REGIÓN DEL MAULE", "provincia": "Provincia de Cauquenes", "comuna": null, "superficie_ha": 300.0, "datum_original": "PSAD56", "huso": 18, "epsg_origen": 24878, "tipo_publicacion": "pedimento", "fuente_pdf": "http://www.diariooficial.interior.gob.cl/publicaciones/2026/07/30/44512/07/2845264.pdf", "archivo": "gm_pedimento_2845264.pdf", "fecha": "30-07-2026", "edicion": "44512" }, "geometry": { "type": "Polygon", "coordinates": [ [ [ -72.398856012710084, -35.953272470115238 ], [ -72.365624866672619, -35.952547241255111 ], [ -72.365325598933879, -35.961553582749474 ], [ -72.398560509616331, -35.962279050049872 ], [ -72.398856012710084, -35.953272470115238 ] ] ] } },
{ "type": "Feature", "properties": { "cve": "2845265", "nombre": "Fernanda 12", "solicitante": "Piro Vergara Alejandra Carolina", "region": "REGIÓN DEL MAULE", "provincia": "Provincia de Cauquenes", "comuna": null, "superficie_ha": 300.0, "datum_original": "PSAD56", "huso": 18, "epsg_origen": 24878, "tipo_publicacion": "pedimento", "fuente_pdf": "http://www.diariooficial.interior.gob.cl/publicaciones/2026/07/30/44512/07/2845265.pdf", "archivo": "gm_pedimento_2845265.pdf", "fecha": "30-07-2026", "edicion": "44512" }, "geometry": { "type": "Polygon", "coordinates": [ [ [ -72.465033857370742, -35.963702410506244 ], [ -72.43179660076521, -35.962995326314164 ], [ -72.431547576821544, -35.97205209027932 ], [ -72.464789034106445, -35.972759403799593 ], [ -72.465033857370742, -35.963702410506244 ] ] ] } },
{ "type": "Feature", "properties": { "cve": "2845266", "nombre": "Fernanda 13", "solicitante": "Piro Vergara  Alejandra Carolina", "region": "REGIÓN DEL MAULE", "provincia": "Provincia de Cauquenes", "comuna": null, "superficie_ha": 300.0, "datum_original": "PSAD56", "huso": 18, "epsg_origen": 24878, "tipo_publicacion": "pedimento", "fuente_pdf": "http://www.diariooficial.interior.gob.cl/publicaciones/2026/07/30/44512/07/2845266.pdf", "archivo": "gm_pedimento_2845266.pdf", "fecha": "30-07-2026", "edicion": "44512" }, "geometry": { "type": "Polygon", "coordinates": [ [ [ -72.43179660076521, -35.962995326314164 ], [ -72.398560509616331, -35.962279050049872 ], [ -72.398307285521895, -35.971335581433898 ], [ -72.431547576821544, -35.97205209027932 ], [ -72.43179660076521, -35.962995326314164 ] ] ] } },
{ "type": "Feature", "properties": { "cve": "2845267", "nombre": "Fernanda 14", "solicitante": "Piro Vergara Alejandra Carolina", "region": "REGIÓN DEL MAULE", "provincia": "Provincia de Cauquenes", "comuna": null, "superficie_ha": 300.0, "datum_original": "PSAD56", "huso": 18, "epsg_origen": 24878, "tipo_publicacion": "pedimento", "fuente_pdf": "http://www.diariooficial.interior.gob.cl/publicaciones/2026/07/30/44512/07/2845267.pdf", "archivo": "gm_pedimento_2845267.pdf", "fecha": "30-07-2026", "edicion": "44512" }, "geometry": { "type": "Polygon", "coordinates": [ [ [ -72.398560509616331, -35.962279050049872 ], [ -72.365325598933879, -35.961553582749474 ], [ -72.365068175224451, -35.970609878299967 ], [ -72.398307285521895, -35.971335581433898 ], [ -72.398560509616331, -35.962279050049872 ] ] ] } },
{ "type": "Feature", "properties": { "cve": "2845268", "nombre": "Fernanda 15", "solicitante": "Piro Vergara Alejandra Carolina", "region": "REGIÓN DEL MAULE", "provincia": "Provincia de Cauquenes", "comuna": null, "superficie_ha": 300.0, "datum_original": "PSAD56", "huso": 18, "epsg_origen": 24878, "tipo_publicacion": "pedimento", "fuente_pdf": "http://www.diariooficial.interior.gob.cl/publicaciones/2026/07/30/44512/07/2845268.pdf", "archivo": "gm_pedimento_2845268.pdf", "fecha": "30-07-2026", "edicion": "44512" }, "geometry": { "type": "Polygon", "coordinates": [ [ [ -72.464789034106445, -35.972759403799593 ], [ -72.431547576821544, -35.97205209027932 ], [ -72.43125558091981, -35.981058986399837 ], [ -72.464500807341324, -35.981766532430363 ], [ -72.464789034106445, -35.972759403799593 ] ] ] } },
{ "type": "Feature", "properties": { "cve": "2845269", "nombre": "Fernanda 16", "solicitante": "Piro Vergara Alejandra Carolina", "region": "REGIÓN DEL MAULE", "provincia": "Provincia de Cauquenes", "comuna": null, "superficie_ha": 300.0, "datum_original": "PSAD56", "huso": 18, "epsg_origen": 24878, "tipo_publicacion": "pedimento", "fuente_pdf": "http://www.diariooficial.interior.gob.cl/publicaciones/2026/07/30/44512/07/2845269.pdf", "archivo": "gm_pedimento_2845269.pdf", "fecha": "30-07-2026", "edicion": "44512" }, "geometry": { "type": "Polygon", "coordinates": [ [ [ -72.431547576821544, -35.97205209027932 ], [ -72.398307285521895, -35.971335581433898 ], [ -72.398011521008897, -35.980342242025692 ], [ -72.43125558091981, -35.981058986399837 ], [ -72.431547576821544, -35.97205209027932 ] ] ] } },
{ "type": "Feature", "properties": { "cve": "2845270", "nombre": "Fernanda 17", "solicitante": "Piro Vergara Alejandra Carolina", "region": "REGIÓN DEL MAULE", "provincia": "Provincia de Cauquenes", "comuna": null, "superficie_ha": 300.0, "datum_original": "PSAD56", "huso": 18, "epsg_origen": 24878, "tipo_publicacion": "pedimento", "fuente_pdf": "http://www.diariooficial.interior.gob.cl/publicaciones/2026/07/30/44512/07/2845270.pdf", "archivo": "gm_pedimento_2845270.pdf", "fecha": "30-07-2026", "edicion": "44512" }, "geometry": { "type": "Polygon", "coordinates": [ [ [ -72.398307285521895, -35.971335581433898 ], [ -72.365068175224451, -35.970609878299967 ], [ -72.364768642632328, -35.979616300345008 ], [ -72.398011521008897, -35.980342242025692 ], [ -72.398307285521895, -35.971335581433898 ] ] ] } },
{ "type": "Feature", "properties": { "cve": "2845271", "nombre": "Fernanda 18", "solicitante": "Piro Vergara Alejandra Carolina", "region": "REGIÓN DEL MAULE", "provincia": "Provincia de Cauquenes", "comuna": null, "superficie_ha": 300.0, "datum_original": "PSAD56", "huso": 18, "epsg_origen": 24878, "tipo_publicacion": "pedimento", "fuente_pdf": "http://www.diariooficial.interior.gob.cl/publicaciones/2026/07/30/44512/07/2845271.pdf", "archivo": "gm_pedimento_2845271.pdf", "fecha": "30-07-2026", "edicion": "44512" }, "geometry": { "type": "Polygon", "coordinates": [ [ [ -72.515479052435197, -35.982833568778268 ], [ -72.50439659768297, -35.982603444412661 ], [ -72.503544732474325, -36.009625561861661 ], [ -72.514630960667773, -36.009855913202962 ], [ -72.515479052435197, -35.982833568778268 ] ] ] } },
{ "type": "Feature", "properties": { "cve": "2845272", "nombre": "Fernanda 19", "solicitante": "Piro Vergara Alejandra Carolina", "region": "REGIÓN DEL MAULE", "provincia": "Provincia de Cauquenes", "comuna": null, "superficie_ha": 300.0, "datum_original": "PSAD56", "huso": 18, "epsg_origen": 24878, "tipo_publicacion": "pedimento", "fuente_pdf": "http://www.diariooficial.interior.gob.cl/publicaciones/2026/07/30/44512/07/2845272.pdf", "archivo": "gm_pedimento_2845272.pdf", "fecha": "30-07-2026", "edicion": "44512" }, "geometry": { "type": "Polygon", "coordinates": [ [ [ -72.50439659768297, -35.982603444412661 ], [ -72.471149991284591, -35.981906937744874 ], [ -72.470862390800818, -35.990914096878498 ], [ -72.504112768627451, -35.991610832484717 ], [ -72.50439659768297, -35.982603444412661 ] ] ] } },
{ "type": "Feature", "properties": { "cve": "2845255", "nombre": "Fernanda 2", "solicitante": "Piro Vergara Alejandra Carolina", "region": "REGIÓN DEL MAULE", "provincia": "Provincia de Cauquenes", "comuna": null, "superficie_ha": 300.0, "datum_original": "PSAD56", "huso": 18, "epsg_origen": 24878, "tipo_publicacion": "pedimento", "fuente_pdf": "http://www.diariooficial.interior.gob.cl/publicaciones/2026/07/30/44512/07/2845255.pdf", "archivo": "gm_pedimento_2845255.pdf", "fecha": "30-07-2026", "edicion": "44512" }, "geometry": { "type": "Polygon", "coordinates": [ [ [ -72.401402759766199, -35.926288620620404 ], [ -72.368182838393921, -35.925564565686194 ], [ -72.367884156756602, -35.934570966545252 ], [ -72.401107837802883, -35.935295259609617 ], [ -72.401402759766199, -35.926288620620404 ] ] ] } },
{ "type": "Feature", "properties": { "cve": "2845273", "nombre": "Fernanda 20", "solicitante": "Piro Vergara Alejandra Carolina", "region": "REGIÓN DEL MAULE", "provincia": "Provincia de Cauquenes", "comuna": null, "superficie_ha": 300.0, "datum_original": "PSAD56", "huso": 18, "epsg_origen": 24878, "tipo_publicacion": "pedimento", "fuente_pdf": "http://www.diariooficial.interior.gob.cl/publicaciones/2026/07/30/44512/07/2845273.pdf", "archivo": "gm_pedimento_2845273.pdf", "fecha": "30-07-2026", "edicion": "44512" }, "geometry": { "type": "Polygon", "coordinates": [ [ [ -72.471149991284591, -35.981906937744874 ], [ -72.43790453336409, -35.981201231506397 ], [ -72.437613161969679, -35.990208158681781 ], [ -72.470862390800818, -35.990914096878498 ], [ -72.471149991284591, -35.981906937744874 ] ] ] } },
{ "type": "Feature", "properties": { "cve": "2845274", "nombre": "Fernanda 21", "solicitante": "Piro Vergara Alejandra Carolina", "region": "REGIÓN DEL MAULE", "provincia": "Provincia de Cauquenes", "comuna": null, "superficie_ha": 300.0, "datum_original": "PSAD56", "huso": 18, "epsg_origen": 24878, "tipo_publicacion": "pedimento", "fuente_pdf": "http://www.diariooficial.interior.gob.cl/publicaciones/2026/07/30/44512/07/2845274.pdf", "archivo": "gm_pedimento_2845274.pdf", "fecha": "30-07-2026", "edicion": "44512" }, "geometry": { "type": "Polygon", "coordinates": [ [ [ -72.43790453336409, -35.981201231506397 ], [ -72.404660238949063, -35.980486326718413 ], [ -72.404365097168437, -35.989493018916278 ], [ -72.437613161969679, -35.990208158681781 ], [ -72.43790453336409, -35.981201231506397 ] ] ] } },
{ "type": "Feature", "properties": { "cve": "2845275", "nombre": "Fernanda 22", "solicitante": "Piro Vergara Alejandra Carolina", "region": "REGIÓN DEL MAULE", "provincia": "Provincia de Cauquenes", "comuna": null, "superficie_ha": 300.0, "datum_original": "PSAD56", "huso": 18, "epsg_origen": 24878, "tipo_publicacion": "pedimento", "fuente_pdf": "http://www.diariooficial.interior.gob.cl/publicaciones/2026/07/30/44512/07/2845275.pdf", "archivo": "gm_pedimento_2845275.pdf", "fecha": "30-07-2026", "edicion": "44512" }, "geometry": { "type": "Polygon", "coordinates": [ [ [ -72.404660238949063, -35.980486326718413 ], [ -72.371417123063878, -35.979762224415438 ], [ -72.37111821142814, -35.988768678616964 ], [ -72.404365097168437, -35.989493018916278 ], [ -72.404660238949063, -35.980486326718413 ] ] ] } },
{ "type": "Feature", "properties": { "cve": "2845276", "nombre": "Fernanda 23", "solicitante": "Piro Vergara Alejandra Carolina", "region": "REGIÓN DEL MAULE", "provincia": "Provincia de Cauquenes", "comuna": null, "superficie_ha": 100.0, "datum_original": "PSAD56", "huso": 18, "epsg_origen": 24878, "tipo_publicacion": "pedimento", "fuente_pdf": "http://www.diariooficial.interior.gob.cl/publicaciones/2026/07/30/44512/07/2845276.pdf", "archivo": "gm_pedimento_2845276.pdf", "fecha": "30-07-2026", "edicion": "44512" }, "geometry": { "type": "Polygon", "coordinates": [ [ [ -72.371417123063878, -35.979762224415438 ], [ -72.360336348927333, -35.979518813269578 ], [ -72.360036180792434, -35.988525187468255 ], [ -72.37111821142814, -35.988768678616964 ], [ -72.371417123063878, -35.979762224415438 ] ] ] } },
{ "type": "Feature", "properties": { "cve": "2845277", "nombre": "Fernanda 24", "solicitante": "Piro Vergara Alejandra Carolina", "region": "REGIÓN DEL MAULE", "provincia": "Provincia de Cauquenes", "comuna": null, "superficie_ha": 300.0, "datum_original": "PSAD56", "huso": 18, "epsg_origen": 24878, "tipo_publicacion": "pedimento", "fuente_pdf": "http://www.diariooficial.interior.gob.cl/publicaciones/2026/07/30/44512/07/2845277.pdf", "archivo": "gm_pedimento_2845277.pdf", "fecha": "30-07-2026", "edicion": "44512" }, "geometry": { "type": "Polygon", "coordinates": [ [ [ -72.504112768627451, -35.991610832484717 ], [ -72.470862390800818, -35.990914096878498 ], [ -72.470574662651089, -35.999921240372743 ], [ -72.503828813576831, -36.000618204968532 ], [ -72.504112768627451, -35.991610832484717 ] ] ] } },
{ "type": "Feature", "properties": { "cve": "2845278", "nombre": "Fernanda 25", "solicitante": "Piro Vergara Alejandra Carolina", "region": "REGIÓN DEL MAULE", "provincia": "Provincia de Cauquenes", "comuna": null, "superficie_ha": 300.0, "datum_original": "PSAD56", "huso": 18, "epsg_origen": 24878, "tipo_publicacion": "pedimento", "fuente_pdf": "http://www.diariooficial.interior.gob.cl/publicaciones/2026/07/30/44512/07/2845278.pdf", "archivo": "gm_pedimento_2845278.pdf", "fecha": "30-07-2026", "edicion": "44512" }, "geometry": { "type": "Polygon", "coordinates": [ [ [ -72.470862390800818, -35.990914096878498 ], [ -72.437613161969679, -35.990208158681781 ], [ -72.437321661238855, -35.999215070165967 ], [ -72.470574662651089, -35.999921240372743 ], [ -72.470862390800818, -35.990914096878498 ] ] ] } },
{ "type": "Feature", "properties": { "cve": "2845279", "nombre": "Fernanda 26", "solicitante": "Piro Vergara Alejandra Carolina", "region": "REGIÓN DEL MAULE", "provincia": "Provincia de Cauquenes", "comuna": null, "superficie_ha": 300.0, "datum_original": "PSAD56", "huso": 18, "epsg_origen": 24878, "tipo_publicacion": "pedimento", "fuente_pdf": "http://www.diariooficial.interior.gob.cl/publicaciones/2026/07/30/44512/07/2845279.pdf", "archivo": "gm_pedimento_2845279.pdf", "fecha": "30-07-2026", "edicion": "44512" }, "geometry": { "type": "Polygon", "coordinates": [ [ [ -72.437613161969679, -35.990208158681781 ], [ -72.404365097168437, -35.989493018916278 ], [ -72.404069824381239, -35.998499695370448 ], [ -72.437321661238855, -35.999215070165967 ], [ -72.437613161969679, -35.990208158681781 ] ] ] } },
{ "type": "Feature", "properties": { "cve": "2845280", "nombre": "Fernanda 27", "solicitante": "Piro Vergara Alejandra Carolina", "region": "REGIÓN DEL MAULE", "provincia": "Provincia de Cauquenes", "comuna": null, "superficie_ha": 300.0, "datum_original": "PSAD56", "huso": 18, "epsg_origen": 24878, "tipo_publicacion": "pedimento", "fuente_pdf": "http://www.diariooficial.interior.gob.cl/publicaciones/2026/07/30/44512/07/2845280.pdf", "archivo": "gm_pedimento_2845280.pdf", "fecha": "30-07-2026", "edicion": "44512" }, "geometry": { "type": "Polygon", "coordinates": [ [ [ -72.404365097168437, -35.989493018916278 ], [ -72.393282670172724, -35.98925259437987 ], [ -72.392392685181292, -36.016272339405305 ], [ -72.403478885550896, -36.016513001037737 ], [ -72.404365097168437, -35.989493018916278 ] ] ] } },
{ "type": "Feature", "properties": { "cve": "2845281", "nombre": "Fernanda 28", "solicitante": "Piro Vergara Alejandra Carolina", "region": "REGIÓN DEL MAULE", "provincia": "Provincia de Cauquenes", "comuna": null, "superficie_ha": 300.0, "datum_original": "PSAD56", "huso": 18, "epsg_origen": 24878, "tipo_publicacion": "pedimento", "fuente_pdf": "http://www.diariooficial.interior.gob.cl/publicaciones/2026/07/30/44512/07/2845281.pdf", "archivo": "gm_pedimento_2845281.pdf", "fecha": "30-07-2026", "edicion": "44512" }, "geometry": { "type": "Polygon", "coordinates": [ [ [ -72.503828813576831, -36.000618204968532 ], [ -72.470574662651089, -35.999921240372743 ], [ -72.47028680677785, -36.008928368225106 ], [ -72.503544732474325, -36.009625561861661 ], [ -72.503828813576831, -36.000618204968532 ] ] ] } },
{ "type": "Feature", "properties": { "cve": "2845282", "nombre": "Fernanda 29", "solicitante": "Piro Vergara Alejandra Carolina", "region": "REGIÓN DEL MAULE", "provincia": "Provincia de Cauquenes", "comuna": null, "superficie_ha": 300.0, "datum_original": "PSAD56", "huso": 18, "epsg_origen": 24878, "tipo_publicacion": "pedimento", "fuente_pdf": "http://www.diariooficial.interior.gob.cl/publicaciones/2026/07/30/44512/07/2845282.pdf", "archivo": "gm_pedimento_2845282.pdf", "fecha": "30-07-2026", "edicion": "44512" }, "geometry": { "type": "Polygon", "coordinates": [ [ [ -72.470574662651089, -35.999921240372743 ], [ -72.437321661238855, -35.999215070165967 ], [ -72.437030031113252, -36.008221965956487 ], [ -72.47028680677785, -36.008928368225106 ], [ -72.470574662651089, -35.999921240372743 ] ] ] } },
{ "type": "Feature", "properties": { "cve": "2845256", "nombre": "Fernanda 3", "solicitante": "Piro Vergara Alejandra Carolina", "region": "REGIÓN DEL MAULE", "provincia": "Provincia de Cauquenes", "comuna": null, "superficie_ha": 300.0, "datum_original": "PSAD56", "huso": 18, "epsg_origen": 24878, "tipo_publicacion": "pedimento", "fuente_pdf": "http://www.diariooficial.interior.gob.cl/publicaciones/2026/07/30/44512/07/2845256.pdf", "archivo": "gm_pedimento_2845256.pdf", "fecha": "30-07-2026", "edicion": "44512" }, "geometry": { "type": "Polygon", "coordinates": [ [ [ -72.465897390769669, -35.936681220299654 ], [ -72.432671426265657, -35.935974833171898 ], [ -72.432379947163355, -35.944981679907592 ], [ -72.46560967403434, -35.945688299338322 ], [ -72.465897390769669, -35.936681220299654 ] ] ] } },
{ "type": "Feature", "properties": { "cve": "2845283", "nombre": "Fernanda 30", "solicitante": "Piro Vergara Alejandra Carolina", "region": "REGIÓN DEL MAULE", "provincia": "Provincia de Cauquenes", "comuna": null, "superficie_ha": 300.0, "datum_original": "PSAD56", "huso": 18, "epsg_origen": 24878, "tipo_publicacion": "pedimento", "fuente_pdf": "http://www.diariooficial.interior.gob.cl/publicaciones/2026/07/30/44512/07/2845283.pdf", "archivo": "gm_pedimento_2845283.pdf", "fecha": "30-07-2026", "edicion": "44512" }, "geometry": { "type": "Polygon", "coordinates": [ [ [ -72.437321661238855, -35.999215070165967 ], [ -72.404069824381239, -35.998499695370448 ], [ -72.403774420528421, -36.007506356078459 ], [ -72.437030031113252, -36.008221965956487 ], [ -72.437321661238855, -35.999215070165967 ] ] ] } },
{ "type": "Feature", "properties": { "cve": "2845284", "nombre": "Fernanda 31", "solicitante": "Piro Vergara Alejandra Carolina", "region": "REGIÓN DEL MAULE", "provincia": "Provincia de Cauquenes", "comuna": null, "superficie_ha": 300.0, "datum_original": "PSAD56", "huso": 18, "epsg_origen": 24878, "tipo_publicacion": "pedimento", "fuente_pdf": "http://www.diariooficial.interior.gob.cl/publicaciones/2026/07/30/44512/07/2845284.pdf", "archivo": "gm_pedimento_2845284.pdf", "fecha": "30-07-2026", "edicion": "44512" }, "geometry": { "type": "Polygon", "coordinates": [ [ [ -72.514630960667773, -36.009855913202962 ], [ -72.503544732474325, -36.009625561861661 ], [ -72.502691732286664, -36.036647538972595 ], [ -72.513781738939088, -36.036878117441837 ], [ -72.514630960667773, -36.009855913202962 ] ] ] } },
{ "type": "Feature", "properties": { "cve": "2845285", "nombre": "Fernanda 32", "solicitante": "Piro Vergara Alejandra Carolina", "region": "REGIÓN DEL MAULE", "provincia": "Provincia de Cauquenes", "comuna": null, "superficie_ha": 300.0, "datum_original": "PSAD56", "huso": 18, "epsg_origen": 24878, "tipo_publicacion": "pedimento", "fuente_pdf": "http://www.diariooficial.interior.gob.cl/publicaciones/2026/07/30/44512/07/2845285.pdf", "archivo": "gm_pedimento_2845285.pdf", "fecha": "30-07-2026", "edicion": "44512" }, "geometry": { "type": "Polygon", "coordinates": [ [ [ -72.503544732474325, -36.009625561861661 ], [ -72.47028680677785, -36.008928368225106 ], [ -72.469998823123504, -36.017935480433195 ], [ -72.503260525263045, -36.018632903161674 ], [ -72.503544732474325, -36.009625561861661 ] ] ] } },
{ "type": "Feature", "properties": { "cve": "2845286", "nombre": "Fernanda 33", "solicitante": "Piro Vergara Alejandra Carolina", "region": "REGIÓN DEL MAULE", "provincia": "Provincia de Cauquenes", "comuna": null, "superficie_ha": 300.0, "datum_original": "PSAD56", "huso": 18, "epsg_origen": 24878, "tipo_publicacion": "pedimento", "fuente_pdf": "http://www.diariooficial.interior.gob.cl/publicaciones/2026/07/30/44512/07/2845286.pdf", "archivo": "gm_pedimento_2845286.pdf", "fecha": "30-07-2026", "edicion": "44512" }, "geometry": { "type": "Polygon", "coordinates": [ [ [ -72.47028680677785, -36.008928368225106 ], [ -72.437030031113252, -36.008221965956487 ], [ -72.43673827153458, -36.017228846050799 ], [ -72.469998823123504, -36.017935480433195 ], [ -72.47028680677785, -36.008928368225106 ] ] ] } },
{ "type": "Feature", "properties": { "cve": "2845287", "nombre": "Fernanda 34", "solicitante": "Piro Vergara Alejandra Carolina", "region": "REGIÓN DEL MAULE", "provincia": "Provincia de Cauquenes", "comuna": null, "superficie_ha": 300.0, "datum_original": "PSAD56", "huso": 18, "epsg_origen": 24878, "tipo_publicacion": "pedimento", "fuente_pdf": "http://www.diariooficial.interior.gob.cl/publicaciones/2026/07/30/44512/07/2845287.pdf", "archivo": "gm_pedimento_2845287.pdf", "fecha": "30-07-2026", "edicion": "44512" }, "geometry": { "type": "Polygon", "coordinates": [ [ [ -72.437030031113252, -36.008221965956487 ], [ -72.403774420528421, -36.007506356078459 ], [ -72.403478885550896, -36.016513001037737 ], [ -72.43673827153458, -36.017228846050799 ], [ -72.437030031113252, -36.008221965956487 ] ] ] } },
{ "type": "Feature", "properties": { "cve": "2845288", "nombre": "Fernanda 35", "solicitante": "Piro Vergara Alejandra Carolina", "region": "REGIÓN DEL MAULE", "provincia": "Provincia de Cauquenes", "comuna": null, "superficie_ha": 300.0, "datum_original": "PSAD56", "huso": 18, "epsg_origen": 24878, "tipo_publicacion": "pedimento", "fuente_pdf": "http://www.diariooficial.interior.gob.cl/publicaciones/2026/07/30/44512/07/2845288.pdf", "archivo": "gm_pedimento_2845288.pdf", "fecha": "30-07-2026", "edicion": "44512" }, "geometry": { "type": "Polygon", "coordinates": [ [ [ -72.503260525263045, -36.018632903161674 ], [ -72.469998823123504, -36.017935480433195 ], [ -72.469710711630427, -36.026942576994493 ], [ -72.502976191886134, -36.027640228866126 ], [ -72.503260525263045, -36.018632903161674 ] ] ] } },
{ "type": "Feature", "properties": { "cve": "2845289", "nombre": "Fernanda 36", "solicitante": "Piro Vergara Alejandra Carolina", "region": "REGIÓN DEL MAULE", "provincia": "Provincia de Cauquenes", "comuna": null, "superficie_ha": 300.0, "datum_original": "PSAD56", "huso": 18, "epsg_origen": 24878, "tipo_publicacion": "pedimento", "fuente_pdf": "http://www.diariooficial.interior.gob.cl/publicaciones/2026/07/30/44512/07/2845289.pdf", "archivo": "gm_pedimento_2845289.pdf", "fecha": "30-07-2026", "edicion": "44512" }, "geometry": { "type": "Polygon", "coordinates": [ [ [ -72.438401271556017, -36.017264396530955 ], [ -72.405141826934582, -36.016549012024896 ], [ -72.404846349614161, -36.025555653064103 ], [ -72.438109571333285, -36.026271272606671 ], [ -72.438401271556017, -36.017264396530955 ] ] ] } },
{ "type": "Feature", "properties": { "cve": "2845290", "nombre": "Fernanda 37", "solicitante": "Piro Vergara Alejandra Carolina", "region": "REGIÓN DEL MAULE", "provincia": "Provincia de Cauquenes", "comuna": null, "superficie_ha": 200.0, "datum_original": "PSAD56", "huso": 18, "epsg_origen": 24878, "tipo_publicacion": "pedimento", "fuente_pdf": "http://www.diariooficial.interior.gob.cl/publicaciones/2026/07/30/44512/07/2845290.pdf", "archivo": "gm_pedimento_2845290.pdf", "fecha": "30-07-2026", "edicion": "44512" }, "geometry": { "type": "Polygon", "coordinates": [ [ [ -72.405141826934582, -36.016549012024896 ], [ -72.394055606851836, -36.016308503883288 ], [ -72.393462002664776, -36.034321612158898 ], [ -72.404550741134372, -36.034562278352162 ], [ -72.405141826934582, -36.016549012024896 ] ] ] } },
{ "type": "Feature", "properties": { "cve": "2845292", "nombre": "Fernanda 38", "solicitante": "Piro Vergara Alejandra Carolina", "region": "REGIÓN DEL MAULE", "provincia": "Provincia de Cauquenes", "comuna": null, "superficie_ha": 300.0, "datum_original": "PSAD56", "huso": 18, "epsg_origen": 24878, "tipo_publicacion": "pedimento", "fuente_pdf": "http://www.diariooficial.interior.gob.cl/publicaciones/2026/07/30/44512/07/2845292.pdf", "archivo": "gm_pedimento_2845292.pdf", "fecha": "30-07-2026", "edicion": "44512" }, "geometry": { "type": "Polygon", "coordinates": [ [ [ -72.502976191886134, -36.027640228866126 ], [ -72.469710711630427, -36.026942576994493 ], [ -72.469422472240922, -36.035949657906521 ], [ -72.502691732286664, -36.036647538972595 ], [ -72.502976191886134, -36.027640228866126 ] ] ] } },
{ "type": "Feature", "properties": { "cve": "2845293", "nombre": "Fernanda 39", "solicitante": "Piro Vergara Alejandra Carolina", "region": "REGIÓN DEL MAULE", "provincia": "Provincia de Cauquenes", "comuna": null, "superficie_ha": 300.0, "datum_original": "PSAD56", "huso": 18, "epsg_origen": 24878, "tipo_publicacion": "pedimento", "fuente_pdf": "http://www.diariooficial.interior.gob.cl/publicaciones/2026/07/30/44512/07/2845293.pdf", "archivo": "gm_pedimento_2845293.pdf", "fecha": "30-07-2026", "edicion": "44512" }, "geometry": { "type": "Polygon", "coordinates": [ [ [ -72.438109571333285, -36.026271272606671 ], [ -72.404846349614161, -36.025555653064103 ], [ -72.404550741134372, -36.034562278352162 ], [ -72.437817741624286, -36.035278132983812 ], [ -72.438109571333285, -36.026271272606671 ] ] ] } },
{ "type": "Feature", "properties": { "cve": "2845257", "nombre": "Fernanda 4", "solicitante": "Piro Vergara Alejandra Carolina", "region": "REGIÓN DEL MAULE", "provincia": "Provincia de Cauquenes", "comuna": null, "superficie_ha": 300.0, "datum_original": "PSAD56", "huso": 18, "epsg_origen": 24878, "tipo_publicacion": "pedimento", "fuente_pdf": "http://www.diariooficial.interior.gob.cl/publicaciones/2026/07/30/44512/07/2845257.pdf", "archivo": "gm_pedimento_2845257.pdf", "fecha": "30-07-2026", "edicion": "44512" }, "geometry": { "type": "Polygon", "coordinates": [ [ [ -72.432671426265657, -35.935974833171898 ], [ -72.399446625645552, -35.935259263021209 ], [ -72.399151384700161, -35.944265874438152 ], [ -72.432379947163355, -35.944981679907592 ], [ -72.432671426265657, -35.935974833171898 ] ] ] } },
{ "type": "Feature", "properties": { "cve": "2845294", "nombre": "Fernanda 40", "solicitante": "Piro Vergara Alejandra Carolina", "region": "REGIÓN DEL MAULE", "provincia": "Provincia de Cauquenes", "comuna": null, "superficie_ha": 300.0, "datum_original": "PSAD56", "huso": 18, "epsg_origen": 24878, "tipo_publicacion": "pedimento", "fuente_pdf": "http://www.diariooficial.interior.gob.cl/publicaciones/2026/07/30/44512/07/2845294.pdf", "archivo": "gm_pedimento_2845294.pdf", "fecha": "30-07-2026", "edicion": "44512" }, "geometry": { "type": "Polygon", "coordinates": [ [ [ -72.513781738939088, -36.036878117441837 ], [ -72.502691732286664, -36.036647538972595 ], [ -72.50183759558297, -36.063669375679659 ], [ -72.512931385718915, -36.063900181429311 ], [ -72.513781738939088, -36.036878117441837 ] ] ] } },
{ "type": "Feature", "properties": { "cve": "2845295", "nombre": "Fernanda 41", "solicitante": "Piro Vergara Alejandra Carolina", "region": "REGIÓN DEL MAULE", "provincia": "Provincia de Cauquenes", "comuna": null, "superficie_ha": 300.0, "datum_original": "PSAD56", "huso": 18, "epsg_origen": 24878, "tipo_publicacion": "pedimento", "fuente_pdf": "http://www.diariooficial.interior.gob.cl/publicaciones/2026/07/30/44512/07/2845295.pdf", "archivo": "gm_pedimento_2845295.pdf", "fecha": "30-07-2026", "edicion": "44512" }, "geometry": { "type": "Polygon", "coordinates": [ [ [ -72.502691732286664, -36.036647538972595 ], [ -72.469422472240922, -36.035949657906521 ], [ -72.469134104897265, -36.044956723166862 ], [ -72.502407146407648, -36.045654833478622 ], [ -72.502691732286664, -36.036647538972595 ] ] ] } },
{ "type": "Feature", "properties": { "cve": "2845296", "nombre": "Fernanda 42", "solicitante": "Piro Vergara Alejandra Carolina", "region": "REGIÓN DEL MAULE", "provincia": "Provincia de Cauquenes", "comuna": null, "superficie_ha": 300.0, "datum_original": "PSAD56", "huso": 18, "epsg_origen": 24878, "tipo_publicacion": "pedimento", "fuente_pdf": "http://www.diariooficial.interior.gob.cl/publicaciones/2026/07/30/44512/07/2845296.pdf", "archivo": "gm_pedimento_2845296.pdf", "fecha": "30-07-2026", "edicion": "44512" }, "geometry": { "type": "Polygon", "coordinates": [ [ [ -72.502407146407648, -36.045654833478622 ], [ -72.469134104897265, -36.044956723166862 ], [ -72.468845609541717, -36.053963772773031 ], [ -72.502122434192088, -36.054662112381791 ], [ -72.502407146407648, -36.045654833478622 ] ] ] } },
{ "type": "Feature", "properties": { "cve": "2845297", "nombre": "Fernanda 43", "solicitante": "Piro Vergara Alejandra Carolina", "region": "REGIÓN DEL MAULE", "provincia": "Provincia de Cauquenes", "comuna": null, "superficie_ha": 100.0, "datum_original": "PSAD56", "huso": 18, "epsg_origen": 24878, "tipo_publicacion": "pedimento", "fuente_pdf": "http://www.diariooficial.interior.gob.cl/publicaciones/2026/07/30/44512/07/2845297.pdf", "archivo": "gm_pedimento_2845297.pdf", "fecha": "30-07-2026", "edicion": "44512" }, "geometry": { "type": "Polygon", "coordinates": [ [ [ -72.524307616859303, -36.055122547316365 ], [ -72.513214962608188, -36.054892842354349 ], [ -72.512931385718915, -36.063900181429311 ], [ -72.524025301746761, -36.064129961832229 ], [ -72.524307616859303, -36.055122547316365 ] ] ] } },
{ "type": "Feature", "properties": { "cve": "2845298", "nombre": "Fernanda 44", "solicitante": "Piro Vergara Alejandra Carolina", "region": "REGIÓN DEL MAULE", "provincia": "Provincia de Cauquenes", "comuna": null, "superficie_ha": 300.0, "datum_original": "PSAD56", "huso": 18, "epsg_origen": 24878, "tipo_publicacion": "pedimento", "fuente_pdf": "http://www.diariooficial.interior.gob.cl/publicaciones/2026/07/30/44512/07/2845298.pdf", "archivo": "gm_pedimento_2845298.pdf", "fecha": "30-07-2026", "edicion": "44512" }, "geometry": { "type": "Polygon", "coordinates": [ [ [ -72.502122434192088, -36.054662112381791 ], [ -72.468845609541717, -36.053963772773031 ], [ -72.468556986116482, -36.062970806722547 ], [ -72.50183759558297, -36.063669375679659 ], [ -72.502122434192088, -36.054662112381791 ] ] ] } },
{ "type": "Feature", "properties": { "cve": "2845299", "nombre": "Fernanda 45", "solicitante": "Piro Vergara Alejandra Carolina", "region": "REGIÓN DEL MAULE", "provincia": "Provincia de Cauquenes", "comuna": null, "superficie_ha": 300.0, "datum_original": "PSAD56", "huso": 18, "epsg_origen": 24878, "tipo_publicacion": "pedimento", "fuente_pdf": "http://www.diariooficial.interior.gob.cl/publicaciones/2026/07/30/44512/07/2845299.pdf", "archivo": "gm_pedimento_2845299.pdf", "fecha": "30-07-2026", "edicion": "44512" }, "geometry": { "type": "Polygon", "coordinates": [ [ [ -72.524025301746761, -36.064129961832229 ], [ -72.512931385718915, -36.063900181429311 ], [ -72.512079899473804, -36.090922105099999 ], [ -72.523177604187225, -36.091152111927038 ], [ -72.524025301746761, -36.064129961832229 ] ] ] } },
{ "type": "Feature", "properties": { "cve": "2845300", "nombre": "Fernanda 46", "solicitante": "Piro Vergara Alejandra Carolina", "region": "REGIÓN DEL MAULE", "provincia": "Provincia de Cauquenes", "comuna": null, "superficie_ha": 300.0, "datum_original": "PSAD56", "huso": 18, "epsg_origen": 24878, "tipo_publicacion": "pedimento", "fuente_pdf": "http://www.diariooficial.interior.gob.cl/publicaciones/2026/07/30/44512/07/2845300.pdf", "archivo": "gm_pedimento_2845300.pdf", "fecha": "30-07-2026", "edicion": "44512" }, "geometry": { "type": "Polygon", "coordinates": [ [ [ -72.49074393189791, -36.063437544620385 ], [ -72.479650395222777, -36.063204688288842 ], [ -72.478787543948371, -36.090225926633003 ], [ -72.489884868794618, -36.090459012415678 ], [ -72.49074393189791, -36.063437544620385 ] ] ] } },
{ "type": "Feature", "properties": { "cve": "2845302", "nombre": "Fernanda 47", "solicitante": "Piro Vergara Alejandra Carolina", "region": "REGIÓN DEL MAULE", "provincia": "Provincia de Cauquenes", "comuna": null, "superficie_ha": 300.0, "datum_original": "PSAD56", "huso": 18, "epsg_origen": 24878, "tipo_publicacion": "pedimento", "fuente_pdf": "http://www.diariooficial.interior.gob.cl/publicaciones/2026/07/30/44512/07/2845302.pdf", "archivo": "gm_pedimento_2845302.pdf", "fecha": "30-07-2026", "edicion": "44512" }, "geometry": { "type": "Polygon", "coordinates": [ [ [ -72.479650395222777, -36.063204688288842 ], [ -72.468556986116482, -36.062970806722547 ], [ -72.467690346843995, -36.089991814606648 ], [ -72.478787543948371, -36.090225926633003 ], [ -72.479650395222777, -36.063204688288842 ] ] ] } },
{ "type": "Feature", "properties": { "cve": "2845303", "nombre": "Fernanda 48", "solicitante": "Piro Vergara Alejandra Carolina", "region": "REGIÓN DEL MAULE", "provincia": "Provincia de Cauquenes", "comuna": null, "superficie_ha": 300.0, "datum_original": "PSAD56", "huso": 18, "epsg_origen": 24878, "tipo_publicacion": "pedimento", "fuente_pdf": "http://www.diariooficial.interior.gob.cl/publicaciones/2026/07/30/44512/07/2845303.pdf", "archivo": "gm_pedimento_2845303.pdf", "fecha": "30-07-2026", "edicion": "44512" }, "geometry": { "type": "Polygon", "coordinates": [ [ [ -72.500982320822999, -36.090691071917149 ], [ -72.467690346843995, -36.089991814606648 ], [ -72.467401210561192, -36.09899878590501 ], [ -72.500696976068284, -36.099698272769473 ], [ -72.500982320822999, -36.090691071917149 ] ] ] } },
{ "type": "Feature", "properties": { "cve": "2845304", "nombre": "Fernanda 49", "solicitante": "Piro Vergara Alejandra Carolina", "region": "REGIÓN DEL MAULE", "provincia": "Provincia de Cauquenes", "comuna": null, "superficie_ha": 300.0, "datum_original": "PSAD56", "huso": 18, "epsg_origen": 24878, "tipo_publicacion": "pedimento", "fuente_pdf": "http://www.diariooficial.interior.gob.cl/publicaciones/2026/07/30/44512/07/2845304.pdf", "archivo": "gm_pedimento_2845304.pdf", "fecha": "30-07-2026", "edicion": "44512" }, "geometry": { "type": "Polygon", "coordinates": [ [ [ -72.500696976068284, -36.099698272769473 ], [ -72.467401210561192, -36.09899878590501 ], [ -72.467111945919086, -36.108005741534406 ], [ -72.500411504634158, -36.10870545800438 ], [ -72.500696976068284, -36.099698272769473 ] ] ] } },
{ "type": "Feature", "properties": { "cve": "2845258", "nombre": "Fernanda 5", "solicitante": "Piro Vergara Alejandra Carolina", "region": "REGIÓN DEL MAULE", "provincia": "Provincia de Cauquenes", "comuna": null, "superficie_ha": 300.0, "datum_original": "PSAD56", "huso": 18, "epsg_origen": 24878, "tipo_publicacion": "pedimento", "fuente_pdf": "http://www.diariooficial.interior.gob.cl/publicaciones/2026/07/30/44512/07/2845258.pdf", "archivo": "gm_pedimento_2845258.pdf", "fecha": "30-07-2026", "edicion": "44512" }, "geometry": { "type": "Polygon", "coordinates": [ [ [ -72.399446625645552, -35.935259263021209 ], [ -72.366223003898881, -35.934534510882202 ], [ -72.365924001641048, -35.94354088396517 ], [ -72.399151384700161, -35.944265874438152 ], [ -72.399446625645552, -35.935259263021209 ] ] ] } },
{ "type": "Feature", "properties": { "cve": "2845259", "nombre": "Fernanda 6", "solicitante": "Piro Vergara Alejandra Carolina", "region": "REGIÓN DEL MAULE", "provincia": "Provincia de Cauquenes", "comuna": null, "superficie_ha": 300.0, "datum_original": "PSAD56", "huso": 18, "epsg_origen": 24878, "tipo_publicacion": "pedimento", "fuente_pdf": "http://www.diariooficial.interior.gob.cl/publicaciones/2026/07/30/44512/07/2845259.pdf", "archivo": "gm_pedimento_2845259.pdf", "fecha": "30-07-2026", "edicion": "44512" }, "geometry": { "type": "Polygon", "coordinates": [ [ [ -72.46560967403434, -35.945688299338322 ], [ -72.432379947163355, -35.944981679907592 ], [ -72.432088338682618, -35.953988510955845 ], [ -72.465321829587197, -35.954695362741347 ], [ -72.46560967403434, -35.945688299338322 ] ] ] } },
{ "type": "Feature", "properties": { "cve": "2845260", "nombre": "Fernanda 7", "solicitante": "Piro Vergara Alejandra Carolina", "region": "REGIÓN DEL MAULE", "provincia": "Provincia de Cauquenes", "comuna": null, "superficie_ha": 300.0, "datum_original": "PSAD56", "huso": 18, "epsg_origen": 24878, "tipo_publicacion": "pedimento", "fuente_pdf": "http://www.diariooficial.interior.gob.cl/publicaciones/2026/07/30/44512/07/2845260.pdf", "archivo": "gm_pedimento_2845260.pdf", "fecha": "30-07-2026", "edicion": "44512" }, "geometry": { "type": "Polygon", "coordinates": [ [ [ -72.432379947163355, -35.944981679907592 ], [ -72.399151384700161, -35.944265874438152 ], [ -72.398856012710084, -35.953272470115238 ], [ -72.432088338682618, -35.953988510955845 ], [ -72.432379947163355, -35.944981679907592 ] ] ] } },
{ "type": "Feature", "properties": { "cve": "2845261", "nombre": "Fernanda 8", "solicitante": "Piro Vergara Alejandra Carolina", "region": "REGIÓN DEL MAULE", "provincia": "Provincia de Cauquenes", "comuna": null, "superficie_ha": 300.0, "datum_original": "PSAD56", "huso": 18, "epsg_origen": 24878, "tipo_publicacion": "pedimento", "fuente_pdf": "http://www.diariooficial.interior.gob.cl/publicaciones/2026/07/30/44512/07/2845261.pdf", "archivo": "gm_pedimento_2845261.pdf", "fecha": "30-07-2026", "edicion": "44512" }, "geometry": { "type": "Polygon", "coordinates": [ [ [ -72.399151384700161, -35.944265874438152 ], [ -72.365924001641048, -35.94354088396517 ], [ -72.365624866672619, -35.952547241255111 ], [ -72.398856012710084, -35.953272470115238 ], [ -72.399151384700161, -35.944265874438152 ] ] ] } },
{ "type": "Feature", "properties": { "cve": "2845262", "nombre": "Fernanda 9", "solicitante": "Piro Vergara Alejandra Carolina", "region": "REGIÓN DEL MAULE", "provincia": "Provincia de Cauquenes", "comuna": null, "superficie_ha": 300.0, "datum_original": "PSAD56", "huso": 18, "epsg_origen": 24878, "tipo_publicacion": "pedimento", "fuente_pdf": "http://www.diariooficial.interior.gob.cl/publicaciones/2026/07/30/44512/07/2845262.pdf", "archivo": "gm_pedimento_2845262.pdf", "fecha": "30-07-2026", "edicion": "44512" }, "geometry": { "type": "Polygon", "coordinates": [ [ [ -72.465321829587197, -35.954695362741347 ], [ -72.432088338682618, -35.953988510955845 ], [ -72.43179660076521, -35.962995326314164 ], [ -72.465033857370742, -35.963702410506244 ], [ -72.465321829587197, -35.954695362741347 ] ] ] } }
]
}
