{
"type": "FeatureCollection",
"name": "boletin_mineria_20260908",
"crs": { "type": "name", "properties": { "name": "urn:ogc:def:crs:OGC:1.3:CRS84" } },
"features": [
{ "type": "Feature", "properties": { "cve": "2866258", "nombre": "LA SOL 1 AL 8", "solicitante": "Tapia Varas Pedro Enrique", "region": "REGIÓN DE COQUIMBO", "provincia": "Provincia de Limarí", "comuna": "Combarbalá", "superficie_ha": 56.0, "datum_original": "PSAD56", "huso": 19, "epsg_origen": 24879, "tipo_publicacion": "manifestacion", "fuente_pdf": "http://www.diariooficial.interior.gob.cl/publicaciones/2026/09/08/44545/07/2866258.pdf", "archivo": "gm_manifestacion_2866258.pdf", "fecha": "08-09-2026", "edicion": "44545" }, "geometry": { "type": "Polygon", "coordinates": [ [ [ -71.146898241426811, -30.997694465772142 ], [ -71.138524406345411, -30.997833446315653 ], [ -71.138665322726752, -31.004145264602712 ], [ -71.147039708564051, -31.00400624955541 ], [ -71.146898241426811, -30.997694465772142 ] ] ] } },
{ "type": "Feature", "properties": { "cve": "2866465", "nombre": "LA ANTORCHA 1 AL 48", "solicitante": "Delgado Hidalgo José Tomás y otro", "region": "REGIÓN DE VALPARAÍSO", "provincia": "Provincia de Los Andes", "comuna": "San Esteban", "superficie_ha": 48.0, "datum_original": "PSAD56", "huso": 19, "epsg_origen": 24879, "tipo_publicacion": "manifestacion", "fuente_pdf": "http://www.diariooficial.interior.gob.cl/publicaciones/2026/09/08/44545/07/2866465.pdf", "archivo": "gm_manifestacion_2866465.pdf", "fecha": "08-09-2026", "edicion": "44545" }, "geometry": { "type": "Polygon", "coordinates": [ [ [ -70.565149548776247, -32.716337644831214 ], [ -70.560882841728983, -32.71639083410723 ], [ -70.561071389747582, -32.727211677838476 ], [ -70.565338611682677, -32.727158466591405 ], [ -70.565149548776247, -32.716337644831214 ] ] ] } },
{ "type": "Feature", "properties": { "cve": "2866257", "nombre": "ESCUELA 45-46", "solicitante": "Vergara Moraga Vladimir Edgardo", "region": "REGIÓN DEL LIBERTADOR GENERAL BERNARDO O’HIGGINS", "provincia": "Provincia de Cachapoal", "comuna": null, "superficie_ha": 6.0, "datum_original": "PSAD56", "huso": 19, "epsg_origen": 24879, "tipo_publicacion": "manifestacion", "fuente_pdf": "http://www.diariooficial.interior.gob.cl/publicaciones/2026/09/08/44545/07/2866257.pdf", "archivo": "gm_manifestacion_2866257.pdf", "fecha": "08-09-2026", "edicion": "44545" }, "geometry": { "type": "Polygon", "coordinates": [ [ [ -70.839108513149569, -34.083094978011225 ], [ -70.836941809311554, -34.083127395633682 ], [ -70.837000220210385, -34.085831619875933 ], [ -70.839166992850409, -34.085799198975813 ], [ -70.839108513149569, -34.083094978011225 ] ] ] } },
{ "type": "Feature", "properties": { "cve": "2866422", "nombre": "ECLIPSE 11", "solicitante": "Herrera Arellano David Ivanov", "region": "REGIÓN DEL MAULE", "provincia": "Provincia de Talca", "comuna": null, "superficie_ha": 200.0, "datum_original": "WGS84", "huso": 19, "epsg_origen": 32719, "tipo_publicacion": "pedimento", "fuente_pdf": "http://www.diariooficial.interior.gob.cl/publicaciones/2026/09/08/44545/07/2866422.pdf", "archivo": "gm_pedimento_2866422.pdf", "fecha": "08-09-2026", "edicion": "44545" }, "geometry": { "type": "Polygon", "coordinates": [ [ [ -70.42869013789597, -35.671913117850799 ], [ -70.406597305013662, -35.672173278729332 ], [ -70.406755514907658, -35.6811869838495 ], [ -70.428850830681512, -35.680926737086253 ], [ -70.42869013789597, -35.671913117850799 ] ] ] } },
{ "type": "Feature", "properties": { "cve": "2866423", "nombre": "ECLIPSE 16", "solicitante": "Herrera Arellano David Ivanov", "region": "REGIÓN DEL MAULE", "provincia": "Provincia de Talca", "comuna": null, "superficie_ha": 100.0, "datum_original": "WGS84", "huso": 19, "epsg_origen": 32719, "tipo_publicacion": "pedimento", "fuente_pdf": "http://www.diariooficial.interior.gob.cl/publicaciones/2026/09/08/44545/07/2866423.pdf", "archivo": "gm_pedimento_2866423.pdf", "fecha": "08-09-2026", "edicion": "44545" }, "geometry": { "type": "Polygon", "coordinates": [ [ [ -70.408806601016366, -35.672147444979906 ], [ -70.397760092954087, -35.67227620852281 ], [ -70.397917309656179, -35.681289947622481 ], [ -70.408965059205215, -35.681161141571771 ], [ -70.408806601016366, -35.672147444979906 ] ] ] } },
{ "type": "Feature", "properties": { "cve": "2866421", "nombre": "ECLIPSE 7", "solicitante": "Herrera Arellano David Ivanov", "region": "REGIÓN DEL MAULE", "provincia": "Provincia de Talca", "comuna": null, "superficie_ha": 300.0, "datum_original": "WGS84", "huso": 19, "epsg_origen": 32719, "tipo_publicacion": "pedimento", "fuente_pdf": "http://www.diariooficial.interior.gob.cl/publicaciones/2026/09/08/44545/07/2866421.pdf", "archivo": "gm_pedimento_2866421.pdf", "fecha": "08-09-2026", "edicion": "44545" }, "geometry": { "type": "Polygon", "coordinates": [ [ [ -70.428368966293704, -35.653885836931529 ], [ -70.39523705515974, -35.654274302183751 ], [ -70.395393884229321, -35.663288077986479 ], [ -70.428529516444002, -35.662899484465299 ], [ -70.428368966293704, -35.653885836931529 ] ] ] } }
]
}
